<?xml version="1.0" encoding="utf-8" standalone="yes"?>
<gpx version="1.1" creator="GPS Visualizer https://www.gpsvisualizer.com/" xmlns="http://www.topografix.com/GPX/1/1" xmlns:xsi="http://www.w3.org/2001/XMLSchema-instance" xsi:schemaLocation="http://www.topografix.com/GPX/1/1 http://www.topografix.com/GPX/1/1/gpx.xsd">
<trk>
  <name>남파랑길 45코스 (남해바래길 13코스 바다노을길) 20200906</name>
  <trkseg>
    <trkpt lat="34.808667575" lon="127.834638627"></trkpt>
    <trkpt lat="34.808700984" lon="127.834833192"></trkpt>
    <trkpt lat="34.80882687" lon="127.8350529"></trkpt>
    <trkpt lat="34.808896017" lon="127.835294369"></trkpt>
    <trkpt lat="34.808923419" lon="127.835459806"></trkpt>
    <trkpt lat="34.808960858" lon="127.835564632"></trkpt>
    <trkpt lat="34.809017657" lon="127.835625573"></trkpt>
    <trkpt lat="34.809155869" lon="127.835733706"></trkpt>
    <trkpt lat="34.809312298" lon="127.835829259"></trkpt>
    <trkpt lat="34.80945962" lon="127.835914652"></trkpt>
    <trkpt lat="34.809637473" lon="127.836011965"></trkpt>
    <trkpt lat="34.809800008" lon="127.836112897"></trkpt>
    <trkpt lat="34.809894433" lon="127.836193087"></trkpt>
    <trkpt lat="34.809930125" lon="127.836147989"></trkpt>
    <trkpt lat="34.809983334" lon="127.83621134"></trkpt>
    <trkpt lat="34.810046798" lon="127.836128339"></trkpt>
    <trkpt lat="34.810137301" lon="127.836016497"></trkpt>
    <trkpt lat="34.810273839" lon="127.835828031"></trkpt>
    <trkpt lat="34.810428095" lon="127.835671434"></trkpt>
    <trkpt lat="34.810539875" lon="127.835594406"></trkpt>
    <trkpt lat="34.810619902" lon="127.835677108"></trkpt>
    <trkpt lat="34.810746334" lon="127.835662567"></trkpt>
    <trkpt lat="34.810917597" lon="127.835585904"></trkpt>
    <trkpt lat="34.811105557" lon="127.835518039"></trkpt>
    <trkpt lat="34.811184174" lon="127.835465692"></trkpt>
    <trkpt lat="34.811269992" lon="127.835387825"></trkpt>
    <trkpt lat="34.811405105" lon="127.835288455"></trkpt>
    <trkpt lat="34.811541283" lon="127.835137066"></trkpt>
    <trkpt lat="34.811622389" lon="127.835028661"></trkpt>
    <trkpt lat="34.811704515" lon="127.834851798"></trkpt>
    <trkpt lat="34.811742978" lon="127.834735988"></trkpt>
    <trkpt lat="34.811755128" lon="127.834601816"></trkpt>
    <trkpt lat="34.811791676" lon="127.834467716"></trkpt>
    <trkpt lat="34.811856938" lon="127.834312262"></trkpt>
    <trkpt lat="34.811956929" lon="127.834219401"></trkpt>
    <trkpt lat="34.812052465" lon="127.834140583"></trkpt>
    <trkpt lat="34.812130907" lon="127.834010972"></trkpt>
    <trkpt lat="34.812230832" lon="127.833920633"></trkpt>
    <trkpt lat="34.812325756" lon="127.833749205"></trkpt>
    <trkpt lat="34.812367773" lon="127.833404532"></trkpt>
    <trkpt lat="34.812448699" lon="127.833110985"></trkpt>
    <trkpt lat="34.812483413" lon="127.832976332"></trkpt>
    <trkpt lat="34.81255156" lon="127.832804766"></trkpt>
    <trkpt lat="34.812567012" lon="127.83262206"></trkpt>
    <trkpt lat="34.812571255" lon="127.832565021"></trkpt>
    <trkpt lat="34.812571113" lon="127.832329595"></trkpt>
    <trkpt lat="34.812628854" lon="127.83198583"></trkpt>
    <trkpt lat="34.812698176" lon="127.831734796"></trkpt>
    <trkpt lat="34.812797281" lon="127.831565057"></trkpt>
    <trkpt lat="34.812921732" lon="127.831451341"></trkpt>
    <trkpt lat="34.813095253" lon="127.831377788"></trkpt>
    <trkpt lat="34.813219992" lon="127.831380259"></trkpt>
    <trkpt lat="34.813284199" lon="127.831402099"></trkpt>
    <trkpt lat="34.813424605" lon="127.831479231"></trkpt>
    <trkpt lat="34.813540292" lon="127.831531673"></trkpt>
    <trkpt lat="34.813628652" lon="127.831551419"></trkpt>
    <trkpt lat="34.813837464" lon="127.831535609"></trkpt>
    <trkpt lat="34.81400714" lon="127.831515969"></trkpt>
    <trkpt lat="34.814205908" lon="127.831469594"></trkpt>
    <trkpt lat="34.81429998" lon="127.831451767"></trkpt>
    <trkpt lat="34.814436721" lon="127.831474573"></trkpt>
    <trkpt lat="34.814595135" lon="127.831504273"></trkpt>
    <trkpt lat="34.814709496" lon="127.831497618"></trkpt>
    <trkpt lat="34.814837159" lon="127.831470581"></trkpt>
    <trkpt lat="34.814919379" lon="127.831487563"></trkpt>
    <trkpt lat="34.814980137" lon="127.831508731"></trkpt>
    <trkpt lat="34.815037879" lon="127.8314974"></trkpt>
    <trkpt lat="34.815186793" lon="127.831437491"></trkpt>
    <trkpt lat="34.815294808" lon="127.831369136"></trkpt>
    <trkpt lat="34.815410757" lon="127.831359589"></trkpt>
    <trkpt lat="34.815466756" lon="127.83133245"></trkpt>
    <trkpt lat="34.815504953" lon="127.831310942"></trkpt>
    <trkpt lat="34.815532607" lon="127.831264083"></trkpt>
    <trkpt lat="34.815541314" lon="127.831216259"></trkpt>
    <trkpt lat="34.815536238" lon="127.831158761"></trkpt>
    <trkpt lat="34.815521677" lon="127.831074782"></trkpt>
    <trkpt lat="34.815520922" lon="127.831003635"></trkpt>
    <trkpt lat="34.815522038" lon="127.830843902"></trkpt>
    <trkpt lat="34.815489032" lon="127.830796193"></trkpt>
    <trkpt lat="34.815475986" lon="127.830733067"></trkpt>
    <trkpt lat="34.81559214" lon="127.83068032"></trkpt>
    <trkpt lat="34.815656739" lon="127.830568406"></trkpt>
    <trkpt lat="34.815710078" lon="127.830419897"></trkpt>
    <trkpt lat="34.815781993" lon="127.83025509"></trkpt>
    <trkpt lat="34.815884222" lon="127.83007313"></trkpt>
    <trkpt lat="34.815930131" lon="127.829981113"></trkpt>
    <trkpt lat="34.816015141" lon="127.829993007"></trkpt>
    <trkpt lat="34.81613646" lon="127.829983128"></trkpt>
    <trkpt lat="34.816274478" lon="127.829941131"></trkpt>
    <trkpt lat="34.816424307" lon="127.829875605"></trkpt>
    <trkpt lat="34.816614819" lon="127.829789052"></trkpt>
    <trkpt lat="34.816738475" lon="127.829730557"></trkpt>
    <trkpt lat="34.816910026" lon="127.829650159"></trkpt>
    <trkpt lat="34.816993943" lon="127.829606372"></trkpt>
    <trkpt lat="34.817121917" lon="127.829561889"></trkpt>
    <trkpt lat="34.817236094" lon="127.829526035"></trkpt>
    <trkpt lat="34.817273665" lon="127.829522635"></trkpt>
    <trkpt lat="34.817293147" lon="127.82952263"></trkpt>
    <trkpt lat="34.817300095" lon="127.829468388"></trkpt>
    <trkpt lat="34.817290344" lon="127.829412457"></trkpt>
    <trkpt lat="34.817255547" lon="127.829366701"></trkpt>
    <trkpt lat="34.817168184" lon="127.829335481"></trkpt>
    <trkpt lat="34.817040106" lon="127.829357912"></trkpt>
    <trkpt lat="34.816856962" lon="127.829408862"></trkpt>
    <trkpt lat="34.816656304" lon="127.829475757"></trkpt>
    <trkpt lat="34.816503557" lon="127.829514587"></trkpt>
    <trkpt lat="34.816321495" lon="127.829561248"></trkpt>
    <trkpt lat="34.81626394" lon="127.829556436"></trkpt>
    <trkpt lat="34.816171501" lon="127.829533102"></trkpt>
    <trkpt lat="34.816061375" lon="127.829479721"></trkpt>
    <trkpt lat="34.816001294" lon="127.829428375"></trkpt>
    <trkpt lat="34.815863754" lon="127.829298272"></trkpt>
    <trkpt lat="34.81577314" lon="127.82915835"></trkpt>
    <trkpt lat="34.815739191" lon="127.829060352"></trkpt>
    <trkpt lat="34.815715104" lon="127.828997415"></trkpt>
    <trkpt lat="34.815675034" lon="127.828890382"></trkpt>
    <trkpt lat="34.815642465" lon="127.828779143"></trkpt>
    <trkpt lat="34.815601295" lon="127.828633097"></trkpt>
    <trkpt lat="34.815583103" lon="127.828514663"></trkpt>
    <trkpt lat="34.815563516" lon="127.828409256"></trkpt>
    <trkpt lat="34.81556201" lon="127.828269979"></trkpt>
    <trkpt lat="34.815554755" lon="127.828182412"></trkpt>
    <trkpt lat="34.81556583" lon="127.828159825"></trkpt>
    <trkpt lat="34.815586091" lon="127.828159664"></trkpt>
    <trkpt lat="34.815606251" lon="127.828211317"></trkpt>
    <trkpt lat="34.815622746" lon="127.828244983"></trkpt>
    <trkpt lat="34.815637385" lon="127.828274175"></trkpt>
    <trkpt lat="34.815724337" lon="127.828418244"></trkpt>
    <trkpt lat="34.815825416" lon="127.828452328"></trkpt>
    <trkpt lat="34.815922973" lon="127.828476158"></trkpt>
    <trkpt lat="34.816059533" lon="127.828471541"></trkpt>
    <trkpt lat="34.816145565" lon="127.828464305"></trkpt>
    <trkpt lat="34.816353189" lon="127.828419796"></trkpt>
    <trkpt lat="34.816491346" lon="127.828355913"></trkpt>
    <trkpt lat="34.816609051" lon="127.828295231"></trkpt>
    <trkpt lat="34.816930994" lon="127.828089231"></trkpt>
    <trkpt lat="34.817270639" lon="127.827769233"></trkpt>
    <trkpt lat="34.81756639" lon="127.827434871"></trkpt>
    <trkpt lat="34.817802398" lon="127.827173001"></trkpt>
    <trkpt lat="34.818123888" lon="127.826860905"></trkpt>
    <trkpt lat="34.81839514" lon="127.826537908"></trkpt>
    <trkpt lat="34.818690333" lon="127.826153363"></trkpt>
    <trkpt lat="34.818924808" lon="127.825778317"></trkpt>
    <trkpt lat="34.819131763" lon="127.825357763"></trkpt>
    <trkpt lat="34.819231643" lon="127.825074572"></trkpt>
    <trkpt lat="34.819276006" lon="127.824904345"></trkpt>
    <trkpt lat="34.819295395" lon="127.824655971"></trkpt>
    <trkpt lat="34.819300089" lon="127.824604402"></trkpt>
    <trkpt lat="34.819317924" lon="127.82439378"></trkpt>
    <trkpt lat="34.819339779" lon="127.824170855"></trkpt>
    <trkpt lat="34.819399853" lon="127.823975735"></trkpt>
    <trkpt lat="34.819474086" lon="127.823803472"></trkpt>
    <trkpt lat="34.819516499" lon="127.823729944"></trkpt>
    <trkpt lat="34.819614279" lon="127.823689605"></trkpt>
    <trkpt lat="34.819731032" lon="127.823704988"></trkpt>
    <trkpt lat="34.819815444" lon="127.823768006"></trkpt>
    <trkpt lat="34.819881834" lon="127.823828802"></trkpt>
    <trkpt lat="34.819994837" lon="127.823837045"></trkpt>
    <trkpt lat="34.820060255" lon="127.823821502"></trkpt>
    <trkpt lat="34.820099238" lon="127.823818311"></trkpt>
    <trkpt lat="34.820205965" lon="127.823854864"></trkpt>
    <trkpt lat="34.820405918" lon="127.82392534"></trkpt>
    <trkpt lat="34.820585191" lon="127.823944199"></trkpt>
    <trkpt lat="34.820770181" lon="127.823925639"></trkpt>
    <trkpt lat="34.820802666" lon="127.823900693"></trkpt>
    <trkpt lat="34.820809883" lon="127.823855115"></trkpt>
    <trkpt lat="34.820899279" lon="127.823727525"></trkpt>
    <trkpt lat="34.821006278" lon="127.82355729"></trkpt>
    <trkpt lat="34.821056835" lon="127.823399046"></trkpt>
    <trkpt lat="34.821078121" lon="127.823191903"></trkpt>
    <trkpt lat="34.821156893" lon="127.823058512"></trkpt>
    <trkpt lat="34.821236632" lon="127.822961126"></trkpt>
    <trkpt lat="34.821285204" lon="127.82291524"></trkpt>
    <trkpt lat="34.821391565" lon="127.822815437"></trkpt>
    <trkpt lat="34.821423673" lon="127.82276551"></trkpt>
    <trkpt lat="34.821524021" lon="127.822556343"></trkpt>
    <trkpt lat="34.821563236" lon="127.822448509"></trkpt>
    <trkpt lat="34.821627987" lon="127.822388942"></trkpt>
    <trkpt lat="34.821724709" lon="127.822322037"></trkpt>
    <trkpt lat="34.821835208" lon="127.822266445"></trkpt>
    <trkpt lat="34.821898081" lon="127.82218183"></trkpt>
    <trkpt lat="34.821929589" lon="127.822108595"></trkpt>
    <trkpt lat="34.821997969" lon="127.82209273"></trkpt>
    <trkpt lat="34.822104299" lon="127.822098686"></trkpt>
    <trkpt lat="34.822181962" lon="127.822079501"></trkpt>
    <trkpt lat="34.822253719" lon="127.822038906"></trkpt>
    <trkpt lat="34.822287325" lon="127.82198881"></trkpt>
    <trkpt lat="34.822393953" lon="127.821897639"></trkpt>
    <trkpt lat="34.822504379" lon="127.821769128"></trkpt>
    <trkpt lat="34.822586489" lon="127.821637511"></trkpt>
    <trkpt lat="34.822857195" lon="127.821613114"></trkpt>
    <trkpt lat="34.823040652" lon="127.821516526"></trkpt>
    <trkpt lat="34.823224677" lon="127.821361924"></trkpt>
    <trkpt lat="34.823389577" lon="127.821216458"></trkpt>
    <trkpt lat="34.823567448" lon="127.821072145"></trkpt>
    <trkpt lat="34.823619801" lon="127.820907134"></trkpt>
    <trkpt lat="34.823651876" lon="127.820798618"></trkpt>
    <trkpt lat="34.823721381" lon="127.820829543"></trkpt>
    <trkpt lat="34.823809622" lon="127.820885266"></trkpt>
    <trkpt lat="34.824073565" lon="127.82074884"></trkpt>
    <trkpt lat="34.824273946" lon="127.820568809"></trkpt>
    <trkpt lat="34.824470135" lon="127.820367345"></trkpt>
    <trkpt lat="34.824718005" lon="127.820094681"></trkpt>
    <trkpt lat="34.82482818" lon="127.81996849"></trkpt>
    <trkpt lat="34.824932837" lon="127.819847108"></trkpt>
    <trkpt lat="34.825064628" lon="127.819693063"></trkpt>
    <trkpt lat="34.825216553" lon="127.819528887"></trkpt>
    <trkpt lat="34.825438839" lon="127.819389489"></trkpt>
    <trkpt lat="34.825542629" lon="127.819348983"></trkpt>
    <trkpt lat="34.825634533" lon="127.819276091"></trkpt>
    <trkpt lat="34.825755539" lon="127.819235874"></trkpt>
    <trkpt lat="34.825924781" lon="127.819124417"></trkpt>
    <trkpt lat="34.826070639" lon="127.818992054"></trkpt>
    <trkpt lat="34.826230041" lon="127.818859963"></trkpt>
    <trkpt lat="34.826341302" lon="127.818707226"></trkpt>
    <trkpt lat="34.826419202" lon="127.818645263"></trkpt>
    <trkpt lat="34.826498966" lon="127.818554361"></trkpt>
    <trkpt lat="34.826551053" lon="127.818533397"></trkpt>
    <trkpt lat="34.82660653" lon="127.818491029"></trkpt>
    <trkpt lat="34.826684931" lon="127.818420711"></trkpt>
    <trkpt lat="34.82672986" lon="127.81837664"></trkpt>
    <trkpt lat="34.826790041" lon="127.818322418"></trkpt>
    <trkpt lat="34.826823376" lon="127.818273312"></trkpt>
    <trkpt lat="34.826877742" lon="127.818234549"></trkpt>
    <trkpt lat="34.826909091" lon="127.818230236"></trkpt>
    <trkpt lat="34.826931441" lon="127.818238962"></trkpt>
    <trkpt lat="34.826968572" lon="127.818263201"></trkpt>
    <trkpt lat="34.826987524" lon="127.818263288"></trkpt>
    <trkpt lat="34.827009647" lon="127.818263603"></trkpt>
    <trkpt lat="34.827058653" lon="127.818231543"></trkpt>
    <trkpt lat="34.827167067" lon="127.818069767"></trkpt>
    <trkpt lat="34.827350979" lon="127.817767613"></trkpt>
    <trkpt lat="34.827455679" lon="127.817591758"></trkpt>
    <trkpt lat="34.827568459" lon="127.817457709"></trkpt>
    <trkpt lat="34.827641362" lon="127.81735287"></trkpt>
    <trkpt lat="34.827762881" lon="127.817336178"></trkpt>
    <trkpt lat="34.827842795" lon="127.817318008"></trkpt>
    <trkpt lat="34.828073907" lon="127.817278023"></trkpt>
    <trkpt lat="34.828169229" lon="127.817218973"></trkpt>
    <trkpt lat="34.828478386" lon="127.817046363"></trkpt>
    <trkpt lat="34.828741" lon="127.816905884"></trkpt>
    <trkpt lat="34.828938491" lon="127.816791246"></trkpt>
    <trkpt lat="34.829141983" lon="127.816673218"></trkpt>
    <trkpt lat="34.82928121" lon="127.816612791"></trkpt>
    <trkpt lat="34.829643801" lon="127.816508957"></trkpt>
    <trkpt lat="34.829872925" lon="127.816425798"></trkpt>
    <trkpt lat="34.830146569" lon="127.816296418"></trkpt>
    <trkpt lat="34.830315903" lon="127.816196743"></trkpt>
    <trkpt lat="34.83039172" lon="127.816123124"></trkpt>
    <trkpt lat="34.830462887" lon="127.81603355"></trkpt>
    <trkpt lat="34.830540204" lon="127.815952459"></trkpt>
    <trkpt lat="34.830603347" lon="127.815927382"></trkpt>
    <trkpt lat="34.830879609" lon="127.815865589"></trkpt>
    <trkpt lat="34.831031954" lon="127.815830353"></trkpt>
    <trkpt lat="34.831169618" lon="127.815831516"></trkpt>
    <trkpt lat="34.831469464" lon="127.815741472"></trkpt>
    <trkpt lat="34.831752081" lon="127.815700118"></trkpt>
    <trkpt lat="34.831938039" lon="127.815542257"></trkpt>
    <trkpt lat="34.832102469" lon="127.815392637"></trkpt>
    <trkpt lat="34.832212435" lon="127.815308923"></trkpt>
    <trkpt lat="34.832306831" lon="127.815296078"></trkpt>
    <trkpt lat="34.832363802" lon="127.815230517"></trkpt>
    <trkpt lat="34.832451337" lon="127.815120939"></trkpt>
    <trkpt lat="34.832556607" lon="127.814971092"></trkpt>
    <trkpt lat="34.832706293" lon="127.814781608"></trkpt>
    <trkpt lat="34.832713941" lon="127.814753326"></trkpt>
    <trkpt lat="34.832738028" lon="127.814719844"></trkpt>
    <trkpt lat="34.832755696" lon="127.814692438"></trkpt>
    <trkpt lat="34.832778516" lon="127.81471997"></trkpt>
    <trkpt lat="34.83280028" lon="127.814732232"></trkpt>
    <trkpt lat="34.832831744" lon="127.814713495"></trkpt>
    <trkpt lat="34.832882455" lon="127.81467558"></trkpt>
    <trkpt lat="34.832923631" lon="127.814645496"></trkpt>
    <trkpt lat="34.83308857" lon="127.814530362"></trkpt>
    <trkpt lat="34.833280392" lon="127.814328271"></trkpt>
    <trkpt lat="34.83354757" lon="127.814075207"></trkpt>
    <trkpt lat="34.833671368" lon="127.814149686"></trkpt>
    <trkpt lat="34.833785121" lon="127.813954014"></trkpt>
    <trkpt lat="34.833859924" lon="127.813835635"></trkpt>
    <trkpt lat="34.833922473" lon="127.813760214"></trkpt>
    <trkpt lat="34.833951821" lon="127.813729012"></trkpt>
    <trkpt lat="34.834011295" lon="127.813697721"></trkpt>
    <trkpt lat="34.834054206" lon="127.813655967"></trkpt>
    <trkpt lat="34.834052549" lon="127.813617645"></trkpt>
    <trkpt lat="34.834061879" lon="127.813554587"></trkpt>
    <trkpt lat="34.834061625" lon="127.813493994"></trkpt>
    <trkpt lat="34.834065991" lon="127.813433275"></trkpt>
    <trkpt lat="34.834115847" lon="127.813393764"></trkpt>
    <trkpt lat="34.834153481" lon="127.81338137"></trkpt>
    <trkpt lat="34.834230608" lon="127.813317124"></trkpt>
    <trkpt lat="34.834261222" lon="127.813284371"></trkpt>
    <trkpt lat="34.834311323" lon="127.813231463"></trkpt>
    <trkpt lat="34.83435067" lon="127.813197835"></trkpt>
    <trkpt lat="34.834414102" lon="127.813142539"></trkpt>
    <trkpt lat="34.834478386" lon="127.813112639"></trkpt>
    <trkpt lat="34.834524871" lon="127.813092525"></trkpt>
    <trkpt lat="34.834638088" lon="127.813093084"></trkpt>
    <trkpt lat="34.834753411" lon="127.813167301"></trkpt>
    <trkpt lat="34.834926162" lon="127.813219459"></trkpt>
    <trkpt lat="34.835060122" lon="127.813236835"></trkpt>
    <trkpt lat="34.835118498" lon="127.813220337"></trkpt>
    <trkpt lat="34.835344543" lon="127.813210914"></trkpt>
    <trkpt lat="34.83559931" lon="127.813368893"></trkpt>
    <trkpt lat="34.835885358" lon="127.813486995"></trkpt>
    <trkpt lat="34.83631096" lon="127.813559785"></trkpt>
    <trkpt lat="34.836623464" lon="127.813564496"></trkpt>
    <trkpt lat="34.836856767" lon="127.813437118"></trkpt>
    <trkpt lat="34.837082269" lon="127.813317125"></trkpt>
    <trkpt lat="34.837278074" lon="127.813183163"></trkpt>
    <trkpt lat="34.837455127" lon="127.813054611"></trkpt>
    <trkpt lat="34.837613289" lon="127.812914032"></trkpt>
    <trkpt lat="34.837709051" lon="127.812806354"></trkpt>
    <trkpt lat="34.837748648" lon="127.812751354"></trkpt>
    <trkpt lat="34.837814607" lon="127.81268514"></trkpt>
    <trkpt lat="34.837904661" lon="127.812665256"></trkpt>
    <trkpt lat="34.838038474" lon="127.812638003"></trkpt>
    <trkpt lat="34.838181426" lon="127.81262173"></trkpt>
    <trkpt lat="34.838403115" lon="127.812625728"></trkpt>
    <trkpt lat="34.838530172" lon="127.812598183"></trkpt>
    <trkpt lat="34.838618735" lon="127.81256728"></trkpt>
    <trkpt lat="34.838794656" lon="127.812488033"></trkpt>
    <trkpt lat="34.838851463" lon="127.8124524"></trkpt>
    <trkpt lat="34.839058062" lon="127.812297861"></trkpt>
    <trkpt lat="34.839279202" lon="127.812141247"></trkpt>
    <trkpt lat="34.839474126" lon="127.811990532"></trkpt>
    <trkpt lat="34.839661767" lon="127.811872557"></trkpt>
    <trkpt lat="34.83978956" lon="127.811835906"></trkpt>
    <trkpt lat="34.839855688" lon="127.811830592"></trkpt>
    <trkpt lat="34.839907283" lon="127.811876199"></trkpt>
    <trkpt lat="34.840010864" lon="127.812014949"></trkpt>
    <trkpt lat="34.840087444" lon="127.812151321"></trkpt>
    <trkpt lat="34.840191478" lon="127.812220982"></trkpt>
    <trkpt lat="34.840298139" lon="127.812282087"></trkpt>
    <trkpt lat="34.840429264" lon="127.812390572"></trkpt>
    <trkpt lat="34.840683187" lon="127.812508675"></trkpt>
    <trkpt lat="34.84090806" lon="127.812586661"></trkpt>
    <trkpt lat="34.841125877" lon="127.812662509"></trkpt>
    <trkpt lat="34.841337764" lon="127.812677125"></trkpt>
    <trkpt lat="34.841569041" lon="127.812690379"></trkpt>
    <trkpt lat="34.841845753" lon="127.812663652"></trkpt>
    <trkpt lat="34.842006307" lon="127.81264729"></trkpt>
    <trkpt lat="34.842202776" lon="127.812595155"></trkpt>
    <trkpt lat="34.842392839" lon="127.812539278"></trkpt>
    <trkpt lat="34.842511821" lon="127.81250938"></trkpt>
    <trkpt lat="34.84250228" lon="127.812646032"></trkpt>
    <trkpt lat="34.842517013" lon="127.812770788"></trkpt>
    <trkpt lat="34.842592054" lon="127.812959835"></trkpt>
    <trkpt lat="34.842714941" lon="127.812937978"></trkpt>
    <trkpt lat="34.842784349" lon="127.812911681"></trkpt>
    <trkpt lat="34.84282753" lon="127.812872983"></trkpt>
    <trkpt lat="34.84293307" lon="127.812759847"></trkpt>
    <trkpt lat="34.843008151" lon="127.812750816"></trkpt>
    <trkpt lat="34.8430468" lon="127.812774527"></trkpt>
    <trkpt lat="34.843119067" lon="127.812857193"></trkpt>
    <trkpt lat="34.843261019" lon="127.812942248"></trkpt>
    <trkpt lat="34.843389164" lon="127.813024004"></trkpt>
    <trkpt lat="34.843523132" lon="127.813096725"></trkpt>
    <trkpt lat="34.843597273" lon="127.813134445"></trkpt>
    <trkpt lat="34.843655753" lon="127.813172075"></trkpt>
    <trkpt lat="34.843720175" lon="127.813186599"></trkpt>
    <trkpt lat="34.843856432" lon="127.813076672"></trkpt>
    <trkpt lat="34.843916771" lon="127.812978825"></trkpt>
    <trkpt lat="34.844050176" lon="127.812937669"></trkpt>
    <trkpt lat="34.84416472" lon="127.812890248"></trkpt>
    <trkpt lat="34.84437851" lon="127.812842313"></trkpt>
    <trkpt lat="34.844478805" lon="127.812834654"></trkpt>
    <trkpt lat="34.844757151" lon="127.812809082"></trkpt>
    <trkpt lat="34.845071629" lon="127.812776"></trkpt>
    <trkpt lat="34.845182507" lon="127.812759283"></trkpt>
    <trkpt lat="34.845283225" lon="127.81271009"></trkpt>
    <trkpt lat="34.845380071" lon="127.812662672"></trkpt>
    <trkpt lat="34.845452065" lon="127.812654401"></trkpt>
    <trkpt lat="34.845611972" lon="127.81265919"></trkpt>
    <trkpt lat="34.845741535" lon="127.812648059"></trkpt>
    <trkpt lat="34.845876737" lon="127.81257046"></trkpt>
    <trkpt lat="34.846007554" lon="127.812559674"></trkpt>
    <trkpt lat="34.846323827" lon="127.812634157"></trkpt>
    <trkpt lat="34.846545735" lon="127.812699518"></trkpt>
    <trkpt lat="34.846787683" lon="127.812760098"></trkpt>
    <trkpt lat="34.847084622" lon="127.812829991"></trkpt>
    <trkpt lat="34.847374253" lon="127.812844821"></trkpt>
    <trkpt lat="34.8475416" lon="127.81280606"></trkpt>
    <trkpt lat="34.847642041" lon="127.812753687"></trkpt>
    <trkpt lat="34.847680021" lon="127.812740216"></trkpt>
    <trkpt lat="34.847825158" lon="127.812651786"></trkpt>
    <trkpt lat="34.848024422" lon="127.812554483"></trkpt>
    <trkpt lat="34.848320437" lon="127.812480043"></trkpt>
    <trkpt lat="34.84847509" lon="127.812413267"></trkpt>
    <trkpt lat="34.848602195" lon="127.812337835"></trkpt>
    <trkpt lat="34.848820713" lon="127.812148932"></trkpt>
    <trkpt lat="34.849036236" lon="127.811948667"></trkpt>
    <trkpt lat="34.849269551" lon="127.811744286"></trkpt>
    <trkpt lat="34.849486563" lon="127.811518381"></trkpt>
    <trkpt lat="34.849657697" lon="127.811263722"></trkpt>
    <trkpt lat="34.849837742" lon="127.811062628"></trkpt>
    <trkpt lat="34.850016589" lon="127.810815948"></trkpt>
    <trkpt lat="34.850162795" lon="127.810650972"></trkpt>
    <trkpt lat="34.850436029" lon="127.810406396"></trkpt>
    <trkpt lat="34.850673209" lon="127.810150708"></trkpt>
    <trkpt lat="34.850838348" lon="127.810019481"></trkpt>
    <trkpt lat="34.850915435" lon="127.809929948"></trkpt>
    <trkpt lat="34.851043096" lon="127.809855114"></trkpt>
    <trkpt lat="34.851190342" lon="127.80969904"></trkpt>
    <trkpt lat="34.85130197" lon="127.809612263"></trkpt>
    <trkpt lat="34.851418361" lon="127.809547901"></trkpt>
    <trkpt lat="34.851562371" lon="127.809571124"></trkpt>
    <trkpt lat="34.851683702" lon="127.809606097"></trkpt>
    <trkpt lat="34.851796801" lon="127.809602799"></trkpt>
    <trkpt lat="34.851902264" lon="127.809615636"></trkpt>
    <trkpt lat="34.852007674" lon="127.809549386"></trkpt>
    <trkpt lat="34.852111631" lon="127.809504987"></trkpt>
    <trkpt lat="34.852258652" lon="127.809456166"></trkpt>
    <trkpt lat="34.852458279" lon="127.80935621"></trkpt>
    <trkpt lat="34.852515647" lon="127.809455695"></trkpt>
    <trkpt lat="34.852583783" lon="127.809530876"></trkpt>
    <trkpt lat="34.852650849" lon="127.809646627"></trkpt>
    <trkpt lat="34.852680344" lon="127.80958931"></trkpt>
    <trkpt lat="34.852773996" lon="127.809491251"></trkpt>
    <trkpt lat="34.852917663" lon="127.809307576"></trkpt>
    <trkpt lat="34.852972869" lon="127.809300565"></trkpt>
    <trkpt lat="34.853039162" lon="127.809318186"></trkpt>
    <trkpt lat="34.853141505" lon="127.809344381"></trkpt>
    <trkpt lat="34.853240235" lon="127.809344627"></trkpt>
    <trkpt lat="34.853321955" lon="127.809349092"></trkpt>
    <trkpt lat="34.853380009" lon="127.809373274"></trkpt>
    <trkpt lat="34.85342868" lon="127.809456256"></trkpt>
    <trkpt lat="34.853462713" lon="127.809616855"></trkpt>
    <trkpt lat="34.853484659" lon="127.809747528"></trkpt>
    <trkpt lat="34.853510675" lon="127.809934412"></trkpt>
    <trkpt lat="34.853547914" lon="127.810171686"></trkpt>
    <trkpt lat="34.853538634" lon="127.810418213"></trkpt>
    <trkpt lat="34.853529398" lon="127.810647896"></trkpt>
    <trkpt lat="34.853590365" lon="127.810859"></trkpt>
    <trkpt lat="34.853680844" lon="127.811043716"></trkpt>
    <trkpt lat="34.853747125" lon="127.811310495"></trkpt>
    <trkpt lat="34.853813645" lon="127.811489059"></trkpt>
    <trkpt lat="34.853870885" lon="127.811626505"></trkpt>
    <trkpt lat="34.85389737" lon="127.811799946"></trkpt>
    <trkpt lat="34.853903965" lon="127.811878501"></trkpt>
    <trkpt lat="34.85410543" lon="127.811837198"></trkpt>
    <trkpt lat="34.854105322" lon="127.81173975"></trkpt>
    <trkpt lat="34.854162771" lon="127.811547964"></trkpt>
    <trkpt lat="34.85423622" lon="127.811402803"></trkpt>
    <trkpt lat="34.854317239" lon="127.811292203"></trkpt>
    <trkpt lat="34.854436956" lon="127.81125241"></trkpt>
    <trkpt lat="34.854546953" lon="127.811246195"></trkpt>
    <trkpt lat="34.854739732" lon="127.811265396"></trkpt>
    <trkpt lat="34.854906767" lon="127.811278139"></trkpt>
    <trkpt lat="34.855171569" lon="127.811294175"></trkpt>
    <trkpt lat="34.855514316" lon="127.811334942"></trkpt>
    <trkpt lat="34.855697836" lon="127.81136622"></trkpt>
    <trkpt lat="34.856001416" lon="127.811304947"></trkpt>
    <trkpt lat="34.85628385" lon="127.811268521"></trkpt>
    <trkpt lat="34.856507744" lon="127.811211497"></trkpt>
    <trkpt lat="34.856743692" lon="127.811059077"></trkpt>
    <trkpt lat="34.856854734" lon="127.81088221"></trkpt>
    <trkpt lat="34.856920013" lon="127.810753472"></trkpt>
    <trkpt lat="34.856955781" lon="127.810628205"></trkpt>
    <trkpt lat="34.856982901" lon="127.810519903"></trkpt>
    <trkpt lat="34.857003163" lon="127.810403809"></trkpt>
    <trkpt lat="34.857006523" lon="127.81027547"></trkpt>
    <trkpt lat="34.85699791" lon="127.810093107"></trkpt>
    <trkpt lat="34.856968593" lon="127.809876783"></trkpt>
    <trkpt lat="34.856937358" lon="127.809701981"></trkpt>
    <trkpt lat="34.856909616" lon="127.809628932"></trkpt>
    <trkpt lat="34.856816151" lon="127.809562542"></trkpt>
    <trkpt lat="34.856797009" lon="127.809539974"></trkpt>
    <trkpt lat="34.85680186" lon="127.809473477"></trkpt>
    <trkpt lat="34.856881273" lon="127.809445729"></trkpt>
    <trkpt lat="34.85693827" lon="127.80943455"></trkpt>
    <trkpt lat="34.856993156" lon="127.809382134"></trkpt>
    <trkpt lat="34.85705271" lon="127.809313626"></trkpt>
    <trkpt lat="34.857125177" lon="127.809161838"></trkpt>
    <trkpt lat="34.85716364" lon="127.809164044"></trkpt>
    <trkpt lat="34.857246618" lon="127.809200899"></trkpt>
    <trkpt lat="34.857343425" lon="127.809249459"></trkpt>
    <trkpt lat="34.857397315" lon="127.809277599"></trkpt>
    <trkpt lat="34.857578462" lon="127.80925351"></trkpt>
    <trkpt lat="34.857716716" lon="127.80918426"></trkpt>
    <trkpt lat="34.857813056" lon="127.809138018"></trkpt>
    <trkpt lat="34.857925195" lon="127.809123864"></trkpt>
    <trkpt lat="34.857913554" lon="127.809333479"></trkpt>
    <trkpt lat="34.857912018" lon="127.809457692"></trkpt>
    <trkpt lat="34.858076016" lon="127.809528445"></trkpt>
    <trkpt lat="34.858223454" lon="127.809717649"></trkpt>
    <trkpt lat="34.858363474" lon="127.809952854"></trkpt>
    <trkpt lat="34.858534311" lon="127.810154508"></trkpt>
    <trkpt lat="34.858659276" lon="127.810292078"></trkpt>
    <trkpt lat="34.858747324" lon="127.810451635"></trkpt>
    <trkpt lat="34.858817837" lon="127.810541944"></trkpt>
    <trkpt lat="34.858912746" lon="127.810589867"></trkpt>
    <trkpt lat="34.859045753" lon="127.810642355"></trkpt>
    <trkpt lat="34.859171144" lon="127.810751509"></trkpt>
    <trkpt lat="34.859228386" lon="127.810960629"></trkpt>
    <trkpt lat="34.859301837" lon="127.811242088"></trkpt>
    <trkpt lat="34.859323102" lon="127.811524324"></trkpt>
    <trkpt lat="34.859320806" lon="127.811586163"></trkpt>
    <trkpt lat="34.859257816" lon="127.811697895"></trkpt>
    <trkpt lat="34.859274056" lon="127.811738077"></trkpt>
    <trkpt lat="34.859347749" lon="127.811841164"></trkpt>
    <trkpt lat="34.859409187" lon="127.811982312"></trkpt>
    <trkpt lat="34.859439193" lon="127.812052134"></trkpt>
    <trkpt lat="34.85944079" lon="127.812147392"></trkpt>
    <trkpt lat="34.859432908" lon="127.812402193"></trkpt>
    <trkpt lat="34.859416607" lon="127.812559101"></trkpt>
    <trkpt lat="34.859387939" lon="127.812704752"></trkpt>
    <trkpt lat="34.859373295" lon="127.812725869"></trkpt>
    <trkpt lat="34.85946507" lon="127.812852695"></trkpt>
    <trkpt lat="34.859568017" lon="127.813040386"></trkpt>
    <trkpt lat="34.859648608" lon="127.813191994"></trkpt>
    <trkpt lat="34.859655571" lon="127.813277433"></trkpt>
    <trkpt lat="34.859628284" lon="127.813362147"></trkpt>
    <trkpt lat="34.85955018" lon="127.813506109"></trkpt>
    <trkpt lat="34.859462322" lon="127.813621293"></trkpt>
    <trkpt lat="34.859368012" lon="127.81383009"></trkpt>
    <trkpt lat="34.859200383" lon="127.814165479"></trkpt>
    <trkpt lat="34.859014828" lon="127.814504316"></trkpt>
    <trkpt lat="34.858933734" lon="127.814626311"></trkpt>
    <trkpt lat="34.858913415" lon="127.814740618"></trkpt>
    <trkpt lat="34.85888544" lon="127.814806256"></trkpt>
    <trkpt lat="34.858790627" lon="127.814902795"></trkpt>
    <trkpt lat="34.858728604" lon="127.814971423"></trkpt>
    <trkpt lat="34.858697927" lon="127.815026974"></trkpt>
    <trkpt lat="34.858669432" lon="127.815134799"></trkpt>
    <trkpt lat="34.858598381" lon="127.815311162"></trkpt>
    <trkpt lat="34.858548375" lon="127.81544425"></trkpt>
    <trkpt lat="34.858522084" lon="127.815544895"></trkpt>
    <trkpt lat="34.858482877" lon="127.815664258"></trkpt>
    <trkpt lat="34.858438065" lon="127.815776214"></trkpt>
    <trkpt lat="34.858413016" lon="127.81589164"></trkpt>
    <trkpt lat="34.858396864" lon="127.815987369"></trkpt>
    <trkpt lat="34.858480564" lon="127.81599854"></trkpt>
    <trkpt lat="34.858531403" lon="127.815975211"></trkpt>
    <trkpt lat="34.858563876" lon="127.815935134"></trkpt>
    <trkpt lat="34.858596283" lon="127.815892698"></trkpt>
    <trkpt lat="34.858651404" lon="127.815843828"></trkpt>
    <trkpt lat="34.8587166" lon="127.81585348"></trkpt>
    <trkpt lat="34.858737755" lon="127.815873456"></trkpt>
    <trkpt lat="34.858728427" lon="127.815902805"></trkpt>
    <trkpt lat="34.858692576" lon="127.815938211"></trkpt>
    <trkpt lat="34.858692566" lon="127.815941496"></trkpt>
    <trkpt lat="34.858667337" lon="127.815973809"></trkpt>
    <trkpt lat="34.858636726" lon="127.816033896"></trkpt>
    <trkpt lat="34.858629866" lon="127.81610921"></trkpt>
    <trkpt lat="34.858665473" lon="127.816132061"></trkpt>
    <trkpt lat="34.858706673" lon="127.816143679"></trkpt>
    <trkpt lat="34.858746902" lon="127.81609862"></trkpt>
    <trkpt lat="34.858791028" lon="127.816048193"></trkpt>
    <trkpt lat="34.858886767" lon="127.816050862"></trkpt>
    <trkpt lat="34.858951177" lon="127.816054574"></trkpt>
    <trkpt lat="34.859113617" lon="127.816054308"></trkpt>
    <trkpt lat="34.859164953" lon="127.816028918"></trkpt>
    <trkpt lat="34.859230443" lon="127.815914719"></trkpt>
    <trkpt lat="34.859285731" lon="127.815847416"></trkpt>
    <trkpt lat="34.859379964" lon="127.815787392"></trkpt>
    <trkpt lat="34.859466962" lon="127.815800616"></trkpt>
    <trkpt lat="34.859487696" lon="127.815918926"></trkpt>
    <trkpt lat="34.859545716" lon="127.815992427"></trkpt>
    <trkpt lat="34.859607264" lon="127.816043983"></trkpt>
    <trkpt lat="34.859678906" lon="127.816115267"></trkpt>
    <trkpt lat="34.85971215" lon="127.816168707"></trkpt>
    <trkpt lat="34.859751474" lon="127.816206565"></trkpt>
    <trkpt lat="34.859853769" lon="127.816043414"></trkpt>
    <trkpt lat="34.859968199" lon="127.815884539"></trkpt>
    <trkpt lat="34.860067622" lon="127.815769812"></trkpt>
    <trkpt lat="34.860165043" lon="127.815680887"></trkpt>
    <trkpt lat="34.860245806" lon="127.815633998"></trkpt>
    <trkpt lat="34.860381555" lon="127.815399655"></trkpt>
    <trkpt lat="34.860485801" lon="127.815243892"></trkpt>
    <trkpt lat="34.860628653" lon="127.814994612"></trkpt>
    <trkpt lat="34.860717933" lon="127.814799702"></trkpt>
    <trkpt lat="34.860799961" lon="127.81455964"></trkpt>
    <trkpt lat="34.860846033" lon="127.814420524"></trkpt>
    <trkpt lat="34.860878823" lon="127.814333734"></trkpt>
    <trkpt lat="34.860974306" lon="127.814232399"></trkpt>
    <trkpt lat="34.86107133" lon="127.814096193"></trkpt>
    <trkpt lat="34.86122089" lon="127.813902438"></trkpt>
    <trkpt lat="34.861624064" lon="127.813673159"></trkpt>
    <trkpt lat="34.861701032" lon="127.813799173"></trkpt>
    <trkpt lat="34.861819685" lon="127.814001093"></trkpt>
    <trkpt lat="34.861911436" lon="127.814170812"></trkpt>
    <trkpt lat="34.861997369" lon="127.814347134"></trkpt>
    <trkpt lat="34.862069745" lon="127.814496573"></trkpt>
    <trkpt lat="34.862231145" lon="127.814804207"></trkpt>
    <trkpt lat="34.86235053" lon="127.815035553"></trkpt>
    <trkpt lat="34.862371175" lon="127.815070387"></trkpt>
    <trkpt lat="34.862356556" lon="127.815167964"></trkpt>
    <trkpt lat="34.862318075" lon="127.815251121"></trkpt>
    <trkpt lat="34.862298899" lon="127.815290665"></trkpt>
    <trkpt lat="34.862490093" lon="127.815427449"></trkpt>
    <trkpt lat="34.862643216" lon="127.815548747"></trkpt>
    <trkpt lat="34.862839605" lon="127.815715444"></trkpt>
    <trkpt lat="34.862937414" lon="127.815763706"></trkpt>
    <trkpt lat="34.863103931" lon="127.815792583"></trkpt>
    <trkpt lat="34.863245364" lon="127.81584027"></trkpt>
    <trkpt lat="34.863383801" lon="127.815889933"></trkpt>
    <trkpt lat="34.863462538" lon="127.815910935"></trkpt>
    <trkpt lat="34.863607252" lon="127.815885792"></trkpt>
    <trkpt lat="34.863799548" lon="127.815904828"></trkpt>
    <trkpt lat="34.863930769" lon="127.815920192"></trkpt>
    <trkpt lat="34.864039499" lon="127.815910533"></trkpt>
    <trkpt lat="34.864166009" lon="127.815916023"></trkpt>
    <trkpt lat="34.864295949" lon="127.815933108"></trkpt>
    <trkpt lat="34.864396225" lon="127.815983112"></trkpt>
    <trkpt lat="34.864595495" lon="127.816200356"></trkpt>
    <trkpt lat="34.864756596" lon="127.816376922"></trkpt>
    <trkpt lat="34.864937828" lon="127.816571325"></trkpt>
    <trkpt lat="34.865085534" lon="127.816714293"></trkpt>
    <trkpt lat="34.865142718" lon="127.816761449"></trkpt>
    <trkpt lat="34.865207691" lon="127.816759658"></trkpt>
    <trkpt lat="34.865246555" lon="127.816759669"></trkpt>
    <trkpt lat="34.865315894" lon="127.816754938"></trkpt>
    <trkpt lat="34.865368641" lon="127.816762072"></trkpt>
    <trkpt lat="34.86541557" lon="127.816799669"></trkpt>
    <trkpt lat="34.865459899" lon="127.816825891"></trkpt>
    <trkpt lat="34.865516609" lon="127.816869035"></trkpt>
    <trkpt lat="34.865565866" lon="127.816902006"></trkpt>
    <trkpt lat="34.865609101" lon="127.816933132"></trkpt>
    <trkpt lat="34.865646633" lon="127.81695973"></trkpt>
    <trkpt lat="34.865683251" lon="127.816987546"></trkpt>
    <trkpt lat="34.865711034" lon="127.81701674"></trkpt>
    <trkpt lat="34.865743394" lon="127.817073934"></trkpt>
    <trkpt lat="34.865763657" lon="127.817104807"></trkpt>
    <trkpt lat="34.865795142" lon="127.817144495"></trkpt>
    <trkpt lat="34.865829195" lon="127.817195453"></trkpt>
    <trkpt lat="34.865924311" lon="127.817309658"></trkpt>
    <trkpt lat="34.865984672" lon="127.817368786"></trkpt>
    <trkpt lat="34.866224897" lon="127.817571939"></trkpt>
    <trkpt lat="34.866442606" lon="127.8177121"></trkpt>
    <trkpt lat="34.86664568" lon="127.81782462"></trkpt>
    <trkpt lat="34.866918749" lon="127.817983211"></trkpt>
    <trkpt lat="34.866926213" lon="127.818064049"></trkpt>
    <trkpt lat="34.866825401" lon="127.818075673"></trkpt>
    <trkpt lat="34.866794999" lon="127.818125407"></trkpt>
    <trkpt lat="34.866811654" lon="127.818171639"></trkpt>
    <trkpt lat="34.866902108" lon="127.818207833"></trkpt>
    <trkpt lat="34.867150396" lon="127.818335662"></trkpt>
    <trkpt lat="34.867174857" lon="127.818397561"></trkpt>
    <trkpt lat="34.86719779" lon="127.818483086"></trkpt>
    <trkpt lat="34.867226355" lon="127.81857606"></trkpt>
    <trkpt lat="34.86727537" lon="127.818709841"></trkpt>
    <trkpt lat="34.867287691" lon="127.818881842"></trkpt>
    <trkpt lat="34.867337497" lon="127.819033766"></trkpt>
    <trkpt lat="34.867367363" lon="127.819199622"></trkpt>
    <trkpt lat="34.867370527" lon="127.819316705"></trkpt>
    <trkpt lat="34.867347989" lon="127.819509399"></trkpt>
    <trkpt lat="34.8673464" lon="127.819661975"></trkpt>
    <trkpt lat="34.867367276" lon="127.819755738"></trkpt>
    <trkpt lat="34.867456653" lon="127.81981626"></trkpt>
    <trkpt lat="34.86751691" lon="127.819846763"></trkpt>
    <trkpt lat="34.867595231" lon="127.819926403"></trkpt>
    <trkpt lat="34.867630958" lon="127.820007342"></trkpt>
    <trkpt lat="34.867660792" lon="127.820115739"></trkpt>
    <trkpt lat="34.867659601" lon="127.820215103"></trkpt>
    <trkpt lat="34.867599397" lon="127.820310327"></trkpt>
    <trkpt lat="34.867523784" lon="127.820396903"></trkpt>
    <trkpt lat="34.86743383" lon="127.820426394"></trkpt>
    <trkpt lat="34.867307104" lon="127.820458085"></trkpt>
    <trkpt lat="34.867116269" lon="127.820476829"></trkpt>
    <trkpt lat="34.866906629" lon="127.820456254"></trkpt>
    <trkpt lat="34.866824016" lon="127.820455895"></trkpt>
    <trkpt lat="34.866673132" lon="127.820460383"></trkpt>
    <trkpt lat="34.866549088" lon="127.820468393"></trkpt>
    <trkpt lat="34.866345145" lon="127.820468366"></trkpt>
    <trkpt lat="34.866176491" lon="127.820436108"></trkpt>
    <trkpt lat="34.866062425" lon="127.820410606"></trkpt>
    <trkpt lat="34.865913373" lon="127.820423663"></trkpt>
    <trkpt lat="34.865793507" lon="127.820433404"></trkpt>
    <trkpt lat="34.865680448" lon="127.82043353"></trkpt>
    <trkpt lat="34.865532713" lon="127.820433723"></trkpt>
    <trkpt lat="34.865364473" lon="127.820433957"></trkpt>
    <trkpt lat="34.865222738" lon="127.820394043"></trkpt>
    <trkpt lat="34.865109301" lon="127.820345003"></trkpt>
    <trkpt lat="34.864978807" lon="127.820330024"></trkpt>
    <trkpt lat="34.864825595" lon="127.820370157"></trkpt>
    <trkpt lat="34.864699498" lon="127.820453396"></trkpt>
    <trkpt lat="34.864661163" lon="127.820574942"></trkpt>
    <trkpt lat="34.864614709" lon="127.820682296"></trkpt>
    <trkpt lat="34.864508003" lon="127.820715399"></trkpt>
    <trkpt lat="34.864402778" lon="127.820772195"></trkpt>
    <trkpt lat="34.864300753" lon="127.820855781"></trkpt>
    <trkpt lat="34.864193714" lon="127.820951532"></trkpt>
    <trkpt lat="34.864069794" lon="127.821069651"></trkpt>
    <trkpt lat="34.863934818" lon="127.821258463"></trkpt>
    <trkpt lat="34.863869187" lon="127.821429587"></trkpt>
    <trkpt lat="34.863836354" lon="127.821538133"></trkpt>
    <trkpt lat="34.863742175" lon="127.821573241"></trkpt>
    <trkpt lat="34.863670422" lon="127.821684608"></trkpt>
    <trkpt lat="34.863639011" lon="127.82183496"></trkpt>
    <trkpt lat="34.863599539" lon="127.821975693"></trkpt>
    <trkpt lat="34.863581915" lon="127.822010588"></trkpt>
    <trkpt lat="34.86364719" lon="127.822021132"></trkpt>
    <trkpt lat="34.863770794" lon="127.822027441"></trkpt>
    <trkpt lat="34.86393991" lon="127.82205422"></trkpt>
    <trkpt lat="34.864022668" lon="127.822072486"></trkpt>
    <trkpt lat="34.864262843" lon="127.822111231"></trkpt>
    <trkpt lat="34.864510757" lon="127.822198139"></trkpt>
    <trkpt lat="34.864629315" lon="127.822257645"></trkpt>
    <trkpt lat="34.864710824" lon="127.822387503"></trkpt>
    <trkpt lat="34.864787417" lon="127.822555465"></trkpt>
    <trkpt lat="34.864792817" lon="127.822652788"></trkpt>
    <trkpt lat="34.864811667" lon="127.822731699"></trkpt>
    <trkpt lat="34.8648333" lon="127.822769854"></trkpt>
    <trkpt lat="34.864892932" lon="127.822831677"></trkpt>
    <trkpt lat="34.864918688" lon="127.82287355"></trkpt>
    <trkpt lat="34.864984526" lon="127.82277959"></trkpt>
    <trkpt lat="34.865052346" lon="127.822742363"></trkpt>
    <trkpt lat="34.865115452" lon="127.822794065"></trkpt>
    <trkpt lat="34.865243164" lon="127.822729994"></trkpt>
    <trkpt lat="34.865275981" lon="127.822673316"></trkpt>
    <trkpt lat="34.865297857" lon="127.82259502"></trkpt>
    <trkpt lat="34.865295534" lon="127.822417913"></trkpt>
    <trkpt lat="34.865285154" lon="127.82226123"></trkpt>
    <trkpt lat="34.865271004" lon="127.822138958"></trkpt>
    <trkpt lat="34.865273402" lon="127.822077443"></trkpt>
    <trkpt lat="34.865347643" lon="127.82199805"></trkpt>
    <trkpt lat="34.865516084" lon="127.82196857"></trkpt>
    <trkpt lat="34.86563618" lon="127.821957538"></trkpt>
    <trkpt lat="34.865808295" lon="127.821941559"></trkpt>
    <trkpt lat="34.865956654" lon="127.821897388"></trkpt>
    <trkpt lat="34.866096506" lon="127.821918325"></trkpt>
    <trkpt lat="34.866182069" lon="127.821925613"></trkpt>
    <trkpt lat="34.86631317" lon="127.821880549"></trkpt>
    <trkpt lat="34.866464534" lon="127.821852063"></trkpt>
    <trkpt lat="34.866644692" lon="127.821854391"></trkpt>
    <trkpt lat="34.866757819" lon="127.821886087"></trkpt>
    <trkpt lat="34.866933079" lon="127.821907938"></trkpt>
    <trkpt lat="34.867017417" lon="127.821910162"></trkpt>
    <trkpt lat="34.867150546" lon="127.821903823"></trkpt>
    <trkpt lat="34.867221758" lon="127.821801072"></trkpt>
    <trkpt lat="34.867268322" lon="127.821744237"></trkpt>
    <trkpt lat="34.867395842" lon="127.821731624"></trkpt>
    <trkpt lat="34.867553934" lon="127.821729577"></trkpt>
    <trkpt lat="34.867721577" lon="127.821700599"></trkpt>
    <trkpt lat="34.867807074" lon="127.82167716"></trkpt>
    <trkpt lat="34.867966871" lon="127.821711026"></trkpt>
    <trkpt lat="34.868123534" lon="127.821750624"></trkpt>
    <trkpt lat="34.868291033" lon="127.821797845"></trkpt>
    <trkpt lat="34.868531908" lon="127.821761379"></trkpt>
    <trkpt lat="34.868706641" lon="127.821692372"></trkpt>
    <trkpt lat="34.868942259" lon="127.821665128"></trkpt>
    <trkpt lat="34.869114579" lon="127.821688515"></trkpt>
    <trkpt lat="34.86923697" lon="127.821748498"></trkpt>
    <trkpt lat="34.869300089" lon="127.821832859"></trkpt>
    <trkpt lat="34.869354672" lon="127.821960388"></trkpt>
    <trkpt lat="34.869406477" lon="127.822136614"></trkpt>
    <trkpt lat="34.869467769" lon="127.822339986"></trkpt>
    <trkpt lat="34.869481631" lon="127.822401716"></trkpt>
    <trkpt lat="34.86950624" lon="127.822446963"></trkpt>
    <trkpt lat="34.869597143" lon="127.82250667"></trkpt>
    <trkpt lat="34.869703691" lon="127.822645791"></trkpt>
    <trkpt lat="34.869823507" lon="127.822791969"></trkpt>
    <trkpt lat="34.869917444" lon="127.822929033"></trkpt>
    <trkpt lat="34.870028631" lon="127.823085334"></trkpt>
    <trkpt lat="34.870124564" lon="127.823158714"></trkpt>
    <trkpt lat="34.870305307" lon="127.823283255"></trkpt>
    <trkpt lat="34.870379933" lon="127.823340207"></trkpt>
    <trkpt lat="34.870442269" lon="127.82344079"></trkpt>
    <trkpt lat="34.870490617" lon="127.823564163"></trkpt>
    <trkpt lat="34.870515541" lon="127.823660897"></trkpt>
    <trkpt lat="34.870513295" lon="127.82373626"></trkpt>
    <trkpt lat="34.870769724" lon="127.82368182"></trkpt>
    <trkpt lat="34.871110437" lon="127.823601368"></trkpt>
    <trkpt lat="34.871344084" lon="127.823451254"></trkpt>
    <trkpt lat="34.871537245" lon="127.823338725"></trkpt>
    <trkpt lat="34.871626099" lon="127.823305738"></trkpt>
    <trkpt lat="34.871702332" lon="127.823307507"></trkpt>
    <trkpt lat="34.871812119" lon="127.823342058"></trkpt>
    <trkpt lat="34.87190276" lon="127.823339951"></trkpt>
    <trkpt lat="34.87215338" lon="127.823312359"></trkpt>
    <trkpt lat="34.872464721" lon="127.823265174"></trkpt>
    <trkpt lat="34.872469484" lon="127.823220588"></trkpt>
    <trkpt lat="34.872738284" lon="127.822904056"></trkpt>
    <trkpt lat="34.872821873" lon="127.822898344"></trkpt>
    <trkpt lat="34.872955876" lon="127.822892636"></trkpt>
    <trkpt lat="34.873103183" lon="127.822808972"></trkpt>
    <trkpt lat="34.873228823" lon="127.822778428"></trkpt>
    <trkpt lat="34.873390368" lon="127.822776421"></trkpt>
    <trkpt lat="34.873470666" lon="127.822789576"></trkpt>
    <trkpt lat="34.873582896" lon="127.822838912"></trkpt>
    <trkpt lat="34.873818365" lon="127.822928668"></trkpt>
    <trkpt lat="34.873914823" lon="127.822897839"></trkpt>
    <trkpt lat="34.874042787" lon="127.822836359"></trkpt>
    <trkpt lat="34.874028558" lon="127.823026997"></trkpt>
    <trkpt lat="34.873985281" lon="127.823310041"></trkpt>
    <trkpt lat="34.873965939" lon="127.823465077"></trkpt>
    <trkpt lat="34.873881266" lon="127.824090951"></trkpt>
    <trkpt lat="34.873808784" lon="127.82466786"></trkpt>
    <trkpt lat="34.873731846" lon="127.825235989"></trkpt>
    <trkpt lat="34.873703025" lon="127.825446999"></trkpt>
    <trkpt lat="34.873680623" lon="127.825642272"></trkpt>
    <trkpt lat="34.873671028" lon="127.825710553"></trkpt>
    <trkpt lat="34.873299017" lon="127.826090344"></trkpt>
    <trkpt lat="34.873163505" lon="127.826348527"></trkpt>
    <trkpt lat="34.873089813" lon="127.826506056"></trkpt>
    <trkpt lat="34.87290352" lon="127.826797153"></trkpt>
    <trkpt lat="34.872774109" lon="127.827023671"></trkpt>
    <trkpt lat="34.872661652" lon="127.827108365"></trkpt>
    <trkpt lat="34.872525347" lon="127.827146002"></trkpt>
    <trkpt lat="34.872566637" lon="127.827526549"></trkpt>
    <trkpt lat="34.872597633" lon="127.827924429"></trkpt>
    <trkpt lat="34.872620864" lon="127.828257333"></trkpt>
    <trkpt lat="34.872648477" lon="127.828608209"></trkpt>
    <trkpt lat="34.872674209" lon="127.828929843"></trkpt>
    <trkpt lat="34.872705913" lon="127.829166829"></trkpt>
    <trkpt lat="34.872731014" lon="127.82943434"></trkpt>
    <trkpt lat="34.87273948" lon="127.829519265"></trkpt>
    <trkpt lat="34.872746467" lon="127.829575883"></trkpt>
  </trkseg>
</trk>
</gpx>
