<?xml version="1.0" encoding="utf-8" standalone="yes"?>
<gpx version="1.1" creator="GPS Visualizer https://www.gpsvisualizer.com/" xmlns="http://www.topografix.com/GPX/1/1" xmlns:xsi="http://www.w3.org/2001/XMLSchema-instance" xsi:schemaLocation="http://www.topografix.com/GPX/1/1 http://www.topografix.com/GPX/1/1/gpx.xsd">
<trk>
  <name>남파랑길 46코스 (남해바래길 14코스 이순신호국길) 20200906</name>
  <trkseg>
    <trkpt lat="34.872743056" lon="127.82959054"></trkpt>
    <trkpt lat="34.87273733" lon="127.829619093"></trkpt>
    <trkpt lat="34.872749247" lon="127.829939143"></trkpt>
    <trkpt lat="34.872772746" lon="127.830336198"></trkpt>
    <trkpt lat="34.872817152" lon="127.83073134"></trkpt>
    <trkpt lat="34.87285333" lon="127.83111903"></trkpt>
    <trkpt lat="34.872871715" lon="127.831482623"></trkpt>
    <trkpt lat="34.872916306" lon="127.831811185"></trkpt>
    <trkpt lat="34.872963435" lon="127.831925557"></trkpt>
    <trkpt lat="34.872999411" lon="127.832454293"></trkpt>
    <trkpt lat="34.873017008" lon="127.832804873"></trkpt>
    <trkpt lat="34.873046933" lon="127.83316516"></trkpt>
    <trkpt lat="34.873093648" lon="127.8335485"></trkpt>
    <trkpt lat="34.873120013" lon="127.833807111"></trkpt>
    <trkpt lat="34.87312826" lon="127.834036881"></trkpt>
    <trkpt lat="34.873084399" lon="127.834364834"></trkpt>
    <trkpt lat="34.873055238" lon="127.834612386"></trkpt>
    <trkpt lat="34.873062042" lon="127.834825778"></trkpt>
    <trkpt lat="34.873103963" lon="127.834944485"></trkpt>
    <trkpt lat="34.873140784" lon="127.835096967"></trkpt>
    <trkpt lat="34.87316749" lon="127.835304758"></trkpt>
    <trkpt lat="34.87312171" lon="127.835440059"></trkpt>
    <trkpt lat="34.87314162" lon="127.835654565"></trkpt>
    <trkpt lat="34.873203947" lon="127.835843884"></trkpt>
    <trkpt lat="34.873287831" lon="127.835998719"></trkpt>
    <trkpt lat="34.873401179" lon="127.836031415"></trkpt>
    <trkpt lat="34.873504747" lon="127.83605824"></trkpt>
    <trkpt lat="34.873633935" lon="127.836172029"></trkpt>
    <trkpt lat="34.873663617" lon="127.836355161"></trkpt>
    <trkpt lat="34.873671084" lon="127.836498775"></trkpt>
    <trkpt lat="34.873678612" lon="127.836638878"></trkpt>
    <trkpt lat="34.873644924" lon="127.836775822"></trkpt>
    <trkpt lat="34.873577669" lon="127.836959004"></trkpt>
    <trkpt lat="34.873528976" lon="127.837189926"></trkpt>
    <trkpt lat="34.873454477" lon="127.837472612"></trkpt>
    <trkpt lat="34.873470089" lon="127.837764842"></trkpt>
    <trkpt lat="34.873469228" lon="127.837914594"></trkpt>
    <trkpt lat="34.873463457" lon="127.838057985"></trkpt>
    <trkpt lat="34.873462206" lon="127.838190422"></trkpt>
    <trkpt lat="34.873471438" lon="127.838280228"></trkpt>
    <trkpt lat="34.873491434" lon="127.838442251"></trkpt>
    <trkpt lat="34.873512434" lon="127.838537269"></trkpt>
    <trkpt lat="34.873540777" lon="127.838652215"></trkpt>
    <trkpt lat="34.873574552" lon="127.838742678"></trkpt>
    <trkpt lat="34.873580363" lon="127.838828415"></trkpt>
    <trkpt lat="34.873596763" lon="127.838958958"></trkpt>
    <trkpt lat="34.873613693" lon="127.839154071"></trkpt>
    <trkpt lat="34.873623722" lon="127.839359916"></trkpt>
    <trkpt lat="34.873618688" lon="127.839438607"></trkpt>
    <trkpt lat="34.873617589" lon="127.839441078"></trkpt>
    <trkpt lat="34.873638011" lon="127.8396375"></trkpt>
    <trkpt lat="34.873653079" lon="127.83976501"></trkpt>
    <trkpt lat="34.873655655" lon="127.839940649"></trkpt>
    <trkpt lat="34.873672329" lon="127.840061491"></trkpt>
    <trkpt lat="34.873679279" lon="127.840128872"></trkpt>
    <trkpt lat="34.873688179" lon="127.840182192"></trkpt>
    <trkpt lat="34.873732562" lon="127.840213537"></trkpt>
    <trkpt lat="34.873744351" lon="127.840280528"></trkpt>
    <trkpt lat="34.873723838" lon="127.840454384"></trkpt>
    <trkpt lat="34.873697911" lon="127.840591263"></trkpt>
    <trkpt lat="34.873680183" lon="127.840751065"></trkpt>
    <trkpt lat="34.873684814" lon="127.84090857"></trkpt>
    <trkpt lat="34.873687674" lon="127.841021486"></trkpt>
    <trkpt lat="34.873656364" lon="127.841111628"></trkpt>
    <trkpt lat="34.873604191" lon="127.84115767"></trkpt>
    <trkpt lat="34.873515276" lon="127.841282411"></trkpt>
    <trkpt lat="34.873460984" lon="127.841367788"></trkpt>
    <trkpt lat="34.873473771" lon="127.841477147"></trkpt>
    <trkpt lat="34.873517912" lon="127.841564397"></trkpt>
    <trkpt lat="34.873666913" lon="127.841658751"></trkpt>
    <trkpt lat="34.873813721" lon="127.841766704"></trkpt>
    <trkpt lat="34.873919054" lon="127.841835973"></trkpt>
    <trkpt lat="34.874024429" lon="127.841843517"></trkpt>
    <trkpt lat="34.874140506" lon="127.8418993"></trkpt>
    <trkpt lat="34.874250739" lon="127.842003126"></trkpt>
    <trkpt lat="34.87434096" lon="127.842082902"></trkpt>
    <trkpt lat="34.874412135" lon="127.842128304"></trkpt>
    <trkpt lat="34.874459997" lon="127.842306577"></trkpt>
    <trkpt lat="34.874487751" lon="127.842358039"></trkpt>
    <trkpt lat="34.874538075" lon="127.842466091"></trkpt>
    <trkpt lat="34.87461712" lon="127.842534657"></trkpt>
    <trkpt lat="34.874721926" lon="127.842570144"></trkpt>
    <trkpt lat="34.874916494" lon="127.842612742"></trkpt>
    <trkpt lat="34.874889555" lon="127.842751727"></trkpt>
    <trkpt lat="34.874876511" lon="127.842848696"></trkpt>
    <trkpt lat="34.874839595" lon="127.842916471"></trkpt>
    <trkpt lat="34.874763087" lon="127.843029974"></trkpt>
    <trkpt lat="34.874760985" lon="127.84309897"></trkpt>
    <trkpt lat="34.874803258" lon="127.843145922"></trkpt>
    <trkpt lat="34.87491435" lon="127.843181118"></trkpt>
    <trkpt lat="34.87500592" lon="127.843199087"></trkpt>
    <trkpt lat="34.8750733" lon="127.843341004"></trkpt>
    <trkpt lat="34.875124343" lon="127.843485316"></trkpt>
    <trkpt lat="34.875202099" lon="127.84365748"></trkpt>
    <trkpt lat="34.875232377" lon="127.843708414"></trkpt>
    <trkpt lat="34.875343854" lon="127.843741488"></trkpt>
    <trkpt lat="34.875380886" lon="127.843841863"></trkpt>
    <trkpt lat="34.875490915" lon="127.843832383"></trkpt>
    <trkpt lat="34.875690202" lon="127.843758702"></trkpt>
    <trkpt lat="34.875945995" lon="127.843651239"></trkpt>
    <trkpt lat="34.876162033" lon="127.843515079"></trkpt>
    <trkpt lat="34.876340538" lon="127.843408555"></trkpt>
    <trkpt lat="34.87652059" lon="127.843385118"></trkpt>
    <trkpt lat="34.876831876" lon="127.843424594"></trkpt>
    <trkpt lat="34.877044317" lon="127.843455921"></trkpt>
    <trkpt lat="34.877182665" lon="127.843483041"></trkpt>
    <trkpt lat="34.877340316" lon="127.843586915"></trkpt>
    <trkpt lat="34.877425973" lon="127.843708941"></trkpt>
    <trkpt lat="34.877455615" lon="127.843819393"></trkpt>
    <trkpt lat="34.877462765" lon="127.843994795"></trkpt>
    <trkpt lat="34.877434085" lon="127.84425215"></trkpt>
    <trkpt lat="34.877342189" lon="127.844716379"></trkpt>
    <trkpt lat="34.877303695" lon="127.844922395"></trkpt>
    <trkpt lat="34.877240189" lon="127.845099931"></trkpt>
    <trkpt lat="34.877127767" lon="127.845362512"></trkpt>
    <trkpt lat="34.877071366" lon="127.845507467"></trkpt>
    <trkpt lat="34.877058892" lon="127.845774038"></trkpt>
    <trkpt lat="34.877054447" lon="127.845994893"></trkpt>
    <trkpt lat="34.877037482" lon="127.846110766"></trkpt>
    <trkpt lat="34.877013831" lon="127.846375966"></trkpt>
    <trkpt lat="34.877040512" lon="127.84657376"></trkpt>
    <trkpt lat="34.877099205" lon="127.846734159"></trkpt>
    <trkpt lat="34.877197745" lon="127.846790485"></trkpt>
    <trkpt lat="34.877287574" lon="127.846769587"></trkpt>
    <trkpt lat="34.877409213" lon="127.846718059"></trkpt>
    <trkpt lat="34.877507442" lon="127.846669852"></trkpt>
    <trkpt lat="34.87756798" lon="127.846682722"></trkpt>
    <trkpt lat="34.877608147" lon="127.846763451"></trkpt>
    <trkpt lat="34.87766731" lon="127.846933214"></trkpt>
    <trkpt lat="34.87778067" lon="127.847254749"></trkpt>
    <trkpt lat="34.877890536" lon="127.847555538"></trkpt>
    <trkpt lat="34.877991365" lon="127.847728307"></trkpt>
    <trkpt lat="34.878078944" lon="127.847858497"></trkpt>
    <trkpt lat="34.878158534" lon="127.847959565"></trkpt>
    <trkpt lat="34.878202942" lon="127.847999803"></trkpt>
    <trkpt lat="34.878251755" lon="127.847937425"></trkpt>
    <trkpt lat="34.878307863" lon="127.847845278"></trkpt>
    <trkpt lat="34.878394169" lon="127.847915747"></trkpt>
    <trkpt lat="34.878395452" lon="127.848024654"></trkpt>
    <trkpt lat="34.87844473" lon="127.848166767"></trkpt>
    <trkpt lat="34.878488629" lon="127.848262812"></trkpt>
    <trkpt lat="34.878509116" lon="127.848358508"></trkpt>
    <trkpt lat="34.878560608" lon="127.848385439"></trkpt>
    <trkpt lat="34.878615185" lon="127.848414261"></trkpt>
    <trkpt lat="34.878687757" lon="127.848471665"></trkpt>
    <trkpt lat="34.878744235" lon="127.848545025"></trkpt>
    <trkpt lat="34.878779891" lon="127.848621822"></trkpt>
    <trkpt lat="34.878824612" lon="127.848701331"></trkpt>
    <trkpt lat="34.878863139" lon="127.848647872"></trkpt>
    <trkpt lat="34.878932152" lon="127.848551148"></trkpt>
    <trkpt lat="34.879058303" lon="127.848484287"></trkpt>
    <trkpt lat="34.879219214" lon="127.848414375"></trkpt>
    <trkpt lat="34.879346485" lon="127.848361027"></trkpt>
    <trkpt lat="34.879503908" lon="127.84833548"></trkpt>
    <trkpt lat="34.879641268" lon="127.848308942"></trkpt>
    <trkpt lat="34.879764782" lon="127.848285358"></trkpt>
    <trkpt lat="34.879787438" lon="127.848238113"></trkpt>
    <trkpt lat="34.879798978" lon="127.848128825"></trkpt>
    <trkpt lat="34.879765694" lon="127.847982849"></trkpt>
    <trkpt lat="34.879802853" lon="127.84776832"></trkpt>
    <trkpt lat="34.879854056" lon="127.84763135"></trkpt>
    <trkpt lat="34.879915309" lon="127.847533174"></trkpt>
    <trkpt lat="34.879976246" lon="127.847482072"></trkpt>
    <trkpt lat="34.880048009" lon="127.847447713"></trkpt>
    <trkpt lat="34.880107357" lon="127.847385339"></trkpt>
    <trkpt lat="34.880153213" lon="127.847308736"></trkpt>
    <trkpt lat="34.880179222" lon="127.847172093"></trkpt>
    <trkpt lat="34.880212015" lon="127.847042403"></trkpt>
    <trkpt lat="34.880229945" lon="127.846926033"></trkpt>
    <trkpt lat="34.880218762" lon="127.846791033"></trkpt>
    <trkpt lat="34.880214103" lon="127.846623366"></trkpt>
    <trkpt lat="34.880219437" lon="127.846431743"></trkpt>
    <trkpt lat="34.880249901" lon="127.846330758"></trkpt>
    <trkpt lat="34.880261047" lon="127.846226951"></trkpt>
    <trkpt lat="34.880231649" lon="127.846129934"></trkpt>
    <trkpt lat="34.880183781" lon="127.846020126"></trkpt>
    <trkpt lat="34.88014678" lon="127.845944662"></trkpt>
    <trkpt lat="34.88010818" lon="127.84587685"></trkpt>
    <trkpt lat="34.880067319" lon="127.845854065"></trkpt>
    <trkpt lat="34.880035641" lon="127.84583875"></trkpt>
    <trkpt lat="34.880023014" lon="127.845774226"></trkpt>
    <trkpt lat="34.880056752" lon="127.845706942"></trkpt>
    <trkpt lat="34.880109302" lon="127.845660025"></trkpt>
    <trkpt lat="34.880194766" lon="127.845668576"></trkpt>
    <trkpt lat="34.880364587" lon="127.845676616"></trkpt>
    <trkpt lat="34.880468204" lon="127.845673417"></trkpt>
    <trkpt lat="34.880565763" lon="127.84564569"></trkpt>
    <trkpt lat="34.880672051" lon="127.845566367"></trkpt>
    <trkpt lat="34.880762724" lon="127.84544981"></trkpt>
    <trkpt lat="34.880840489" lon="127.84536806"></trkpt>
    <trkpt lat="34.880900028" lon="127.845279881"></trkpt>
    <trkpt lat="34.880966463" lon="127.845210879"></trkpt>
    <trkpt lat="34.881026052" lon="127.845115967"></trkpt>
    <trkpt lat="34.881100315" lon="127.845004136"></trkpt>
    <trkpt lat="34.881197067" lon="127.844855653"></trkpt>
    <trkpt lat="34.881283498" lon="127.844706497"></trkpt>
    <trkpt lat="34.881374095" lon="127.844515399"></trkpt>
    <trkpt lat="34.881503136" lon="127.844356377"></trkpt>
    <trkpt lat="34.881626404" lon="127.844235397"></trkpt>
    <trkpt lat="34.881828682" lon="127.844105383"></trkpt>
    <trkpt lat="34.881971274" lon="127.844000831"></trkpt>
    <trkpt lat="34.88211995" lon="127.843837029"></trkpt>
    <trkpt lat="34.882247102" lon="127.843710489"></trkpt>
    <trkpt lat="34.882352905" lon="127.84359273"></trkpt>
    <trkpt lat="34.882467249" lon="127.843437863"></trkpt>
    <trkpt lat="34.882556528" lon="127.843328625"></trkpt>
    <trkpt lat="34.882628906" lon="127.84324615"></trkpt>
    <trkpt lat="34.882861368" lon="127.843096479"></trkpt>
    <trkpt lat="34.883052348" lon="127.842983568"></trkpt>
    <trkpt lat="34.883193868" lon="127.842926531"></trkpt>
    <trkpt lat="34.883250607" lon="127.842945706"></trkpt>
    <trkpt lat="34.883299578" lon="127.842996132"></trkpt>
    <trkpt lat="34.883335009" lon="127.843049349"></trkpt>
    <trkpt lat="34.883381877" lon="127.843175511"></trkpt>
    <trkpt lat="34.883429712" lon="127.843290716"></trkpt>
    <trkpt lat="34.883495234" lon="127.843415821"></trkpt>
    <trkpt lat="34.883560832" lon="127.84355657"></trkpt>
    <trkpt lat="34.883626463" lon="127.843702242"></trkpt>
    <trkpt lat="34.88367379" lon="127.843848384"></trkpt>
    <trkpt lat="34.883701772" lon="127.843950973"></trkpt>
    <trkpt lat="34.883729292" lon="127.844057841"></trkpt>
    <trkpt lat="34.883747103" lon="127.844180615"></trkpt>
    <trkpt lat="34.883747294" lon="127.844342085"></trkpt>
    <trkpt lat="34.883723665" lon="127.844448866"></trkpt>
    <trkpt lat="34.883616616" lon="127.844640095"></trkpt>
    <trkpt lat="34.883560882" lon="127.844768747"></trkpt>
    <trkpt lat="34.88353333" lon="127.844883147"></trkpt>
    <trkpt lat="34.883495993" lon="127.845026529"></trkpt>
    <trkpt lat="34.883441237" lon="127.845147034"></trkpt>
    <trkpt lat="34.883326619" lon="127.845318313"></trkpt>
    <trkpt lat="34.883218364" lon="127.845579941"></trkpt>
    <trkpt lat="34.883174175" lon="127.845693933"></trkpt>
    <trkpt lat="34.883110302" lon="127.845817878"></trkpt>
    <trkpt lat="34.883050226" lon="127.84590343"></trkpt>
    <trkpt lat="34.883006996" lon="127.845963023"></trkpt>
    <trkpt lat="34.882931996" lon="127.846032297"></trkpt>
    <trkpt lat="34.882857766" lon="127.846124984"></trkpt>
    <trkpt lat="34.882777473" lon="127.846252531"></trkpt>
    <trkpt lat="34.882720973" lon="127.846381325"></trkpt>
    <trkpt lat="34.882686757" lon="127.846522793"></trkpt>
    <trkpt lat="34.882697609" lon="127.846744436"></trkpt>
    <trkpt lat="34.882704797" lon="127.846934334"></trkpt>
    <trkpt lat="34.88270716" lon="127.847121275"></trkpt>
    <trkpt lat="34.88271115" lon="127.847312786"></trkpt>
    <trkpt lat="34.882709391" lon="127.847484731"></trkpt>
    <trkpt lat="34.882696498" lon="127.847608369"></trkpt>
    <trkpt lat="34.882703298" lon="127.847691326"></trkpt>
    <trkpt lat="34.882727152" lon="127.847770788"></trkpt>
    <trkpt lat="34.882739637" lon="127.84780554"></trkpt>
    <trkpt lat="34.882773989" lon="127.84790219"></trkpt>
    <trkpt lat="34.882826309" lon="127.848003567"></trkpt>
    <trkpt lat="34.88286436" lon="127.848163152"></trkpt>
    <trkpt lat="34.88290124" lon="127.848374733"></trkpt>
    <trkpt lat="34.882901236" lon="127.84838103"></trkpt>
    <trkpt lat="34.882912771" lon="127.848517096"></trkpt>
    <trkpt lat="34.882917727" lon="127.848661177"></trkpt>
    <trkpt lat="34.882902262" lon="127.848786523"></trkpt>
    <trkpt lat="34.882890654" lon="127.848906041"></trkpt>
    <trkpt lat="34.882910946" lon="127.849035958"></trkpt>
    <trkpt lat="34.88296631" lon="127.849217269"></trkpt>
    <trkpt lat="34.883015904" lon="127.849412678"></trkpt>
    <trkpt lat="34.883054693" lon="127.849542904"></trkpt>
    <trkpt lat="34.883093457" lon="127.849667748"></trkpt>
    <trkpt lat="34.883112355" lon="127.849852754"></trkpt>
    <trkpt lat="34.883116902" lon="127.850002149"></trkpt>
    <trkpt lat="34.88312548" lon="127.850182168"></trkpt>
    <trkpt lat="34.883137103" lon="127.850345882"></trkpt>
    <trkpt lat="34.883138386" lon="127.85051785"></trkpt>
    <trkpt lat="34.883161329" lon="127.850708886"></trkpt>
    <trkpt lat="34.883200862" lon="127.851030508"></trkpt>
    <trkpt lat="34.883212838" lon="127.851107059"></trkpt>
    <trkpt lat="34.883280856" lon="127.851153288"></trkpt>
    <trkpt lat="34.883357175" lon="127.851196818"></trkpt>
    <trkpt lat="34.88345839" lon="127.851238856"></trkpt>
    <trkpt lat="34.883590473" lon="127.851273823"></trkpt>
    <trkpt lat="34.88367681" lon="127.851299884"></trkpt>
    <trkpt lat="34.883803746" lon="127.851354842"></trkpt>
    <trkpt lat="34.883886396" lon="127.851402296"></trkpt>
    <trkpt lat="34.883959136" lon="127.851440704"></trkpt>
    <trkpt lat="34.884016861" lon="127.851468386"></trkpt>
    <trkpt lat="34.884091558" lon="127.851523049"></trkpt>
    <trkpt lat="34.884176876" lon="127.851584243"></trkpt>
    <trkpt lat="34.884254732" lon="127.851674175"></trkpt>
    <trkpt lat="34.884404991" lon="127.851828688"></trkpt>
    <trkpt lat="34.884504658" lon="127.851946163"></trkpt>
    <trkpt lat="34.884598731" lon="127.852041588"></trkpt>
    <trkpt lat="34.884667883" lon="127.852105218"></trkpt>
    <trkpt lat="34.884722332" lon="127.852127804"></trkpt>
    <trkpt lat="34.88481042" lon="127.85214745"></trkpt>
    <trkpt lat="34.884942699" lon="127.852179206"></trkpt>
    <trkpt lat="34.885078221" lon="127.852233683"></trkpt>
    <trkpt lat="34.885165621" lon="127.85226672"></trkpt>
    <trkpt lat="34.885216482" lon="127.852289158"></trkpt>
    <trkpt lat="34.885263336" lon="127.852340395"></trkpt>
    <trkpt lat="34.885294182" lon="127.852388871"></trkpt>
    <trkpt lat="34.885364074" lon="127.852498337"></trkpt>
    <trkpt lat="34.885417132" lon="127.852573906"></trkpt>
    <trkpt lat="34.885480513" lon="127.852642178"></trkpt>
    <trkpt lat="34.885565184" lon="127.852708902"></trkpt>
    <trkpt lat="34.885608811" lon="127.852753116"></trkpt>
    <trkpt lat="34.885672378" lon="127.852795663"></trkpt>
    <trkpt lat="34.885713579" lon="127.85282767"></trkpt>
    <trkpt lat="34.885767608" lon="127.852889016"></trkpt>
    <trkpt lat="34.885807453" lon="127.852962163"></trkpt>
    <trkpt lat="34.885831818" lon="127.853030785"></trkpt>
    <trkpt lat="34.885850228" lon="127.853154338"></trkpt>
    <trkpt lat="34.885867758" lon="127.853290517"></trkpt>
    <trkpt lat="34.885885841" lon="127.853337016"></trkpt>
    <trkpt lat="34.885913178" lon="127.853396729"></trkpt>
    <trkpt lat="34.885941702" lon="127.853422231"></trkpt>
    <trkpt lat="34.885992368" lon="127.853465991"></trkpt>
    <trkpt lat="34.886031963" lon="127.853474364"></trkpt>
    <trkpt lat="34.886094957" lon="127.853490078"></trkpt>
    <trkpt lat="34.886155076" lon="127.853505953"></trkpt>
    <trkpt lat="34.886157395" lon="127.853507229"></trkpt>
    <trkpt lat="34.886195903" lon="127.853533287"></trkpt>
    <trkpt lat="34.886244635" lon="127.853559893"></trkpt>
    <trkpt lat="34.886311701" lon="127.853601897"></trkpt>
    <trkpt lat="34.886348968" lon="127.853682432"></trkpt>
    <trkpt lat="34.886359345" lon="127.853735633"></trkpt>
    <trkpt lat="34.886359387" lon="127.853802047"></trkpt>
    <trkpt lat="34.886352271" lon="127.853888829"></trkpt>
    <trkpt lat="34.886344195" lon="127.853941109"></trkpt>
    <trkpt lat="34.88634042" lon="127.854013479"></trkpt>
    <trkpt lat="34.886333552" lon="127.854052913"></trkpt>
    <trkpt lat="34.886346489" lon="127.854114869"></trkpt>
    <trkpt lat="34.886386078" lon="127.854204856"></trkpt>
    <trkpt lat="34.886436675" lon="127.854271039"></trkpt>
    <trkpt lat="34.886519503" lon="127.854378545"></trkpt>
    <trkpt lat="34.886572742" lon="127.85440883"></trkpt>
    <trkpt lat="34.886615704" lon="127.854475944"></trkpt>
    <trkpt lat="34.886646191" lon="127.854554506"></trkpt>
    <trkpt lat="34.886709037" lon="127.854737249"></trkpt>
    <trkpt lat="34.886751004" lon="127.854959416"></trkpt>
    <trkpt lat="34.886769057" lon="127.855127162"></trkpt>
    <trkpt lat="34.88679489" lon="127.855296739"></trkpt>
    <trkpt lat="34.886828233" lon="127.855405373"></trkpt>
    <trkpt lat="34.886888202" lon="127.8554633"></trkpt>
    <trkpt lat="34.886964848" lon="127.855566478"></trkpt>
    <trkpt lat="34.887010279" lon="127.855642116"></trkpt>
    <trkpt lat="34.887044478" lon="127.85573323"></trkpt>
    <trkpt lat="34.887062872" lon="127.855831882"></trkpt>
    <trkpt lat="34.88711113" lon="127.855953937"></trkpt>
    <trkpt lat="34.887171411" lon="127.856034608"></trkpt>
    <trkpt lat="34.887210013" lon="127.856087128"></trkpt>
    <trkpt lat="34.887236078" lon="127.856181863"></trkpt>
    <trkpt lat="34.887255783" lon="127.856272846"></trkpt>
    <trkpt lat="34.887247869" lon="127.856340678"></trkpt>
    <trkpt lat="34.887187355" lon="127.856524205"></trkpt>
    <trkpt lat="34.887188386" lon="127.856638767"></trkpt>
    <trkpt lat="34.887221639" lon="127.85681388"></trkpt>
    <trkpt lat="34.887260216" lon="127.856969576"></trkpt>
    <trkpt lat="34.887305935" lon="127.85719868"></trkpt>
    <trkpt lat="34.887394419" lon="127.857522517"></trkpt>
    <trkpt lat="34.887488343" lon="127.857987789"></trkpt>
    <trkpt lat="34.88751674" lon="127.858056988"></trkpt>
    <trkpt lat="34.887539017" lon="127.858165653"></trkpt>
    <trkpt lat="34.887531374" lon="127.858230109"></trkpt>
    <trkpt lat="34.887509086" lon="127.858345411"></trkpt>
    <trkpt lat="34.88749271" lon="127.858455235"></trkpt>
    <trkpt lat="34.887510111" lon="127.85854711"></trkpt>
    <trkpt lat="34.887531291" lon="127.858644752"></trkpt>
    <trkpt lat="34.887568652" lon="127.858782627"></trkpt>
    <trkpt lat="34.887568885" lon="127.858804144"></trkpt>
    <trkpt lat="34.887570012" lon="127.858903771"></trkpt>
    <trkpt lat="34.88757203" lon="127.859074964"></trkpt>
    <trkpt lat="34.88758222" lon="127.859178979"></trkpt>
    <trkpt lat="34.88759945" lon="127.859267104"></trkpt>
    <trkpt lat="34.887648007" lon="127.859410712"></trkpt>
    <trkpt lat="34.8876986" lon="127.859578465"></trkpt>
    <trkpt lat="34.887737057" lon="127.859672228"></trkpt>
    <trkpt lat="34.887775007" lon="127.859832066"></trkpt>
    <trkpt lat="34.887821609" lon="127.859965868"></trkpt>
    <trkpt lat="34.88784974" lon="127.860060136"></trkpt>
    <trkpt lat="34.887881495" lon="127.860171865"></trkpt>
    <trkpt lat="34.887942835" lon="127.860310693"></trkpt>
    <trkpt lat="34.887962045" lon="127.860384807"></trkpt>
    <trkpt lat="34.88797602" lon="127.860500492"></trkpt>
    <trkpt lat="34.887986567" lon="127.860595824"></trkpt>
    <trkpt lat="34.888007602" lon="127.86068148"></trkpt>
    <trkpt lat="34.888026838" lon="127.860740845"></trkpt>
    <trkpt lat="34.888064901" lon="127.860788475"></trkpt>
    <trkpt lat="34.888110509" lon="127.860869024"></trkpt>
    <trkpt lat="34.888132033" lon="127.861000301"></trkpt>
    <trkpt lat="34.888169898" lon="127.861209421"></trkpt>
    <trkpt lat="34.88823405" lon="127.861498164"></trkpt>
    <trkpt lat="34.888292731" lon="127.861703811"></trkpt>
    <trkpt lat="34.888366996" lon="127.86207132"></trkpt>
    <trkpt lat="34.888409236" lon="127.86221481"></trkpt>
    <trkpt lat="34.888440769" lon="127.862349397"></trkpt>
    <trkpt lat="34.888520599" lon="127.862548253"></trkpt>
    <trkpt lat="34.88861527" lon="127.862715076"></trkpt>
    <trkpt lat="34.888618111" lon="127.862722301"></trkpt>
    <trkpt lat="34.888707625" lon="127.862833373"></trkpt>
    <trkpt lat="34.888763918" lon="127.86298059"></trkpt>
    <trkpt lat="34.888796869" lon="127.863128714"></trkpt>
    <trkpt lat="34.888868825" lon="127.863303494"></trkpt>
    <trkpt lat="34.888918597" lon="127.863412613"></trkpt>
    <trkpt lat="34.88900308" lon="127.863516939"></trkpt>
    <trkpt lat="34.88906352" lon="127.863590976"></trkpt>
    <trkpt lat="34.889123625" lon="127.863623502"></trkpt>
    <trkpt lat="34.889193419" lon="127.863628204"></trkpt>
    <trkpt lat="34.889266444" lon="127.863604478"></trkpt>
    <trkpt lat="34.889344706" lon="127.863587201"></trkpt>
    <trkpt lat="34.889586539" lon="127.863493553"></trkpt>
    <trkpt lat="34.889697111" lon="127.863451881"></trkpt>
    <trkpt lat="34.889806998" lon="127.863408424"></trkpt>
    <trkpt lat="34.889875198" lon="127.863393071"></trkpt>
    <trkpt lat="34.889908932" lon="127.863394447"></trkpt>
    <trkpt lat="34.889954624" lon="127.863408589"></trkpt>
    <trkpt lat="34.889990998" lon="127.863465937"></trkpt>
    <trkpt lat="34.890058819" lon="127.863615694"></trkpt>
    <trkpt lat="34.890127112" lon="127.863747212"></trkpt>
    <trkpt lat="34.89018178" lon="127.863885771"></trkpt>
    <trkpt lat="34.890191952" lon="127.864003795"></trkpt>
    <trkpt lat="34.890169499" lon="127.864111926"></trkpt>
    <trkpt lat="34.890143308" lon="127.864210796"></trkpt>
    <trkpt lat="34.890087132" lon="127.864295578"></trkpt>
    <trkpt lat="34.890051467" lon="127.864399921"></trkpt>
    <trkpt lat="34.890036067" lon="127.864465852"></trkpt>
    <trkpt lat="34.889985829" lon="127.864555008"></trkpt>
    <trkpt lat="34.889914441" lon="127.864635537"></trkpt>
    <trkpt lat="34.889847599" lon="127.864743573"></trkpt>
    <trkpt lat="34.88983085" lon="127.864859972"></trkpt>
    <trkpt lat="34.889804376" lon="127.865031246"></trkpt>
    <trkpt lat="34.889776976" lon="127.865188457"></trkpt>
    <trkpt lat="34.889750813" lon="127.865342389"></trkpt>
    <trkpt lat="34.889739105" lon="127.865484963"></trkpt>
    <trkpt lat="34.889700851" lon="127.865633384"></trkpt>
    <trkpt lat="34.889675035" lon="127.865716723"></trkpt>
    <trkpt lat="34.889662284" lon="127.865830387"></trkpt>
    <trkpt lat="34.889668422" lon="127.865970863"></trkpt>
    <trkpt lat="34.889706003" lon="127.866011935"></trkpt>
    <trkpt lat="34.889812297" lon="127.866056246"></trkpt>
    <trkpt lat="34.889938321" lon="127.866059395"></trkpt>
    <trkpt lat="34.890028124" lon="127.86603335"></trkpt>
    <trkpt lat="34.890190421" lon="127.865998061"></trkpt>
    <trkpt lat="34.89025528" lon="127.865981552"></trkpt>
    <trkpt lat="34.890342963" lon="127.865957959"></trkpt>
    <trkpt lat="34.890408532" lon="127.865994298"></trkpt>
    <trkpt lat="34.890450026" lon="127.866071685"></trkpt>
    <trkpt lat="34.890461205" lon="127.866166366"></trkpt>
    <trkpt lat="34.890489307" lon="127.866229949"></trkpt>
    <trkpt lat="34.89052509" lon="127.866286379"></trkpt>
    <trkpt lat="34.890565889" lon="127.866344034"></trkpt>
    <trkpt lat="34.890613175" lon="127.866485283"></trkpt>
    <trkpt lat="34.890627443" lon="127.866597157"></trkpt>
    <trkpt lat="34.890592501" lon="127.866717754"></trkpt>
    <trkpt lat="34.890551791" lon="127.866884324"></trkpt>
    <trkpt lat="34.890497779" lon="127.8670347"></trkpt>
    <trkpt lat="34.890503828" lon="127.867205565"></trkpt>
    <trkpt lat="34.890562931" lon="127.867382233"></trkpt>
    <trkpt lat="34.890703638" lon="127.867619835"></trkpt>
    <trkpt lat="34.890764194" lon="127.867773444"></trkpt>
    <trkpt lat="34.89085481" lon="127.867916421"></trkpt>
    <trkpt lat="34.890959795" lon="127.868081208"></trkpt>
    <trkpt lat="34.891022456" lon="127.868226092"></trkpt>
    <trkpt lat="34.891193004" lon="127.868413479"></trkpt>
    <trkpt lat="34.891343766" lon="127.868541097"></trkpt>
    <trkpt lat="34.891484645" lon="127.868666864"></trkpt>
    <trkpt lat="34.89159746" lon="127.868756723"></trkpt>
    <trkpt lat="34.891732607" lon="127.868809886"></trkpt>
    <trkpt lat="34.891873116" lon="127.868820553"></trkpt>
    <trkpt lat="34.892027803" lon="127.868844297"></trkpt>
    <trkpt lat="34.892167448" lon="127.868908674"></trkpt>
    <trkpt lat="34.892274519" lon="127.868990322"></trkpt>
    <trkpt lat="34.892393914" lon="127.869126883"></trkpt>
    <trkpt lat="34.892501935" lon="127.869256035"></trkpt>
    <trkpt lat="34.892642237" lon="127.869314895"></trkpt>
    <trkpt lat="34.892761921" lon="127.869319874"></trkpt>
    <trkpt lat="34.892850049" lon="127.869307339"></trkpt>
    <trkpt lat="34.89298038" lon="127.869247312"></trkpt>
    <trkpt lat="34.893098609" lon="127.869213191"></trkpt>
    <trkpt lat="34.893115093" lon="127.869265294"></trkpt>
    <trkpt lat="34.893098934" lon="127.869421971"></trkpt>
    <trkpt lat="34.893041143" lon="127.869722523"></trkpt>
    <trkpt lat="34.892996139" lon="127.869919247"></trkpt>
    <trkpt lat="34.892907528" lon="127.870129034"></trkpt>
    <trkpt lat="34.892936605" lon="127.870200782"></trkpt>
    <trkpt lat="34.893073942" lon="127.870272156"></trkpt>
    <trkpt lat="34.893379555" lon="127.870468987"></trkpt>
    <trkpt lat="34.893482557" lon="127.870595487"></trkpt>
    <trkpt lat="34.893560272" lon="127.870758614"></trkpt>
    <trkpt lat="34.893690396" lon="127.871047393"></trkpt>
    <trkpt lat="34.893893846" lon="127.871501587"></trkpt>
    <trkpt lat="34.894036861" lon="127.871790133"></trkpt>
    <trkpt lat="34.894156476" lon="127.872064318"></trkpt>
    <trkpt lat="34.89419437" lon="127.872220067"></trkpt>
    <trkpt lat="34.894220919" lon="127.872620743"></trkpt>
    <trkpt lat="34.894255315" lon="127.87281384"></trkpt>
    <trkpt lat="34.894327538" lon="127.872989067"></trkpt>
    <trkpt lat="34.894498689" lon="127.873299431"></trkpt>
    <trkpt lat="34.894783391" lon="127.873739624"></trkpt>
    <trkpt lat="34.894977308" lon="127.874015469"></trkpt>
    <trkpt lat="34.895087" lon="127.87407617"></trkpt>
    <trkpt lat="34.895374651" lon="127.873798295"></trkpt>
    <trkpt lat="34.895676614" lon="127.873488066"></trkpt>
    <trkpt lat="34.895776398" lon="127.873382031"></trkpt>
    <trkpt lat="34.89589875" lon="127.873271102"></trkpt>
    <trkpt lat="34.896131658" lon="127.873024192"></trkpt>
    <trkpt lat="34.896258677" lon="127.872857763"></trkpt>
    <trkpt lat="34.896392543" lon="127.872745793"></trkpt>
    <trkpt lat="34.896531001" lon="127.872662393"></trkpt>
    <trkpt lat="34.8966194" lon="127.872583202"></trkpt>
    <trkpt lat="34.896753803" lon="127.872533287"></trkpt>
    <trkpt lat="34.896896634" lon="127.872494322"></trkpt>
    <trkpt lat="34.896982147" lon="127.872484188"></trkpt>
    <trkpt lat="34.896938401" lon="127.872105517"></trkpt>
    <trkpt lat="34.896923653" lon="127.871551202"></trkpt>
    <trkpt lat="34.896889826" lon="127.871275881"></trkpt>
    <trkpt lat="34.896899528" lon="127.870912226"></trkpt>
    <trkpt lat="34.896901272" lon="127.870779467"></trkpt>
    <trkpt lat="34.896939266" lon="127.870717435"></trkpt>
    <trkpt lat="34.897042668" lon="127.870712212"></trkpt>
    <trkpt lat="34.897089634" lon="127.870707952"></trkpt>
    <trkpt lat="34.897073009" lon="127.870543764"></trkpt>
    <trkpt lat="34.897052601" lon="127.870472378"></trkpt>
    <trkpt lat="34.897123381" lon="127.870384664"></trkpt>
    <trkpt lat="34.897365657" lon="127.870153606"></trkpt>
    <trkpt lat="34.897538173" lon="127.870001888"></trkpt>
    <trkpt lat="34.897833705" lon="127.869735775"></trkpt>
    <trkpt lat="34.898225731" lon="127.869053158"></trkpt>
    <trkpt lat="34.898899205" lon="127.86781583"></trkpt>
    <trkpt lat="34.899392295" lon="127.866796458"></trkpt>
    <trkpt lat="34.899572977" lon="127.866196851"></trkpt>
    <trkpt lat="34.89991221" lon="127.865223074"></trkpt>
    <trkpt lat="34.900159832" lon="127.864731255"></trkpt>
    <trkpt lat="34.900699748" lon="127.863623641"></trkpt>
    <trkpt lat="34.901199277" lon="127.862747703"></trkpt>
    <trkpt lat="34.901310793" lon="127.862450388"></trkpt>
    <trkpt lat="34.901368748" lon="127.862238812"></trkpt>
    <trkpt lat="34.901577008" lon="127.862420647"></trkpt>
    <trkpt lat="34.901978446" lon="127.862763841"></trkpt>
    <trkpt lat="34.90234885" lon="127.863095448"></trkpt>
    <trkpt lat="34.903007462" lon="127.863693038"></trkpt>
    <trkpt lat="34.903212534" lon="127.863879984"></trkpt>
    <trkpt lat="34.903732765" lon="127.864343999"></trkpt>
    <trkpt lat="34.90387907" lon="127.864476723"></trkpt>
    <trkpt lat="34.904006258" lon="127.864530491"></trkpt>
    <trkpt lat="34.904078154" lon="127.864517961"></trkpt>
    <trkpt lat="34.904228952" lon="127.864341315"></trkpt>
    <trkpt lat="34.904331406" lon="127.864251053"></trkpt>
    <trkpt lat="34.904419623" lon="127.864221989"></trkpt>
    <trkpt lat="34.904495257" lon="127.864235159"></trkpt>
    <trkpt lat="34.904662587" lon="127.864307782"></trkpt>
    <trkpt lat="34.904667049" lon="127.864310601"></trkpt>
    <trkpt lat="34.904850859" lon="127.864396739"></trkpt>
    <trkpt lat="34.905005134" lon="127.8644786"></trkpt>
    <trkpt lat="34.905115137" lon="127.864543647"></trkpt>
    <trkpt lat="34.905173036" lon="127.864575498"></trkpt>
    <trkpt lat="34.905274212" lon="127.864560253"></trkpt>
    <trkpt lat="34.905436461" lon="127.864534861"></trkpt>
    <trkpt lat="34.905584108" lon="127.864520234"></trkpt>
    <trkpt lat="34.905626231" lon="127.864528881"></trkpt>
    <trkpt lat="34.905647161" lon="127.864583758"></trkpt>
    <trkpt lat="34.905671009" lon="127.864651738"></trkpt>
    <trkpt lat="34.905715962" lon="127.864685408"></trkpt>
    <trkpt lat="34.905751315" lon="127.864702591"></trkpt>
    <trkpt lat="34.905799843" lon="127.864722754"></trkpt>
    <trkpt lat="34.905830308" lon="127.864756575"></trkpt>
    <trkpt lat="34.905879172" lon="127.864821856"></trkpt>
    <trkpt lat="34.905932242" lon="127.864875658"></trkpt>
    <trkpt lat="34.905971753" lon="127.864896638"></trkpt>
    <trkpt lat="34.906022642" lon="127.864939007"></trkpt>
    <trkpt lat="34.906092813" lon="127.86502196"></trkpt>
    <trkpt lat="34.906167909" lon="127.865073353"></trkpt>
    <trkpt lat="34.906194343" lon="127.865118059"></trkpt>
    <trkpt lat="34.906195353" lon="127.865121923"></trkpt>
    <trkpt lat="34.906196359" lon="127.865129595"></trkpt>
    <trkpt lat="34.906201355" lon="127.865184291"></trkpt>
    <trkpt lat="34.906151756" lon="127.865264298"></trkpt>
    <trkpt lat="34.906094928" lon="127.865330337"></trkpt>
    <trkpt lat="34.906059482" lon="127.8654034"></trkpt>
    <trkpt lat="34.906051514" lon="127.865443242"></trkpt>
    <trkpt lat="34.9060781" lon="127.865455019"></trkpt>
    <trkpt lat="34.906108722" lon="127.86544074"></trkpt>
    <trkpt lat="34.906156513" lon="127.865396023"></trkpt>
    <trkpt lat="34.906276811" lon="127.865253463"></trkpt>
    <trkpt lat="34.906368782" lon="127.865101261"></trkpt>
    <trkpt lat="34.906411127" lon="127.865001745"></trkpt>
    <trkpt lat="34.906453036" lon="127.864852376"></trkpt>
    <trkpt lat="34.906426079" lon="127.864659877"></trkpt>
    <trkpt lat="34.906383121" lon="127.864372218"></trkpt>
    <trkpt lat="34.906311112" lon="127.863997313"></trkpt>
    <trkpt lat="34.906251051" lon="127.863652355"></trkpt>
    <trkpt lat="34.906242437" lon="127.863305247"></trkpt>
    <trkpt lat="34.906259562" lon="127.863057022"></trkpt>
    <trkpt lat="34.906307311" lon="127.862820874"></trkpt>
    <trkpt lat="34.906374267" lon="127.862597288"></trkpt>
    <trkpt lat="34.906550468" lon="127.862204141"></trkpt>
    <trkpt lat="34.906683295" lon="127.86196367"></trkpt>
    <trkpt lat="34.906779588" lon="127.861783995"></trkpt>
    <trkpt lat="34.906891417" lon="127.861674065"></trkpt>
    <trkpt lat="34.907024142" lon="127.861616611"></trkpt>
    <trkpt lat="34.907134495" lon="127.861615398"></trkpt>
    <trkpt lat="34.907272209" lon="127.861662998"></trkpt>
    <trkpt lat="34.907353043" lon="127.861751945"></trkpt>
    <trkpt lat="34.907443005" lon="127.861865782"></trkpt>
    <trkpt lat="34.907528742" lon="127.861958392"></trkpt>
    <trkpt lat="34.90762013" lon="127.861989329"></trkpt>
    <trkpt lat="34.907836463" lon="127.861973653"></trkpt>
    <trkpt lat="34.907964853" lon="127.861919481"></trkpt>
    <trkpt lat="34.908051844" lon="127.861853375"></trkpt>
    <trkpt lat="34.908206383" lon="127.861691499"></trkpt>
    <trkpt lat="34.908266636" lon="127.861549527"></trkpt>
    <trkpt lat="34.908302969" lon="127.861430365"></trkpt>
    <trkpt lat="34.908312221" lon="127.861248957"></trkpt>
    <trkpt lat="34.90834116" lon="127.860895411"></trkpt>
    <trkpt lat="34.908399238" lon="127.860642937"></trkpt>
    <trkpt lat="34.90852635" lon="127.860291941"></trkpt>
    <trkpt lat="34.908659122" lon="127.860004648"></trkpt>
    <trkpt lat="34.908760969" lon="127.859814751"></trkpt>
    <trkpt lat="34.90888093" lon="127.85970517"></trkpt>
    <trkpt lat="34.909038361" lon="127.859621789"></trkpt>
    <trkpt lat="34.909209865" lon="127.859552605"></trkpt>
    <trkpt lat="34.90943757" lon="127.859572557"></trkpt>
    <trkpt lat="34.909570097" lon="127.859612339"></trkpt>
    <trkpt lat="34.909712972" lon="127.859668555"></trkpt>
    <trkpt lat="34.909814536" lon="127.859673392"></trkpt>
    <trkpt lat="34.909913162" lon="127.859625375"></trkpt>
    <trkpt lat="34.910034041" lon="127.85954456"></trkpt>
    <trkpt lat="34.910307728" lon="127.859407246"></trkpt>
    <trkpt lat="34.910586776" lon="127.859271167"></trkpt>
    <trkpt lat="34.910827954" lon="127.859158264"></trkpt>
    <trkpt lat="34.910918433" lon="127.859078321"></trkpt>
    <trkpt lat="34.911027178" lon="127.859009673"></trkpt>
    <trkpt lat="34.911159088" lon="127.85894925"></trkpt>
    <trkpt lat="34.911193152" lon="127.858869965"></trkpt>
    <trkpt lat="34.911170589" lon="127.85876003"></trkpt>
    <trkpt lat="34.911161615" lon="127.858707813"></trkpt>
    <trkpt lat="34.911168609" lon="127.858575657"></trkpt>
    <trkpt lat="34.911182151" lon="127.858470871"></trkpt>
    <trkpt lat="34.911193609" lon="127.858429367"></trkpt>
    <trkpt lat="34.911300747" lon="127.858381635"></trkpt>
    <trkpt lat="34.911474428" lon="127.858304405"></trkpt>
    <trkpt lat="34.911624817" lon="127.858223814"></trkpt>
    <trkpt lat="34.911947338" lon="127.85808482"></trkpt>
    <trkpt lat="34.912079294" lon="127.858004137"></trkpt>
    <trkpt lat="34.912282936" lon="127.857917682"></trkpt>
    <trkpt lat="34.912351116" lon="127.857906591"></trkpt>
    <trkpt lat="34.912422362" lon="127.857944692"></trkpt>
    <trkpt lat="34.912487314" lon="127.858005464"></trkpt>
    <trkpt lat="34.912564605" lon="127.858047213"></trkpt>
    <trkpt lat="34.91263244" lon="127.858066289"></trkpt>
    <trkpt lat="34.912714586" lon="127.858048171"></trkpt>
    <trkpt lat="34.91283656" lon="127.857966239"></trkpt>
    <trkpt lat="34.91291701" lon="127.857898759"></trkpt>
    <trkpt lat="34.913059109" lon="127.857914009"></trkpt>
    <trkpt lat="34.913126631" lon="127.857894875"></trkpt>
    <trkpt lat="34.913215735" lon="127.857834266"></trkpt>
    <trkpt lat="34.91334527" lon="127.857774264"></trkpt>
    <trkpt lat="34.913410005" lon="127.857759325"></trkpt>
    <trkpt lat="34.913471628" lon="127.857770434"></trkpt>
    <trkpt lat="34.913530205" lon="127.857807898"></trkpt>
    <trkpt lat="34.9135857" lon="127.857856839"></trkpt>
    <trkpt lat="34.913638062" lon="127.857864398"></trkpt>
    <trkpt lat="34.913715108" lon="127.857826573"></trkpt>
    <trkpt lat="34.913761348" lon="127.85780766"></trkpt>
    <trkpt lat="34.913863101" lon="127.857769826"></trkpt>
    <trkpt lat="34.913955971" lon="127.857720179"></trkpt>
    <trkpt lat="34.914018096" lon="127.857662988"></trkpt>
    <trkpt lat="34.914052307" lon="127.857632442"></trkpt>
    <trkpt lat="34.914117588" lon="127.857601664"></trkpt>
    <trkpt lat="34.914280035" lon="127.857658079"></trkpt>
    <trkpt lat="34.914305316" lon="127.857684873"></trkpt>
    <trkpt lat="34.914341414" lon="127.857716611"></trkpt>
    <trkpt lat="34.914353308" lon="127.85767339"></trkpt>
    <trkpt lat="34.914366455" lon="127.857578347"></trkpt>
    <trkpt lat="34.914428728" lon="127.857552357"></trkpt>
    <trkpt lat="34.914478594" lon="127.857499388"></trkpt>
    <trkpt lat="34.914522304" lon="127.857419407"></trkpt>
    <trkpt lat="34.914576736" lon="127.85731303"></trkpt>
    <trkpt lat="34.914600655" lon="127.857262543"></trkpt>
    <trkpt lat="34.9146513" lon="127.857223707"></trkpt>
    <trkpt lat="34.914749264" lon="127.857181105"></trkpt>
    <trkpt lat="34.914834157" lon="127.857143833"></trkpt>
    <trkpt lat="34.914921083" lon="127.857022782"></trkpt>
    <trkpt lat="34.91490388" lon="127.856967203"></trkpt>
    <trkpt lat="34.914838762" lon="127.856747935"></trkpt>
    <trkpt lat="34.914775746" lon="127.856529313"></trkpt>
    <trkpt lat="34.914671398" lon="127.856200305"></trkpt>
    <trkpt lat="34.914615087" lon="127.856006626"></trkpt>
    <trkpt lat="34.914512945" lon="127.855696782"></trkpt>
    <trkpt lat="34.914455271" lon="127.855476569"></trkpt>
    <trkpt lat="34.914406992" lon="127.855359468"></trkpt>
    <trkpt lat="34.914386709" lon="127.855307966"></trkpt>
    <trkpt lat="34.914398293" lon="127.855149365"></trkpt>
    <trkpt lat="34.914386516" lon="127.854938107"></trkpt>
    <trkpt lat="34.914345205" lon="127.854664189"></trkpt>
    <trkpt lat="34.914353037" lon="127.854553174"></trkpt>
    <trkpt lat="34.914425704" lon="127.854219316"></trkpt>
    <trkpt lat="34.914450358" lon="127.854075331"></trkpt>
    <trkpt lat="34.914436003" lon="127.85390401"></trkpt>
    <trkpt lat="34.914430638" lon="127.853761371"></trkpt>
    <trkpt lat="34.914710512" lon="127.853594269"></trkpt>
    <trkpt lat="34.914847397" lon="127.853498315"></trkpt>
    <trkpt lat="34.915104319" lon="127.853515179"></trkpt>
    <trkpt lat="34.915257256" lon="127.853533347"></trkpt>
    <trkpt lat="34.915386901" lon="127.853494758"></trkpt>
    <trkpt lat="34.915468901" lon="127.85342687"></trkpt>
    <trkpt lat="34.915598118" lon="127.853310383"></trkpt>
    <trkpt lat="34.915701308" lon="127.853152258"></trkpt>
    <trkpt lat="34.915762858" lon="127.853034151"></trkpt>
    <trkpt lat="34.915800926" lon="127.852871724"></trkpt>
    <trkpt lat="34.9157945" lon="127.852729647"></trkpt>
    <trkpt lat="34.915748968" lon="127.85257209"></trkpt>
    <trkpt lat="34.915710686" lon="127.852442082"></trkpt>
    <trkpt lat="34.915694491" lon="127.852334912"></trkpt>
    <trkpt lat="34.91572791" lon="127.852138422"></trkpt>
    <trkpt lat="34.91583084" lon="127.851929365"></trkpt>
    <trkpt lat="34.91590966" lon="127.851751294"></trkpt>
    <trkpt lat="34.915968329" lon="127.851587498"></trkpt>
    <trkpt lat="34.915995899" lon="127.851454866"></trkpt>
    <trkpt lat="34.915979314" lon="127.851292796"></trkpt>
    <trkpt lat="34.915958027" lon="127.851165688"></trkpt>
    <trkpt lat="34.915950938" lon="127.85110507"></trkpt>
    <trkpt lat="34.915972194" lon="127.851058553"></trkpt>
    <trkpt lat="34.916002973" lon="127.851063934"></trkpt>
    <trkpt lat="34.916076701" lon="127.851094924"></trkpt>
    <trkpt lat="34.916194193" lon="127.851157778"></trkpt>
    <trkpt lat="34.916320178" lon="127.851268186"></trkpt>
    <trkpt lat="34.916388565" lon="127.851412138"></trkpt>
    <trkpt lat="34.916432725" lon="127.851536077"></trkpt>
    <trkpt lat="34.916452434" lon="127.851722164"></trkpt>
    <trkpt lat="34.916472176" lon="127.85189084"></trkpt>
    <trkpt lat="34.91646237" lon="127.852018201"></trkpt>
    <trkpt lat="34.916484267" lon="127.852224147"></trkpt>
    <trkpt lat="34.916538003" lon="127.852396401"></trkpt>
    <trkpt lat="34.916743691" lon="127.85270467"></trkpt>
    <trkpt lat="34.916770523" lon="127.852981019"></trkpt>
    <trkpt lat="34.916827705" lon="127.853232616"></trkpt>
    <trkpt lat="34.916906809" lon="127.853338417"></trkpt>
    <trkpt lat="34.916991955" lon="127.853584093"></trkpt>
    <trkpt lat="34.917075144" lon="127.853755692"></trkpt>
    <trkpt lat="34.917156335" lon="127.85395176"></trkpt>
    <trkpt lat="34.917276615" lon="127.854072941"></trkpt>
    <trkpt lat="34.917484452" lon="127.854124935"></trkpt>
    <trkpt lat="34.917600453" lon="127.854174843"></trkpt>
    <trkpt lat="34.917662439" lon="127.854297996"></trkpt>
    <trkpt lat="34.917627213" lon="127.854430582"></trkpt>
    <trkpt lat="34.917495836" lon="127.854501104"></trkpt>
    <trkpt lat="34.917279056" lon="127.85486773"></trkpt>
    <trkpt lat="34.917312009" lon="127.855307545"></trkpt>
    <trkpt lat="34.917398823" lon="127.855718783"></trkpt>
    <trkpt lat="34.917405567" lon="127.855735106"></trkpt>
    <trkpt lat="34.917505761" lon="127.856218503"></trkpt>
    <trkpt lat="34.917755033" lon="127.856628324"></trkpt>
    <trkpt lat="34.917887643" lon="127.856780981"></trkpt>
    <trkpt lat="34.91805568" lon="127.856847418"></trkpt>
    <trkpt lat="34.918231779" lon="127.856886687"></trkpt>
    <trkpt lat="34.918430601" lon="127.856942123"></trkpt>
    <trkpt lat="34.918476046" lon="127.856967528"></trkpt>
    <trkpt lat="34.918708732" lon="127.857211459"></trkpt>
    <trkpt lat="34.918984471" lon="127.857423174"></trkpt>
    <trkpt lat="34.919185241" lon="127.857739216"></trkpt>
    <trkpt lat="34.919312005" lon="127.858240411"></trkpt>
    <trkpt lat="34.919363309" lon="127.858462008"></trkpt>
    <trkpt lat="34.919309791" lon="127.858558624"></trkpt>
    <trkpt lat="34.919468791" lon="127.85866373"></trkpt>
    <trkpt lat="34.919669502" lon="127.858816462"></trkpt>
    <trkpt lat="34.919783125" lon="127.859015032"></trkpt>
    <trkpt lat="34.919866049" lon="127.859263923"></trkpt>
    <trkpt lat="34.919914916" lon="127.859520736"></trkpt>
    <trkpt lat="34.920012414" lon="127.859736881"></trkpt>
    <trkpt lat="34.920254549" lon="127.860184984"></trkpt>
    <trkpt lat="34.920429428" lon="127.860480604"></trkpt>
    <trkpt lat="34.920565827" lon="127.860750903"></trkpt>
    <trkpt lat="34.920799334" lon="127.860978636"></trkpt>
    <trkpt lat="34.920921871" lon="127.861062731"></trkpt>
    <trkpt lat="34.92113438" lon="127.86114748"></trkpt>
    <trkpt lat="34.921440176" lon="127.86117247"></trkpt>
    <trkpt lat="34.922083275" lon="127.861251526"></trkpt>
    <trkpt lat="34.922668283" lon="127.861308146"></trkpt>
    <trkpt lat="34.92300941" lon="127.861289112"></trkpt>
    <trkpt lat="34.923170786" lon="127.861289194"></trkpt>
    <trkpt lat="34.923306854" lon="127.861167015"></trkpt>
    <trkpt lat="34.923373646" lon="127.860951346"></trkpt>
    <trkpt lat="34.923411962" lon="127.860904573"></trkpt>
    <trkpt lat="34.92345394" lon="127.86074963"></trkpt>
    <trkpt lat="34.923528685" lon="127.860581551"></trkpt>
    <trkpt lat="34.923680312" lon="127.860386524"></trkpt>
    <trkpt lat="34.923959811" lon="127.860223645"></trkpt>
    <trkpt lat="34.924196721" lon="127.860136944"></trkpt>
    <trkpt lat="34.924358397" lon="127.860090858"></trkpt>
    <trkpt lat="34.924432991" lon="127.860015526"></trkpt>
    <trkpt lat="34.924512258" lon="127.859857039"></trkpt>
    <trkpt lat="34.92463817" lon="127.859483755"></trkpt>
    <trkpt lat="34.924845902" lon="127.859154599"></trkpt>
    <trkpt lat="34.924930717" lon="127.8591218"></trkpt>
    <trkpt lat="34.925109919" lon="127.858793814"></trkpt>
    <trkpt lat="34.925294997" lon="127.858575143"></trkpt>
    <trkpt lat="34.925387708" lon="127.858529199"></trkpt>
    <trkpt lat="34.925474672" lon="127.858298388"></trkpt>
    <trkpt lat="34.92560487" lon="127.85818986"></trkpt>
    <trkpt lat="34.925689898" lon="127.85806388"></trkpt>
    <trkpt lat="34.925865831" lon="127.857989264"></trkpt>
    <trkpt lat="34.925984942" lon="127.857773067"></trkpt>
    <trkpt lat="34.926126988" lon="127.857730051"></trkpt>
    <trkpt lat="34.926211359" lon="127.857595527"></trkpt>
    <trkpt lat="34.92627281" lon="127.857463448"></trkpt>
    <trkpt lat="34.926340122" lon="127.857349139"></trkpt>
    <trkpt lat="34.926384919" lon="127.857135432"></trkpt>
    <trkpt lat="34.926410069" lon="127.856995585"></trkpt>
    <trkpt lat="34.926520695" lon="127.856779519"></trkpt>
    <trkpt lat="34.926610353" lon="127.856589634"></trkpt>
    <trkpt lat="34.926685928" lon="127.856374604"></trkpt>
    <trkpt lat="34.926818318" lon="127.856219229"></trkpt>
    <trkpt lat="34.926765026" lon="127.856017077"></trkpt>
    <trkpt lat="34.926849086" lon="127.855908357"></trkpt>
    <trkpt lat="34.926969665" lon="127.855784535"></trkpt>
    <trkpt lat="34.927149746" lon="127.856006882"></trkpt>
    <trkpt lat="34.927200068" lon="127.856254265"></trkpt>
    <trkpt lat="34.92724322" lon="127.856474941"></trkpt>
    <trkpt lat="34.927222109" lon="127.856650078"></trkpt>
    <trkpt lat="34.927190991" lon="127.856835309"></trkpt>
    <trkpt lat="34.927247969" lon="127.856976018"></trkpt>
    <trkpt lat="34.927238361" lon="127.85707046"></trkpt>
    <trkpt lat="34.927305832" lon="127.857194615"></trkpt>
    <trkpt lat="34.927415256" lon="127.857319955"></trkpt>
    <trkpt lat="34.927509624" lon="127.857506134"></trkpt>
    <trkpt lat="34.927652679" lon="127.857684685"></trkpt>
    <trkpt lat="34.927802315" lon="127.857797378"></trkpt>
    <trkpt lat="34.927826482" lon="127.858002188"></trkpt>
    <trkpt lat="34.927813723" lon="127.858207941"></trkpt>
    <trkpt lat="34.927804715" lon="127.858319343"></trkpt>
    <trkpt lat="34.927830499" lon="127.858385231"></trkpt>
    <trkpt lat="34.927923667" lon="127.858561356"></trkpt>
    <trkpt lat="34.927968095" lon="127.858640616"></trkpt>
    <trkpt lat="34.92805604" lon="127.859114595"></trkpt>
    <trkpt lat="34.928132738" lon="127.859592038"></trkpt>
    <trkpt lat="34.928174505" lon="127.859846035"></trkpt>
    <trkpt lat="34.928115769" lon="127.859893029"></trkpt>
    <trkpt lat="34.927934967" lon="127.859920225"></trkpt>
    <trkpt lat="34.927827048" lon="127.859939559"></trkpt>
    <trkpt lat="34.927855337" lon="127.859993274"></trkpt>
    <trkpt lat="34.927848227" lon="127.860149944"></trkpt>
    <trkpt lat="34.9278323" lon="127.860314921"></trkpt>
    <trkpt lat="34.927816398" lon="127.860505081"></trkpt>
    <trkpt lat="34.927800533" lon="127.860553741"></trkpt>
    <trkpt lat="34.927773551" lon="127.860589933"></trkpt>
    <trkpt lat="34.927953139" lon="127.860817"></trkpt>
    <trkpt lat="34.92810096" lon="127.860860098"></trkpt>
    <trkpt lat="34.928217039" lon="127.860800403"></trkpt>
    <trkpt lat="34.928612004" lon="127.860572376"></trkpt>
    <trkpt lat="34.929006775" lon="127.860353665"></trkpt>
    <trkpt lat="34.929220645" lon="127.860297866"></trkpt>
    <trkpt lat="34.929298183" lon="127.86030433"></trkpt>
    <trkpt lat="34.929561672" lon="127.860353698"></trkpt>
    <trkpt lat="34.929781239" lon="127.86043265"></trkpt>
    <trkpt lat="34.93016607" lon="127.860516441"></trkpt>
    <trkpt lat="34.930475982" lon="127.860593807"></trkpt>
    <trkpt lat="34.930720937" lon="127.860628361"></trkpt>
    <trkpt lat="34.930903859" lon="127.860571988"></trkpt>
    <trkpt lat="34.931061551" lon="127.860491399"></trkpt>
    <trkpt lat="34.931373466" lon="127.860242636"></trkpt>
    <trkpt lat="34.931534697" lon="127.860161021"></trkpt>
    <trkpt lat="34.931667067" lon="127.860090703"></trkpt>
    <trkpt lat="34.931873001" lon="127.860001318"></trkpt>
    <trkpt lat="34.931960328" lon="127.859978717"></trkpt>
    <trkpt lat="34.931951921" lon="127.860058513"></trkpt>
    <trkpt lat="34.931932932" lon="127.860132245"></trkpt>
    <trkpt lat="34.931868686" lon="127.860300854"></trkpt>
    <trkpt lat="34.931808887" lon="127.860623951"></trkpt>
    <trkpt lat="34.931788645" lon="127.860814038"></trkpt>
    <trkpt lat="34.931782113" lon="127.861007402"></trkpt>
    <trkpt lat="34.931761934" lon="127.861193182"></trkpt>
    <trkpt lat="34.931760571" lon="127.861288706"></trkpt>
    <trkpt lat="34.931721892" lon="127.861356461"></trkpt>
    <trkpt lat="34.931649278" lon="127.861386908"></trkpt>
    <trkpt lat="34.931546641" lon="127.86138429"></trkpt>
    <trkpt lat="34.931315236" lon="127.861345383"></trkpt>
    <trkpt lat="34.931168705" lon="127.861333045"></trkpt>
    <trkpt lat="34.931064077" lon="127.861361955"></trkpt>
    <trkpt lat="34.931001297" lon="127.861421441"></trkpt>
    <trkpt lat="34.930936635" lon="127.861487588"></trkpt>
    <trkpt lat="34.93085717" lon="127.861569252"></trkpt>
    <trkpt lat="34.930856923" lon="127.861707009"></trkpt>
    <trkpt lat="34.930887464" lon="127.861864783"></trkpt>
    <trkpt lat="34.930909578" lon="127.862022203"></trkpt>
    <trkpt lat="34.93093883" lon="127.862230976"></trkpt>
    <trkpt lat="34.930965019" lon="127.862431321"></trkpt>
    <trkpt lat="34.930986315" lon="127.862647086"></trkpt>
    <trkpt lat="34.931040139" lon="127.863019391"></trkpt>
    <trkpt lat="34.931139535" lon="127.863572006"></trkpt>
    <trkpt lat="34.931214195" lon="127.864103654"></trkpt>
    <trkpt lat="34.931323767" lon="127.864746186"></trkpt>
    <trkpt lat="34.93136123" lon="127.864998538"></trkpt>
    <trkpt lat="34.931371935" lon="127.865228004"></trkpt>
    <trkpt lat="34.931287826" lon="127.865373965"></trkpt>
    <trkpt lat="34.931207966" lon="127.865517874"></trkpt>
    <trkpt lat="34.931098986" lon="127.865746874"></trkpt>
    <trkpt lat="34.931168268" lon="127.865818309"></trkpt>
    <trkpt lat="34.931389993" lon="127.866079622"></trkpt>
    <trkpt lat="34.931644093" lon="127.866374428"></trkpt>
    <trkpt lat="34.931872802" lon="127.866638323"></trkpt>
    <trkpt lat="34.932059505" lon="127.866837167"></trkpt>
    <trkpt lat="34.932221422" lon="127.866568915"></trkpt>
    <trkpt lat="34.932451185" lon="127.86619293"></trkpt>
    <trkpt lat="34.932719009" lon="127.865900704"></trkpt>
    <trkpt lat="34.932949197" lon="127.865729703"></trkpt>
    <trkpt lat="34.933118859" lon="127.86558666"></trkpt>
    <trkpt lat="34.933510133" lon="127.865191755"></trkpt>
    <trkpt lat="34.933822458" lon="127.865050674"></trkpt>
    <trkpt lat="34.934021724" lon="127.864972405"></trkpt>
    <trkpt lat="34.934181897" lon="127.865000721"></trkpt>
    <trkpt lat="34.934448853" lon="127.86509976"></trkpt>
    <trkpt lat="34.934686142" lon="127.865197874"></trkpt>
    <trkpt lat="34.935066949" lon="127.865352407"></trkpt>
    <trkpt lat="34.935234089" lon="127.865298856"></trkpt>
    <trkpt lat="34.935409436" lon="127.865259819"></trkpt>
    <trkpt lat="34.935611032" lon="127.865339249"></trkpt>
    <trkpt lat="34.935751813" lon="127.865405489"></trkpt>
    <trkpt lat="34.936159439" lon="127.865577394"></trkpt>
    <trkpt lat="34.936379705" lon="127.865676119"></trkpt>
    <trkpt lat="34.936450638" lon="127.865755439"></trkpt>
    <trkpt lat="34.936496533" lon="127.865902115"></trkpt>
    <trkpt lat="34.936573385" lon="127.866045662"></trkpt>
    <trkpt lat="34.936787434" lon="127.86617647"></trkpt>
    <trkpt lat="34.936982348" lon="127.866216309"></trkpt>
    <trkpt lat="34.937366518" lon="127.866280161"></trkpt>
    <trkpt lat="34.937665003" lon="127.866336972"></trkpt>
    <trkpt lat="34.93782964" lon="127.866419337"></trkpt>
    <trkpt lat="34.937964492" lon="127.866632701"></trkpt>
    <trkpt lat="34.938082297" lon="127.866769189"></trkpt>
    <trkpt lat="34.938413691" lon="127.86704345"></trkpt>
    <trkpt lat="34.9386859" lon="127.867247725"></trkpt>
    <trkpt lat="34.938831245" lon="127.867383475"></trkpt>
    <trkpt lat="34.938907191" lon="127.867526874"></trkpt>
    <trkpt lat="34.939091621" lon="127.867661492"></trkpt>
    <trkpt lat="34.939230177" lon="127.867844304"></trkpt>
    <trkpt lat="34.939545717" lon="127.868177146"></trkpt>
    <trkpt lat="34.939665041" lon="127.868336564"></trkpt>
    <trkpt lat="34.939815087" lon="127.868514588"></trkpt>
    <trkpt lat="34.939870763" lon="127.868540193"></trkpt>
    <trkpt lat="34.939932892" lon="127.86865087"></trkpt>
    <trkpt lat="34.940209038" lon="127.868973475"></trkpt>
    <trkpt lat="34.940436261" lon="127.86928792"></trkpt>
    <trkpt lat="34.940672539" lon="127.869552422"></trkpt>
    <trkpt lat="34.940784753" lon="127.869784524"></trkpt>
    <trkpt lat="34.941008455" lon="127.86986609"></trkpt>
    <trkpt lat="34.941185434" lon="127.870015775"></trkpt>
    <trkpt lat="34.941307713" lon="127.870164301"></trkpt>
    <trkpt lat="34.941464868" lon="127.870358298"></trkpt>
    <trkpt lat="34.941687297" lon="127.870655747"></trkpt>
    <trkpt lat="34.941830572" lon="127.87084039"></trkpt>
    <trkpt lat="34.941916706" lon="127.871019532"></trkpt>
    <trkpt lat="34.94196227" lon="127.871224565"></trkpt>
    <trkpt lat="34.941987024" lon="127.871475316"></trkpt>
    <trkpt lat="34.941972086" lon="127.871767233"></trkpt>
    <trkpt lat="34.941903868" lon="127.871864916"></trkpt>
    <trkpt lat="34.94174076" lon="127.872148348"></trkpt>
    <trkpt lat="34.941494165" lon="127.872444284"></trkpt>
    <trkpt lat="34.941335922" lon="127.87260317"></trkpt>
    <trkpt lat="34.941285594" lon="127.872649989"></trkpt>
    <trkpt lat="34.94127936" lon="127.872596057"></trkpt>
    <trkpt lat="34.941307845" lon="127.872524491"></trkpt>
    <trkpt lat="34.941366552" lon="127.872437737"></trkpt>
    <trkpt lat="34.941421059" lon="127.872310915"></trkpt>
    <trkpt lat="34.941473604" lon="127.872161272"></trkpt>
    <trkpt lat="34.941496576" lon="127.872033625"></trkpt>
    <trkpt lat="34.941508937" lon="127.871920997"></trkpt>
    <trkpt lat="34.941510293" lon="127.871861588"></trkpt>
    <trkpt lat="34.941475211" lon="127.871839967"></trkpt>
    <trkpt lat="34.941329177" lon="127.871825158"></trkpt>
    <trkpt lat="34.941271678" lon="127.871821006"></trkpt>
    <trkpt lat="34.941230353" lon="127.871799037"></trkpt>
    <trkpt lat="34.941236172" lon="127.871752768"></trkpt>
    <trkpt lat="34.94121183" lon="127.871753242"></trkpt>
    <trkpt lat="34.941174787" lon="127.871726276"></trkpt>
    <trkpt lat="34.941156323" lon="127.871707218"></trkpt>
    <trkpt lat="34.941150784" lon="127.871606991"></trkpt>
    <trkpt lat="34.941231465" lon="127.871597505"></trkpt>
    <trkpt lat="34.941348111" lon="127.871601556"></trkpt>
    <trkpt lat="34.941538405" lon="127.871615974"></trkpt>
    <trkpt lat="34.941776513" lon="127.871613881"></trkpt>
    <trkpt lat="34.941944399" lon="127.871613955"></trkpt>
    <trkpt lat="34.942053973" lon="127.871639083"></trkpt>
    <trkpt lat="34.94235031" lon="127.871659569"></trkpt>
    <trkpt lat="34.942508408" lon="127.87167616"></trkpt>
    <trkpt lat="34.942921298" lon="127.87173062"></trkpt>
    <trkpt lat="34.943311603" lon="127.871782196"></trkpt>
    <trkpt lat="34.943695045" lon="127.871821977"></trkpt>
    <trkpt lat="34.944201744" lon="127.871883618"></trkpt>
    <trkpt lat="34.94471905" lon="127.871943652"></trkpt>
    <trkpt lat="34.945172538" lon="127.872009716"></trkpt>
    <trkpt lat="34.945548297" lon="127.872047513"></trkpt>
    <trkpt lat="34.946008583" lon="127.872107161"></trkpt>
    <trkpt lat="34.946516796" lon="127.87217516"></trkpt>
    <trkpt lat="34.946683322" lon="127.87220449"></trkpt>
    <trkpt lat="34.946887269" lon="127.872245981"></trkpt>
    <trkpt lat="34.947233563" lon="127.872317834"></trkpt>
    <trkpt lat="34.947395547" lon="127.872324593"></trkpt>
    <trkpt lat="34.947637508" lon="127.872328929"></trkpt>
    <trkpt lat="34.947720813" lon="127.872290357"></trkpt>
    <trkpt lat="34.947756681" lon="127.872231066"></trkpt>
    <trkpt lat="34.947787508" lon="127.872146018"></trkpt>
    <trkpt lat="34.947792442" lon="127.87206846"></trkpt>
  </trkseg>
</trk>
</gpx>
