<?xml version="1.0" encoding="UTF-8"?>
<gpx version="1.1" creator="GPS Track Editor" xmlns="http://www.topografix.com/GPX/1/1" xmlns:xsi="http://www.w3.org/2001/XMLSchema-instance" xmlns:gte="http://www.gpstrackeditor.com/xmlschemas/General/1" xmlns:gpxtpx="http://www.garmin.com/xmlschemas/TrackPointExtension/v1" xmlns:gpxx="http://www.garmin.com/xmlschemas/GpxExtensions/v3" targetNamespace="http://www.topografix.com/GPX/1/1" elementFormDefault="qualified" xsi:schemaLocation="http://www.topografix.com/GPX/1/1 http://www.topografix.com/GPX/1/1/gpx.xsd">
<metadata>
	<name>GPS_2020-01-17_043630</name>
</metadata>
<trk>
	<name>024-거제시 남부면 명사해변~거제시 남부면 탑포리 탑포마을</name>
	<trkseg>
		<trkpt lat="34.726048" lon="128.603867">
			<ele>26.80</ele>
			<time>2020-01-17T04:36:30.46Z</time>
		</trkpt>
		<trkpt lat="34.726421" lon="128.604175">
			<ele>-0.34</ele>
			<time>2020-01-17T04:36:33.47Z</time>
		</trkpt>
		<trkpt lat="34.726831" lon="128.604411">
			<ele>-0.35</ele>
			<time>2020-01-17T04:36:36.49Z</time>
		</trkpt>
		<trkpt lat="34.727327" lon="128.604674">
			<ele>-0.48</ele>
			<time>2020-01-17T04:36:40.10Z</time>
		</trkpt>
		<trkpt lat="34.727734" lon="128.604912">
			<ele>-0.52</ele>
			<time>2020-01-17T04:36:43.11Z</time>
		</trkpt>
		<trkpt lat="34.728299" lon="128.605140">
			<ele>-0.28</ele>
			<time>2020-01-17T04:36:47.08Z</time>
		</trkpt>
		<trkpt lat="34.728965" lon="128.605243">
			<ele>-0.07</ele>
			<time>2020-01-17T04:36:51.55Z</time>
		</trkpt>
		<trkpt lat="34.729202" lon="128.605237">
			<ele>-0.07</ele>
			<time>2020-01-17T04:36:53.13Z</time>
		</trkpt>
		<trkpt lat="34.729340" lon="128.605163">
			<ele>-0.07</ele>
			<time>2020-01-17T04:36:54.14Z</time>
		</trkpt>
		<trkpt lat="34.729422" lon="128.605029">
			<ele>-0.07</ele>
			<time>2020-01-17T04:36:55.05Z</time>
		</trkpt>
		<trkpt lat="34.729491" lon="128.604913">
			<ele>5.39</ele>
			<time>2020-01-17T04:36:55.84Z</time>
		</trkpt>
		<trkpt lat="34.729735" lon="128.604629">
			<ele>5.46</ele>
			<time>2020-01-17T04:36:58.09Z</time>
		</trkpt>
		<trkpt lat="34.729789" lon="128.604596">
			<ele>5.30</ele>
			<time>2020-01-17T04:36:58.49Z</time>
		</trkpt>
		<trkpt lat="34.729848" lon="128.604567">
			<ele>5.40</ele>
			<time>2020-01-17T04:36:58.91Z</time>
		</trkpt>
		<trkpt lat="34.729909" lon="128.604545">
			<ele>5.32</ele>
			<time>2020-01-17T04:36:59.34Z</time>
		</trkpt>
		<trkpt lat="34.729973" lon="128.604528">
			<ele>5.01</ele>
			<time>2020-01-17T04:36:59.77Z</time>
		</trkpt>
		<trkpt lat="34.730039" lon="128.604519">
			<ele>5.42</ele>
			<time>2020-01-17T04:37:00.22Z</time>
		</trkpt>
		<trkpt lat="34.730107" lon="128.604517">
			<ele>5.07</ele>
			<time>2020-01-17T04:37:00.67Z</time>
		</trkpt>
		<trkpt lat="34.730176" lon="128.604520">
			<ele>5.21</ele>
			<time>2020-01-17T04:37:01.13Z</time>
		</trkpt>
		<trkpt lat="34.730294" lon="128.604541">
			<ele>4.62</ele>
			<time>2020-01-17T04:37:01.93Z</time>
		</trkpt>
		<trkpt lat="34.730329" lon="128.604555">
			<ele>4.12</ele>
			<time>2020-01-17T04:37:02.17Z</time>
		</trkpt>
		<trkpt lat="34.730347" lon="128.604566">
			<ele>4.25</ele>
			<time>2020-01-17T04:37:02.31Z</time>
		</trkpt>
		<trkpt lat="34.730353" lon="128.604576">
			<ele>4.09</ele>
			<time>2020-01-17T04:37:02.37Z</time>
		</trkpt>
		<trkpt lat="34.730353" lon="128.604576">
			<ele>3.74</ele>
			<time>2020-01-17T04:37:02.43Z</time>
		</trkpt>
		<trkpt lat="34.730348" lon="128.604574">
			<ele>3.50</ele>
			<time>2020-01-17T04:37:02.49Z</time>
		</trkpt>
		<trkpt lat="34.730348" lon="128.604577">
			<ele>3.62</ele>
			<time>2020-01-17T04:37:02.55Z</time>
		</trkpt>
		<trkpt lat="34.730348" lon="128.604577">
			<ele>3.39</ele>
			<time>2020-01-17T04:37:02.61Z</time>
		</trkpt>
		<trkpt lat="34.730347" lon="128.604575">
			<ele>3.36</ele>
			<time>2020-01-17T04:37:02.67Z</time>
		</trkpt>
		<trkpt lat="34.730346" lon="128.604574">
			<ele>3.38</ele>
			<time>2020-01-17T04:37:02.73Z</time>
		</trkpt>
		<trkpt lat="34.730347" lon="128.604579">
			<ele>3.36</ele>
			<time>2020-01-17T04:37:02.79Z</time>
		</trkpt>
		<trkpt lat="34.730347" lon="128.604579">
			<ele>3.24</ele>
			<time>2020-01-17T04:37:02.85Z</time>
		</trkpt>
		<trkpt lat="34.730347" lon="128.604579">
			<ele>3.22</ele>
			<time>2020-01-17T04:37:02.91Z</time>
		</trkpt>
		<trkpt lat="34.730347" lon="128.604579">
			<ele>3.21</ele>
			<time>2020-01-17T04:37:02.97Z</time>
		</trkpt>
		<trkpt lat="34.730346" lon="128.604579">
			<ele>3.46</ele>
			<time>2020-01-17T04:37:03.03Z</time>
		</trkpt>
		<trkpt lat="34.730346" lon="128.604579">
			<ele>3.43</ele>
			<time>2020-01-17T04:37:03.09Z</time>
		</trkpt>
		<trkpt lat="34.730344" lon="128.604582">
			<ele>3.44</ele>
			<time>2020-01-17T04:37:03.15Z</time>
		</trkpt>
		<trkpt lat="34.730362" lon="128.604592">
			<ele>3.35</ele>
			<time>2020-01-17T04:37:03.29Z</time>
		</trkpt>
		<trkpt lat="34.730380" lon="128.604603">
			<ele>3.38</ele>
			<time>2020-01-17T04:37:03.42Z</time>
		</trkpt>
		<trkpt lat="34.730405" lon="128.604621">
			<ele>3.40</ele>
			<time>2020-01-17T04:37:03.61Z</time>
		</trkpt>
		<trkpt lat="34.730436" lon="128.604647">
			<ele>3.39</ele>
			<time>2020-01-17T04:37:03.87Z</time>
		</trkpt>
		<trkpt lat="34.730499" lon="128.604721">
			<ele>3.69</ele>
			<time>2020-01-17T04:37:04.45Z</time>
		</trkpt>
		<trkpt lat="34.730522" lon="128.604775">
			<ele>3.78</ele>
			<time>2020-01-17T04:37:04.78Z</time>
		</trkpt>
		<trkpt lat="34.730542" lon="128.604831">
			<ele>3.85</ele>
			<time>2020-01-17T04:37:05.12Z</time>
		</trkpt>
		<trkpt lat="34.730706" lon="128.605678">
			<ele>4.27</ele>
			<time>2020-01-17T04:37:09.88Z</time>
		</trkpt>
		<trkpt lat="34.730716" lon="128.605892">
			<ele>4.02</ele>
			<time>2020-01-17T04:37:11.06Z</time>
		</trkpt>
		<trkpt lat="34.730708" lon="128.605960">
			<ele>3.79</ele>
			<time>2020-01-17T04:37:11.44Z</time>
		</trkpt>
		<trkpt lat="34.730704" lon="128.606021">
			<ele>3.85</ele>
			<time>2020-01-17T04:37:11.77Z</time>
		</trkpt>
		<trkpt lat="34.730662" lon="128.606221">
			<ele>3.85</ele>
			<time>2020-01-17T04:37:12.90Z</time>
		</trkpt>
		<trkpt lat="34.730624" lon="128.606392">
			<ele>-0.65</ele>
			<time>2020-01-17T04:37:13.87Z</time>
		</trkpt>
		<trkpt lat="34.730575" lon="128.606548">
			<ele>-0.65</ele>
			<time>2020-01-17T04:37:14.79Z</time>
		</trkpt>
		<trkpt lat="34.730530" lon="128.606637">
			<ele>-0.65</ele>
			<time>2020-01-17T04:37:15.36Z</time>
		</trkpt>
		<trkpt lat="34.730547" lon="128.606788">
			<ele>-0.65</ele>
			<time>2020-01-17T04:37:16.19Z</time>
		</trkpt>
		<trkpt lat="34.730617" lon="128.606850">
			<ele>-0.65</ele>
			<time>2020-01-17T04:37:16.77Z</time>
		</trkpt>
		<trkpt lat="34.730772" lon="128.606947">
			<ele>-0.65</ele>
			<time>2020-01-17T04:37:17.93Z</time>
		</trkpt>
		<trkpt lat="34.731060" lon="128.607083">
			<ele>-0.65</ele>
			<time>2020-01-17T04:37:19.99Z</time>
		</trkpt>
		<trkpt lat="34.731066" lon="128.607092">
			<ele>-0.65</ele>
			<time>2020-01-17T04:37:20.06Z</time>
		</trkpt>
		<trkpt lat="34.731916" lon="128.607464">
			<ele>-0.65</ele>
			<time>2020-01-17T04:37:26.08Z</time>
		</trkpt>
		<trkpt lat="34.732090" lon="128.607524">
			<ele>-0.65</ele>
			<time>2020-01-17T04:37:27.28Z</time>
		</trkpt>
		<trkpt lat="34.732862" lon="128.607409">
			<ele>1.11</ele>
			<time>2020-01-17T04:37:32.47Z</time>
		</trkpt>
		<trkpt lat="34.733756" lon="128.607137">
			<ele>5.61</ele>
			<time>2020-01-17T04:37:38.61Z</time>
		</trkpt>
		<trkpt lat="34.734676" lon="128.606815">
			<ele>5.42</ele>
			<time>2020-01-17T04:37:44.99Z</time>
		</trkpt>
		<trkpt lat="34.734741" lon="128.606794">
			<ele>5.49</ele>
			<time>2020-01-17T04:37:45.44Z</time>
		</trkpt>
		<trkpt lat="34.734850" lon="128.606747">
			<ele>5.49</ele>
			<time>2020-01-17T04:37:46.21Z</time>
		</trkpt>
		<trkpt lat="34.735206" lon="128.606479">
			<ele>5.49</ele>
			<time>2020-01-17T04:37:49Z</time>
		</trkpt>
		<trkpt lat="34.735352" lon="128.606312">
			<ele>5.22</ele>
			<time>2020-01-17T04:37:50.34Z</time>
		</trkpt>
		<trkpt lat="34.735678" lon="128.605811">
			<ele>4.49</ele>
			<time>2020-01-17T04:37:53.84Z</time>
		</trkpt>
		<trkpt lat="34.735685" lon="128.605789">
			<ele>4.46</ele>
			<time>2020-01-17T04:37:53.97Z</time>
		</trkpt>
		<trkpt lat="34.735697" lon="128.605770">
			<ele>3.98</ele>
			<time>2020-01-17T04:37:54.10Z</time>
		</trkpt>
		<trkpt lat="34.735712" lon="128.605743">
			<ele>3.80</ele>
			<time>2020-01-17T04:37:54.28Z</time>
		</trkpt>
		<trkpt lat="34.735741" lon="128.605707">
			<ele>3.64</ele>
			<time>2020-01-17T04:37:54.55Z</time>
		</trkpt>
		<trkpt lat="34.735760" lon="128.605665">
			<ele>3.88</ele>
			<time>2020-01-17T04:37:54.82Z</time>
		</trkpt>
		<trkpt lat="34.735809" lon="128.605388">
			<ele>4.59</ele>
			<time>2020-01-17T04:37:56.37Z</time>
		</trkpt>
		<trkpt lat="34.735833" lon="128.605341">
			<ele>4.93</ele>
			<time>2020-01-17T04:37:56.67Z</time>
		</trkpt>
		<trkpt lat="34.735860" lon="128.605301">
			<ele>4.91</ele>
			<time>2020-01-17T04:37:56.96Z</time>
		</trkpt>
		<trkpt lat="34.735893" lon="128.605275">
			<ele>4.41</ele>
			<time>2020-01-17T04:37:57.22Z</time>
		</trkpt>
		<trkpt lat="34.735930" lon="128.605264">
			<ele>4.44</ele>
			<time>2020-01-17T04:37:57.47Z</time>
		</trkpt>
		<trkpt lat="34.735973" lon="128.605263">
			<ele>4.45</ele>
			<time>2020-01-17T04:37:57.76Z</time>
		</trkpt>
		<trkpt lat="34.736021" lon="128.605272">
			<ele>4.44</ele>
			<time>2020-01-17T04:37:58.08Z</time>
		</trkpt>
		<trkpt lat="34.736070" lon="128.605285">
			<ele>4.31</ele>
			<time>2020-01-17T04:37:58.42Z</time>
		</trkpt>
		<trkpt lat="34.736554" lon="128.605289">
			<ele>4.90</ele>
			<time>2020-01-17T04:38:01.64Z</time>
		</trkpt>
		<trkpt lat="34.736615" lon="128.605241">
			<ele>4.90</ele>
			<time>2020-01-17T04:38:02.13Z</time>
		</trkpt>
		<trkpt lat="34.736580" lon="128.605101">
			<ele>4.90</ele>
			<time>2020-01-17T04:38:02.93Z</time>
		</trkpt>
		<trkpt lat="34.736515" lon="128.605081">
			<ele>9.49</ele>
			<time>2020-01-17T04:38:03.38Z</time>
		</trkpt>
		<trkpt lat="34.736450" lon="128.605030">
			<ele>10.24</ele>
			<time>2020-01-17T04:38:03.89Z</time>
		</trkpt>
		<trkpt lat="34.736424" lon="128.605014">
			<ele>10.61</ele>
			<time>2020-01-17T04:38:04.09Z</time>
		</trkpt>
		<trkpt lat="34.736249" lon="128.604873">
			<ele>14.07</ele>
			<time>2020-01-17T04:38:05.48Z</time>
		</trkpt>
		<trkpt lat="34.736125" lon="128.604779">
			<ele>17.14</ele>
			<time>2020-01-17T04:38:06.46Z</time>
		</trkpt>
		<trkpt lat="34.736073" lon="128.604646">
			<ele>20.26</ele>
			<time>2020-01-17T04:38:07.27Z</time>
		</trkpt>
		<trkpt lat="34.736055" lon="128.604509">
			<ele>22.56</ele>
			<time>2020-01-17T04:38:08.03Z</time>
		</trkpt>
		<trkpt lat="34.736053" lon="128.604506">
			<ele>22.60</ele>
			<time>2020-01-17T04:38:08.09Z</time>
		</trkpt>
		<trkpt lat="34.736049" lon="128.604498">
			<ele>22.46</ele>
			<time>2020-01-17T04:38:08.15Z</time>
		</trkpt>
		<trkpt lat="34.736067" lon="128.604402">
			<ele>24.04</ele>
			<time>2020-01-17T04:38:08.69Z</time>
		</trkpt>
		<trkpt lat="34.736138" lon="128.604227">
			<ele>25.26</ele>
			<time>2020-01-17T04:38:09.75Z</time>
		</trkpt>
		<trkpt lat="34.736141" lon="128.604223">
			<ele>25.12</ele>
			<time>2020-01-17T04:38:09.81Z</time>
		</trkpt>
		<trkpt lat="34.736278" lon="128.603995">
			<ele>25.12</ele>
			<time>2020-01-17T04:38:11.36Z</time>
		</trkpt>
		<trkpt lat="34.736439" lon="128.603610">
			<ele>25.12</ele>
			<time>2020-01-17T04:38:13.73Z</time>
		</trkpt>
		<trkpt lat="34.736584" lon="128.603188">
			<ele>25.12</ele>
			<time>2020-01-17T04:38:16.23Z</time>
		</trkpt>
		<trkpt lat="34.736668" lon="128.602972">
			<ele>25.12</ele>
			<time>2020-01-17T04:38:17.55Z</time>
		</trkpt>
		<trkpt lat="34.736872" lon="128.602915">
			<ele>25.12</ele>
			<time>2020-01-17T04:38:18.94Z</time>
		</trkpt>
		<trkpt lat="34.737185" lon="128.602708">
			<ele>28.64</ele>
			<time>2020-01-17T04:38:21.31Z</time>
		</trkpt>
		<trkpt lat="34.737340" lon="128.602544">
			<ele>30.71</ele>
			<time>2020-01-17T04:38:22.68Z</time>
		</trkpt>
		<trkpt lat="34.737572" lon="128.602420">
			<ele>33.44</ele>
			<time>2020-01-17T04:38:24.37Z</time>
		</trkpt>
		<trkpt lat="34.737620" lon="128.602411">
			<ele>34.14</ele>
			<time>2020-01-17T04:38:24.70Z</time>
		</trkpt>
		<trkpt lat="34.737847" lon="128.602409">
			<ele>36.85</ele>
			<time>2020-01-17T04:38:26.21Z</time>
		</trkpt>
		<trkpt lat="34.737932" lon="128.602403">
			<ele>38.77</ele>
			<time>2020-01-17T04:38:26.78Z</time>
		</trkpt>
		<trkpt lat="34.738206" lon="128.602241">
			<ele>40.71</ele>
			<time>2020-01-17T04:38:28.81Z</time>
		</trkpt>
		<trkpt lat="34.738393" lon="128.602011">
			<ele>43.59</ele>
			<time>2020-01-17T04:38:30.58Z</time>
		</trkpt>
		<trkpt lat="34.738481" lon="128.601861">
			<ele>45.99</ele>
			<time>2020-01-17T04:38:31.59Z</time>
		</trkpt>
		<trkpt lat="34.738594" lon="128.601532">
			<ele>48.59</ele>
			<time>2020-01-17T04:38:33.54Z</time>
		</trkpt>
		<trkpt lat="34.738595" lon="128.601490">
			<ele>49.13</ele>
			<time>2020-01-17T04:38:33.77Z</time>
		</trkpt>
		<trkpt lat="34.738637" lon="128.601293">
			<ele>50.51</ele>
			<time>2020-01-17T04:38:34.89Z</time>
		</trkpt>
		<trkpt lat="34.738640" lon="128.601279">
			<ele>50.77</ele>
			<time>2020-01-17T04:38:34.97Z</time>
		</trkpt>
		<trkpt lat="34.738636" lon="128.601181">
			<ele>50.77</ele>
			<time>2020-01-17T04:38:35.51Z</time>
		</trkpt>
		<trkpt lat="34.738538" lon="128.601081">
			<ele>50.77</ele>
			<time>2020-01-17T04:38:36.36Z</time>
		</trkpt>
		<trkpt lat="34.738507" lon="128.600962">
			<ele>50.77</ele>
			<time>2020-01-17T04:38:37.04Z</time>
		</trkpt>
		<trkpt lat="34.738491" lon="128.600814">
			<ele>50.77</ele>
			<time>2020-01-17T04:38:37.86Z</time>
		</trkpt>
		<trkpt lat="34.738519" lon="128.600643">
			<ele>50.77</ele>
			<time>2020-01-17T04:38:38.82Z</time>
		</trkpt>
		<trkpt lat="34.738559" lon="128.600395">
			<ele>50.77</ele>
			<time>2020-01-17T04:38:40.20Z</time>
		</trkpt>
		<trkpt lat="34.738526" lon="128.600201">
			<ele>50.77</ele>
			<time>2020-01-17T04:38:41.28Z</time>
		</trkpt>
		<trkpt lat="34.738500" lon="128.599996">
			<ele>62.58</ele>
			<time>2020-01-17T04:38:42.42Z</time>
		</trkpt>
		<trkpt lat="34.738442" lon="128.599725">
			<ele>65.69</ele>
			<time>2020-01-17T04:38:43.96Z</time>
		</trkpt>
		<trkpt lat="34.738397" lon="128.599390">
			<ele>68.98</ele>
			<time>2020-01-17T04:38:45.82Z</time>
		</trkpt>
		<trkpt lat="34.738396" lon="128.599341">
			<ele>68.69</ele>
			<time>2020-01-17T04:38:46.08Z</time>
		</trkpt>
		<trkpt lat="34.738396" lon="128.599341">
			<ele>68.91</ele>
			<time>2020-01-17T04:38:46.14Z</time>
		</trkpt>
		<trkpt lat="34.738408" lon="128.599234">
			<ele>69.49</ele>
			<time>2020-01-17T04:38:46.74Z</time>
		</trkpt>
		<trkpt lat="34.738425" lon="128.599179">
			<ele>70.01</ele>
			<time>2020-01-17T04:38:47.06Z</time>
		</trkpt>
		<trkpt lat="34.738617" lon="128.598739">
			<ele>73.00</ele>
			<time>2020-01-17T04:38:49.79Z</time>
		</trkpt>
		<trkpt lat="34.738810" lon="128.598480">
			<ele>76.16</ele>
			<time>2020-01-17T04:38:51.70Z</time>
		</trkpt>
		<trkpt lat="34.738854" lon="128.598437">
			<ele>76.43</ele>
			<time>2020-01-17T04:38:52.08Z</time>
		</trkpt>
		<trkpt lat="34.738897" lon="128.598396">
			<ele>77.19</ele>
			<time>2020-01-17T04:38:52.44Z</time>
		</trkpt>
		<trkpt lat="34.738969" lon="128.598333">
			<ele>78.05</ele>
			<time>2020-01-17T04:38:53.03Z</time>
		</trkpt>
		<trkpt lat="34.739106" lon="128.598231">
			<ele>78.73</ele>
			<time>2020-01-17T04:38:54.10Z</time>
		</trkpt>
		<trkpt lat="34.739217" lon="128.598121">
			<ele>78.73</ele>
			<time>2020-01-17T04:38:55.06Z</time>
		</trkpt>
		<trkpt lat="34.739281" lon="128.597973">
			<ele>80.96</ele>
			<time>2020-01-17T04:38:55.98Z</time>
		</trkpt>
		<trkpt lat="34.739327" lon="128.597621">
			<ele>84.14</ele>
			<time>2020-01-17T04:38:57.93Z</time>
		</trkpt>
		<trkpt lat="34.739319" lon="128.597344">
			<ele>88.13</ele>
			<time>2020-01-17T04:38:59.45Z</time>
		</trkpt>
		<trkpt lat="34.739307" lon="128.597002">
			<ele>89.97</ele>
			<time>2020-01-17T04:39:01.32Z</time>
		</trkpt>
		<trkpt lat="34.739336" lon="128.596747">
			<ele>90.49</ele>
			<time>2020-01-17T04:39:02.73Z</time>
		</trkpt>
		<trkpt lat="34.739555" lon="128.596658">
			<ele>90.49</ele>
			<time>2020-01-17T04:39:04.27Z</time>
		</trkpt>
		<trkpt lat="34.739775" lon="128.596619">
			<ele>90.36</ele>
			<time>2020-01-17T04:39:05.75Z</time>
		</trkpt>
		<trkpt lat="34.739812" lon="128.596595">
			<ele>90.23</ele>
			<time>2020-01-17T04:39:06.03Z</time>
		</trkpt>
		<trkpt lat="34.739841" lon="128.596568">
			<ele>90.51</ele>
			<time>2020-01-17T04:39:06.28Z</time>
		</trkpt>
		<trkpt lat="34.739867" lon="128.596538">
			<ele>90.62</ele>
			<time>2020-01-17T04:39:06.52Z</time>
		</trkpt>
		<trkpt lat="34.739891" lon="128.596499">
			<ele>91.12</ele>
			<time>2020-01-17T04:39:06.78Z</time>
		</trkpt>
		<trkpt lat="34.739914" lon="128.596454">
			<ele>91.45</ele>
			<time>2020-01-17T04:39:07.07Z</time>
		</trkpt>
		<trkpt lat="34.739934" lon="128.596410">
			<ele>91.65</ele>
			<time>2020-01-17T04:39:07.35Z</time>
		</trkpt>
		<trkpt lat="34.740102" lon="128.596089">
			<ele>92.67</ele>
			<time>2020-01-17T04:39:09.43Z</time>
		</trkpt>
		<trkpt lat="34.740402" lon="128.595766">
			<ele>93.37</ele>
			<time>2020-01-17T04:39:12.10Z</time>
		</trkpt>
		<trkpt lat="34.740439" lon="128.595713">
			<ele>93.36</ele>
			<time>2020-01-17T04:39:12.48Z</time>
		</trkpt>
		<trkpt lat="34.740465" lon="128.595652">
			<ele>93.55</ele>
			<time>2020-01-17T04:39:12.86Z</time>
		</trkpt>
		<trkpt lat="34.740483" lon="128.595586">
			<ele>93.75</ele>
			<time>2020-01-17T04:39:13.24Z</time>
		</trkpt>
		<trkpt lat="34.740497" lon="128.595521">
			<ele>94.09</ele>
			<time>2020-01-17T04:39:13.61Z</time>
		</trkpt>
		<trkpt lat="34.740669" lon="128.594942">
			<ele>97.34</ele>
			<time>2020-01-17T04:39:16.98Z</time>
		</trkpt>
		<trkpt lat="34.740717" lon="128.594752">
			<ele>99.10</ele>
			<time>2020-01-17T04:39:18.07Z</time>
		</trkpt>
		<trkpt lat="34.740739" lon="128.594702">
			<ele>99.18</ele>
			<time>2020-01-17T04:39:18.38Z</time>
		</trkpt>
		<trkpt lat="34.740879" lon="128.594314">
			<ele>102.55</ele>
			<time>2020-01-17T04:39:20.70Z</time>
		</trkpt>
		<trkpt lat="34.740926" lon="128.594192">
			<ele>103.46</ele>
			<time>2020-01-17T04:39:21.44Z</time>
		</trkpt>
		<trkpt lat="34.740959" lon="128.594133">
			<ele>103.53</ele>
			<time>2020-01-17T04:39:21.83Z</time>
		</trkpt>
		<trkpt lat="34.741007" lon="128.594072">
			<ele>104.04</ele>
			<time>2020-01-17T04:39:22.30Z</time>
		</trkpt>
		<trkpt lat="34.741061" lon="128.594018">
			<ele>104.00</ele>
			<time>2020-01-17T04:39:22.76Z</time>
		</trkpt>
		<trkpt lat="34.741119" lon="128.593968">
			<ele>104.44</ele>
			<time>2020-01-17T04:39:23.24Z</time>
		</trkpt>
		<trkpt lat="34.741174" lon="128.593913">
			<ele>104.29</ele>
			<time>2020-01-17T04:39:23.71Z</time>
		</trkpt>
		<trkpt lat="34.741223" lon="128.593847">
			<ele>104.97</ele>
			<time>2020-01-17T04:39:24.20Z</time>
		</trkpt>
		<trkpt lat="34.741262" lon="128.593779">
			<ele>105.55</ele>
			<time>2020-01-17T04:39:24.65Z</time>
		</trkpt>
		<trkpt lat="34.741295" lon="128.593711">
			<ele>106.05</ele>
			<time>2020-01-17T04:39:25.08Z</time>
		</trkpt>
		<trkpt lat="34.741319" lon="128.593642">
			<ele>107.22</ele>
			<time>2020-01-17T04:39:25.49Z</time>
		</trkpt>
		<trkpt lat="34.741339" lon="128.593581">
			<ele>107.77</ele>
			<time>2020-01-17T04:39:25.85Z</time>
		</trkpt>
		<trkpt lat="34.741367" lon="128.593493">
			<ele>108.36</ele>
			<time>2020-01-17T04:39:26.37Z</time>
		</trkpt>
		<trkpt lat="34.741351" lon="128.593400">
			<ele>108.36</ele>
			<time>2020-01-17T04:39:26.89Z</time>
		</trkpt>
		<trkpt lat="34.741321" lon="128.593332">
			<ele>108.36</ele>
			<time>2020-01-17T04:39:27.32Z</time>
		</trkpt>
		<trkpt lat="34.741250" lon="128.593291">
			<ele>110.87</ele>
			<time>2020-01-17T04:39:27.84Z</time>
		</trkpt>
		<trkpt lat="34.741215" lon="128.593271">
			<ele>112.44</ele>
			<time>2020-01-17T04:39:28.10Z</time>
		</trkpt>
		<trkpt lat="34.741179" lon="128.593256">
			<ele>112.15</ele>
			<time>2020-01-17T04:39:28.35Z</time>
		</trkpt>
		<trkpt lat="34.740932" lon="128.593138">
			<ele>115.22</ele>
			<time>2020-01-17T04:39:30.12Z</time>
		</trkpt>
		<trkpt lat="34.740801" lon="128.593038">
			<ele>115.61</ele>
			<time>2020-01-17T04:39:31.15Z</time>
		</trkpt>
		<trkpt lat="34.740799" lon="128.593005">
			<ele>115.61</ele>
			<time>2020-01-17T04:39:31.33Z</time>
		</trkpt>
		<trkpt lat="34.740855" lon="128.592918">
			<ele>115.61</ele>
			<time>2020-01-17T04:39:31.94Z</time>
		</trkpt>
		<trkpt lat="34.740911" lon="128.592707">
			<ele>115.61</ele>
			<time>2020-01-17T04:39:33.15Z</time>
		</trkpt>
		<trkpt lat="34.741025" lon="128.592525">
			<ele>115.61</ele>
			<time>2020-01-17T04:39:34.41Z</time>
		</trkpt>
		<trkpt lat="34.741121" lon="128.592391">
			<ele>115.61</ele>
			<time>2020-01-17T04:39:35.38Z</time>
		</trkpt>
		<trkpt lat="34.741222" lon="128.592254">
			<ele>115.61</ele>
			<time>2020-01-17T04:39:36.39Z</time>
		</trkpt>
		<trkpt lat="34.741280" lon="128.592145">
			<ele>115.61</ele>
			<time>2020-01-17T04:39:37.10Z</time>
		</trkpt>
		<trkpt lat="34.741385" lon="128.592000">
			<ele>115.61</ele>
			<time>2020-01-17T04:39:38.16Z</time>
		</trkpt>
		<trkpt lat="34.741500" lon="128.591838">
			<ele>115.61</ele>
			<time>2020-01-17T04:39:39.33Z</time>
		</trkpt>
		<trkpt lat="34.741570" lon="128.591672">
			<ele>115.61</ele>
			<time>2020-01-17T04:39:40.35Z</time>
		</trkpt>
		<trkpt lat="34.741630" lon="128.591514">
			<ele>122.43</ele>
			<time>2020-01-17T04:39:41.30Z</time>
		</trkpt>
		<trkpt lat="34.741624" lon="128.591547">
			<ele>122.83</ele>
			<time>2020-01-17T04:39:41.49Z</time>
		</trkpt>
		<trkpt lat="34.741635" lon="128.591445">
			<ele>123.17</ele>
			<time>2020-01-17T04:39:42.05Z</time>
		</trkpt>
		<trkpt lat="34.741575" lon="128.591332">
			<ele>125.96</ele>
			<time>2020-01-17T04:39:42.79Z</time>
		</trkpt>
		<trkpt lat="34.741537" lon="128.591261">
			<ele>125.96</ele>
			<time>2020-01-17T04:39:43.25Z</time>
		</trkpt>
		<trkpt lat="34.741431" lon="128.591182">
			<ele>125.96</ele>
			<time>2020-01-17T04:39:44.09Z</time>
		</trkpt>
		<trkpt lat="34.741379" lon="128.591102">
			<ele>125.96</ele>
			<time>2020-01-17T04:39:44.64Z</time>
		</trkpt>
		<trkpt lat="34.741283" lon="128.590897">
			<ele>129.80</ele>
			<time>2020-01-17T04:39:45.93Z</time>
		</trkpt>
		<trkpt lat="34.741118" lon="128.590535">
			<ele>131.45</ele>
			<time>2020-01-17T04:39:48.20Z</time>
		</trkpt>
		<trkpt lat="34.740905" lon="128.589669">
			<ele>128.28</ele>
			<time>2020-01-17T04:39:53.15Z</time>
		</trkpt>
		<trkpt lat="34.740880" lon="128.589609">
			<ele>128.09</ele>
			<time>2020-01-17T04:39:53.52Z</time>
		</trkpt>
		<trkpt lat="34.740848" lon="128.589555">
			<ele>128.30</ele>
			<time>2020-01-17T04:39:53.89Z</time>
		</trkpt>
		<trkpt lat="34.740604" lon="128.589373">
			<ele>129.71</ele>
			<time>2020-01-17T04:39:55.80Z</time>
		</trkpt>
		<trkpt lat="34.740542" lon="128.589349">
			<ele>130.11</ele>
			<time>2020-01-17T04:39:56.23Z</time>
		</trkpt>
		<trkpt lat="34.740527" lon="128.589340">
			<ele>130.23</ele>
			<time>2020-01-17T04:39:56.34Z</time>
		</trkpt>
		<trkpt lat="34.740257" lon="128.589322">
			<ele>132.63</ele>
			<time>2020-01-17T04:39:58.14Z</time>
		</trkpt>
		<trkpt lat="34.740062" lon="128.589341">
			<ele>135.27</ele>
			<time>2020-01-17T04:39:59.45Z</time>
		</trkpt>
		<trkpt lat="34.739987" lon="128.589290">
			<ele>135.27</ele>
			<time>2020-01-17T04:40:00.02Z</time>
		</trkpt>
		<trkpt lat="34.739918" lon="128.589237">
			<ele>135.27</ele>
			<time>2020-01-17T04:40:00.56Z</time>
		</trkpt>
		<trkpt lat="34.739809" lon="128.589006">
			<ele>135.27</ele>
			<time>2020-01-17T04:40:02.02Z</time>
		</trkpt>
		<trkpt lat="34.739696" lon="128.588830">
			<ele>135.27</ele>
			<time>2020-01-17T04:40:03.25Z</time>
		</trkpt>
		<trkpt lat="34.739670" lon="128.588702">
			<ele>135.27</ele>
			<time>2020-01-17T04:40:03.97Z</time>
		</trkpt>
		<trkpt lat="34.739654" lon="128.588519">
			<ele>135.27</ele>
			<time>2020-01-17T04:40:04.98Z</time>
		</trkpt>
		<trkpt lat="34.739640" lon="128.588357">
			<ele>135.27</ele>
			<time>2020-01-17T04:40:05.87Z</time>
		</trkpt>
		<trkpt lat="34.739611" lon="128.588175">
			<ele>135.27</ele>
			<time>2020-01-17T04:40:06.89Z</time>
		</trkpt>
		<trkpt lat="34.739607" lon="128.588163">
			<ele>135.27</ele>
			<time>2020-01-17T04:40:06.96Z</time>
		</trkpt>
		<trkpt lat="34.739555" lon="128.588064">
			<ele>135.27</ele>
			<time>2020-01-17T04:40:07.60Z</time>
		</trkpt>
		<trkpt lat="34.739475" lon="128.587961">
			<ele>135.27</ele>
			<time>2020-01-17T04:40:08.37Z</time>
		</trkpt>
		<trkpt lat="34.739468" lon="128.587956">
			<ele>135.27</ele>
			<time>2020-01-17T04:40:08.43Z</time>
		</trkpt>
		<trkpt lat="34.739466" lon="128.587936">
			<ele>135.27</ele>
			<time>2020-01-17T04:40:08.54Z</time>
		</trkpt>
		<trkpt lat="34.739351" lon="128.587822">
			<ele>135.27</ele>
			<time>2020-01-17T04:40:09.53Z</time>
		</trkpt>
		<trkpt lat="34.739342" lon="128.587813">
			<ele>135.27</ele>
			<time>2020-01-17T04:40:09.61Z</time>
		</trkpt>
		<trkpt lat="34.739199" lon="128.587660">
			<ele>135.27</ele>
			<time>2020-01-17T04:40:10.88Z</time>
		</trkpt>
		<trkpt lat="34.739169" lon="128.587557">
			<ele>135.27</ele>
			<time>2020-01-17T04:40:11.48Z</time>
		</trkpt>
		<trkpt lat="34.739197" lon="128.587415">
			<ele>135.27</ele>
			<time>2020-01-17T04:40:12.28Z</time>
		</trkpt>
		<trkpt lat="34.739299" lon="128.587241">
			<ele>135.27</ele>
			<time>2020-01-17T04:40:13.45Z</time>
		</trkpt>
		<trkpt lat="34.739463" lon="128.587052">
			<ele>135.27</ele>
			<time>2020-01-17T04:40:14.96Z</time>
		</trkpt>
		<trkpt lat="34.739596" lon="128.586852">
			<ele>135.27</ele>
			<time>2020-01-17T04:40:16.37Z</time>
		</trkpt>
		<trkpt lat="34.739657" lon="128.586806">
			<ele>136.27</ele>
			<time>2020-01-17T04:40:16.84Z</time>
		</trkpt>
		<trkpt lat="34.739822" lon="128.586743">
			<ele>133.96</ele>
			<time>2020-01-17T04:40:18Z</time>
		</trkpt>
		<trkpt lat="34.740085" lon="128.586666">
			<ele>130.94</ele>
			<time>2020-01-17T04:40:19.80Z</time>
		</trkpt>
		<trkpt lat="34.740138" lon="128.586628">
			<ele>130.51</ele>
			<time>2020-01-17T04:40:20.21Z</time>
		</trkpt>
		<trkpt lat="34.740188" lon="128.586576">
			<ele>129.66</ele>
			<time>2020-01-17T04:40:20.65Z</time>
		</trkpt>
		<trkpt lat="34.740287" lon="128.586480">
			<ele>128.51</ele>
			<time>2020-01-17T04:40:21.49Z</time>
		</trkpt>
		<trkpt lat="34.740344" lon="128.586440">
			<ele>128.39</ele>
			<time>2020-01-17T04:40:21.93Z</time>
		</trkpt>
		<trkpt lat="34.740578" lon="128.586301">
			<ele>125.14</ele>
			<time>2020-01-17T04:40:23.67Z</time>
		</trkpt>
		<trkpt lat="34.740676" lon="128.586240">
			<ele>123.82</ele>
			<time>2020-01-17T04:40:24.40Z</time>
		</trkpt>
		<trkpt lat="34.740715" lon="128.586205">
			<ele>123.42</ele>
			<time>2020-01-17T04:40:24.72Z</time>
		</trkpt>
		<trkpt lat="34.740828" lon="128.586087">
			<ele>121.74</ele>
			<time>2020-01-17T04:40:25.72Z</time>
		</trkpt>
		<trkpt lat="34.740853" lon="128.586025">
			<ele>121.18</ele>
			<time>2020-01-17T04:40:26.10Z</time>
		</trkpt>
		<trkpt lat="34.740860" lon="128.585951">
			<ele>121.03</ele>
			<time>2020-01-17T04:40:26.50Z</time>
		</trkpt>
		<trkpt lat="34.740849" lon="128.585884">
			<ele>120.85</ele>
			<time>2020-01-17T04:40:26.88Z</time>
		</trkpt>
		<trkpt lat="34.740830" lon="128.585822">
			<ele>121.13</ele>
			<time>2020-01-17T04:40:27.24Z</time>
		</trkpt>
		<trkpt lat="34.740803" lon="128.585763">
			<ele>121.61</ele>
			<time>2020-01-17T04:40:27.61Z</time>
		</trkpt>
		<trkpt lat="34.740767" lon="128.585700">
			<ele>121.46</ele>
			<time>2020-01-17T04:40:28.03Z</time>
		</trkpt>
		<trkpt lat="34.740726" lon="128.585635">
			<ele>121.66</ele>
			<time>2020-01-17T04:40:28.48Z</time>
		</trkpt>
		<trkpt lat="34.740655" lon="128.585507">
			<ele>121.88</ele>
			<time>2020-01-17T04:40:29.33Z</time>
		</trkpt>
		<trkpt lat="34.740638" lon="128.585448">
			<ele>122.09</ele>
			<time>2020-01-17T04:40:29.67Z</time>
		</trkpt>
		<trkpt lat="34.740637" lon="128.585394">
			<ele>122.01</ele>
			<time>2020-01-17T04:40:29.96Z</time>
		</trkpt>
		<trkpt lat="34.740646" lon="128.585354">
			<ele>121.67</ele>
			<time>2020-01-17T04:40:30.19Z</time>
		</trkpt>
		<trkpt lat="34.740658" lon="128.585328">
			<ele>121.33</ele>
			<time>2020-01-17T04:40:30.35Z</time>
		</trkpt>
		<trkpt lat="34.740670" lon="128.585312">
			<ele>121.39</ele>
			<time>2020-01-17T04:40:30.47Z</time>
		</trkpt>
		<trkpt lat="34.740829" lon="128.585154">
			<ele>120.46</ele>
			<time>2020-01-17T04:40:31.84Z</time>
		</trkpt>
		<trkpt lat="34.741038" lon="128.584905">
			<ele>117.69</ele>
			<time>2020-01-17T04:40:33.79Z</time>
		</trkpt>
		<trkpt lat="34.741078" lon="128.584891">
			<ele>117.28</ele>
			<time>2020-01-17T04:40:34.07Z</time>
		</trkpt>
		<trkpt lat="34.741118" lon="128.584892">
			<ele>116.61</ele>
			<time>2020-01-17T04:40:34.34Z</time>
		</trkpt>
		<trkpt lat="34.741149" lon="128.584904">
			<ele>116.19</ele>
			<time>2020-01-17T04:40:34.55Z</time>
		</trkpt>
		<trkpt lat="34.741167" lon="128.584917">
			<ele>115.66</ele>
			<time>2020-01-17T04:40:34.69Z</time>
		</trkpt>
		<trkpt lat="34.741177" lon="128.584923">
			<ele>115.36</ele>
			<time>2020-01-17T04:40:34.77Z</time>
		</trkpt>
		<trkpt lat="34.741180" lon="128.584922">
			<ele>115.44</ele>
			<time>2020-01-17T04:40:34.83Z</time>
		</trkpt>
		<trkpt lat="34.741207" lon="128.584947">
			<ele>115.22</ele>
			<time>2020-01-17T04:40:35.05Z</time>
		</trkpt>
		<trkpt lat="34.741305" lon="128.585019">
			<ele>115.22</ele>
			<time>2020-01-17T04:40:35.82Z</time>
		</trkpt>
		<trkpt lat="34.741453" lon="128.585136">
			<ele>115.22</ele>
			<time>2020-01-17T04:40:36.99Z</time>
		</trkpt>
		<trkpt lat="34.741539" lon="128.585157">
			<ele>115.22</ele>
			<time>2020-01-17T04:40:37.57Z</time>
		</trkpt>
		<trkpt lat="34.741673" lon="128.585165">
			<ele>115.22</ele>
			<time>2020-01-17T04:40:38.47Z</time>
		</trkpt>
		<trkpt lat="34.741779" lon="128.585140">
			<ele>115.22</ele>
			<time>2020-01-17T04:40:39.19Z</time>
		</trkpt>
		<trkpt lat="34.741865" lon="128.585086">
			<ele>115.22</ele>
			<time>2020-01-17T04:40:39.84Z</time>
		</trkpt>
		<trkpt lat="34.741978" lon="128.585032">
			<ele>115.22</ele>
			<time>2020-01-17T04:40:40.65Z</time>
		</trkpt>
		<trkpt lat="34.742033" lon="128.584990">
			<ele>115.22</ele>
			<time>2020-01-17T04:40:41.08Z</time>
		</trkpt>
		<trkpt lat="34.742095" lon="128.584973">
			<ele>115.22</ele>
			<time>2020-01-17T04:40:41.50Z</time>
		</trkpt>
		<trkpt lat="34.742202" lon="128.584965">
			<ele>115.22</ele>
			<time>2020-01-17T04:40:42.22Z</time>
		</trkpt>
		<trkpt lat="34.742260" lon="128.584965">
			<ele>115.22</ele>
			<time>2020-01-17T04:40:42.61Z</time>
		</trkpt>
		<trkpt lat="34.742300" lon="128.584897">
			<ele>105.50</ele>
			<time>2020-01-17T04:40:43.06Z</time>
		</trkpt>
		<trkpt lat="34.742318" lon="128.584848">
			<ele>105.56</ele>
			<time>2020-01-17T04:40:43.36Z</time>
		</trkpt>
		<trkpt lat="34.742294" lon="128.584506">
			<ele>108.72</ele>
			<time>2020-01-17T04:40:45.24Z</time>
		</trkpt>
		<trkpt lat="34.742289" lon="128.584391">
			<ele>108.88</ele>
			<time>2020-01-17T04:40:45.87Z</time>
		</trkpt>
		<trkpt lat="34.742289" lon="128.584391">
			<ele>108.98</ele>
			<time>2020-01-17T04:40:45.93Z</time>
		</trkpt>
		<trkpt lat="34.742284" lon="128.584398">
			<ele>109.06</ele>
			<time>2020-01-17T04:40:45.99Z</time>
		</trkpt>
		<trkpt lat="34.742284" lon="128.584398">
			<ele>109.14</ele>
			<time>2020-01-17T04:40:46.05Z</time>
		</trkpt>
		<trkpt lat="34.742294" lon="128.584377">
			<ele>109.39</ele>
			<time>2020-01-17T04:40:46.18Z</time>
		</trkpt>
		<trkpt lat="34.742313" lon="128.584278">
			<ele>108.93</ele>
			<time>2020-01-17T04:40:46.74Z</time>
		</trkpt>
		<trkpt lat="34.742315" lon="128.584247">
			<ele>109.35</ele>
			<time>2020-01-17T04:40:46.91Z</time>
		</trkpt>
		<trkpt lat="34.742335" lon="128.584075">
			<ele>108.92</ele>
			<time>2020-01-17T04:40:47.86Z</time>
		</trkpt>
		<trkpt lat="34.742425" lon="128.583940">
			<ele>108.92</ele>
			<time>2020-01-17T04:40:48.81Z</time>
		</trkpt>
		<trkpt lat="34.742453" lon="128.583889">
			<ele>108.92</ele>
			<time>2020-01-17T04:40:49.15Z</time>
		</trkpt>
		<trkpt lat="34.742453" lon="128.583781">
			<ele>108.92</ele>
			<time>2020-01-17T04:40:49.74Z</time>
		</trkpt>
		<trkpt lat="34.742404" lon="128.583584">
			<ele>108.92</ele>
			<time>2020-01-17T04:40:50.87Z</time>
		</trkpt>
		<trkpt lat="34.742397" lon="128.583413">
			<ele>108.92</ele>
			<time>2020-01-17T04:40:51.81Z</time>
		</trkpt>
		<trkpt lat="34.742338" lon="128.582995">
			<ele>108.92</ele>
			<time>2020-01-17T04:40:54.13Z</time>
		</trkpt>
		<trkpt lat="34.742296" lon="128.582698">
			<ele>108.92</ele>
			<time>2020-01-17T04:40:55.78Z</time>
		</trkpt>
		<trkpt lat="34.742216" lon="128.582462">
			<ele>108.92</ele>
			<time>2020-01-17T04:40:57.18Z</time>
		</trkpt>
		<trkpt lat="34.742103" lon="128.582251">
			<ele>108.92</ele>
			<time>2020-01-17T04:40:58.56Z</time>
		</trkpt>
		<trkpt lat="34.741979" lon="128.581935">
			<ele>108.92</ele>
			<time>2020-01-17T04:41:00.48Z</time>
		</trkpt>
		<trkpt lat="34.741810" lon="128.581699">
			<ele>108.92</ele>
			<time>2020-01-17T04:41:02.19Z</time>
		</trkpt>
		<trkpt lat="34.741560" lon="128.581503">
			<ele>108.92</ele>
			<time>2020-01-17T04:41:04.17Z</time>
		</trkpt>
		<trkpt lat="34.741307" lon="128.581299">
			<ele>108.92</ele>
			<time>2020-01-17T04:41:06.20Z</time>
		</trkpt>
		<trkpt lat="34.741122" lon="128.581148">
			<ele>108.92</ele>
			<time>2020-01-17T04:41:07.68Z</time>
		</trkpt>
		<trkpt lat="34.740991" lon="128.580992">
			<ele>108.92</ele>
			<time>2020-01-17T04:41:08.91Z</time>
		</trkpt>
		<trkpt lat="34.740853" lon="128.580633">
			<ele>108.92</ele>
			<time>2020-01-17T04:41:11.07Z</time>
		</trkpt>
		<trkpt lat="34.740872" lon="128.580408">
			<ele>108.92</ele>
			<time>2020-01-17T04:41:12.31Z</time>
		</trkpt>
		<trkpt lat="34.740948" lon="128.580191">
			<ele>112.61</ele>
			<time>2020-01-17T04:41:13.61Z</time>
		</trkpt>
		<trkpt lat="34.741100" lon="128.580025">
			<ele>108.82</ele>
			<time>2020-01-17T04:41:14.97Z</time>
		</trkpt>
		<trkpt lat="34.741285" lon="128.579880">
			<ele>105.55</ele>
			<time>2020-01-17T04:41:16.43Z</time>
		</trkpt>
		<trkpt lat="34.741329" lon="128.579818">
			<ele>105.18</ele>
			<time>2020-01-17T04:41:16.89Z</time>
		</trkpt>
		<trkpt lat="34.741379" lon="128.579761">
			<ele>105.18</ele>
			<time>2020-01-17T04:41:17.34Z</time>
		</trkpt>
		<trkpt lat="34.741461" lon="128.579618">
			<ele>105.18</ele>
			<time>2020-01-17T04:41:18.29Z</time>
		</trkpt>
		<trkpt lat="34.741538" lon="128.579379">
			<ele>105.18</ele>
			<time>2020-01-17T04:41:19.70Z</time>
		</trkpt>
		<trkpt lat="34.741678" lon="128.579313">
			<ele>105.18</ele>
			<time>2020-01-17T04:41:20.70Z</time>
		</trkpt>
		<trkpt lat="34.741845" lon="128.579430">
			<ele>105.18</ele>
			<time>2020-01-17T04:41:21.98Z</time>
		</trkpt>
		<trkpt lat="34.741983" lon="128.579595">
			<ele>105.18</ele>
			<time>2020-01-17T04:41:23.27Z</time>
		</trkpt>
		<trkpt lat="34.742073" lon="128.579658">
			<ele>105.18</ele>
			<time>2020-01-17T04:41:23.97Z</time>
		</trkpt>
		<trkpt lat="34.742225" lon="128.579643">
			<ele>105.18</ele>
			<time>2020-01-17T04:41:24.99Z</time>
		</trkpt>
		<trkpt lat="34.742497" lon="128.579509">
			<ele>105.18</ele>
			<time>2020-01-17T04:41:26.94Z</time>
		</trkpt>
		<trkpt lat="34.742700" lon="128.579298">
			<ele>105.18</ele>
			<time>2020-01-17T04:41:28.72Z</time>
		</trkpt>
		<trkpt lat="34.742981" lon="128.579033">
			<ele>105.18</ele>
			<time>2020-01-17T04:41:31.09Z</time>
		</trkpt>
		<trkpt lat="34.743023" lon="128.579047">
			<ele>94.46</ele>
			<time>2020-01-17T04:41:31.38Z</time>
		</trkpt>
		<trkpt lat="34.743269" lon="128.579035">
			<ele>94.46</ele>
			<time>2020-01-17T04:41:33.03Z</time>
		</trkpt>
		<trkpt lat="34.743412" lon="128.579112">
			<ele>94.46</ele>
			<time>2020-01-17T04:41:34.07Z</time>
		</trkpt>
		<trkpt lat="34.743560" lon="128.579217">
			<ele>94.46</ele>
			<time>2020-01-17T04:41:35.21Z</time>
		</trkpt>
		<trkpt lat="34.743656" lon="128.579263">
			<ele>94.46</ele>
			<time>2020-01-17T04:41:35.89Z</time>
		</trkpt>
		<trkpt lat="34.743841" lon="128.579239">
			<ele>94.46</ele>
			<time>2020-01-17T04:41:37.13Z</time>
		</trkpt>
		<trkpt lat="34.743850" lon="128.579239">
			<ele>94.46</ele>
			<time>2020-01-17T04:41:37.19Z</time>
		</trkpt>
		<trkpt lat="34.744056" lon="128.579168">
			<ele>94.46</ele>
			<time>2020-01-17T04:41:38.62Z</time>
		</trkpt>
		<trkpt lat="34.744290" lon="128.579222">
			<ele>94.46</ele>
			<time>2020-01-17T04:41:40.21Z</time>
		</trkpt>
		<trkpt lat="34.744489" lon="128.579287">
			<ele>94.46</ele>
			<time>2020-01-17T04:41:41.58Z</time>
		</trkpt>
		<trkpt lat="34.744640" lon="128.579421">
			<ele>94.46</ele>
			<time>2020-01-17T04:41:42.83Z</time>
		</trkpt>
		<trkpt lat="34.744766" lon="128.579486">
			<ele>94.46</ele>
			<time>2020-01-17T04:41:43.74Z</time>
		</trkpt>
		<trkpt lat="34.744895" lon="128.579438">
			<ele>94.46</ele>
			<time>2020-01-17T04:41:44.64Z</time>
		</trkpt>
		<trkpt lat="34.745000" lon="128.579363">
			<ele>94.46</ele>
			<time>2020-01-17T04:41:45.45Z</time>
		</trkpt>
		<trkpt lat="34.745119" lon="128.579064">
			<ele>94.46</ele>
			<time>2020-01-17T04:41:47.27Z</time>
		</trkpt>
		<trkpt lat="34.745165" lon="128.578948">
			<ele>94.46</ele>
			<time>2020-01-17T04:41:47.98Z</time>
		</trkpt>
		<trkpt lat="34.745275" lon="128.578838">
			<ele>94.46</ele>
			<time>2020-01-17T04:41:48.93Z</time>
		</trkpt>
		<trkpt lat="34.745501" lon="128.578838">
			<ele>94.46</ele>
			<time>2020-01-17T04:41:50.43Z</time>
		</trkpt>
		<trkpt lat="34.745686" lon="128.578892">
			<ele>94.46</ele>
			<time>2020-01-17T04:41:51.71Z</time>
		</trkpt>
		<trkpt lat="34.745847" lon="128.578911">
			<ele>94.46</ele>
			<time>2020-01-17T04:41:52.78Z</time>
		</trkpt>
		<trkpt lat="34.745977" lon="128.578813">
			<ele>94.46</ele>
			<time>2020-01-17T04:41:53.81Z</time>
		</trkpt>
		<trkpt lat="34.746131" lon="128.578737">
			<ele>94.46</ele>
			<time>2020-01-17T04:41:54.91Z</time>
		</trkpt>
		<trkpt lat="34.746309" lon="128.578708">
			<ele>94.46</ele>
			<time>2020-01-17T04:41:56.10Z</time>
		</trkpt>
		<trkpt lat="34.746459" lon="128.578806">
			<ele>94.46</ele>
			<time>2020-01-17T04:41:57.24Z</time>
		</trkpt>
		<trkpt lat="34.746585" lon="128.578897">
			<ele>94.46</ele>
			<time>2020-01-17T04:41:58.22Z</time>
		</trkpt>
		<trkpt lat="34.746710" lon="128.579123">
			<ele>94.46</ele>
			<time>2020-01-17T04:41:59.71Z</time>
		</trkpt>
		<trkpt lat="34.746711" lon="128.579264">
			<ele>94.46</ele>
			<time>2020-01-17T04:42:00.48Z</time>
		</trkpt>
		<trkpt lat="34.746746" lon="128.579343">
			<ele>94.46</ele>
			<time>2020-01-17T04:42:00.97Z</time>
		</trkpt>
		<trkpt lat="34.746846" lon="128.579471">
			<ele>94.46</ele>
			<time>2020-01-17T04:42:01.95Z</time>
		</trkpt>
		<trkpt lat="34.747067" lon="128.579385">
			<ele>94.46</ele>
			<time>2020-01-17T04:42:03.49Z</time>
		</trkpt>
		<trkpt lat="34.747268" lon="128.579257">
			<ele>94.46</ele>
			<time>2020-01-17T04:42:05Z</time>
		</trkpt>
		<trkpt lat="34.747498" lon="128.579055">
			<ele>94.46</ele>
			<time>2020-01-17T04:42:06.90Z</time>
		</trkpt>
		<trkpt lat="34.747734" lon="128.578859">
			<ele>94.46</ele>
			<time>2020-01-17T04:42:08.80Z</time>
		</trkpt>
		<trkpt lat="34.747940" lon="128.578590">
			<ele>94.46</ele>
			<time>2020-01-17T04:42:10.81Z</time>
		</trkpt>
		<trkpt lat="34.748045" lon="128.578474">
			<ele>94.46</ele>
			<time>2020-01-17T04:42:11.76Z</time>
		</trkpt>
		<trkpt lat="34.748180" lon="128.578285">
			<ele>94.46</ele>
			<time>2020-01-17T04:42:13.13Z</time>
		</trkpt>
		<trkpt lat="34.748316" lon="128.578089">
			<ele>94.46</ele>
			<time>2020-01-17T04:42:14.53Z</time>
		</trkpt>
		<trkpt lat="34.748431" lon="128.578034">
			<ele>94.46</ele>
			<time>2020-01-17T04:42:15.36Z</time>
		</trkpt>
		<trkpt lat="34.748684" lon="128.578082">
			<ele>94.46</ele>
			<time>2020-01-17T04:42:17.07Z</time>
		</trkpt>
		<trkpt lat="34.748895" lon="128.578143">
			<ele>94.46</ele>
			<time>2020-01-17T04:42:18.51Z</time>
		</trkpt>
		<trkpt lat="34.749039" lon="128.578210">
			<ele>94.46</ele>
			<time>2020-01-17T04:42:19.54Z</time>
		</trkpt>
		<trkpt lat="34.749240" lon="128.578363">
			<ele>94.46</ele>
			<time>2020-01-17T04:42:21.12Z</time>
		</trkpt>
		<trkpt lat="34.749405" lon="128.578558">
			<ele>94.46</ele>
			<time>2020-01-17T04:42:22.66Z</time>
		</trkpt>
		<trkpt lat="34.749531" lon="128.578741">
			<ele>94.46</ele>
			<time>2020-01-17T04:42:23.96Z</time>
		</trkpt>
		<trkpt lat="34.749531" lon="128.578753">
			<ele>94.46</ele>
			<time>2020-01-17T04:42:24.03Z</time>
		</trkpt>
		<trkpt lat="34.749622" lon="128.579083">
			<ele>94.46</ele>
			<time>2020-01-17T04:42:25.93Z</time>
		</trkpt>
		<trkpt lat="34.749818" lon="128.579241">
			<ele>94.46</ele>
			<time>2020-01-17T04:42:27.50Z</time>
		</trkpt>
		<trkpt lat="34.750033" lon="128.579241">
			<ele>94.46</ele>
			<time>2020-01-17T04:42:28.94Z</time>
		</trkpt>
		<trkpt lat="34.750279" lon="128.579229">
			<ele>94.46</ele>
			<time>2020-01-17T04:42:30.58Z</time>
		</trkpt>
		<trkpt lat="34.750570" lon="128.579247">
			<ele>94.46</ele>
			<time>2020-01-17T04:42:32.53Z</time>
		</trkpt>
		<trkpt lat="34.750596" lon="128.579247">
			<ele>94.46</ele>
			<time>2020-01-17T04:42:32.69Z</time>
		</trkpt>
		<trkpt lat="34.750776" lon="128.579149">
			<ele>94.46</ele>
			<time>2020-01-17T04:42:34.01Z</time>
		</trkpt>
		<trkpt lat="34.750987" lon="128.578983">
			<ele>94.46</ele>
			<time>2020-01-17T04:42:35.68Z</time>
		</trkpt>
		<trkpt lat="34.751338" lon="128.578855">
			<ele>94.46</ele>
			<time>2020-01-17T04:42:38.13Z</time>
		</trkpt>
		<trkpt lat="34.751594" lon="128.578818">
			<ele>94.46</ele>
			<time>2020-01-17T04:42:39.85Z</time>
		</trkpt>
		<trkpt lat="34.751755" lon="128.578818">
			<ele>94.46</ele>
			<time>2020-01-17T04:42:40.92Z</time>
		</trkpt>
		<trkpt lat="34.751860" lon="128.578854">
			<ele>94.46</ele>
			<time>2020-01-17T04:42:41.65Z</time>
		</trkpt>
		<trkpt lat="34.751860" lon="128.578885">
			<ele>94.46</ele>
			<time>2020-01-17T04:42:41.81Z</time>
		</trkpt>
		<trkpt lat="34.751875" lon="128.578988">
			<ele>94.46</ele>
			<time>2020-01-17T04:42:42.39Z</time>
		</trkpt>
		<trkpt lat="34.751875" lon="128.579001">
			<ele>94.46</ele>
			<time>2020-01-17T04:42:42.46Z</time>
		</trkpt>
		<trkpt lat="34.751875" lon="128.579025">
			<ele>94.46</ele>
			<time>2020-01-17T04:42:42.59Z</time>
		</trkpt>
		<trkpt lat="34.751957" lon="128.579246">
			<ele>94.46</ele>
			<time>2020-01-17T04:42:43.92Z</time>
		</trkpt>
		<trkpt lat="34.751998" lon="128.579313">
			<ele>94.46</ele>
			<time>2020-01-17T04:42:44.38Z</time>
		</trkpt>
		<trkpt lat="34.752112" lon="128.579375">
			<ele>94.46</ele>
			<time>2020-01-17T04:42:45.21Z</time>
		</trkpt>
		<trkpt lat="34.752184" lon="128.579371">
			<ele>94.46</ele>
			<time>2020-01-17T04:42:45.69Z</time>
		</trkpt>
		<trkpt lat="34.752373" lon="128.579426">
			<ele>94.46</ele>
			<time>2020-01-17T04:42:46.98Z</time>
		</trkpt>
		<trkpt lat="34.752448" lon="128.579434">
			<ele>94.46</ele>
			<time>2020-01-17T04:42:47.49Z</time>
		</trkpt>
		<trkpt lat="34.752555" lon="128.579488">
			<ele>94.46</ele>
			<time>2020-01-17T04:42:48.26Z</time>
		</trkpt>
		<trkpt lat="34.752651" lon="128.579564">
			<ele>94.46</ele>
			<time>2020-01-17T04:42:49.02Z</time>
		</trkpt>
		<trkpt lat="34.752737" lon="128.579685">
			<ele>94.46</ele>
			<time>2020-01-17T04:42:49.90Z</time>
		</trkpt>
		<trkpt lat="34.752833" lon="128.579852">
			<ele>94.46</ele>
			<time>2020-01-17T04:42:51.02Z</time>
		</trkpt>
		<trkpt lat="34.752922" lon="128.579965">
			<ele>94.46</ele>
			<time>2020-01-17T04:42:51.88Z</time>
		</trkpt>
		<trkpt lat="34.753005" lon="128.580053">
			<ele>94.46</ele>
			<time>2020-01-17T04:42:52.61Z</time>
		</trkpt>
		<trkpt lat="34.753118" lon="128.580091">
			<ele>94.46</ele>
			<time>2020-01-17T04:42:53.39Z</time>
		</trkpt>
		<trkpt lat="34.753228" lon="128.580099">
			<ele>94.46</ele>
			<time>2020-01-17T04:42:54.12Z</time>
		</trkpt>
		<trkpt lat="34.753263" lon="128.580112">
			<ele>94.46</ele>
			<time>2020-01-17T04:42:54.36Z</time>
		</trkpt>
		<trkpt lat="34.753283" lon="128.580120">
			<ele>94.46</ele>
			<time>2020-01-17T04:42:54.51Z</time>
		</trkpt>
		<trkpt lat="34.753338" lon="128.580137">
			<ele>94.46</ele>
			<time>2020-01-17T04:42:54.89Z</time>
		</trkpt>
		<trkpt lat="34.753427" lon="128.580174">
			<ele>94.46</ele>
			<time>2020-01-17T04:42:55.52Z</time>
		</trkpt>
		<trkpt lat="34.753513" lon="128.580275">
			<ele>94.46</ele>
			<time>2020-01-17T04:42:56.31Z</time>
		</trkpt>
		<trkpt lat="34.753544" lon="128.580396">
			<ele>94.46</ele>
			<time>2020-01-17T04:42:57.01Z</time>
		</trkpt>
		<trkpt lat="34.753558" lon="128.580509">
			<ele>94.46</ele>
			<time>2020-01-17T04:42:57.63Z</time>
		</trkpt>
		<trkpt lat="34.753558" lon="128.580576">
			<ele>94.46</ele>
			<time>2020-01-17T04:42:58Z</time>
		</trkpt>
		<trkpt lat="34.753548" lon="128.580693">
			<ele>94.46</ele>
			<time>2020-01-17T04:42:58.64Z</time>
		</trkpt>
		<trkpt lat="34.753544" lon="128.580807">
			<ele>71.81</ele>
			<time>2020-01-17T04:42:59.27Z</time>
		</trkpt>
		<trkpt lat="34.753542" lon="128.580866">
			<ele>71.45</ele>
			<time>2020-01-17T04:42:59.59Z</time>
		</trkpt>
		<trkpt lat="34.753534" lon="128.580978">
			<ele>70.49</ele>
			<time>2020-01-17T04:43:00.21Z</time>
		</trkpt>
		<trkpt lat="34.753510" lon="128.581171">
			<ele>69.28</ele>
			<time>2020-01-17T04:43:01.27Z</time>
		</trkpt>
		<trkpt lat="34.753500" lon="128.581227">
			<ele>69.31</ele>
			<time>2020-01-17T04:43:01.59Z</time>
		</trkpt>
		<trkpt lat="34.753501" lon="128.581285">
			<ele>68.99</ele>
			<time>2020-01-17T04:43:01.91Z</time>
		</trkpt>
		<trkpt lat="34.753513" lon="128.581343">
			<ele>68.29</ele>
			<time>2020-01-17T04:43:02.23Z</time>
		</trkpt>
		<trkpt lat="34.753537" lon="128.581396">
			<ele>67.89</ele>
			<time>2020-01-17T04:43:02.57Z</time>
		</trkpt>
		<trkpt lat="34.753580" lon="128.581434">
			<ele>67.89</ele>
			<time>2020-01-17T04:43:02.92Z</time>
		</trkpt>
		<trkpt lat="34.753624" lon="128.581470">
			<ele>67.66</ele>
			<time>2020-01-17T04:43:03.27Z</time>
		</trkpt>
		<trkpt lat="34.753877" lon="128.581707">
			<ele>64.53</ele>
			<time>2020-01-17T04:43:05.40Z</time>
		</trkpt>
		<trkpt lat="34.753923" lon="128.581835">
			<ele>63.06</ele>
			<time>2020-01-17T04:43:06.17Z</time>
		</trkpt>
		<trkpt lat="34.753927" lon="128.581854">
			<ele>62.87</ele>
			<time>2020-01-17T04:43:06.27Z</time>
		</trkpt>
		<trkpt lat="34.754032" lon="128.582258">
			<ele>60.17</ele>
			<time>2020-01-17T04:43:08.60Z</time>
		</trkpt>
		<trkpt lat="34.754041" lon="128.582316">
			<ele>59.31</ele>
			<time>2020-01-17T04:43:08.92Z</time>
		</trkpt>
		<trkpt lat="34.754041" lon="128.582368">
			<ele>59.17</ele>
			<time>2020-01-17T04:43:09.20Z</time>
		</trkpt>
		<trkpt lat="34.754048" lon="128.582412">
			<ele>58.73</ele>
			<time>2020-01-17T04:43:09.45Z</time>
		</trkpt>
		<trkpt lat="34.754060" lon="128.582459">
			<ele>58.12</ele>
			<time>2020-01-17T04:43:09.72Z</time>
		</trkpt>
		<trkpt lat="34.754142" lon="128.582563">
			<ele>58.12</ele>
			<time>2020-01-17T04:43:10.51Z</time>
		</trkpt>
		<trkpt lat="34.754283" lon="128.582684">
			<ele>58.12</ele>
			<time>2020-01-17T04:43:11.66Z</time>
		</trkpt>
		<trkpt lat="34.754376" lon="128.582768">
			<ele>58.12</ele>
			<time>2020-01-17T04:43:12.43Z</time>
		</trkpt>
		<trkpt lat="34.754472" lon="128.582868">
			<ele>58.12</ele>
			<time>2020-01-17T04:43:13.27Z</time>
		</trkpt>
		<trkpt lat="34.754564" lon="128.583065">
			<ele>58.12</ele>
			<time>2020-01-17T04:43:14.51Z</time>
		</trkpt>
		<trkpt lat="34.754688" lon="128.583287">
			<ele>58.12</ele>
			<time>2020-01-17T04:43:15.98Z</time>
		</trkpt>
		<trkpt lat="34.754791" lon="128.583446">
			<ele>58.12</ele>
			<time>2020-01-17T04:43:17.09Z</time>
		</trkpt>
		<trkpt lat="34.754839" lon="128.583559">
			<ele>58.12</ele>
			<time>2020-01-17T04:43:17.79Z</time>
		</trkpt>
		<trkpt lat="34.754860" lon="128.583688">
			<ele>58.12</ele>
			<time>2020-01-17T04:43:18.51Z</time>
		</trkpt>
		<trkpt lat="34.754928" lon="128.583784">
			<ele>58.12</ele>
			<time>2020-01-17T04:43:19.21Z</time>
		</trkpt>
		<trkpt lat="34.755001" lon="128.583850">
			<ele>41.76</ele>
			<time>2020-01-17T04:43:19.81Z</time>
		</trkpt>
		<trkpt lat="34.755069" lon="128.583884">
			<ele>41.76</ele>
			<time>2020-01-17T04:43:20.30Z</time>
		</trkpt>
		<trkpt lat="34.755163" lon="128.583932">
			<ele>41.76</ele>
			<time>2020-01-17T04:43:20.98Z</time>
		</trkpt>
		<trkpt lat="34.755307" lon="128.584118">
			<ele>41.76</ele>
			<time>2020-01-17T04:43:22.38Z</time>
		</trkpt>
		<trkpt lat="34.755353" lon="128.584362">
			<ele>41.76</ele>
			<time>2020-01-17T04:43:23.75Z</time>
		</trkpt>
		<trkpt lat="34.755401" lon="128.584483">
			<ele>41.76</ele>
			<time>2020-01-17T04:43:24.49Z</time>
		</trkpt>
		<trkpt lat="34.755407" lon="128.584500">
			<ele>41.76</ele>
			<time>2020-01-17T04:43:24.59Z</time>
		</trkpt>
		<trkpt lat="34.755412" lon="128.584524">
			<ele>41.76</ele>
			<time>2020-01-17T04:43:24.73Z</time>
		</trkpt>
		<trkpt lat="34.755421" lon="128.584552">
			<ele>41.76</ele>
			<time>2020-01-17T04:43:24.89Z</time>
		</trkpt>
		<trkpt lat="34.755517" lon="128.584741">
			<ele>41.76</ele>
			<time>2020-01-17T04:43:26.11Z</time>
		</trkpt>
		<trkpt lat="34.755528" lon="128.584751">
			<ele>41.76</ele>
			<time>2020-01-17T04:43:26.20Z</time>
		</trkpt>
		<trkpt lat="34.755534" lon="128.584776">
			<ele>41.76</ele>
			<time>2020-01-17T04:43:26.34Z</time>
		</trkpt>
		<trkpt lat="34.755534" lon="128.584793">
			<ele>41.76</ele>
			<time>2020-01-17T04:43:26.43Z</time>
		</trkpt>
		<trkpt lat="34.755534" lon="128.584800">
			<ele>41.76</ele>
			<time>2020-01-17T04:43:26.49Z</time>
		</trkpt>
		<trkpt lat="34.755625" lon="128.585010">
			<ele>41.76</ele>
			<time>2020-01-17T04:43:27.79Z</time>
		</trkpt>
		<trkpt lat="34.755636" lon="128.585017">
			<ele>41.76</ele>
			<time>2020-01-17T04:43:27.88Z</time>
		</trkpt>
		<trkpt lat="34.755798" lon="128.585109">
			<ele>41.76</ele>
			<time>2020-01-17T04:43:29.07Z</time>
		</trkpt>
		<trkpt lat="34.755936" lon="128.585254">
			<ele>41.76</ele>
			<time>2020-01-17T04:43:30.28Z</time>
		</trkpt>
		<trkpt lat="34.755942" lon="128.585364">
			<ele>41.76</ele>
			<time>2020-01-17T04:43:30.89Z</time>
		</trkpt>
		<trkpt lat="34.755928" lon="128.585505">
			<ele>41.76</ele>
			<time>2020-01-17T04:43:31.67Z</time>
		</trkpt>
		<trkpt lat="34.755928" lon="128.585512">
			<ele>41.76</ele>
			<time>2020-01-17T04:43:31.73Z</time>
		</trkpt>
		<trkpt lat="34.755925" lon="128.585533">
			<ele>41.76</ele>
			<time>2020-01-17T04:43:31.84Z</time>
		</trkpt>
		<trkpt lat="34.755925" lon="128.585619">
			<ele>41.76</ele>
			<time>2020-01-17T04:43:32.31Z</time>
		</trkpt>
		<trkpt lat="34.755934" lon="128.585650">
			<ele>41.76</ele>
			<time>2020-01-17T04:43:32.49Z</time>
		</trkpt>
		<trkpt lat="34.755939" lon="128.585664">
			<ele>41.76</ele>
			<time>2020-01-17T04:43:32.58Z</time>
		</trkpt>
		<trkpt lat="34.756002" lon="128.585739">
			<ele>41.76</ele>
			<time>2020-01-17T04:43:33.17Z</time>
		</trkpt>
		<trkpt lat="34.756010" lon="128.585767">
			<ele>41.76</ele>
			<time>2020-01-17T04:43:33.33Z</time>
		</trkpt>
		<trkpt lat="34.756104" lon="128.585801">
			<ele>41.76</ele>
			<time>2020-01-17T04:43:33.98Z</time>
		</trkpt>
		<trkpt lat="34.756339" lon="128.585753">
			<ele>41.76</ele>
			<time>2020-01-17T04:43:35.57Z</time>
		</trkpt>
		<trkpt lat="34.756548" lon="128.585642">
			<ele>36.95</ele>
			<time>2020-01-17T04:43:37.09Z</time>
		</trkpt>
		<trkpt lat="34.756589" lon="128.585623">
			<ele>37.19</ele>
			<time>2020-01-17T04:43:37.38Z</time>
		</trkpt>
		<trkpt lat="34.756988" lon="128.585387">
			<ele>40.20</ele>
			<time>2020-01-17T04:43:40.34Z</time>
		</trkpt>
		<trkpt lat="34.757137" lon="128.585258">
			<ele>41.36</ele>
			<time>2020-01-17T04:43:41.56Z</time>
		</trkpt>
		<trkpt lat="34.757261" lon="128.585096">
			<ele>41.36</ele>
			<time>2020-01-17T04:43:42.77Z</time>
		</trkpt>
		<trkpt lat="34.757323" lon="128.585025">
			<ele>41.36</ele>
			<time>2020-01-17T04:43:43.34Z</time>
		</trkpt>
		<trkpt lat="34.757351" lon="128.585046">
			<ele>41.36</ele>
			<time>2020-01-17T04:43:43.55Z</time>
		</trkpt>
		<trkpt lat="34.757341" lon="128.585138">
			<ele>41.36</ele>
			<time>2020-01-17T04:43:44.06Z</time>
		</trkpt>
		<trkpt lat="34.757220" lon="128.585393">
			<ele>41.36</ele>
			<time>2020-01-17T04:43:45.67Z</time>
		</trkpt>
		<trkpt lat="34.757158" lon="128.585548">
			<ele>41.36</ele>
			<time>2020-01-17T04:43:46.62Z</time>
		</trkpt>
		<trkpt lat="34.756927" lon="128.586249">
			<ele>63.83</ele>
			<time>2020-01-17T04:43:50.75Z</time>
		</trkpt>
		<trkpt lat="34.756805" lon="128.586428">
			<ele>66.44</ele>
			<time>2020-01-17T04:43:52.03Z</time>
		</trkpt>
		<trkpt lat="34.756770" lon="128.586536">
			<ele>68.52</ele>
			<time>2020-01-17T04:43:52.66Z</time>
		</trkpt>
		<trkpt lat="34.756738" lon="128.586719">
			<ele>71.58</ele>
			<time>2020-01-17T04:43:53.69Z</time>
		</trkpt>
		<trkpt lat="34.756724" lon="128.586816">
			<ele>73.04</ele>
			<time>2020-01-17T04:43:54.23Z</time>
		</trkpt>
		<trkpt lat="34.756591" lon="128.586976">
			<ele>73.04</ele>
			<time>2020-01-17T04:43:55.48Z</time>
		</trkpt>
		<trkpt lat="34.756463" lon="128.587131">
			<ele>73.04</ele>
			<time>2020-01-17T04:43:56.68Z</time>
		</trkpt>
		<trkpt lat="34.756447" lon="128.587141">
			<ele>73.04</ele>
			<time>2020-01-17T04:43:56.80Z</time>
		</trkpt>
		<trkpt lat="34.756432" lon="128.587152">
			<ele>73.04</ele>
			<time>2020-01-17T04:43:56.91Z</time>
		</trkpt>
		<trkpt lat="34.756268" lon="128.587255">
			<ele>73.04</ele>
			<time>2020-01-17T04:43:58.14Z</time>
		</trkpt>
		<trkpt lat="34.756198" lon="128.587300">
			<ele>73.04</ele>
			<time>2020-01-17T04:43:58.68Z</time>
		</trkpt>
		<trkpt lat="34.756192" lon="128.587310">
			<ele>73.04</ele>
			<time>2020-01-17T04:43:58.74Z</time>
		</trkpt>
		<trkpt lat="34.756206" lon="128.587366">
			<ele>73.04</ele>
			<time>2020-01-17T04:43:59.06Z</time>
		</trkpt>
		<trkpt lat="34.756305" lon="128.587424">
			<ele>73.04</ele>
			<time>2020-01-17T04:43:59.79Z</time>
		</trkpt>
		<trkpt lat="34.756458" lon="128.587434">
			<ele>73.04</ele>
			<time>2020-01-17T04:44:00.81Z</time>
		</trkpt>
		<trkpt lat="34.756554" lon="128.587417">
			<ele>73.04</ele>
			<time>2020-01-17T04:44:01.46Z</time>
		</trkpt>
		<trkpt lat="34.756631" lon="128.587445">
			<ele>90.88</ele>
			<time>2020-01-17T04:44:02Z</time>
		</trkpt>
		<trkpt lat="34.756852" lon="128.587364">
			<ele>94.09</ele>
			<time>2020-01-17T04:44:03.54Z</time>
		</trkpt>
		<trkpt lat="34.756934" lon="128.587307">
			<ele>95.36</ele>
			<time>2020-01-17T04:44:04.17Z</time>
		</trkpt>
		<trkpt lat="34.757064" lon="128.587157">
			<ele>97.82</ele>
			<time>2020-01-17T04:44:05.36Z</time>
		</trkpt>
		<trkpt lat="34.757107" lon="128.587067">
			<ele>99.12</ele>
			<time>2020-01-17T04:44:05.93Z</time>
		</trkpt>
		<trkpt lat="34.757257" lon="128.586895">
			<ele>102.29</ele>
			<time>2020-01-17T04:44:07.30Z</time>
		</trkpt>
		<trkpt lat="34.757688" lon="128.586630">
			<ele>105.41</ele>
			<time>2020-01-17T04:44:10.52Z</time>
		</trkpt>
		<trkpt lat="34.757810" lon="128.586589">
			<ele>107.78</ele>
			<time>2020-01-17T04:44:11.37Z</time>
		</trkpt>
		<trkpt lat="34.758117" lon="128.586455">
			<ele>108.66</ele>
			<time>2020-01-17T04:44:13.54Z</time>
		</trkpt>
		<trkpt lat="34.758183" lon="128.586384">
			<ele>108.89</ele>
			<time>2020-01-17T04:44:14.13Z</time>
		</trkpt>
		<trkpt lat="34.758337" lon="128.586206">
			<ele>108.89</ele>
			<time>2020-01-17T04:44:15.55Z</time>
		</trkpt>
		<trkpt lat="34.758482" lon="128.586040">
			<ele>108.89</ele>
			<time>2020-01-17T04:44:16.87Z</time>
		</trkpt>
		<trkpt lat="34.758524" lon="128.585920">
			<ele>108.89</ele>
			<time>2020-01-17T04:44:17.59Z</time>
		</trkpt>
		<trkpt lat="34.758566" lon="128.585682">
			<ele>108.89</ele>
			<time>2020-01-17T04:44:18.92Z</time>
		</trkpt>
		<trkpt lat="34.758613" lon="128.585444">
			<ele>105.64</ele>
			<time>2020-01-17T04:44:20.26Z</time>
		</trkpt>
		<trkpt lat="34.758703" lon="128.585239">
			<ele>105.50</ele>
			<time>2020-01-17T04:44:21.53Z</time>
		</trkpt>
		<trkpt lat="34.758985" lon="128.584684">
			<ele>101.84</ele>
			<time>2020-01-17T04:44:25.11Z</time>
		</trkpt>
		<trkpt lat="34.759061" lon="128.584632">
			<ele>101.02</ele>
			<time>2020-01-17T04:44:25.69Z</time>
		</trkpt>
		<trkpt lat="34.759105" lon="128.584607">
			<ele>100.35</ele>
			<time>2020-01-17T04:44:26.01Z</time>
		</trkpt>
		<trkpt lat="34.759151" lon="128.584584">
			<ele>100.08</ele>
			<time>2020-01-17T04:44:26.34Z</time>
		</trkpt>
		<trkpt lat="34.759465" lon="128.584375">
			<ele>96.91</ele>
			<time>2020-01-17T04:44:28.73Z</time>
		</trkpt>
		<trkpt lat="34.759521" lon="128.584339">
			<ele>96.43</ele>
			<time>2020-01-17T04:44:29.15Z</time>
		</trkpt>
		<trkpt lat="34.759774" lon="128.584195">
			<ele>94.55</ele>
			<time>2020-01-17T04:44:31.01Z</time>
		</trkpt>
		<trkpt lat="34.759812" lon="128.584159">
			<ele>94.24</ele>
			<time>2020-01-17T04:44:31.33Z</time>
		</trkpt>
		<trkpt lat="34.759968" lon="128.584011">
			<ele>91.74</ele>
			<time>2020-01-17T04:44:32.65Z</time>
		</trkpt>
		<trkpt lat="34.760005" lon="128.583962">
			<ele>91.00</ele>
			<time>2020-01-17T04:44:33.02Z</time>
		</trkpt>
		<trkpt lat="34.760053" lon="128.583867">
			<ele>88.94</ele>
			<time>2020-01-17T04:44:33.63Z</time>
		</trkpt>
		<trkpt lat="34.760059" lon="128.583823">
			<ele>87.95</ele>
			<time>2020-01-17T04:44:33.87Z</time>
		</trkpt>
		<trkpt lat="34.760063" lon="128.583781">
			<ele>87.19</ele>
			<time>2020-01-17T04:44:34.10Z</time>
		</trkpt>
		<trkpt lat="34.760070" lon="128.583734">
			<ele>85.78</ele>
			<time>2020-01-17T04:44:34.36Z</time>
		</trkpt>
		<trkpt lat="34.760088" lon="128.583682">
			<ele>84.90</ele>
			<time>2020-01-17T04:44:34.67Z</time>
		</trkpt>
		<trkpt lat="34.760126" lon="128.583626">
			<ele>84.06</ele>
			<time>2020-01-17T04:44:35.07Z</time>
		</trkpt>
		<trkpt lat="34.760178" lon="128.583576">
			<ele>82.83</ele>
			<time>2020-01-17T04:44:35.51Z</time>
		</trkpt>
		<trkpt lat="34.760223" lon="128.583545">
			<ele>81.56</ele>
			<time>2020-01-17T04:44:35.86Z</time>
		</trkpt>
		<trkpt lat="34.760253" lon="128.583527">
			<ele>80.89</ele>
			<time>2020-01-17T04:44:36.08Z</time>
		</trkpt>
		<trkpt lat="34.760325" lon="128.583508">
			<ele>80.06</ele>
			<time>2020-01-17T04:44:36.57Z</time>
		</trkpt>
		<trkpt lat="34.760465" lon="128.583483">
			<ele>77.39</ele>
			<time>2020-01-17T04:44:37.52Z</time>
		</trkpt>
		<trkpt lat="34.760504" lon="128.583478">
			<ele>76.87</ele>
			<time>2020-01-17T04:44:37.78Z</time>
		</trkpt>
		<trkpt lat="34.760542" lon="128.583466">
			<ele>75.98</ele>
			<time>2020-01-17T04:44:38.04Z</time>
		</trkpt>
		<trkpt lat="34.760699" lon="128.583393">
			<ele>72.50</ele>
			<time>2020-01-17T04:44:39.16Z</time>
		</trkpt>
		<trkpt lat="34.760840" lon="128.583270">
			<ele>69.20</ele>
			<time>2020-01-17T04:44:40.32Z</time>
		</trkpt>
		<trkpt lat="34.760914" lon="128.583178">
			<ele>67.85</ele>
			<time>2020-01-17T04:44:41.02Z</time>
		</trkpt>
		<trkpt lat="34.760948" lon="128.583121">
			<ele>66.41</ele>
			<time>2020-01-17T04:44:41.41Z</time>
		</trkpt>
		<trkpt lat="34.761026" lon="128.582933">
			<ele>63.47</ele>
			<time>2020-01-17T04:44:42.56Z</time>
		</trkpt>
		<trkpt lat="34.761141" lon="128.582597">
			<ele>60.07</ele>
			<time>2020-01-17T04:44:44.55Z</time>
		</trkpt>
		<trkpt lat="34.761241" lon="128.582319">
			<ele>57.59</ele>
			<time>2020-01-17T04:44:46.22Z</time>
		</trkpt>
		<trkpt lat="34.761254" lon="128.582273">
			<ele>57.16</ele>
			<time>2020-01-17T04:44:46.48Z</time>
		</trkpt>
		<trkpt lat="34.761267" lon="128.582225">
			<ele>56.94</ele>
			<time>2020-01-17T04:44:46.76Z</time>
		</trkpt>
		<trkpt lat="34.761269" lon="128.582173">
			<ele>56.32</ele>
			<time>2020-01-17T04:44:47.04Z</time>
		</trkpt>
		<trkpt lat="34.761265" lon="128.582125">
			<ele>55.84</ele>
			<time>2020-01-17T04:44:47.31Z</time>
		</trkpt>
		<trkpt lat="34.761264" lon="128.582023">
			<ele>55.20</ele>
			<time>2020-01-17T04:44:47.87Z</time>
		</trkpt>
		<trkpt lat="34.761268" lon="128.581970">
			<ele>55.05</ele>
			<time>2020-01-17T04:44:48.16Z</time>
		</trkpt>
		<trkpt lat="34.761281" lon="128.581923">
			<ele>54.81</ele>
			<time>2020-01-17T04:44:48.43Z</time>
		</trkpt>
		<trkpt lat="34.761307" lon="128.581877">
			<ele>54.61</ele>
			<time>2020-01-17T04:44:48.74Z</time>
		</trkpt>
		<trkpt lat="34.761338" lon="128.581834">
			<ele>54.54</ele>
			<time>2020-01-17T04:44:49.05Z</time>
		</trkpt>
		<trkpt lat="34.761375" lon="128.581790">
			<ele>54.44</ele>
			<time>2020-01-17T04:44:49.39Z</time>
		</trkpt>
		<trkpt lat="34.761585" lon="128.581588">
			<ele>52.89</ele>
			<time>2020-01-17T04:44:51.18Z</time>
		</trkpt>
		<trkpt lat="34.761585" lon="128.581588">
			<ele>53.67</ele>
			<time>2020-01-17T04:44:51.24Z</time>
		</trkpt>
		<trkpt lat="34.761593" lon="128.581580">
			<ele>53.56</ele>
			<time>2020-01-17T04:44:51.31Z</time>
		</trkpt>
		<trkpt lat="34.761600" lon="128.581586">
			<ele>53.31</ele>
			<time>2020-01-17T04:44:51.37Z</time>
		</trkpt>
		<trkpt lat="34.761610" lon="128.581582">
			<ele>53.71</ele>
			<time>2020-01-17T04:44:51.44Z</time>
		</trkpt>
		<trkpt lat="34.761611" lon="128.581608">
			<ele>54.44</ele>
			<time>2020-01-17T04:44:51.58Z</time>
		</trkpt>
		<trkpt lat="34.761607" lon="128.581614">
			<ele>54.61</ele>
			<time>2020-01-17T04:44:51.64Z</time>
		</trkpt>
		<trkpt lat="34.761610" lon="128.581613">
			<ele>54.88</ele>
			<time>2020-01-17T04:44:51.70Z</time>
		</trkpt>
		<trkpt lat="34.761613" lon="128.581609">
			<ele>55.18</ele>
			<time>2020-01-17T04:44:51.76Z</time>
		</trkpt>
		<trkpt lat="34.761613" lon="128.581609">
			<ele>55.53</ele>
			<time>2020-01-17T04:44:51.82Z</time>
		</trkpt>
		<trkpt lat="34.761623" lon="128.581609">
			<ele>55.83</ele>
			<time>2020-01-17T04:44:51.89Z</time>
		</trkpt>
		<trkpt lat="34.761625" lon="128.581606">
			<ele>56.05</ele>
			<time>2020-01-17T04:44:51.95Z</time>
		</trkpt>
		<trkpt lat="34.761630" lon="128.581607">
			<ele>56.14</ele>
			<time>2020-01-17T04:44:52.01Z</time>
		</trkpt>
		<trkpt lat="34.761637" lon="128.581598">
			<ele>56.23</ele>
			<time>2020-01-17T04:44:52.08Z</time>
		</trkpt>
		<trkpt lat="34.761669" lon="128.581551">
			<ele>55.72</ele>
			<time>2020-01-17T04:44:52.41Z</time>
		</trkpt>
		<trkpt lat="34.761856" lon="128.581348">
			<ele>52.17</ele>
			<time>2020-01-17T04:44:54.08Z</time>
		</trkpt>
		<trkpt lat="34.761873" lon="128.581317">
			<ele>52.05</ele>
			<time>2020-01-17T04:44:54.28Z</time>
		</trkpt>
		<trkpt lat="34.761877" lon="128.581060">
			<ele>48.54</ele>
			<time>2020-01-17T04:44:55.69Z</time>
		</trkpt>
		<trkpt lat="34.761945" lon="128.580896">
			<ele>44.97</ele>
			<time>2020-01-17T04:44:56.70Z</time>
		</trkpt>
		<trkpt lat="34.762051" lon="128.580702">
			<ele>41.93</ele>
			<time>2020-01-17T04:44:57.97Z</time>
		</trkpt>
		<trkpt lat="34.762085" lon="128.580621">
			<ele>41.06</ele>
			<time>2020-01-17T04:44:58.47Z</time>
		</trkpt>
		<trkpt lat="34.762100" lon="128.580557">
			<ele>40.14</ele>
			<time>2020-01-17T04:44:58.84Z</time>
		</trkpt>
		<trkpt lat="34.762128" lon="128.580539">
			<ele>39.66</ele>
			<time>2020-01-17T04:44:59.05Z</time>
		</trkpt>
		<trkpt lat="34.762175" lon="128.580641">
			<ele>38.05</ele>
			<time>2020-01-17T04:44:59.69Z</time>
		</trkpt>
		<trkpt lat="34.762172" lon="128.580665">
			<ele>37.81</ele>
			<time>2020-01-17T04:44:59.82Z</time>
		</trkpt>
		<trkpt lat="34.762170" lon="128.580692">
			<ele>37.31</ele>
			<time>2020-01-17T04:44:59.97Z</time>
		</trkpt>
		<trkpt lat="34.762200" lon="128.580848">
			<ele>34.13</ele>
			<time>2020-01-17T04:45:00.85Z</time>
		</trkpt>
		<trkpt lat="34.762222" lon="128.580981">
			<ele>33.05</ele>
			<time>2020-01-17T04:45:01.59Z</time>
		</trkpt>
		<trkpt lat="34.762230" lon="128.581022">
			<ele>31.87</ele>
			<time>2020-01-17T04:45:01.82Z</time>
		</trkpt>
		<trkpt lat="34.762246" lon="128.581047">
			<ele>31.42</ele>
			<time>2020-01-17T04:45:01.99Z</time>
		</trkpt>
		<trkpt lat="34.762262" lon="128.581075">
			<ele>31.23</ele>
			<time>2020-01-17T04:45:02.18Z</time>
		</trkpt>
		<trkpt lat="34.762289" lon="128.581105">
			<ele>30.75</ele>
			<time>2020-01-17T04:45:02.42Z</time>
		</trkpt>
		<trkpt lat="34.762299" lon="128.581114">
			<ele>30.60</ele>
			<time>2020-01-17T04:45:02.51Z</time>
		</trkpt>
		<trkpt lat="34.762332" lon="128.581170">
			<ele>30.37</ele>
			<time>2020-01-17T04:45:02.88Z</time>
		</trkpt>
		<trkpt lat="34.762471" lon="128.581655">
			<ele>27.64</ele>
			<time>2020-01-17T04:45:05.70Z</time>
		</trkpt>
		<trkpt lat="34.762488" lon="128.581884">
			<ele>25.73</ele>
			<time>2020-01-17T04:45:06.96Z</time>
		</trkpt>
		<trkpt lat="34.762474" lon="128.581920">
			<ele>25.05</ele>
			<time>2020-01-17T04:45:07.18Z</time>
		</trkpt>
		<trkpt lat="34.762471" lon="128.581936">
			<ele>24.64</ele>
			<time>2020-01-17T04:45:07.27Z</time>
		</trkpt>
		<trkpt lat="34.762503" lon="128.581991">
			<ele>23.37</ele>
			<time>2020-01-17T04:45:07.63Z</time>
		</trkpt>
		<trkpt lat="34.762517" lon="128.582022">
			<ele>22.75</ele>
			<time>2020-01-17T04:45:07.83Z</time>
		</trkpt>
		<trkpt lat="34.762522" lon="128.582055">
			<ele>22.38</ele>
			<time>2020-01-17T04:45:08.01Z</time>
		</trkpt>
		<trkpt lat="34.762532" lon="128.582093">
			<ele>21.73</ele>
			<time>2020-01-17T04:45:08.23Z</time>
		</trkpt>
		<trkpt lat="34.762536" lon="128.582132">
			<ele>21.18</ele>
			<time>2020-01-17T04:45:08.45Z</time>
		</trkpt>
		<trkpt lat="34.762540" lon="128.582165">
			<ele>20.56</ele>
			<time>2020-01-17T04:45:08.63Z</time>
		</trkpt>
		<trkpt lat="34.762543" lon="128.582194">
			<ele>19.14</ele>
			<time>2020-01-17T04:45:08.79Z</time>
		</trkpt>
		<trkpt lat="34.762543" lon="128.582221">
			<ele>18.79</ele>
			<time>2020-01-17T04:45:08.94Z</time>
		</trkpt>
		<trkpt lat="34.762541" lon="128.582251">
			<ele>18.33</ele>
			<time>2020-01-17T04:45:09.10Z</time>
		</trkpt>
		<trkpt lat="34.762489" lon="128.582353">
			<ele>17.87</ele>
			<time>2020-01-17T04:45:09.76Z</time>
		</trkpt>
		<trkpt lat="34.762472" lon="128.582350">
			<ele>17.85</ele>
			<time>2020-01-17T04:45:09.87Z</time>
		</trkpt>
		<trkpt lat="34.762472" lon="128.582350">
			<ele>17.30</ele>
			<time>2020-01-17T04:45:09.93Z</time>
		</trkpt>
		<trkpt lat="34.762472" lon="128.582348">
			<ele>17.39</ele>
			<time>2020-01-17T04:45:09.99Z</time>
		</trkpt>
		<trkpt lat="34.762474" lon="128.582379">
			<ele>17.22</ele>
			<time>2020-01-17T04:45:10.16Z</time>
		</trkpt>
		<trkpt lat="34.762557" lon="128.582454">
			<ele>14.46</ele>
			<time>2020-01-17T04:45:10.85Z</time>
		</trkpt>
		<trkpt lat="34.762700" lon="128.582474">
			<ele>10.96</ele>
			<time>2020-01-17T04:45:11.81Z</time>
		</trkpt>
		<trkpt lat="34.762712" lon="128.582481">
			<ele>10.81</ele>
			<time>2020-01-17T04:45:11.90Z</time>
		</trkpt>
		<trkpt lat="34.762712" lon="128.582482">
			<ele>10.71</ele>
			<time>2020-01-17T04:45:11.96Z</time>
		</trkpt>
		<trkpt lat="34.762719" lon="128.582493">
			<ele>10.47</ele>
			<time>2020-01-17T04:45:12.04Z</time>
		</trkpt>
		<trkpt lat="34.762773" lon="128.582595">
			<ele>9.40</ele>
			<time>2020-01-17T04:45:12.70Z</time>
		</trkpt>
		<trkpt lat="34.762929" lon="128.582982">
			<ele>8.14</ele>
			<time>2020-01-17T04:45:15.06Z</time>
		</trkpt>
		<trkpt lat="34.762994" lon="128.583017">
			<ele>8.30</ele>
			<time>2020-01-17T04:45:15.54Z</time>
		</trkpt>
		<trkpt lat="34.763202" lon="128.583303">
			<ele>8.73</ele>
			<time>2020-01-17T04:45:17.63Z</time>
		</trkpt>
		<trkpt lat="34.763244" lon="128.583340">
			<ele>8.84</ele>
			<time>2020-01-17T04:45:17.97Z</time>
		</trkpt>
		<trkpt lat="34.763406" lon="128.583445">
			<ele>9.10</ele>
			<time>2020-01-17T04:45:19.20Z</time>
		</trkpt>
		<trkpt lat="34.763997" lon="128.583797">
			<ele>8.46</ele>
			<time>2020-01-17T04:45:23.58Z</time>
		</trkpt>
		<trkpt lat="34.764030" lon="128.583832">
			<ele>8.59</ele>
			<time>2020-01-17T04:45:23.88Z</time>
		</trkpt>
		<trkpt lat="34.764059" lon="128.583871">
			<ele>8.30</ele>
			<time>2020-01-17T04:45:24.16Z</time>
		</trkpt>
		<trkpt lat="34.764082" lon="128.583914">
			<ele>8.23</ele>
			<time>2020-01-17T04:45:24.45Z</time>
		</trkpt>
		<trkpt lat="34.764093" lon="128.583958">
			<ele>8.23</ele>
			<time>2020-01-17T04:45:24.70Z</time>
		</trkpt>
		<trkpt lat="34.764191" lon="128.584012">
			<ele>8.12</ele>
			<time>2020-01-17T04:45:25.42Z</time>
		</trkpt>
		<trkpt lat="34.764140" lon="128.584126">
			<ele>8.12</ele>
			<time>2020-01-17T04:45:26.13Z</time>
		</trkpt>
		<trkpt lat="34.764095" lon="128.584294">
			<ele>8.12</ele>
			<time>2020-01-17T04:45:27.09Z</time>
		</trkpt>
		<trkpt lat="34.764056" lon="128.584476">
			<ele>8.12</ele>
			<time>2020-01-17T04:45:28.12Z</time>
		</trkpt>
		<trkpt lat="34.763996" lon="128.584658">
			<ele>8.12</ele>
			<time>2020-01-17T04:45:29.20Z</time>
		</trkpt>
		<trkpt lat="34.763941" lon="128.584749">
			<ele>8.12</ele>
			<time>2020-01-17T04:45:29.82Z</time>
		</trkpt>
		<trkpt lat="34.763839" lon="128.584791">
			<ele>8.12</ele>
			<time>2020-01-17T04:45:30.53Z</time>
		</trkpt>
		<trkpt lat="34.763678" lon="128.584848">
			<ele>8.12</ele>
			<time>2020-01-17T04:45:31.65Z</time>
		</trkpt>
		<trkpt lat="34.763136" lon="128.584885">
			<ele>5.51</ele>
			<time>2020-01-17T04:45:35.27Z</time>
		</trkpt>
		<trkpt lat="34.763031" lon="128.584863">
			<ele>5.41</ele>
			<time>2020-01-17T04:45:35.98Z</time>
		</trkpt>
		<trkpt lat="34.763023" lon="128.584863">
			<ele>5.39</ele>
			<time>2020-01-17T04:45:36.04Z</time>
		</trkpt>
		<trkpt lat="34.763003" lon="128.584865">
			<ele>5.44</ele>
			<time>2020-01-17T04:45:36.18Z</time>
		</trkpt>
		<trkpt lat="34.762615" lon="128.584910">
			<ele>6.78</ele>
			<time>2020-01-17T04:45:38.77Z</time>
		</trkpt>
		<trkpt lat="34.762000" lon="128.585382">
			<ele>5.69</ele>
			<time>2020-01-17T04:45:43.62Z</time>
		</trkpt>
		<trkpt lat="34.761770" lon="128.585686">
			<ele>5.75</ele>
			<time>2020-01-17T04:45:45.89Z</time>
		</trkpt>
		<trkpt lat="34.761690" lon="128.585775">
			<ele>5.24</ele>
			<time>2020-01-17T04:45:46.61Z</time>
		</trkpt>
		<trkpt lat="34.761422" lon="128.586261">
			<ele>5.24</ele>
			<time>2020-01-17T04:45:49.81Z</time>
		</trkpt>
		<trkpt lat="34.761309" lon="128.586479">
			<ele>5.24</ele>
			<time>2020-01-17T04:45:51.22Z</time>
		</trkpt>
		<trkpt lat="34.761334" lon="128.586963">
			<ele>5.24</ele>
			<time>2020-01-17T04:45:53.88Z</time>
		</trkpt>
		<trkpt lat="34.761423" lon="128.587467">
			<ele>5.24</ele>
			<time>2020-01-17T04:45:56.71Z</time>
		</trkpt>
		<trkpt lat="34.761643" lon="128.587813">
			<ele>5.24</ele>
			<time>2020-01-17T04:45:59.10Z</time>
		</trkpt>
		<trkpt lat="34.761643" lon="128.587833">
			<ele>5.24</ele>
			<time>2020-01-17T04:45:59.21Z</time>
		</trkpt>
		<trkpt lat="34.761797" lon="128.588188">
			<ele>5.24</ele>
			<time>2020-01-17T04:46:01.41Z</time>
		</trkpt>
		<trkpt lat="34.762172" lon="128.588554">
			<ele>5.24</ele>
			<time>2020-01-17T04:46:04.62Z</time>
		</trkpt>
		<trkpt lat="34.762346" lon="128.588734">
			<ele>5.24</ele>
			<time>2020-01-17T04:46:06.14Z</time>
		</trkpt>
		<trkpt lat="34.761848" lon="128.588901">
			<ele>5.21</ele>
			<time>2020-01-17T04:46:09.58Z</time>
		</trkpt>
		<trkpt lat="34.761848" lon="128.588901">
			<ele>5.21</ele>
			<time>2020-01-17T04:46:09.64Z</time>
		</trkpt>
		<trkpt lat="34.761850" lon="128.588912">
			<ele>5.26</ele>
			<time>2020-01-17T04:46:09.70Z</time>
		</trkpt>
		<trkpt lat="34.761973" lon="128.589255">
			<ele>4.89</ele>
			<time>2020-01-17T04:46:11.75Z</time>
		</trkpt>
		<trkpt lat="34.762000" lon="128.589313">
			<ele>4.98</ele>
			<time>2020-01-17T04:46:12.12Z</time>
		</trkpt>
		<trkpt lat="34.762007" lon="128.589482">
			<ele>5.96</ele>
			<time>2020-01-17T04:46:13.05Z</time>
		</trkpt>
		<trkpt lat="34.762009" lon="128.589508">
			<ele>6.10</ele>
			<time>2020-01-17T04:46:13.19Z</time>
		</trkpt>
		<trkpt lat="34.762005" lon="128.589542">
			<ele>6.92</ele>
			<time>2020-01-17T04:46:13.38Z</time>
		</trkpt>
		<trkpt lat="34.761995" lon="128.589651">
			<ele>8.13</ele>
			<time>2020-01-17T04:46:13.98Z</time>
		</trkpt>
		<trkpt lat="34.761978" lon="128.589708">
			<ele>8.65</ele>
			<time>2020-01-17T04:46:14.31Z</time>
		</trkpt>
		<trkpt lat="34.761978" lon="128.589721">
			<ele>9.03</ele>
			<time>2020-01-17T04:46:14.38Z</time>
		</trkpt>
		<trkpt lat="34.761978" lon="128.589735">
			<ele>9.03</ele>
			<time>2020-01-17T04:46:14.46Z</time>
		</trkpt>
		<trkpt lat="34.761978" lon="128.589750">
			<ele>9.27</ele>
			<time>2020-01-17T04:46:14.54Z</time>
		</trkpt>
		<trkpt lat="34.761987" lon="128.589864">
			<ele>10.94</ele>
			<time>2020-01-17T04:46:15.17Z</time>
		</trkpt>
		<trkpt lat="34.761995" lon="128.589879">
			<ele>12.41</ele>
			<time>2020-01-17T04:46:15.27Z</time>
		</trkpt>
		<trkpt lat="34.762010" lon="128.589899">
			<ele>13.64</ele>
			<time>2020-01-17T04:46:15.41Z</time>
		</trkpt>
		<trkpt lat="34.762066" lon="128.589965">
			<ele>15.16</ele>
			<time>2020-01-17T04:46:15.93Z</time>
		</trkpt>
		<trkpt lat="34.762128" lon="128.590007">
			<ele>15.66</ele>
			<time>2020-01-17T04:46:16.41Z</time>
		</trkpt>
		<trkpt lat="34.762139" lon="128.590010">
			<ele>16.08</ele>
			<time>2020-01-17T04:46:16.48Z</time>
		</trkpt>
		<trkpt lat="34.762140" lon="128.590014">
			<ele>12.49</ele>
			<time>2020-01-17T04:46:16.54Z</time>
		</trkpt>
		<trkpt lat="34.762138" lon="128.590015">
			<ele>18.91</ele>
			<time>2020-01-17T04:46:16.60Z</time>
		</trkpt>
		<trkpt lat="34.762138" lon="128.590023">
			<ele>15.80</ele>
			<time>2020-01-17T04:46:16.66Z</time>
		</trkpt>
		<trkpt lat="34.762140" lon="128.590002">
			<ele>15.76</ele>
			<time>2020-01-17T04:46:16.78Z</time>
		</trkpt>
		<trkpt lat="34.762142" lon="128.590007">
			<ele>15.96</ele>
			<time>2020-01-17T04:46:16.84Z</time>
		</trkpt>
		<trkpt lat="34.762156" lon="128.590020">
			<ele>16.24</ele>
			<time>2020-01-17T04:46:16.96Z</time>
		</trkpt>
		<trkpt lat="34.762237" lon="128.589968">
			<ele>17.99</ele>
			<time>2020-01-17T04:46:17.57Z</time>
		</trkpt>
		<trkpt lat="34.762307" lon="128.589887">
			<ele>19.85</ele>
			<time>2020-01-17T04:46:18.21Z</time>
		</trkpt>
		<trkpt lat="34.762375" lon="128.589908">
			<ele>20.71</ele>
			<time>2020-01-17T04:46:18.68Z</time>
		</trkpt>
		<trkpt lat="34.762457" lon="128.589936">
			<ele>21.97</ele>
			<time>2020-01-17T04:46:19.25Z</time>
		</trkpt>
		<trkpt lat="34.762489" lon="128.589936">
			<ele>22.88</ele>
			<time>2020-01-17T04:46:19.46Z</time>
		</trkpt>
		<trkpt lat="34.762603" lon="128.589955">
			<ele>24.37</ele>
			<time>2020-01-17T04:46:20.23Z</time>
		</trkpt>
		<trkpt lat="34.762614" lon="128.589953">
			<ele>24.47</ele>
			<time>2020-01-17T04:46:20.30Z</time>
		</trkpt>
		<trkpt lat="34.762687" lon="128.589981">
			<ele>25.21</ele>
			<time>2020-01-17T04:46:20.81Z</time>
		</trkpt>
		<trkpt lat="34.762746" lon="128.590017">
			<ele>26.43</ele>
			<time>2020-01-17T04:46:21.25Z</time>
		</trkpt>
		<trkpt lat="34.762809" lon="128.590122">
			<ele>25.84</ele>
			<time>2020-01-17T04:46:21.96Z</time>
		</trkpt>
		<trkpt lat="34.762873" lon="128.590273">
			<ele>25.42</ele>
			<time>2020-01-17T04:46:22.89Z</time>
		</trkpt>
		<trkpt lat="34.762941" lon="128.590413">
			<ele>25.82</ele>
			<time>2020-01-17T04:46:23.78Z</time>
		</trkpt>
		<trkpt lat="34.763019" lon="128.590595">
			<ele>25.41</ele>
			<time>2020-01-17T04:46:24.91Z</time>
		</trkpt>
		<trkpt lat="34.763062" lon="128.590700">
			<ele>25.66</ele>
			<time>2020-01-17T04:46:25.55Z</time>
		</trkpt>
		<trkpt lat="34.763094" lon="128.590816">
			<ele>26.11</ele>
			<time>2020-01-17T04:46:26.22Z</time>
		</trkpt>
		<trkpt lat="34.763099" lon="128.590826">
			<ele>26.29</ele>
			<time>2020-01-17T04:46:26.28Z</time>
		</trkpt>
		<trkpt lat="34.763136" lon="128.590954">
			<ele>27.07</ele>
			<time>2020-01-17T04:46:27.03Z</time>
		</trkpt>
		<trkpt lat="34.763151" lon="128.591000">
			<ele>28.57</ele>
			<time>2020-01-17T04:46:27.30Z</time>
		</trkpt>
		<trkpt lat="34.763164" lon="128.591043">
			<ele>28.50</ele>
			<time>2020-01-17T04:46:27.55Z</time>
		</trkpt>
		<trkpt lat="34.763246" lon="128.591083">
			<ele>28.50</ele>
			<time>2020-01-17T04:46:28.14Z</time>
		</trkpt>
		<trkpt lat="34.763391" lon="128.591227">
			<ele>32.97</ele>
			<time>2020-01-17T04:46:29.39Z</time>
		</trkpt>
		<trkpt lat="34.763529" lon="128.591264">
			<ele>34.91</ele>
			<time>2020-01-17T04:46:30.33Z</time>
		</trkpt>
		<trkpt lat="34.763555" lon="128.591277">
			<ele>35.47</ele>
			<time>2020-01-17T04:46:30.52Z</time>
		</trkpt>
		<trkpt lat="34.763577" lon="128.591289">
			<ele>35.71</ele>
			<time>2020-01-17T04:46:30.68Z</time>
		</trkpt>
		<trkpt lat="34.763654" lon="128.591322">
			<ele>36.50</ele>
			<time>2020-01-17T04:46:31.22Z</time>
		</trkpt>
		<trkpt lat="34.763654" lon="128.591322">
			<ele>36.60</ele>
			<time>2020-01-17T04:46:31.28Z</time>
		</trkpt>
		<trkpt lat="34.763686" lon="128.591315">
			<ele>36.97</ele>
			<time>2020-01-17T04:46:31.50Z</time>
		</trkpt>
		<trkpt lat="34.763824" lon="128.591398">
			<ele>38.18</ele>
			<time>2020-01-17T04:46:32.52Z</time>
		</trkpt>
		<trkpt lat="34.763838" lon="128.591414">
			<ele>38.47</ele>
			<time>2020-01-17T04:46:32.65Z</time>
		</trkpt>
		<trkpt lat="34.763838" lon="128.591414">
			<ele>38.48</ele>
			<time>2020-01-17T04:46:32.71Z</time>
		</trkpt>
		<trkpt lat="34.763945" lon="128.591656">
			<ele>38.37</ele>
			<time>2020-01-17T04:46:34.22Z</time>
		</trkpt>
		<trkpt lat="34.763967" lon="128.591760">
			<ele>37.89</ele>
			<time>2020-01-17T04:46:34.81Z</time>
		</trkpt>
		<trkpt lat="34.763988" lon="128.591840">
			<ele>37.22</ele>
			<time>2020-01-17T04:46:35.26Z</time>
		</trkpt>
		<trkpt lat="34.763939" lon="128.592041">
			<ele>36.29</ele>
			<time>2020-01-17T04:46:36.41Z</time>
		</trkpt>
		<trkpt lat="34.763928" lon="128.592065">
			<ele>36.30</ele>
			<time>2020-01-17T04:46:36.56Z</time>
		</trkpt>
		<trkpt lat="34.763896" lon="128.592132">
			<ele>35.99</ele>
			<time>2020-01-17T04:46:36.99Z</time>
		</trkpt>
		<trkpt lat="34.763879" lon="128.592193">
			<ele>36.00</ele>
			<time>2020-01-17T04:46:37.34Z</time>
		</trkpt>
		<trkpt lat="34.763863" lon="128.592212">
			<ele>35.99</ele>
			<time>2020-01-17T04:46:37.49Z</time>
		</trkpt>
		<trkpt lat="34.763804" lon="128.592327">
			<ele>37.13</ele>
			<time>2020-01-17T04:46:38.23Z</time>
		</trkpt>
		<trkpt lat="34.763749" lon="128.592394">
			<ele>38.64</ele>
			<time>2020-01-17T04:46:38.75Z</time>
		</trkpt>
		<trkpt lat="34.763690" lon="128.592485">
			<ele>40.64</ele>
			<time>2020-01-17T04:46:39.39Z</time>
		</trkpt>
		<trkpt lat="34.763685" lon="128.592497">
			<ele>40.74</ele>
			<time>2020-01-17T04:46:39.46Z</time>
		</trkpt>
		<trkpt lat="34.763632" lon="128.592577">
			<ele>41.05</ele>
			<time>2020-01-17T04:46:40.02Z</time>
		</trkpt>
		<trkpt lat="34.763557" lon="128.592674">
			<ele>41.20</ele>
			<time>2020-01-17T04:46:40.75Z</time>
		</trkpt>
		<trkpt lat="34.763477" lon="128.592811">
			<ele>41.49</ele>
			<time>2020-01-17T04:46:41.67Z</time>
		</trkpt>
		<trkpt lat="34.763335" lon="128.592915">
			<ele>43.15</ele>
			<time>2020-01-17T04:46:42.78Z</time>
		</trkpt>
		<trkpt lat="34.763231" lon="128.593111">
			<ele>43.28</ele>
			<time>2020-01-17T04:46:44.06Z</time>
		</trkpt>
		<trkpt lat="34.763211" lon="128.593188">
			<ele>42.90</ele>
			<time>2020-01-17T04:46:44.50Z</time>
		</trkpt>
		<trkpt lat="34.763211" lon="128.593188">
			<ele>42.76</ele>
			<time>2020-01-17T04:46:44.56Z</time>
		</trkpt>
		<trkpt lat="34.763212" lon="128.593189">
			<ele>42.76</ele>
			<time>2020-01-17T04:46:44.62Z</time>
		</trkpt>
		<trkpt lat="34.763204" lon="128.593244">
			<ele>42.19</ele>
			<time>2020-01-17T04:46:44.92Z</time>
		</trkpt>
		<trkpt lat="34.763202" lon="128.593254">
			<ele>42.08</ele>
			<time>2020-01-17T04:46:44.98Z</time>
		</trkpt>
		<trkpt lat="34.763196" lon="128.593323">
			<ele>41.68</ele>
			<time>2020-01-17T04:46:45.36Z</time>
		</trkpt>
		<trkpt lat="34.763209" lon="128.593381">
			<ele>41.07</ele>
			<time>2020-01-17T04:46:45.69Z</time>
		</trkpt>
		<trkpt lat="34.763217" lon="128.593440">
			<ele>40.47</ele>
			<time>2020-01-17T04:46:46.02Z</time>
		</trkpt>
		<trkpt lat="34.763228" lon="128.593460">
			<ele>40.12</ele>
			<time>2020-01-17T04:46:46.15Z</time>
		</trkpt>
		<trkpt lat="34.763265" lon="128.593608">
			<ele>38.87</ele>
			<time>2020-01-17T04:46:47Z</time>
		</trkpt>
		<trkpt lat="34.763277" lon="128.593692">
			<ele>39.07</ele>
			<time>2020-01-17T04:46:47.47Z</time>
		</trkpt>
		<trkpt lat="34.763257" lon="128.593763">
			<ele>37.24</ele>
			<time>2020-01-17T04:46:47.88Z</time>
		</trkpt>
		<trkpt lat="34.763222" lon="128.593855">
			<ele>36.46</ele>
			<time>2020-01-17T04:46:48.43Z</time>
		</trkpt>
		<trkpt lat="34.763172" lon="128.593987">
			<ele>35.38</ele>
			<time>2020-01-17T04:46:49.23Z</time>
		</trkpt>
		<trkpt lat="34.763166" lon="128.593987">
			<ele>35.31</ele>
			<time>2020-01-17T04:46:49.29Z</time>
		</trkpt>
		<trkpt lat="34.763166" lon="128.593987">
			<ele>35.28</ele>
			<time>2020-01-17T04:46:49.35Z</time>
		</trkpt>
		<trkpt lat="34.763166" lon="128.593988">
			<ele>35.35</ele>
			<time>2020-01-17T04:46:49.41Z</time>
		</trkpt>
		<trkpt lat="34.763161" lon="128.594025">
			<ele>35.19</ele>
			<time>2020-01-17T04:46:49.61Z</time>
		</trkpt>
		<trkpt lat="34.763144" lon="128.594150">
			<ele>34.24</ele>
			<time>2020-01-17T04:46:50.31Z</time>
		</trkpt>
		<trkpt lat="34.763131" lon="128.594189">
			<ele>33.12</ele>
			<time>2020-01-17T04:46:50.54Z</time>
		</trkpt>
		<trkpt lat="34.763121" lon="128.594285">
			<ele>32.66</ele>
			<time>2020-01-17T04:46:51.07Z</time>
		</trkpt>
		<trkpt lat="34.763084" lon="128.594423">
			<ele>31.03</ele>
			<time>2020-01-17T04:46:51.86Z</time>
		</trkpt>
		<trkpt lat="34.763041" lon="128.594577">
			<ele>30.16</ele>
			<time>2020-01-17T04:46:52.75Z</time>
		</trkpt>
		<trkpt lat="34.763031" lon="128.594602">
			<ele>29.87</ele>
			<time>2020-01-17T04:46:52.91Z</time>
		</trkpt>
		<trkpt lat="34.762981" lon="128.594685">
			<ele>29.06</ele>
			<time>2020-01-17T04:46:53.47Z</time>
		</trkpt>
		<trkpt lat="34.762919" lon="128.594759">
			<ele>27.81</ele>
			<time>2020-01-17T04:46:54.05Z</time>
		</trkpt>
		<trkpt lat="34.762875" lon="128.594853">
			<ele>26.93</ele>
			<time>2020-01-17T04:46:54.64Z</time>
		</trkpt>
		<trkpt lat="34.762861" lon="128.594908">
			<ele>26.56</ele>
			<time>2020-01-17T04:46:54.96Z</time>
		</trkpt>
		<trkpt lat="34.762855" lon="128.594912">
			<ele>26.54</ele>
			<time>2020-01-17T04:46:55.02Z</time>
		</trkpt>
		<trkpt lat="34.762851" lon="128.595025">
			<ele>26.54</ele>
			<time>2020-01-17T04:46:55.64Z</time>
		</trkpt>
		<trkpt lat="34.762829" lon="128.595199">
			<ele>23.25</ele>
			<time>2020-01-17T04:46:56.60Z</time>
		</trkpt>
		<trkpt lat="34.762848" lon="128.595375">
			<ele>20.76</ele>
			<time>2020-01-17T04:46:57.57Z</time>
		</trkpt>
		<trkpt lat="34.762848" lon="128.595395">
			<ele>20.53</ele>
			<time>2020-01-17T04:46:57.68Z</time>
		</trkpt>
		<trkpt lat="34.762836" lon="128.595446">
			<ele>19.99</ele>
			<time>2020-01-17T04:46:57.97Z</time>
		</trkpt>
		<trkpt lat="34.762832" lon="128.595631">
			<ele>17.77</ele>
			<time>2020-01-17T04:46:58.99Z</time>
		</trkpt>
		<trkpt lat="34.762841" lon="128.595767">
			<ele>15.70</ele>
			<time>2020-01-17T04:46:59.73Z</time>
		</trkpt>
		<trkpt lat="34.762832" lon="128.595842">
			<ele>15.15</ele>
			<time>2020-01-17T04:47:00.15Z</time>
		</trkpt>
		<trkpt lat="34.762823" lon="128.596122">
			<ele>11.17</ele>
			<time>2020-01-17T04:47:01.68Z</time>
		</trkpt>
		<trkpt lat="34.762857" lon="128.596406">
			<ele>7.91</ele>
			<time>2020-01-17T04:47:03.26Z</time>
		</trkpt>
		<trkpt lat="34.762913" lon="128.596761">
			<ele>4.86</ele>
			<time>2020-01-17T04:47:05.24Z</time>
		</trkpt>
		<trkpt lat="34.762924" lon="128.596899">
			<ele>4.07</ele>
			<time>2020-01-17T04:47:05.99Z</time>
		</trkpt>
		<trkpt lat="34.762900" lon="128.596974">
			<ele>1.99</ele>
			<time>2020-01-17T04:47:06.44Z</time>
		</trkpt>
		<trkpt lat="34.762900" lon="128.597037">
			<ele>1.91</ele>
			<time>2020-01-17T04:47:06.78Z</time>
		</trkpt>
		<trkpt lat="34.762991" lon="128.598034">
			<ele>2.37</ele>
			<time>2020-01-17T04:47:12.27Z</time>
		</trkpt>
		<trkpt lat="34.762850" lon="128.598891">
			<ele>2.13</ele>
			<time>2020-01-17T04:47:17.06Z</time>
		</trkpt>
		<trkpt lat="34.762804" lon="128.599202">
			<ele>2.13</ele>
			<time>2020-01-17T04:47:18.79Z</time>
		</trkpt>
		<trkpt lat="34.762789" lon="128.599302">
			<ele>2.13</ele>
			<time>2020-01-17T04:47:19.35Z</time>
		</trkpt>
		<trkpt lat="34.762879" lon="128.599537">
			<ele>2.13</ele>
			<time>2020-01-17T04:47:20.77Z</time>
		</trkpt>
		<trkpt lat="34.763118" lon="128.599916">
			<ele>1.97</ele>
			<time>2020-01-17T04:47:23.39Z</time>
		</trkpt>
		<trkpt lat="34.763819" lon="128.600994">
			<ele>2.04</ele>
			<time>2020-01-17T04:47:30.92Z</time>
		</trkpt>
		<trkpt lat="34.763910" lon="128.601095">
			<ele>2.02</ele>
			<time>2020-01-17T04:47:31.74Z</time>
		</trkpt>
		<trkpt lat="34.763960" lon="128.601131">
			<ele>1.96</ele>
			<time>2020-01-17T04:47:32.12Z</time>
		</trkpt>
		<trkpt lat="34.764013" lon="128.601153">
			<ele>2.26</ele>
			<time>2020-01-17T04:47:32.50Z</time>
		</trkpt>
		<trkpt lat="34.764064" lon="128.601165">
			<ele>2.47</ele>
			<time>2020-01-17T04:47:32.84Z</time>
		</trkpt>
		<trkpt lat="34.764115" lon="128.601173">
			<ele>2.81</ele>
			<time>2020-01-17T04:47:33.19Z</time>
		</trkpt>
		<trkpt lat="34.765090" lon="128.601326">
			<ele>2.45</ele>
			<time>2020-01-17T04:47:39.74Z</time>
		</trkpt>
		<trkpt lat="34.766331" lon="128.601552">
			<ele>2.45</ele>
			<time>2020-01-17T04:47:48.11Z</time>
		</trkpt>
		<trkpt lat="34.766484" lon="128.601573">
			<ele>2.45</ele>
			<time>2020-01-17T04:47:49.14Z</time>
		</trkpt>
		<trkpt lat="34.766593" lon="128.601593">
			<ele>2.45</ele>
			<time>2020-01-17T04:47:49.87Z</time>
		</trkpt>
		<trkpt lat="34.766684" lon="128.601528">
			<ele>2.45</ele>
			<time>2020-01-17T04:47:50.57Z</time>
		</trkpt>
		<extensions>
			<gte:name>#141</gte:name>
			<gte:color>#ffdde2</gte:color>
		</extensions>
	</trkseg>
</trk>
</gpx>