<?xml version="1.0" encoding="UTF-8"?>
<gpx version="1.1" creator="GPS Visualizer Sandbox https://www.gpsvisualizer.com/draw/" xmlns="http://www.topografix.com/GPX/1/1" xmlns:xsi="http://www.w3.org/2001/XMLSchema-instance" xsi:schemaLocation="http://www.topografix.com/GPX/1/1 http://www.topografix.com/GPX/1/1/gpx.xsd">
	<trk>
		<name>10코스 앵강다숲길(남42) (20201208) wp 간격조정</name>
		<desc>Length: 17.77 km (11.04 mi)</desc>
		<extensions>
			<line xmlns="http://www.topografix.com/GPX/gpx_style/0/2"><color>00ff00</color></line>
		</extensions>
		<trkseg>
			<trkpt lat="34.7636047" lon="127.9483023"></trkpt>
			<trkpt lat="34.7640448" lon="127.9483417"></trkpt>
			<trkpt lat="34.7648674" lon="127.9483491"></trkpt>
			<trkpt lat="34.7655394" lon="127.9485079"></trkpt>
			<trkpt lat="34.7658733" lon="127.9486173"></trkpt>
			<trkpt lat="34.7662992" lon="127.9488302"></trkpt>
			<trkpt lat="34.7668095" lon="127.9491915"></trkpt>
			<trkpt lat="34.7673967" lon="127.949988"></trkpt>
			<trkpt lat="34.767729" lon="127.950286"></trkpt>
			<trkpt lat="34.7678474" lon="127.9503495"></trkpt>
			<trkpt lat="34.7681958" lon="127.9507162"></trkpt>
			<trkpt lat="34.7685782" lon="127.9510027"></trkpt>
			<trkpt lat="34.7692822" lon="127.9513212"></trkpt>
			<trkpt lat="34.7696156" lon="127.9515169"></trkpt>
			<trkpt lat="34.7703221" lon="127.9520236"></trkpt>
			<trkpt lat="34.770441" lon="127.9521972"></trkpt>
			<trkpt lat="34.7704924" lon="127.952542"></trkpt>
			<trkpt lat="34.7707156" lon="127.9528826"></trkpt>
			<trkpt lat="34.7707292" lon="127.9530047"></trkpt>
			<trkpt lat="34.7710189" lon="127.9532681"></trkpt>
			<trkpt lat="34.7712411" lon="127.953426"></trkpt>
			<trkpt lat="34.7716138" lon="127.9538481"></trkpt>
			<trkpt lat="34.7718852" lon="127.95406"></trkpt>
			<trkpt lat="34.7721908" lon="127.9542342"></trkpt>
			<trkpt lat="34.7725187" lon="127.9545659"></trkpt>
			<trkpt lat="34.7726329" lon="127.9545942"></trkpt>
			<trkpt lat="34.7730512" lon="127.9545951"></trkpt>
			<trkpt lat="34.7734824" lon="127.9545239"></trkpt>
			<trkpt lat="34.774026" lon="127.954295"></trkpt>
			<trkpt lat="34.7746981" lon="127.9539347"></trkpt>
			<trkpt lat="34.775417" lon="127.9532902"></trkpt>
			<trkpt lat="34.775961" lon="127.9527387"></trkpt>
			<trkpt lat="34.7760796" lon="127.9526556"></trkpt>
			<trkpt lat="34.7760726" lon="127.9523969"></trkpt>
			<trkpt lat="34.7761443" lon="127.9522346"></trkpt>
			<trkpt lat="34.7766328" lon="127.951553"></trkpt>
			<trkpt lat="34.7770396" lon="127.9509162"></trkpt>
			<trkpt lat="34.7772909" lon="127.9509865"></trkpt>
			<trkpt lat="34.7778221" lon="127.9514197"></trkpt>
			<trkpt lat="34.778069" lon="127.9517273"></trkpt>
			<trkpt lat="34.7782795" lon="127.9521217"></trkpt>
			<trkpt lat="34.7783149" lon="127.952136"></trkpt>
			<trkpt lat="34.7783501" lon="127.9519468"></trkpt>
			<trkpt lat="34.7785342" lon="127.9518502"></trkpt>
			<trkpt lat="34.7786353" lon="127.9517348"></trkpt>
			<trkpt lat="34.7787324" lon="127.9517034"></trkpt>
			<trkpt lat="34.7788587" lon="127.9515985"></trkpt>
			<trkpt lat="34.7789547" lon="127.9512215"></trkpt>
			<trkpt lat="34.7791717" lon="127.9511427"></trkpt>
			<trkpt lat="34.7791644" lon="127.9510249"></trkpt>
			<trkpt lat="34.7791297" lon="127.9509538"></trkpt>
			<trkpt lat="34.779075" lon="127.9509404"></trkpt>
			<trkpt lat="34.778992" lon="127.950428"></trkpt>
			<trkpt lat="34.778925" lon="127.9504466"></trkpt>
			<trkpt lat="34.778794" lon="127.9497095"></trkpt>
			<trkpt lat="34.778738" lon="127.9495571"></trkpt>
			<trkpt lat="34.7786539" lon="127.9495143"></trkpt>
			<trkpt lat="34.778444" lon="127.9485387"></trkpt>
			<trkpt lat="34.778451" lon="127.948336"></trkpt>
			<trkpt lat="34.778639" lon="127.9482463"></trkpt>
			<trkpt lat="34.7786461" lon="127.9482089"></trkpt>
			<trkpt lat="34.7786812" lon="127.9482032"></trkpt>
			<trkpt lat="34.7786764" lon="127.9481111"></trkpt>
			<trkpt lat="34.7786529" lon="127.9480939"></trkpt>
			<trkpt lat="34.7784721" lon="127.9481363"></trkpt>
			<trkpt lat="34.7782918" lon="127.9481199"></trkpt>
			<trkpt lat="34.777993" lon="127.9482068"></trkpt>
			<trkpt lat="34.7777162" lon="127.9486947"></trkpt>
			<trkpt lat="34.7775755" lon="127.9467682"></trkpt>
			<trkpt lat="34.7775945" lon="127.9465631"></trkpt>
			<trkpt lat="34.7777264" lon="127.9461495"></trkpt>
			<trkpt lat="34.7779117" lon="127.9454148"></trkpt>
			<trkpt lat="34.7781277" lon="127.9441484"></trkpt>
			<trkpt lat="34.7781227" lon="127.9438335"></trkpt>
			<trkpt lat="34.7779488" lon="127.9433182"></trkpt>
			<trkpt lat="34.7778614" lon="127.9431761"></trkpt>
			<trkpt lat="34.7775906" lon="127.9429185"></trkpt>
			<trkpt lat="34.7772735" lon="127.9426857"></trkpt>
			<trkpt lat="34.776786" lon="127.9424061"></trkpt>
			<trkpt lat="34.7767338" lon="127.9423001"></trkpt>
			<trkpt lat="34.7766411" lon="127.9411349"></trkpt>
			<trkpt lat="34.7771865" lon="127.9410446"></trkpt>
			<trkpt lat="34.7777213" lon="127.9408917"></trkpt>
			<trkpt lat="34.7781999" lon="127.9408828"></trkpt>
			<trkpt lat="34.7790637" lon="127.9407996"></trkpt>
			<trkpt lat="34.7793016" lon="127.9408016"></trkpt>
			<trkpt lat="34.7793181" lon="127.9407037"></trkpt>
			<trkpt lat="34.7793815" lon="127.9407124"></trkpt>
			<trkpt lat="34.7794405" lon="127.9403757"></trkpt>
			<trkpt lat="34.7794523" lon="127.9401327"></trkpt>
			<trkpt lat="34.7795577" lon="127.9394157"></trkpt>
			<trkpt lat="34.7796111" lon="127.9388392"></trkpt>
			<trkpt lat="34.7795526" lon="127.9382209"></trkpt>
			<trkpt lat="34.7797225" lon="127.9383845"></trkpt>
			<trkpt lat="34.7799761" lon="127.9384478"></trkpt>
			<trkpt lat="34.7803057" lon="127.9387034"></trkpt>
			<trkpt lat="34.7809532" lon="127.9387067"></trkpt>
			<trkpt lat="34.7809621" lon="127.9381232"></trkpt>
			<trkpt lat="34.7812725" lon="127.9381626"></trkpt>
			<trkpt lat="34.7815541" lon="127.938078"></trkpt>
			<trkpt lat="34.7816147" lon="127.9379763"></trkpt>
			<trkpt lat="34.7816855" lon="127.9376247"></trkpt>
			<trkpt lat="34.7817547" lon="127.9376085"></trkpt>
			<trkpt lat="34.7822143" lon="127.9379223"></trkpt>
			<trkpt lat="34.7824997" lon="127.9380525"></trkpt>
			<trkpt lat="34.7830667" lon="127.9381415"></trkpt>
			<trkpt lat="34.7832454" lon="127.9380998"></trkpt>
			<trkpt lat="34.783372" lon="127.9381511"></trkpt>
			<trkpt lat="34.7846687" lon="127.9380512"></trkpt>
			<trkpt lat="34.7848585" lon="127.9379591"></trkpt>
			<trkpt lat="34.7852556" lon="127.9379384"></trkpt>
			<trkpt lat="34.7856686" lon="127.9377928"></trkpt>
			<trkpt lat="34.7859156" lon="127.9379402"></trkpt>
			<trkpt lat="34.7860802" lon="127.9379409"></trkpt>
			<trkpt lat="34.7867321" lon="127.9376164"></trkpt>
			<trkpt lat="34.7868713" lon="127.9374906"></trkpt>
			<trkpt lat="34.7871642" lon="127.9373825"></trkpt>
			<trkpt lat="34.7872828" lon="127.9373727"></trkpt>
			<trkpt lat="34.7880226" lon="127.9368957"></trkpt>
			<trkpt lat="34.7881135" lon="127.9367774"></trkpt>
			<trkpt lat="34.7882608" lon="127.9366836"></trkpt>
			<trkpt lat="34.7887853" lon="127.9364762"></trkpt>
			<trkpt lat="34.7890226" lon="127.9363377"></trkpt>
			<trkpt lat="34.7891954" lon="127.9363141"></trkpt>
			<trkpt lat="34.7892199" lon="127.9362778"></trkpt>
			<trkpt lat="34.7889457" lon="127.9357807"></trkpt>
			<trkpt lat="34.788759" lon="127.9352542"></trkpt>
			<trkpt lat="34.7886067" lon="127.934977"></trkpt>
			<trkpt lat="34.788172" lon="127.9347227"></trkpt>
			<trkpt lat="34.7879283" lon="127.9346341"></trkpt>
			<trkpt lat="34.7872377" lon="127.934202"></trkpt>
			<trkpt lat="34.7869283" lon="127.9339446"></trkpt>
			<trkpt lat="34.7862286" lon="127.9331163"></trkpt>
			<trkpt lat="34.785671" lon="127.9325743"></trkpt>
			<trkpt lat="34.7855142" lon="127.9325007"></trkpt>
			<trkpt lat="34.7852929" lon="127.9323007"></trkpt>
			<trkpt lat="34.785143" lon="127.9321187"></trkpt>
			<trkpt lat="34.7849621" lon="127.9313163"></trkpt>
			<trkpt lat="34.7849244" lon="127.9306392"></trkpt>
			<trkpt lat="34.7849634" lon="127.9297345"></trkpt>
			<trkpt lat="34.7849016" lon="127.9288573"></trkpt>
			<trkpt lat="34.784837" lon="127.9285932"></trkpt>
			<trkpt lat="34.7845565" lon="127.9284093"></trkpt>
			<trkpt lat="34.7843131" lon="127.9283154"></trkpt>
			<trkpt lat="34.7839379" lon="127.9290735"></trkpt>
			<trkpt lat="34.7837664" lon="127.9293198"></trkpt>
			<trkpt lat="34.7830605" lon="127.9300903"></trkpt>
			<trkpt lat="34.7824259" lon="127.9306013"></trkpt>
			<trkpt lat="34.7822843" lon="127.930617"></trkpt>
			<trkpt lat="34.781808" lon="127.9304879"></trkpt>
			<trkpt lat="34.7814782" lon="127.9303403"></trkpt>
			<trkpt lat="34.7810174" lon="127.9300434"></trkpt>
			<trkpt lat="34.7809394" lon="127.9299662"></trkpt>
			<trkpt lat="34.7808978" lon="127.9298331"></trkpt>
			<trkpt lat="34.7809405" lon="127.9294444"></trkpt>
			<trkpt lat="34.7811016" lon="127.9290872"></trkpt>
			<trkpt lat="34.7812741" lon="127.9288515"></trkpt>
			<trkpt lat="34.7814648" lon="127.9286782"></trkpt>
			<trkpt lat="34.7821536" lon="127.9281738"></trkpt>
			<trkpt lat="34.7826301" lon="127.9278946"></trkpt>
			<trkpt lat="34.782822" lon="127.9276736"></trkpt>
			<trkpt lat="34.7830303" lon="127.9275647"></trkpt>
			<trkpt lat="34.7830787" lon="127.9274505"></trkpt>
			<trkpt lat="34.7829142" lon="127.9274108"></trkpt>
			<trkpt lat="34.782713" lon="127.9270277"></trkpt>
			<trkpt lat="34.7827212" lon="127.9268399"></trkpt>
			<trkpt lat="34.7826642" lon="127.9266833"></trkpt>
			<trkpt lat="34.7826101" lon="127.9266309"></trkpt>
			<trkpt lat="34.7822419" lon="127.9264797"></trkpt>
			<trkpt lat="34.781969" lon="127.9265479"></trkpt>
			<trkpt lat="34.781708" lon="127.9264256"></trkpt>
			<trkpt lat="34.7810248" lon="127.9257953"></trkpt>
			<trkpt lat="34.7810368" lon="127.9255456"></trkpt>
			<trkpt lat="34.7810036" lon="127.9253692"></trkpt>
			<trkpt lat="34.7809203" lon="127.9252753"></trkpt>
			<trkpt lat="34.7808751" lon="127.9251237"></trkpt>
			<trkpt lat="34.7807277" lon="127.9248844"></trkpt>
			<trkpt lat="34.7805908" lon="127.9247314"></trkpt>
			<trkpt lat="34.7805249" lon="127.9247068"></trkpt>
			<trkpt lat="34.7802877" lon="127.924493"></trkpt>
			<trkpt lat="34.7800914" lon="127.9241625"></trkpt>
			<trkpt lat="34.7799453" lon="127.9240393"></trkpt>
			<trkpt lat="34.7797135" lon="127.9240201"></trkpt>
			<trkpt lat="34.7795806" lon="127.9238866"></trkpt>
			<trkpt lat="34.7791046" lon="127.9232673"></trkpt>
			<trkpt lat="34.778587" lon="127.9224618"></trkpt>
			<trkpt lat="34.7783968" lon="127.9220173"></trkpt>
			<trkpt lat="34.7782358" lon="127.9217935"></trkpt>
			<trkpt lat="34.7781379" lon="127.9214962"></trkpt>
			<trkpt lat="34.7779932" lon="127.9213806"></trkpt>
			<trkpt lat="34.7778232" lon="127.921145"></trkpt>
			<trkpt lat="34.7776263" lon="127.9209441"></trkpt>
			<trkpt lat="34.7775382" lon="127.9207679"></trkpt>
			<trkpt lat="34.7772728" lon="127.9204284"></trkpt>
			<trkpt lat="34.7772352" lon="127.9203282"></trkpt>
			<trkpt lat="34.7772307" lon="127.9200066"></trkpt>
			<trkpt lat="34.7772088" lon="127.9199121"></trkpt>
			<trkpt lat="34.7771115" lon="127.9197994"></trkpt>
			<trkpt lat="34.7769815" lon="127.919456"></trkpt>
			<trkpt lat="34.7768971" lon="127.9190275"></trkpt>
			<trkpt lat="34.7766626" lon="127.9183452"></trkpt>
			<trkpt lat="34.7767519" lon="127.9180305"></trkpt>
			<trkpt lat="34.7769939" lon="127.9175061"></trkpt>
			<trkpt lat="34.7771426" lon="127.91693"></trkpt>
			<trkpt lat="34.7771374" lon="127.9167095"></trkpt>
			<trkpt lat="34.7770486" lon="127.9163186"></trkpt>
			<trkpt lat="34.7769745" lon="127.916268"></trkpt>
			<trkpt lat="34.7768761" lon="127.9162518"></trkpt>
			<trkpt lat="34.7767904" lon="127.9162749"></trkpt>
			<trkpt lat="34.7766536" lon="127.9163737"></trkpt>
			<trkpt lat="34.7763957" lon="127.9163377"></trkpt>
			<trkpt lat="34.7762795" lon="127.9163701"></trkpt>
			<trkpt lat="34.7752913" lon="127.9168721"></trkpt>
			<trkpt lat="34.7751596" lon="127.9169068"></trkpt>
			<trkpt lat="34.7747973" lon="127.9168454"></trkpt>
			<trkpt lat="34.7745783" lon="127.9169325"></trkpt>
			<trkpt lat="34.7744489" lon="127.9170404"></trkpt>
			<trkpt lat="34.7740426" lon="127.9175279"></trkpt>
			<trkpt lat="34.7739079" lon="127.9172806"></trkpt>
			<trkpt lat="34.773738" lon="127.9171431"></trkpt>
			<trkpt lat="34.7728931" lon="127.9162428"></trkpt>
			<trkpt lat="34.7727145" lon="127.9160949"></trkpt>
			<trkpt lat="34.7725111" lon="127.9160473"></trkpt>
			<trkpt lat="34.7719015" lon="127.9162423"></trkpt>
			<trkpt lat="34.7715371" lon="127.916274"></trkpt>
			<trkpt lat="34.7712462" lon="127.9161893"></trkpt>
			<trkpt lat="34.7709695" lon="127.9160495"></trkpt>
			<trkpt lat="34.7708156" lon="127.9159119"></trkpt>
			<trkpt lat="34.7707493" lon="127.9158122"></trkpt>
			<trkpt lat="34.770528" lon="127.915155"></trkpt>
			<trkpt lat="34.7701278" lon="127.9146097"></trkpt>
			<trkpt lat="34.7698293" lon="127.9138186"></trkpt>
			<trkpt lat="34.769775" lon="127.9137345"></trkpt>
			<trkpt lat="34.7695097" lon="127.9134822"></trkpt>
			<trkpt lat="34.7693488" lon="127.9132687"></trkpt>
			<trkpt lat="34.7692419" lon="127.9130344"></trkpt>
			<trkpt lat="34.7692152" lon="127.9127438"></trkpt>
			<trkpt lat="34.7690635" lon="127.9127105"></trkpt>
			<trkpt lat="34.7686718" lon="127.9127198"></trkpt>
			<trkpt lat="34.7686747" lon="127.9126065"></trkpt>
			<trkpt lat="34.768873" lon="127.9124659"></trkpt>
			<trkpt lat="34.7690259" lon="127.9122161"></trkpt>
			<trkpt lat="34.7690984" lon="127.9120106"></trkpt>
			<trkpt lat="34.7693492" lon="127.9117718"></trkpt>
			<trkpt lat="34.7694172" lon="127.911668"></trkpt>
			<trkpt lat="34.769505" lon="127.9111475"></trkpt>
			<trkpt lat="34.7694515" lon="127.9108865"></trkpt>
			<trkpt lat="34.7693087" lon="127.9105669"></trkpt>
			<trkpt lat="34.7691543" lon="127.9099753"></trkpt>
			<trkpt lat="34.7690801" lon="127.9094275"></trkpt>
			<trkpt lat="34.7683241" lon="127.9076992"></trkpt>
			<trkpt lat="34.7671722" lon="127.905645"></trkpt>
			<trkpt lat="34.766513" lon="127.9046809"></trkpt>
			<trkpt lat="34.7655654" lon="127.9036026"></trkpt>
			<trkpt lat="34.7645746" lon="127.9028227"></trkpt>
			<trkpt lat="34.7642835" lon="127.9026861"></trkpt>
			<trkpt lat="34.7638125" lon="127.9025472"></trkpt>
			<trkpt lat="34.7635106" lon="127.9025399"></trkpt>
			<trkpt lat="34.7630729" lon="127.9027102"></trkpt>
			<trkpt lat="34.762868" lon="127.902867"></trkpt>
			<trkpt lat="34.7624591" lon="127.9030817"></trkpt>
			<trkpt lat="34.7621237" lon="127.9031829"></trkpt>
			<trkpt lat="34.7620626" lon="127.9031319"></trkpt>
			<trkpt lat="34.7619754" lon="127.9028793"></trkpt>
			<trkpt lat="34.7618729" lon="127.902919"></trkpt>
			<trkpt lat="34.7618439" lon="127.903041"></trkpt>
			<trkpt lat="34.7618384" lon="127.9036073"></trkpt>
			<trkpt lat="34.7617704" lon="127.9037903"></trkpt>
			<trkpt lat="34.7615028" lon="127.9041955"></trkpt>
			<trkpt lat="34.7613649" lon="127.9042886"></trkpt>
			<trkpt lat="34.7610537" lon="127.9043246"></trkpt>
			<trkpt lat="34.7608755" lon="127.9044508"></trkpt>
			<trkpt lat="34.7605254" lon="127.9044127"></trkpt>
			<trkpt lat="34.7601897" lon="127.9045557"></trkpt>
			<trkpt lat="34.7599317" lon="127.9047041"></trkpt>
			<trkpt lat="34.7595563" lon="127.9047451"></trkpt>
			<trkpt lat="34.75945" lon="127.9044574"></trkpt>
			<trkpt lat="34.7594308" lon="127.9041648"></trkpt>
			<trkpt lat="34.7593748" lon="127.9040824"></trkpt>
			<trkpt lat="34.7592086" lon="127.9040815"></trkpt>
			<trkpt lat="34.7588926" lon="127.9042583"></trkpt>
			<trkpt lat="34.7586109" lon="127.9045429"></trkpt>
			<trkpt lat="34.7585667" lon="127.9045533"></trkpt>
			<trkpt lat="34.7585058" lon="127.9044176"></trkpt>
			<trkpt lat="34.7585346" lon="127.9037685"></trkpt>
			<trkpt lat="34.7584847" lon="127.9035383"></trkpt>
			<trkpt lat="34.7584818" lon="127.9033755"></trkpt>
			<trkpt lat="34.7584091" lon="127.9032467"></trkpt>
			<trkpt lat="34.7582115" lon="127.9032303"></trkpt>
			<trkpt lat="34.7578555" lon="127.9031246"></trkpt>
			<trkpt lat="34.7576404" lon="127.9029224"></trkpt>
			<trkpt lat="34.757626" lon="127.9028209"></trkpt>
			<trkpt lat="34.7574075" lon="127.9027599"></trkpt>
			<trkpt lat="34.7572166" lon="127.9031806"></trkpt>
			<trkpt lat="34.7572396" lon="127.9034665"></trkpt>
			<trkpt lat="34.7571" lon="127.9038833"></trkpt>
			<trkpt lat="34.7569389" lon="127.9041503"></trkpt>
			<trkpt lat="34.7566756" lon="127.9055786"></trkpt>
			<trkpt lat="34.7567288" lon="127.9057613"></trkpt>
			<trkpt lat="34.7568126" lon="127.9059219"></trkpt>
			<trkpt lat="34.7568032" lon="127.9059746"></trkpt>
			<trkpt lat="34.756726" lon="127.9059882"></trkpt>
			<trkpt lat="34.7561809" lon="127.9055853"></trkpt>
			<trkpt lat="34.75562" lon="127.9052794"></trkpt>
			<trkpt lat="34.7549384" lon="127.9050066"></trkpt>
			<trkpt lat="34.7543808" lon="127.9049365"></trkpt>
			<trkpt lat="34.754159" lon="127.9049694"></trkpt>
			<trkpt lat="34.7537073" lon="127.9051719"></trkpt>
			<trkpt lat="34.7535839" lon="127.9052946"></trkpt>
			<trkpt lat="34.7531797" lon="127.905478"></trkpt>
			<trkpt lat="34.7529826" lon="127.9055136"></trkpt>
			<trkpt lat="34.7529691" lon="127.9054311"></trkpt>
			<trkpt lat="34.7528398" lon="127.9053142"></trkpt>
			<trkpt lat="34.7528328" lon="127.905249"></trkpt>
			<trkpt lat="34.752859" lon="127.9051817"></trkpt>
			<trkpt lat="34.7529378" lon="127.9051176"></trkpt>
			<trkpt lat="34.7529417" lon="127.9050257"></trkpt>
			<trkpt lat="34.7528885" lon="127.9049566"></trkpt>
			<trkpt lat="34.7524996" lon="127.9051957"></trkpt>
			<trkpt lat="34.751912" lon="127.9056168"></trkpt>
			<trkpt lat="34.751064" lon="127.9064766"></trkpt>
			<trkpt lat="34.7499837" lon="127.9073216"></trkpt>
			<trkpt lat="34.7499103" lon="127.9074829"></trkpt>
			<trkpt lat="34.7500139" lon="127.9082676"></trkpt>
			<trkpt lat="34.7500851" lon="127.9084504"></trkpt>
			<trkpt lat="34.7500859" lon="127.909093"></trkpt>
			<trkpt lat="34.7500477" lon="127.9093568"></trkpt>
			<trkpt lat="34.7501128" lon="127.90981"></trkpt>
			<trkpt lat="34.7500595" lon="127.9101375"></trkpt>
			<trkpt lat="34.7499999" lon="127.9102375"></trkpt>
			<trkpt lat="34.7498235" lon="127.910365"></trkpt>
			<trkpt lat="34.7496159" lon="127.9103954"></trkpt>
			<trkpt lat="34.7491417" lon="127.9102751"></trkpt>
			<trkpt lat="34.7486255" lon="127.9100069"></trkpt>
			<trkpt lat="34.7485086" lon="127.9098137"></trkpt>
			<trkpt lat="34.7478134" lon="127.9096521"></trkpt>
			<trkpt lat="34.7471783" lon="127.9096741"></trkpt>
			<trkpt lat="34.7464318" lon="127.9096484"></trkpt>
			<trkpt lat="34.7459332" lon="127.9095603"></trkpt>
			<trkpt lat="34.7454961" lon="127.9095541"></trkpt>
			<trkpt lat="34.7453171" lon="127.9094912"></trkpt>
			<trkpt lat="34.7451327" lon="127.9093702"></trkpt>
			<trkpt lat="34.745042" lon="127.9092734"></trkpt>
			<trkpt lat="34.7448193" lon="127.9091454"></trkpt>
			<trkpt lat="34.7443536" lon="127.909123"></trkpt>
			<trkpt lat="34.7442029" lon="127.9091517"></trkpt>
			<trkpt lat="34.7439283" lon="127.9092922"></trkpt>
			<trkpt lat="34.7436019" lon="127.9095531"></trkpt>
			<trkpt lat="34.7434414" lon="127.9098574"></trkpt>
			<trkpt lat="34.7433801" lon="127.9099221"></trkpt>
			<trkpt lat="34.7432015" lon="127.9099329"></trkpt>
			<trkpt lat="34.7430481" lon="127.9100141"></trkpt>
			<trkpt lat="34.7427168" lon="127.9102944"></trkpt>
			<trkpt lat="34.7423905" lon="127.9104384"></trkpt>
			<trkpt lat="34.742334" lon="127.9104286"></trkpt>
			<trkpt lat="34.7425175" lon="127.9100562"></trkpt>
			<trkpt lat="34.7425131" lon="127.9100001"></trkpt>
			<trkpt lat="34.7424629" lon="127.9099716"></trkpt>
			<trkpt lat="34.7419181" lon="127.9100021"></trkpt>
			<trkpt lat="34.7415685" lon="127.9102006"></trkpt>
			<trkpt lat="34.7414101" lon="127.9107586"></trkpt>
			<trkpt lat="34.7413176" lon="127.9108638"></trkpt>
			<trkpt lat="34.7411032" lon="127.9109805"></trkpt>
			<trkpt lat="34.7409482" lon="127.9110193"></trkpt>
			<trkpt lat="34.7404001" lon="127.9113693"></trkpt>
			<trkpt lat="34.7402473" lon="127.9115992"></trkpt>
			<trkpt lat="34.7400739" lon="127.911676"></trkpt>
			<trkpt lat="34.739847" lon="127.9115915"></trkpt>
			<trkpt lat="34.7397557" lon="127.9115953"></trkpt>
			<trkpt lat="34.739664" lon="127.9116428"></trkpt>
			<trkpt lat="34.7395026" lon="127.9118334"></trkpt>
			<trkpt lat="34.7394853" lon="127.9119049"></trkpt>
			<trkpt lat="34.7392758" lon="127.9119068"></trkpt>
			<trkpt lat="34.7391051" lon="127.9120116"></trkpt>
			<trkpt lat="34.7388579" lon="127.9120758"></trkpt>
			<trkpt lat="34.7386365" lon="127.9120567"></trkpt>
			<trkpt lat="34.7384792" lon="127.9119629"></trkpt>
			<trkpt lat="34.7382172" lon="127.9119536"></trkpt>
			<trkpt lat="34.7380615" lon="127.9117788"></trkpt>
			<trkpt lat="34.7375979" lon="127.9117773"></trkpt>
			<trkpt lat="34.7373465" lon="127.9116658"></trkpt>
			<trkpt lat="34.7371273" lon="127.9114417"></trkpt>
			<trkpt lat="34.737019" lon="127.9113786"></trkpt>
			<trkpt lat="34.7367757" lon="127.911501"></trkpt>
			<trkpt lat="34.7366654" lon="127.9114789"></trkpt>
			<trkpt lat="34.7365777" lon="127.9112807"></trkpt>
			<trkpt lat="34.7363974" lon="127.9110662"></trkpt>
			<trkpt lat="34.7362324" lon="127.9110573"></trkpt>
			<trkpt lat="34.735986" lon="127.9111467"></trkpt>
			<trkpt lat="34.7359162" lon="127.911128"></trkpt>
			<trkpt lat="34.7357141" lon="127.9111795"></trkpt>
			<trkpt lat="34.7352374" lon="127.9110608"></trkpt>
			<trkpt lat="34.7350996" lon="127.9110533"></trkpt>
			<trkpt lat="34.7348505" lon="127.9109815"></trkpt>
			<trkpt lat="34.7346968" lon="127.9108924"></trkpt>
			<trkpt lat="34.7345827" lon="127.9107342"></trkpt>
			<trkpt lat="34.734523" lon="127.9105897"></trkpt>
			<trkpt lat="34.7343569" lon="127.9104348"></trkpt>
			<trkpt lat="34.7342139" lon="127.9103601"></trkpt>
			<trkpt lat="34.7343067" lon="127.9095506"></trkpt>
			<trkpt lat="34.7342374" lon="127.9093607"></trkpt>
			<trkpt lat="34.733998" lon="127.9093267"></trkpt>
			<trkpt lat="34.7337017" lon="127.9091884"></trkpt>
			<trkpt lat="34.733652" lon="127.9088397"></trkpt>
			<trkpt lat="34.7334696" lon="127.9084415"></trkpt>
			<trkpt lat="34.7333386" lon="127.9083287"></trkpt>
			<trkpt lat="34.7331733" lon="127.9083151"></trkpt>
			<trkpt lat="34.7327734" lon="127.908401"></trkpt>
			<trkpt lat="34.7325306" lon="127.9083446"></trkpt>
			<trkpt lat="34.7319334" lon="127.9077689"></trkpt>
			<trkpt lat="34.731909" lon="127.9076349"></trkpt>
			<trkpt lat="34.7319648" lon="127.9070584"></trkpt>
			<trkpt lat="34.7319442" lon="127.9069982"></trkpt>
			<trkpt lat="34.7318482" lon="127.9069532"></trkpt>
			<trkpt lat="34.7312719" lon="127.9069991"></trkpt>
			<trkpt lat="34.7311151" lon="127.9069102"></trkpt>
			<trkpt lat="34.731031" lon="127.9067874"></trkpt>
			<trkpt lat="34.730868" lon="127.9066954"></trkpt>
			<trkpt lat="34.7308126" lon="127.9066267"></trkpt>
			<trkpt lat="34.7306815" lon="127.9063065"></trkpt>
			<trkpt lat="34.730514" lon="127.906358"></trkpt>
			<trkpt lat="34.7304362" lon="127.9063444"></trkpt>
			<trkpt lat="34.7303053" lon="127.9062151"></trkpt>
			<trkpt lat="34.7302277" lon="127.9062194"></trkpt>
			<trkpt lat="34.7301896" lon="127.9061365"></trkpt>
			<trkpt lat="34.7301378" lon="127.9061211"></trkpt>
			<trkpt lat="34.7300954" lon="127.9060196"></trkpt>
			<trkpt lat="34.7297465" lon="127.9059322"></trkpt>
			<trkpt lat="34.7292206" lon="127.9056854"></trkpt>
			<trkpt lat="34.7290255" lon="127.9055298"></trkpt>
			<trkpt lat="34.7287352" lon="127.9054208"></trkpt>
			<trkpt lat="34.7286417" lon="127.9053557"></trkpt>
			<trkpt lat="34.7285965" lon="127.905236"></trkpt>
			<trkpt lat="34.7286632" lon="127.9046643"></trkpt>
			<trkpt lat="34.7284838" lon="127.9043222"></trkpt>
			<trkpt lat="34.728467" lon="127.9041729"></trkpt>
			<trkpt lat="34.728403" lon="127.9040471"></trkpt>
			<trkpt lat="34.7283923" lon="127.9037858"></trkpt>
			<trkpt lat="34.7284943" lon="127.9032985"></trkpt>
			<trkpt lat="34.728445" lon="127.9029468"></trkpt>
			<trkpt lat="34.7283611" lon="127.902659"></trkpt>
			<trkpt lat="34.7283585" lon="127.9020731"></trkpt>
			<trkpt lat="34.7282801" lon="127.9018453"></trkpt>
			<trkpt lat="34.7281555" lon="127.901679"></trkpt>
			<trkpt lat="34.7280569" lon="127.9016327"></trkpt>
			<trkpt lat="34.7279171" lon="127.9016627"></trkpt>
			<trkpt lat="34.7277483" lon="127.9017977"></trkpt>
			<trkpt lat="34.7276731" lon="127.9017577"></trkpt>
			<trkpt lat="34.7275418" lon="127.9017666"></trkpt>
			<trkpt lat="34.7271326" lon="127.9016301"></trkpt>
			<trkpt lat="34.7271103" lon="127.9014873"></trkpt>
			<trkpt lat="34.727134" lon="127.9010965"></trkpt>
			<trkpt lat="34.7270984" lon="127.9009925"></trkpt>
			<trkpt lat="34.727036" lon="127.9009457"></trkpt>
			<trkpt lat="34.7268978" lon="127.9007074"></trkpt>
			<trkpt lat="34.7269004" lon="127.9005758"></trkpt>
			<trkpt lat="34.7269752" lon="127.9004471"></trkpt>
			<trkpt lat="34.7269712" lon="127.900314"></trkpt>
			<trkpt lat="34.7268703" lon="127.899914"></trkpt>
			<trkpt lat="34.7267709" lon="127.8998207"></trkpt>
			<trkpt lat="34.7267198" lon="127.8997048"></trkpt>
			<trkpt lat="34.7267676" lon="127.8994208"></trkpt>
			<trkpt lat="34.7268026" lon="127.8987647"></trkpt>
			<trkpt lat="34.7267907" lon="127.8986305"></trkpt>
			<trkpt lat="34.7268736" lon="127.8983857"></trkpt>
			<trkpt lat="34.7268176" lon="127.8982426"></trkpt>
			<trkpt lat="34.7268221" lon="127.8978679"></trkpt>
			<trkpt lat="34.7267806" lon="127.8977409"></trkpt>
			<trkpt lat="34.7267745" lon="127.8976189"></trkpt>
			<trkpt lat="34.7268396" lon="127.8973162"></trkpt>
			<trkpt lat="34.7266324" lon="127.8970259"></trkpt>
			<trkpt lat="34.7265058" lon="127.8966628"></trkpt>
			<trkpt lat="34.7265299" lon="127.8965333"></trkpt>
			<trkpt lat="34.7266516" lon="127.8962811"></trkpt>
			<trkpt lat="34.7266588" lon="127.8961899"></trkpt>
			<trkpt lat="34.7266241" lon="127.8961458"></trkpt>
			<trkpt lat="34.7265414" lon="127.8961465"></trkpt>
			<trkpt lat="34.7265073" lon="127.8960978"></trkpt>
			<trkpt lat="34.7265012" lon="127.896017"></trkpt>
			<trkpt lat="34.7263248" lon="127.8957041"></trkpt>
			<trkpt lat="34.726259" lon="127.8956619"></trkpt>
			<trkpt lat="34.7262593" lon="127.8953349"></trkpt>
			<trkpt lat="34.7262326" lon="127.8952881"></trkpt>
			<trkpt lat="34.7261685" lon="127.8953034"></trkpt>
			<trkpt lat="34.726124" lon="127.8952164"></trkpt>
			<trkpt lat="34.7260654" lon="127.8952798"></trkpt>
			<trkpt lat="34.7260568" lon="127.8952197"></trkpt>
			<trkpt lat="34.7260158" lon="127.8951828"></trkpt>
			<trkpt lat="34.7258394" lon="127.8951739"></trkpt>
			<trkpt lat="34.7257135" lon="127.8949874"></trkpt>
			<trkpt lat="34.7257837" lon="127.8946568"></trkpt>
			<trkpt lat="34.725889" lon="127.894582"></trkpt>
			<trkpt lat="34.7260312" lon="127.8945324"></trkpt>
			<trkpt lat="34.7262888" lon="127.8942844"></trkpt>
			<trkpt lat="34.7263799" lon="127.8939094"></trkpt>
			<trkpt lat="34.7265091" lon="127.8936317"></trkpt>
			<trkpt lat="34.7265409" lon="127.8934138"></trkpt>
			<trkpt lat="34.7267148" lon="127.8931207"></trkpt>
			<trkpt lat="34.7269793" lon="127.8928975"></trkpt>
			<trkpt lat="34.7270952" lon="127.8927456"></trkpt>
		</trkseg>
	</trk>
</gpx>
