<?xml version="1.0" encoding="UTF-8"?>
<gpx version="1.1" creator="GPS Visualizer Sandbox https://www.gpsvisualizer.com/draw/" xmlns="http://www.topografix.com/GPX/1/1" xmlns:xsi="http://www.w3.org/2001/XMLSchema-instance" xsi:schemaLocation="http://www.topografix.com/GPX/1/1 http://www.topografix.com/GPX/1/1/gpx.xsd">
	<trk>
		<name>07코스 화전별곡길(40) (202001208) WP 간격 조정</name>
		<desc>Length: 17.05 km (10.6 mi)</desc>
		<extensions>
			<line xmlns="http://www.topografix.com/GPX/gpx_style/0/2"><color>00ff00</color></line>
		</extensions>
		<trkseg>
			<trkpt lat="34.7960761" lon="128.0459243"></trkpt>
			<trkpt lat="34.7959908" lon="128.0457321"></trkpt>
			<trkpt lat="34.795914" lon="128.0456407"></trkpt>
			<trkpt lat="34.7960557" lon="128.0453824"></trkpt>
			<trkpt lat="34.7963054" lon="128.0447453"></trkpt>
			<trkpt lat="34.7965146" lon="128.0445877"></trkpt>
			<trkpt lat="34.797074" lon="128.0435495"></trkpt>
			<trkpt lat="34.797663" lon="128.042992"></trkpt>
			<trkpt lat="34.798009" lon="128.0424764"></trkpt>
			<trkpt lat="34.7981842" lon="128.0419429"></trkpt>
			<trkpt lat="34.7984468" lon="128.0415133"></trkpt>
			<trkpt lat="34.7984763" lon="128.0409215"></trkpt>
			<trkpt lat="34.7984586" lon="128.0405557"></trkpt>
			<trkpt lat="34.7985826" lon="128.0400362"></trkpt>
			<trkpt lat="34.7988056" lon="128.0398612"></trkpt>
			<trkpt lat="34.7988153" lon="128.0396173"></trkpt>
			<trkpt lat="34.7987317" lon="128.0393261"></trkpt>
			<trkpt lat="34.7987973" lon="128.0391186"></trkpt>
			<trkpt lat="34.798871" lon="128.0390653"></trkpt>
			<trkpt lat="34.7990721" lon="128.0390453"></trkpt>
			<trkpt lat="34.7992449" lon="128.0389771"></trkpt>
			<trkpt lat="34.79928" lon="128.0388815"></trkpt>
			<trkpt lat="34.799406" lon="128.0388464"></trkpt>
			<trkpt lat="34.799536" lon="128.0387272"></trkpt>
			<trkpt lat="34.7995511" lon="128.0386235"></trkpt>
			<trkpt lat="34.7998556" lon="128.0381634"></trkpt>
			<trkpt lat="34.8006927" lon="128.038493"></trkpt>
			<trkpt lat="34.8008388" lon="128.0378046"></trkpt>
			<trkpt lat="34.8007614" lon="128.0371332"></trkpt>
			<trkpt lat="34.8007782" lon="128.0369044"></trkpt>
			<trkpt lat="34.8008455" lon="128.0366691"></trkpt>
			<trkpt lat="34.8008692" lon="128.0359325"></trkpt>
			<trkpt lat="34.8010844" lon="128.0350638"></trkpt>
			<trkpt lat="34.8018986" lon="128.032465"></trkpt>
			<trkpt lat="34.8020254" lon="128.0317066"></trkpt>
			<trkpt lat="34.8020472" lon="128.0313607"></trkpt>
			<trkpt lat="34.8023114" lon="128.0304616"></trkpt>
			<trkpt lat="34.8023459" lon="128.0299019"></trkpt>
			<trkpt lat="34.8024551" lon="128.0294523"></trkpt>
			<trkpt lat="34.8025258" lon="128.0293447"></trkpt>
			<trkpt lat="34.8028509" lon="128.0290484"></trkpt>
			<trkpt lat="34.802828" lon="128.0289142"></trkpt>
			<trkpt lat="34.8025964" lon="128.02824"></trkpt>
			<trkpt lat="34.8020679" lon="128.026923"></trkpt>
			<trkpt lat="34.8018941" lon="128.0266026"></trkpt>
			<trkpt lat="34.801721" lon="128.0264262"></trkpt>
			<trkpt lat="34.8012147" lon="128.0262438"></trkpt>
			<trkpt lat="34.8009898" lon="128.026207"></trkpt>
			<trkpt lat="34.8004477" lon="128.0261899"></trkpt>
			<trkpt lat="34.800478" lon="128.0257215"></trkpt>
			<trkpt lat="34.80009" lon="128.0256354"></trkpt>
			<trkpt lat="34.7991259" lon="128.025109"></trkpt>
			<trkpt lat="34.79814" lon="128.0244739"></trkpt>
			<trkpt lat="34.7977622" lon="128.0241482"></trkpt>
			<trkpt lat="34.7974878" lon="128.023842"></trkpt>
			<trkpt lat="34.797326" lon="128.0235593"></trkpt>
			<trkpt lat="34.7972318" lon="128.0234569"></trkpt>
			<trkpt lat="34.7962949" lon="128.0229769"></trkpt>
			<trkpt lat="34.7957238" lon="128.0227938"></trkpt>
			<trkpt lat="34.7954865" lon="128.022791"></trkpt>
			<trkpt lat="34.7952759" lon="128.0227019"></trkpt>
			<trkpt lat="34.7951347" lon="128.0225971"></trkpt>
			<trkpt lat="34.7948829" lon="128.0227844"></trkpt>
			<trkpt lat="34.7945949" lon="128.0229103"></trkpt>
			<trkpt lat="34.7941804" lon="128.0229403"></trkpt>
			<trkpt lat="34.7940695" lon="128.022922"></trkpt>
			<trkpt lat="34.7938943" lon="128.0229909"></trkpt>
			<trkpt lat="34.7935956" lon="128.0232263"></trkpt>
			<trkpt lat="34.7934412" lon="128.0233888"></trkpt>
			<trkpt lat="34.7930584" lon="128.0239589"></trkpt>
			<trkpt lat="34.7929209" lon="128.0240668"></trkpt>
			<trkpt lat="34.7927568" lon="128.0240403"></trkpt>
			<trkpt lat="34.7926874" lon="128.0241096"></trkpt>
			<trkpt lat="34.7925709" lon="128.0243309"></trkpt>
			<trkpt lat="34.7924131" lon="128.0244154"></trkpt>
			<trkpt lat="34.7920544" lon="128.0243821"></trkpt>
			<trkpt lat="34.7918637" lon="128.0244419"></trkpt>
			<trkpt lat="34.7919229" lon="128.0243377"></trkpt>
			<trkpt lat="34.7916026" lon="128.0243475"></trkpt>
			<trkpt lat="34.7914486" lon="128.0242946"></trkpt>
			<trkpt lat="34.7912759" lon="128.0241367"></trkpt>
			<trkpt lat="34.7910695" lon="128.0238349"></trkpt>
			<trkpt lat="34.7909896" lon="128.0238118"></trkpt>
			<trkpt lat="34.7906642" lon="128.0234017"></trkpt>
			<trkpt lat="34.7905974" lon="128.0230568"></trkpt>
			<trkpt lat="34.7904211" lon="128.0228034"></trkpt>
			<trkpt lat="34.7903868" lon="128.0225701"></trkpt>
			<trkpt lat="34.7903177" lon="128.0224385"></trkpt>
			<trkpt lat="34.7900217" lon="128.0225185"></trkpt>
			<trkpt lat="34.7898791" lon="128.0224201"></trkpt>
			<trkpt lat="34.7897858" lon="128.0221297"></trkpt>
			<trkpt lat="34.7896983" lon="128.02207"></trkpt>
			<trkpt lat="34.7895414" lon="128.0220771"></trkpt>
			<trkpt lat="34.7894864" lon="128.0220522"></trkpt>
			<trkpt lat="34.7891905" lon="128.0214858"></trkpt>
			<trkpt lat="34.7893333" lon="128.0211921"></trkpt>
			<trkpt lat="34.7893397" lon="128.0211252"></trkpt>
			<trkpt lat="34.7882782" lon="128.0201825"></trkpt>
			<trkpt lat="34.7877692" lon="128.019814"></trkpt>
			<trkpt lat="34.7872298" lon="128.0195427"></trkpt>
			<trkpt lat="34.7869083" lon="128.0195093"></trkpt>
			<trkpt lat="34.7862482" lon="128.0195873"></trkpt>
			<trkpt lat="34.7857732" lon="128.0197726"></trkpt>
			<trkpt lat="34.7856235" lon="128.0199825"></trkpt>
			<trkpt lat="34.7854172" lon="128.0201551"></trkpt>
			<trkpt lat="34.7853048" lon="128.0201924"></trkpt>
			<trkpt lat="34.7846908" lon="128.0202292"></trkpt>
			<trkpt lat="34.7845637" lon="128.0201804"></trkpt>
			<trkpt lat="34.7838468" lon="128.0196938"></trkpt>
			<trkpt lat="34.7837648" lon="128.0194935"></trkpt>
			<trkpt lat="34.7835447" lon="128.0194966"></trkpt>
			<trkpt lat="34.783346" lon="128.0193874"></trkpt>
			<trkpt lat="34.782611" lon="128.0193049"></trkpt>
			<trkpt lat="34.7824136" lon="128.0198866"></trkpt>
			<trkpt lat="34.7814016" lon="128.0195581"></trkpt>
			<trkpt lat="34.7808183" lon="128.0194483"></trkpt>
			<trkpt lat="34.7800943" lon="128.0191292"></trkpt>
			<trkpt lat="34.7798914" lon="128.0190682"></trkpt>
			<trkpt lat="34.7792951" lon="128.0190574"></trkpt>
			<trkpt lat="34.7781641" lon="128.0187072"></trkpt>
			<trkpt lat="34.7767826" lon="128.0188795"></trkpt>
			<trkpt lat="34.7767139" lon="128.0184994"></trkpt>
			<trkpt lat="34.7759926" lon="128.0184806"></trkpt>
			<trkpt lat="34.7754751" lon="128.0188096"></trkpt>
			<trkpt lat="34.7753778" lon="128.0188406"></trkpt>
			<trkpt lat="34.7745316" lon="128.0189081"></trkpt>
			<trkpt lat="34.7744594" lon="128.0188796"></trkpt>
			<trkpt lat="34.7738779" lon="128.0183886"></trkpt>
			<trkpt lat="34.7735514" lon="128.0181907"></trkpt>
			<trkpt lat="34.7724499" lon="128.0178255"></trkpt>
			<trkpt lat="34.7723377" lon="128.0178142"></trkpt>
			<trkpt lat="34.7718316" lon="128.0175786"></trkpt>
			<trkpt lat="34.7709076" lon="128.0173313"></trkpt>
			<trkpt lat="34.770652" lon="128.0173573"></trkpt>
			<trkpt lat="34.7700833" lon="128.0172456"></trkpt>
			<trkpt lat="34.7690029" lon="128.0167075"></trkpt>
			<trkpt lat="34.7688901" lon="128.016617"></trkpt>
			<trkpt lat="34.7685821" lon="128.0162294"></trkpt>
			<trkpt lat="34.7680038" lon="128.015768"></trkpt>
			<trkpt lat="34.7679735" lon="128.0156173"></trkpt>
			<trkpt lat="34.7677217" lon="128.0155271"></trkpt>
			<trkpt lat="34.7676006" lon="128.0154462"></trkpt>
			<trkpt lat="34.7670955" lon="128.0153227"></trkpt>
			<trkpt lat="34.7667303" lon="128.0148382"></trkpt>
			<trkpt lat="34.7666548" lon="128.0148093"></trkpt>
			<trkpt lat="34.7662033" lon="128.0148564"></trkpt>
			<trkpt lat="34.7659604" lon="128.0147093"></trkpt>
			<trkpt lat="34.7656552" lon="128.0146235"></trkpt>
			<trkpt lat="34.7654485" lon="128.0147969"></trkpt>
			<trkpt lat="34.7653352" lon="128.01477"></trkpt>
			<trkpt lat="34.7654666" lon="128.0146052"></trkpt>
			<trkpt lat="34.7656747" lon="128.014176"></trkpt>
			<trkpt lat="34.7656946" lon="128.0140296"></trkpt>
			<trkpt lat="34.7656616" lon="128.0140049"></trkpt>
			<trkpt lat="34.7653042" lon="128.0140651"></trkpt>
			<trkpt lat="34.7650724" lon="128.0141622"></trkpt>
			<trkpt lat="34.76488" lon="128.0143114"></trkpt>
			<trkpt lat="34.7646531" lon="128.0143543"></trkpt>
			<trkpt lat="34.7644329" lon="128.0143248"></trkpt>
			<trkpt lat="34.7642492" lon="128.0142149"></trkpt>
			<trkpt lat="34.7641261" lon="128.0140701"></trkpt>
			<trkpt lat="34.764065" lon="128.0139409"></trkpt>
			<trkpt lat="34.7640368" lon="128.0137734"></trkpt>
			<trkpt lat="34.7640299" lon="128.0129785"></trkpt>
			<trkpt lat="34.7639327" lon="128.0127308"></trkpt>
			<trkpt lat="34.7638091" lon="128.0125496"></trkpt>
			<trkpt lat="34.7636962" lon="128.0124477"></trkpt>
			<trkpt lat="34.7631661" lon="128.0121311"></trkpt>
			<trkpt lat="34.7630976" lon="128.012025"></trkpt>
			<trkpt lat="34.7626777" lon="128.0117073"></trkpt>
			<trkpt lat="34.7624283" lon="128.0116881"></trkpt>
			<trkpt lat="34.7616312" lon="128.0120891"></trkpt>
			<trkpt lat="34.7612627" lon="128.0123425"></trkpt>
			<trkpt lat="34.7607257" lon="128.0130506"></trkpt>
			<trkpt lat="34.760246" lon="128.0135774"></trkpt>
			<trkpt lat="34.7600912" lon="128.0137905"></trkpt>
			<trkpt lat="34.760042" lon="128.0139542"></trkpt>
			<trkpt lat="34.759923" lon="128.0140159"></trkpt>
			<trkpt lat="34.7597574" lon="128.0142092"></trkpt>
			<trkpt lat="34.7596928" lon="128.0145507"></trkpt>
			<trkpt lat="34.7595567" lon="128.0147412"></trkpt>
			<trkpt lat="34.7593875" lon="128.0149144"></trkpt>
			<trkpt lat="34.7592637" lon="128.0151176"></trkpt>
			<trkpt lat="34.7587835" lon="128.015326"></trkpt>
			<trkpt lat="34.7585899" lon="128.0153349"></trkpt>
			<trkpt lat="34.758395" lon="128.0152628"></trkpt>
			<trkpt lat="34.757811" lon="128.0147986"></trkpt>
			<trkpt lat="34.7569961" lon="128.0143277"></trkpt>
			<trkpt lat="34.7568665" lon="128.014316"></trkpt>
			<trkpt lat="34.756184" lon="128.0143947"></trkpt>
			<trkpt lat="34.755757" lon="128.0144804"></trkpt>
			<trkpt lat="34.7552494" lon="128.0147638"></trkpt>
			<trkpt lat="34.7546727" lon="128.0151463"></trkpt>
			<trkpt lat="34.7545288" lon="128.0152984"></trkpt>
			<trkpt lat="34.7547302" lon="128.0156318"></trkpt>
			<trkpt lat="34.7548549" lon="128.0157123"></trkpt>
			<trkpt lat="34.7549703" lon="128.0158512"></trkpt>
			<trkpt lat="34.7550437" lon="128.0158469"></trkpt>
			<trkpt lat="34.7552578" lon="128.0157339"></trkpt>
			<trkpt lat="34.7558037" lon="128.0156315"></trkpt>
			<trkpt lat="34.7560893" lon="128.0156101"></trkpt>
			<trkpt lat="34.7562528" lon="128.0156324"></trkpt>
			<trkpt lat="34.7567054" lon="128.015816"></trkpt>
			<trkpt lat="34.7569051" lon="128.0159363"></trkpt>
			<trkpt lat="34.7573864" lon="128.0163436"></trkpt>
			<trkpt lat="34.7574407" lon="128.0164416"></trkpt>
			<trkpt lat="34.75786" lon="128.0169382"></trkpt>
			<trkpt lat="34.7579519" lon="128.017105"></trkpt>
			<trkpt lat="34.7580433" lon="128.017456"></trkpt>
			<trkpt lat="34.7580879" lon="128.0178093"></trkpt>
			<trkpt lat="34.7580651" lon="128.0180592"></trkpt>
			<trkpt lat="34.7580103" lon="128.0182396"></trkpt>
			<trkpt lat="34.7579612" lon="128.0187464"></trkpt>
			<trkpt lat="34.7579933" lon="128.0191295"></trkpt>
			<trkpt lat="34.7579409" lon="128.0193435"></trkpt>
			<trkpt lat="34.7578055" lon="128.0196805"></trkpt>
			<trkpt lat="34.7576827" lon="128.0202675"></trkpt>
			<trkpt lat="34.7576442" lon="128.0208973"></trkpt>
			<trkpt lat="34.7575377" lon="128.0213677"></trkpt>
			<trkpt lat="34.7574533" lon="128.0215193"></trkpt>
			<trkpt lat="34.7570635" lon="128.0218919"></trkpt>
			<trkpt lat="34.7569893" lon="128.022025"></trkpt>
			<trkpt lat="34.7569593" lon="128.0222373"></trkpt>
			<trkpt lat="34.7569894" lon="128.0222955"></trkpt>
			<trkpt lat="34.7570953" lon="128.0223276"></trkpt>
			<trkpt lat="34.7571759" lon="128.0222974"></trkpt>
			<trkpt lat="34.7574597" lon="128.0220735"></trkpt>
			<trkpt lat="34.7576289" lon="128.022063"></trkpt>
			<trkpt lat="34.7576906" lon="128.0221317"></trkpt>
			<trkpt lat="34.757918" lon="128.0231216"></trkpt>
			<trkpt lat="34.7579371" lon="128.0234078"></trkpt>
			<trkpt lat="34.757869" lon="128.0238698"></trkpt>
			<trkpt lat="34.7579454" lon="128.0240082"></trkpt>
			<trkpt lat="34.7581936" lon="128.0242227"></trkpt>
			<trkpt lat="34.7583978" lon="128.0246475"></trkpt>
			<trkpt lat="34.7585963" lon="128.0247854"></trkpt>
			<trkpt lat="34.758655" lon="128.0248789"></trkpt>
			<trkpt lat="34.7587072" lon="128.0251991"></trkpt>
			<trkpt lat="34.7586998" lon="128.0256118"></trkpt>
			<trkpt lat="34.7588277" lon="128.0263146"></trkpt>
			<trkpt lat="34.7588955" lon="128.0264032"></trkpt>
			<trkpt lat="34.7590918" lon="128.0264186"></trkpt>
			<trkpt lat="34.7591607" lon="128.0263917"></trkpt>
			<trkpt lat="34.7592596" lon="128.0264278"></trkpt>
			<trkpt lat="34.759412" lon="128.0265512"></trkpt>
			<trkpt lat="34.7594684" lon="128.0267737"></trkpt>
			<trkpt lat="34.7596847" lon="128.0271941"></trkpt>
			<trkpt lat="34.7596789" lon="128.0273272"></trkpt>
			<trkpt lat="34.7595708" lon="128.027493"></trkpt>
			<trkpt lat="34.759186" lon="128.0275943"></trkpt>
			<trkpt lat="34.7588116" lon="128.0278371"></trkpt>
			<trkpt lat="34.7585235" lon="128.0278507"></trkpt>
			<trkpt lat="34.758453" lon="128.0278123"></trkpt>
			<trkpt lat="34.7583337" lon="128.0276683"></trkpt>
			<trkpt lat="34.7581778" lon="128.0272481"></trkpt>
			<trkpt lat="34.7580953" lon="128.0271484"></trkpt>
			<trkpt lat="34.7576324" lon="128.0271092"></trkpt>
			<trkpt lat="34.7573931" lon="128.0269992"></trkpt>
			<trkpt lat="34.7572043" lon="128.0269905"></trkpt>
			<trkpt lat="34.7570774" lon="128.0270348"></trkpt>
			<trkpt lat="34.7569929" lon="128.0270291"></trkpt>
			<trkpt lat="34.7569402" lon="128.0269607"></trkpt>
			<trkpt lat="34.7568085" lon="128.0265298"></trkpt>
			<trkpt lat="34.7565704" lon="128.0261514"></trkpt>
			<trkpt lat="34.7564307" lon="128.0260169"></trkpt>
			<trkpt lat="34.756285" lon="128.0259709"></trkpt>
			<trkpt lat="34.7559913" lon="128.0260804"></trkpt>
			<trkpt lat="34.7556226" lon="128.026371"></trkpt>
			<trkpt lat="34.7555426" lon="128.0263816"></trkpt>
			<trkpt lat="34.7552548" lon="128.0261826"></trkpt>
			<trkpt lat="34.7548497" lon="128.0261223"></trkpt>
			<trkpt lat="34.7546392" lon="128.0259667"></trkpt>
			<trkpt lat="34.7544998" lon="128.0257594"></trkpt>
			<trkpt lat="34.7541648" lon="128.0259457"></trkpt>
			<trkpt lat="34.7540786" lon="128.0259427"></trkpt>
			<trkpt lat="34.7539073" lon="128.0257531"></trkpt>
			<trkpt lat="34.7538404" lon="128.0257249"></trkpt>
			<trkpt lat="34.7536497" lon="128.0257497"></trkpt>
			<trkpt lat="34.7535575" lon="128.025806"></trkpt>
			<trkpt lat="34.7534525" lon="128.0260412"></trkpt>
			<trkpt lat="34.7534415" lon="128.0262634"></trkpt>
			<trkpt lat="34.7533276" lon="128.0264759"></trkpt>
			<trkpt lat="34.7531935" lon="128.0268919"></trkpt>
			<trkpt lat="34.7530458" lon="128.027101"></trkpt>
			<trkpt lat="34.7530364" lon="128.0275088"></trkpt>
			<trkpt lat="34.7528919" lon="128.0279764"></trkpt>
			<trkpt lat="34.7525399" lon="128.0286794"></trkpt>
			<trkpt lat="34.7524772" lon="128.0287564"></trkpt>
			<trkpt lat="34.7523343" lon="128.0287755"></trkpt>
			<trkpt lat="34.7522123" lon="128.0287195"></trkpt>
			<trkpt lat="34.7519661" lon="128.0283484"></trkpt>
			<trkpt lat="34.7518356" lon="128.0282256"></trkpt>
			<trkpt lat="34.7514532" lon="128.0279779"></trkpt>
			<trkpt lat="34.7513996" lon="128.0278287"></trkpt>
			<trkpt lat="34.7514351" lon="128.0274767"></trkpt>
			<trkpt lat="34.7514132" lon="128.0273573"></trkpt>
			<trkpt lat="34.7512333" lon="128.0270921"></trkpt>
			<trkpt lat="34.7511339" lon="128.0267553"></trkpt>
			<trkpt lat="34.7509701" lon="128.0264505"></trkpt>
			<trkpt lat="34.7508613" lon="128.0261644"></trkpt>
			<trkpt lat="34.7507116" lon="128.0259816"></trkpt>
			<trkpt lat="34.7506303" lon="128.0259556"></trkpt>
			<trkpt lat="34.7505322" lon="128.0259758"></trkpt>
			<trkpt lat="34.7503841" lon="128.0261059"></trkpt>
			<trkpt lat="34.7502433" lon="128.0263951"></trkpt>
			<trkpt lat="34.7500975" lon="128.0265149"></trkpt>
			<trkpt lat="34.749923" lon="128.0265596"></trkpt>
			<trkpt lat="34.7497144" lon="128.0264269"></trkpt>
			<trkpt lat="34.74959" lon="128.0264617"></trkpt>
			<trkpt lat="34.7494078" lon="128.0263922"></trkpt>
			<trkpt lat="34.7492954" lon="128.0262294"></trkpt>
			<trkpt lat="34.7492514" lon="128.026101"></trkpt>
			<trkpt lat="34.7491642" lon="128.0255345"></trkpt>
			<trkpt lat="34.7491248" lon="128.0254842"></trkpt>
			<trkpt lat="34.7490568" lon="128.0254646"></trkpt>
			<trkpt lat="34.7486514" lon="128.0254909"></trkpt>
			<trkpt lat="34.7484819" lon="128.0253527"></trkpt>
			<trkpt lat="34.7484536" lon="128.0252235"></trkpt>
			<trkpt lat="34.7484808" lon="128.0249251"></trkpt>
			<trkpt lat="34.7484423" lon="128.0248646"></trkpt>
			<trkpt lat="34.7480809" lon="128.0248342"></trkpt>
			<trkpt lat="34.7480384" lon="128.024781"></trkpt>
			<trkpt lat="34.748008" lon="128.0246695"></trkpt>
			<trkpt lat="34.7480759" lon="128.0243749"></trkpt>
			<trkpt lat="34.7480227" lon="128.0238885"></trkpt>
			<trkpt lat="34.7481264" lon="128.0236873"></trkpt>
			<trkpt lat="34.7483262" lon="128.0234028"></trkpt>
			<trkpt lat="34.7483272" lon="128.0228025"></trkpt>
			<trkpt lat="34.7482062" lon="128.02273"></trkpt>
			<trkpt lat="34.7481278" lon="128.0227194"></trkpt>
			<trkpt lat="34.7479597" lon="128.0227976"></trkpt>
			<trkpt lat="34.7478139" lon="128.0229167"></trkpt>
			<trkpt lat="34.7476081" lon="128.0231842"></trkpt>
			<trkpt lat="34.7474145" lon="128.0235266"></trkpt>
			<trkpt lat="34.7471434" lon="128.0237708"></trkpt>
			<trkpt lat="34.7470199" lon="128.0237955"></trkpt>
			<trkpt lat="34.7468044" lon="128.0235324"></trkpt>
			<trkpt lat="34.7467116" lon="128.0234594"></trkpt>
			<trkpt lat="34.746506" lon="128.0235642"></trkpt>
			<trkpt lat="34.7463303" lon="128.0235868"></trkpt>
			<trkpt lat="34.7461975" lon="128.0235081"></trkpt>
			<trkpt lat="34.7461444" lon="128.023417"></trkpt>
			<trkpt lat="34.7460701" lon="128.022727"></trkpt>
			<trkpt lat="34.7459775" lon="128.0226031"></trkpt>
			<trkpt lat="34.7457945" lon="128.0225826"></trkpt>
			<trkpt lat="34.7456695" lon="128.0226078"></trkpt>
			<trkpt lat="34.745015" lon="128.0225916"></trkpt>
			<trkpt lat="34.7447673" lon="128.022507"></trkpt>
			<trkpt lat="34.74459" lon="128.0223731"></trkpt>
			<trkpt lat="34.7445439" lon="128.0222855"></trkpt>
			<trkpt lat="34.7445392" lon="128.0221271"></trkpt>
			<trkpt lat="34.7446914" lon="128.0210753"></trkpt>
			<trkpt lat="34.7447032" lon="128.0203965"></trkpt>
			<trkpt lat="34.7446545" lon="128.0202188"></trkpt>
			<trkpt lat="34.7445082" lon="128.0201829"></trkpt>
			<trkpt lat="34.7443234" lon="128.0202388"></trkpt>
			<trkpt lat="34.744261" lon="128.0201953"></trkpt>
			<trkpt lat="34.7442014" lon="128.0200975"></trkpt>
			<trkpt lat="34.7441588" lon="128.0197722"></trkpt>
			<trkpt lat="34.7442149" lon="128.0192586"></trkpt>
			<trkpt lat="34.744206" lon="128.0186591"></trkpt>
			<trkpt lat="34.7441854" lon="128.0186219"></trkpt>
			<trkpt lat="34.7441033" lon="128.0186308"></trkpt>
			<trkpt lat="34.7439358" lon="128.0189976"></trkpt>
			<trkpt lat="34.7438783" lon="128.0193676"></trkpt>
			<trkpt lat="34.7437068" lon="128.0200146"></trkpt>
			<trkpt lat="34.7436243" lon="128.0205268"></trkpt>
			<trkpt lat="34.7434443" lon="128.0208517"></trkpt>
			<trkpt lat="34.7434275" lon="128.0210824"></trkpt>
			<trkpt lat="34.7433494" lon="128.0212701"></trkpt>
			<trkpt lat="34.7431903" lon="128.0214733"></trkpt>
			<trkpt lat="34.7431303" lon="128.0218434"></trkpt>
			<trkpt lat="34.7430509" lon="128.0220165"></trkpt>
			<trkpt lat="34.7429959" lon="128.0220701"></trkpt>
			<trkpt lat="34.7427417" lon="128.0221897"></trkpt>
			<trkpt lat="34.742582" lon="128.0223402"></trkpt>
			<trkpt lat="34.7424273" lon="128.0222886"></trkpt>
			<trkpt lat="34.742255" lon="128.0219943"></trkpt>
			<trkpt lat="34.7420939" lon="128.0218535"></trkpt>
			<trkpt lat="34.7418394" lon="128.0215491"></trkpt>
			<trkpt lat="34.7417524" lon="128.0213933"></trkpt>
			<trkpt lat="34.7417054" lon="128.0211843"></trkpt>
			<trkpt lat="34.7414951" lon="128.0208621"></trkpt>
			<trkpt lat="34.741374" lon="128.0207492"></trkpt>
			<trkpt lat="34.7411753" lon="128.020342"></trkpt>
			<trkpt lat="34.7410294" lon="128.0198426"></trkpt>
			<trkpt lat="34.7409228" lon="128.0196013"></trkpt>
			<trkpt lat="34.7407937" lon="128.0194098"></trkpt>
			<trkpt lat="34.7406923" lon="128.0194379"></trkpt>
			<trkpt lat="34.7405923" lon="128.0199128"></trkpt>
			<trkpt lat="34.740564" lon="128.0202982"></trkpt>
			<trkpt lat="34.7402967" lon="128.0209453"></trkpt>
			<trkpt lat="34.7402242" lon="128.0210348"></trkpt>
			<trkpt lat="34.7400639" lon="128.0210009"></trkpt>
			<trkpt lat="34.7398856" lon="128.0206765"></trkpt>
			<trkpt lat="34.7397594" lon="128.0201295"></trkpt>
			<trkpt lat="34.7396422" lon="128.0198691"></trkpt>
			<trkpt lat="34.7391521" lon="128.0191563"></trkpt>
			<trkpt lat="34.7390922" lon="128.0191253"></trkpt>
			<trkpt lat="34.7389253" lon="128.0192012"></trkpt>
			<trkpt lat="34.73883" lon="128.0193441"></trkpt>
			<trkpt lat="34.7387274" lon="128.0194165"></trkpt>
			<trkpt lat="34.7386372" lon="128.0193976"></trkpt>
			<trkpt lat="34.7385953" lon="128.0192625"></trkpt>
			<trkpt lat="34.738559" lon="128.01875"></trkpt>
			<trkpt lat="34.738579" lon="128.0184746"></trkpt>
			<trkpt lat="34.7385463" lon="128.0183013"></trkpt>
			<trkpt lat="34.738468" lon="128.0181732"></trkpt>
			<trkpt lat="34.738296" lon="128.0180406"></trkpt>
			<trkpt lat="34.7382094" lon="128.0180658"></trkpt>
			<trkpt lat="34.7380686" lon="128.0182287"></trkpt>
			<trkpt lat="34.7378806" lon="128.0185196"></trkpt>
			<trkpt lat="34.7376891" lon="128.0187376"></trkpt>
			<trkpt lat="34.7376037" lon="128.0187798"></trkpt>
			<trkpt lat="34.7375192" lon="128.0187489"></trkpt>
			<trkpt lat="34.737482" lon="128.018567"></trkpt>
			<trkpt lat="34.7375717" lon="128.0180779"></trkpt>
			<trkpt lat="34.7375434" lon="128.0169852"></trkpt>
			<trkpt lat="34.7374449" lon="128.016566"></trkpt>
			<trkpt lat="34.7373196" lon="128.0163728"></trkpt>
			<trkpt lat="34.7371764" lon="128.0163483"></trkpt>
			<trkpt lat="34.736831" lon="128.0164824"></trkpt>
			<trkpt lat="34.7367093" lon="128.0166211"></trkpt>
			<trkpt lat="34.7366084" lon="128.016677"></trkpt>
			<trkpt lat="34.7362924" lon="128.0166737"></trkpt>
			<trkpt lat="34.7361709" lon="128.016804"></trkpt>
			<trkpt lat="34.7360463" lon="128.0172532"></trkpt>
			<trkpt lat="34.7359597" lon="128.017451"></trkpt>
			<trkpt lat="34.7358368" lon="128.0176009"></trkpt>
			<trkpt lat="34.7357247" lon="128.0176593"></trkpt>
			<trkpt lat="34.7356225" lon="128.0176369"></trkpt>
			<trkpt lat="34.7355345" lon="128.0175132"></trkpt>
			<trkpt lat="34.7354107" lon="128.0171799"></trkpt>
			<trkpt lat="34.7353677" lon="128.0169457"></trkpt>
			<trkpt lat="34.7352987" lon="128.016799"></trkpt>
			<trkpt lat="34.7348202" lon="128.0160984"></trkpt>
			<trkpt lat="34.7347277" lon="128.0160194"></trkpt>
			<trkpt lat="34.7343874" lon="128.0160857"></trkpt>
			<trkpt lat="34.734314" lon="128.0161372"></trkpt>
			<trkpt lat="34.7342352" lon="128.016261"></trkpt>
			<trkpt lat="34.7341312" lon="128.0167997"></trkpt>
			<trkpt lat="34.7340733" lon="128.0168957"></trkpt>
			<trkpt lat="34.7339432" lon="128.016906"></trkpt>
			<trkpt lat="34.7336852" lon="128.0166839"></trkpt>
			<trkpt lat="34.7335935" lon="128.0166502"></trkpt>
			<trkpt lat="34.7334722" lon="128.016695"></trkpt>
			<trkpt lat="34.733242" lon="128.0170846"></trkpt>
			<trkpt lat="34.7331726" lon="128.0171135"></trkpt>
			<trkpt lat="34.7330791" lon="128.0170614"></trkpt>
			<trkpt lat="34.7329284" lon="128.0168244"></trkpt>
			<trkpt lat="34.7329082" lon="128.0167064"></trkpt>
			<trkpt lat="34.7328391" lon="128.0166097"></trkpt>
			<trkpt lat="34.7327687" lon="128.0165771"></trkpt>
			<trkpt lat="34.7326102" lon="128.0167081"></trkpt>
			<trkpt lat="34.7325554" lon="128.0168354"></trkpt>
			<trkpt lat="34.7325381" lon="128.0171064"></trkpt>
			<trkpt lat="34.7324728" lon="128.0172179"></trkpt>
			<trkpt lat="34.7321914" lon="128.0175002"></trkpt>
			<trkpt lat="34.7321364" lon="128.0174976"></trkpt>
			<trkpt lat="34.7321078" lon="128.017408"></trkpt>
			<trkpt lat="34.7323172" lon="128.0170517"></trkpt>
			<trkpt lat="34.7323414" lon="128.016674"></trkpt>
			<trkpt lat="34.7324079" lon="128.0164203"></trkpt>
			<trkpt lat="34.7325077" lon="128.0161908"></trkpt>
			<trkpt lat="34.7326276" lon="128.0157084"></trkpt>
			<trkpt lat="34.7327305" lon="128.0156547"></trkpt>
			<trkpt lat="34.7329758" lon="128.0157954"></trkpt>
			<trkpt lat="34.7330623" lon="128.0157553"></trkpt>
			<trkpt lat="34.7332272" lon="128.0155676"></trkpt>
			<trkpt lat="34.7333954" lon="128.0154488"></trkpt>
			<trkpt lat="34.7334624" lon="128.0152994"></trkpt>
			<trkpt lat="34.7334583" lon="128.0151763"></trkpt>
			<trkpt lat="34.7333942" lon="128.0151151"></trkpt>
			<trkpt lat="34.7332437" lon="128.015296"></trkpt>
			<trkpt lat="34.7330941" lon="128.0154063"></trkpt>
			<trkpt lat="34.7329146" lon="128.0154392"></trkpt>
			<trkpt lat="34.7328079" lon="128.0153973"></trkpt>
			<trkpt lat="34.7325493" lon="128.0152105"></trkpt>
			<trkpt lat="34.732371" lon="128.0147962"></trkpt>
			<trkpt lat="34.7323211" lon="128.014738"></trkpt>
			<trkpt lat="34.7320496" lon="128.0146444"></trkpt>
			<trkpt lat="34.7316787" lon="128.0144288"></trkpt>
			<trkpt lat="34.7314815" lon="128.014265"></trkpt>
			<trkpt lat="34.7309851" lon="128.0139723"></trkpt>
			<trkpt lat="34.7305814" lon="128.013863"></trkpt>
			<trkpt lat="34.7302735" lon="128.0136679"></trkpt>
			<trkpt lat="34.7298483" lon="128.0135498"></trkpt>
			<trkpt lat="34.7295522" lon="128.0135148"></trkpt>
			<trkpt lat="34.7292834" lon="128.0133702"></trkpt>
			<trkpt lat="34.728772" lon="128.0128226"></trkpt>
			<trkpt lat="34.7286205" lon="128.0127994"></trkpt>
			<trkpt lat="34.7279378" lon="128.0129204"></trkpt>
			<trkpt lat="34.7277603" lon="128.0129156"></trkpt>
			<trkpt lat="34.7276494" lon="128.0129498"></trkpt>
			<trkpt lat="34.727476" lon="128.0129314"></trkpt>
			<trkpt lat="34.7273069" lon="128.0128514"></trkpt>
			<trkpt lat="34.7265035" lon="128.0128778"></trkpt>
			<trkpt lat="34.7264284" lon="128.0128371"></trkpt>
			<trkpt lat="34.7262037" lon="128.0128307"></trkpt>
			<trkpt lat="34.7258518" lon="128.0129278"></trkpt>
		</trkseg>
	</trk>
</gpx>
