<?xml version="1.0" encoding="UTF-8"?>
<gpx version="1.1" creator="GPS Track Editor" xmlns="http://www.topografix.com/GPX/1/1" xmlns:xsi="http://www.w3.org/2001/XMLSchema-instance" xmlns:gte="http://www.gpstrackeditor.com/xmlschemas/General/1" xmlns:gpxtpx="http://www.garmin.com/xmlschemas/TrackPointExtension/v1" xmlns:gpxx="http://www.garmin.com/xmlschemas/GpxExtensions/v3" targetNamespace="http://www.topografix.com/GPX/1/1" elementFormDefault="qualified" xsi:schemaLocation="http://www.topografix.com/GPX/1/1 http://www.topografix.com/GPX/1/1/gpx.xsd">
<metadata>
	<name>GPS_2020-01-19_181139</name>
</metadata>
<trk>
	<name>055-여수시 종화동 여수해양공원~여수시 소호동 여수소호요트장</name>
	<trkseg>
		<trkpt lat="34.737966" lon="127.744327">
			<ele>0.00</ele>
			<time>2020-01-19T18:11:39.19Z</time>
		</trkpt>
		<trkpt lat="34.737838" lon="127.744100">
			<ele>0.00</ele>
			<time>2020-01-19T18:11:40.70Z</time>
		</trkpt>
		<trkpt lat="34.737680" lon="127.743896">
			<ele>0.00</ele>
			<time>2020-01-19T18:11:42.23Z</time>
		</trkpt>
		<trkpt lat="34.737529" lon="127.743614">
			<ele>0.00</ele>
			<time>2020-01-19T18:11:44.08Z</time>
		</trkpt>
		<trkpt lat="34.737371" lon="127.743275">
			<ele>0.00</ele>
			<time>2020-01-19T18:11:46.21Z</time>
		</trkpt>
		<trkpt lat="34.737230" lon="127.742829">
			<ele>0.00</ele>
			<time>2020-01-19T18:11:48.83Z</time>
		</trkpt>
		<trkpt lat="34.737106" lon="127.742495">
			<ele>0.00</ele>
			<time>2020-01-19T18:11:50.83Z</time>
		</trkpt>
		<trkpt lat="34.737018" lon="127.742191">
			<ele>0.00</ele>
			<time>2020-01-19T18:11:52.60Z</time>
		</trkpt>
		<trkpt lat="34.737052" lon="127.741611">
			<ele>0.00</ele>
			<time>2020-01-19T18:11:55.79Z</time>
		</trkpt>
		<trkpt lat="34.737104" lon="127.741102">
			<ele>0.00</ele>
			<time>2020-01-19T18:11:58.60Z</time>
		</trkpt>
		<trkpt lat="34.737166" lon="127.740519">
			<ele>0.00</ele>
			<time>2020-01-19T18:12:01.82Z</time>
		</trkpt>
		<trkpt lat="34.737200" lon="127.740092">
			<ele>0.00</ele>
			<time>2020-01-19T18:12:04.17Z</time>
		</trkpt>
		<trkpt lat="34.737235" lon="127.739759">
			<ele>0.00</ele>
			<time>2020-01-19T18:12:06.01Z</time>
		</trkpt>
		<trkpt lat="34.737321" lon="127.739306">
			<ele>0.00</ele>
			<time>2020-01-19T18:12:08.55Z</time>
		</trkpt>
		<trkpt lat="34.737424" lon="127.738905">
			<ele>0.00</ele>
			<time>2020-01-19T18:12:10.86Z</time>
		</trkpt>
		<trkpt lat="34.737569" lon="127.738565">
			<ele>0.00</ele>
			<time>2020-01-19T18:12:12.96Z</time>
		</trkpt>
		<trkpt lat="34.737796" lon="127.738180">
			<ele>0.00</ele>
			<time>2020-01-19T18:12:15.55Z</time>
		</trkpt>
		<trkpt lat="34.738029" lon="127.738016">
			<ele>0.00</ele>
			<time>2020-01-19T18:12:17.35Z</time>
		</trkpt>
		<trkpt lat="34.738285" lon="127.737872">
			<ele>0.00</ele>
			<time>2020-01-19T18:12:19.22Z</time>
		</trkpt>
		<trkpt lat="34.738505" lon="127.737849">
			<ele>0.00</ele>
			<time>2020-01-19T18:12:20.69Z</time>
		</trkpt>
		<trkpt lat="34.738656" lon="127.737743">
			<ele>0.00</ele>
			<time>2020-01-19T18:12:21.86Z</time>
		</trkpt>
		<trkpt lat="34.738687" lon="127.737495">
			<ele>0.00</ele>
			<time>2020-01-19T18:12:23.23Z</time>
		</trkpt>
		<trkpt lat="34.738700" lon="127.737139">
			<ele>0.00</ele>
			<time>2020-01-19T18:12:25.18Z</time>
		</trkpt>
		<trkpt lat="34.738706" lon="127.736904">
			<ele>0.00</ele>
			<time>2020-01-19T18:12:26.47Z</time>
		</trkpt>
		<trkpt lat="34.738717" lon="127.736612">
			<ele>0.00</ele>
			<time>2020-01-19T18:12:28.07Z</time>
		</trkpt>
		<trkpt lat="34.738828" lon="127.736384">
			<ele>0.00</ele>
			<time>2020-01-19T18:12:29.52Z</time>
		</trkpt>
		<trkpt lat="34.738956" lon="127.736235">
			<ele>0.00</ele>
			<time>2020-01-19T18:12:30.71Z</time>
		</trkpt>
		<trkpt lat="34.739054" lon="127.735993">
			<ele>0.00</ele>
			<time>2020-01-19T18:12:32.18Z</time>
		</trkpt>
		<trkpt lat="34.739140" lon="127.735674">
			<ele>0.00</ele>
			<time>2020-01-19T18:12:34.02Z</time>
		</trkpt>
		<trkpt lat="34.739167" lon="127.735433">
			<ele>0.00</ele>
			<time>2020-01-19T18:12:35.35Z</time>
		</trkpt>
		<trkpt lat="34.739195" lon="127.734980">
			<ele>0.00</ele>
			<time>2020-01-19T18:12:37.84Z</time>
		</trkpt>
		<trkpt lat="34.739191" lon="127.734288">
			<ele>0.00</ele>
			<time>2020-01-19T18:12:41.63Z</time>
		</trkpt>
		<trkpt lat="34.739224" lon="127.733607">
			<ele>0.00</ele>
			<time>2020-01-19T18:12:45.37Z</time>
		</trkpt>
		<trkpt lat="34.739249" lon="127.732855">
			<ele>0.00</ele>
			<time>2020-01-19T18:12:49.50Z</time>
		</trkpt>
		<trkpt lat="34.739249" lon="127.732840">
			<ele>0.00</ele>
			<time>2020-01-19T18:12:49.58Z</time>
		</trkpt>
		<trkpt lat="34.739242" lon="127.732604">
			<ele>0.00</ele>
			<time>2020-01-19T18:12:50.87Z</time>
		</trkpt>
		<trkpt lat="34.739269" lon="127.732391">
			<ele>0.00</ele>
			<time>2020-01-19T18:12:52.05Z</time>
		</trkpt>
		<trkpt lat="34.738990" lon="127.732382">
			<ele>0.00</ele>
			<time>2020-01-19T18:12:53.91Z</time>
		</trkpt>
		<trkpt lat="34.738568" lon="127.732294">
			<ele>0.00</ele>
			<time>2020-01-19T18:12:56.77Z</time>
		</trkpt>
		<trkpt lat="34.738119" lon="127.732261">
			<ele>0.00</ele>
			<time>2020-01-19T18:12:59.76Z</time>
		</trkpt>
		<trkpt lat="34.737831" lon="127.732212">
			<ele>0.00</ele>
			<time>2020-01-19T18:13:01.70Z</time>
		</trkpt>
		<trkpt lat="34.737460" lon="127.732219">
			<ele>0.00</ele>
			<time>2020-01-19T18:13:04.17Z</time>
		</trkpt>
		<trkpt lat="34.737173" lon="127.732213">
			<ele>0.00</ele>
			<time>2020-01-19T18:13:06.09Z</time>
		</trkpt>
		<trkpt lat="34.736889" lon="127.732217">
			<ele>0.00</ele>
			<time>2020-01-19T18:13:07.98Z</time>
		</trkpt>
		<trkpt lat="34.736515" lon="127.732169">
			<ele>0.00</ele>
			<time>2020-01-19T18:13:10.49Z</time>
		</trkpt>
		<trkpt lat="34.736166" lon="127.732134">
			<ele>0.00</ele>
			<time>2020-01-19T18:13:12.82Z</time>
		</trkpt>
		<trkpt lat="34.735822" lon="127.732107">
			<ele>0.00</ele>
			<time>2020-01-19T18:13:15.12Z</time>
		</trkpt>
		<trkpt lat="34.735578" lon="127.732053">
			<ele>0.00</ele>
			<time>2020-01-19T18:13:16.78Z</time>
		</trkpt>
		<trkpt lat="34.735251" lon="127.731937">
			<ele>0.00</ele>
			<time>2020-01-19T18:13:19.05Z</time>
		</trkpt>
		<trkpt lat="34.735025" lon="127.731862">
			<ele>0.00</ele>
			<time>2020-01-19T18:13:20.61Z</time>
		</trkpt>
		<trkpt lat="34.734680" lon="127.731696">
			<ele>0.00</ele>
			<time>2020-01-19T18:13:23.08Z</time>
		</trkpt>
		<trkpt lat="34.734260" lon="127.731504">
			<ele>0.00</ele>
			<time>2020-01-19T18:13:26.07Z</time>
		</trkpt>
		<trkpt lat="34.733874" lon="127.731340">
			<ele>0.00</ele>
			<time>2020-01-19T18:13:28.80Z</time>
		</trkpt>
		<trkpt lat="34.733499" lon="127.731192">
			<ele>0.00</ele>
			<time>2020-01-19T18:13:31.43Z</time>
		</trkpt>
		<trkpt lat="34.733170" lon="127.731106">
			<ele>0.00</ele>
			<time>2020-01-19T18:13:33.67Z</time>
		</trkpt>
		<trkpt lat="34.732872" lon="127.731081">
			<ele>0.00</ele>
			<time>2020-01-19T18:13:35.66Z</time>
		</trkpt>
		<trkpt lat="34.732813" lon="127.731294">
			<ele>0.00</ele>
			<time>2020-01-19T18:13:36.89Z</time>
		</trkpt>
		<trkpt lat="34.732641" lon="127.731653">
			<ele>0.00</ele>
			<time>2020-01-19T18:13:39.17Z</time>
		</trkpt>
		<trkpt lat="34.732525" lon="127.731911">
			<ele>0.00</ele>
			<time>2020-01-19T18:13:40.78Z</time>
		</trkpt>
		<trkpt lat="34.732445" lon="127.732019">
			<ele>0.00</ele>
			<time>2020-01-19T18:13:41.58Z</time>
		</trkpt>
		<trkpt lat="34.732317" lon="127.732058">
			<ele>0.00</ele>
			<time>2020-01-19T18:13:42.46Z</time>
		</trkpt>
		<trkpt lat="34.732232" lon="127.732078">
			<ele>0.00</ele>
			<time>2020-01-19T18:13:43.03Z</time>
		</trkpt>
		<trkpt lat="34.732129" lon="127.732118">
			<ele>0.00</ele>
			<time>2020-01-19T18:13:43.75Z</time>
		</trkpt>
		<trkpt lat="34.732002" lon="127.732132">
			<ele>0.00</ele>
			<time>2020-01-19T18:13:44.60Z</time>
		</trkpt>
		<trkpt lat="34.731909" lon="127.732178">
			<ele>0.00</ele>
			<time>2020-01-19T18:13:45.27Z</time>
		</trkpt>
		<trkpt lat="34.731836" lon="127.732169">
			<ele>0.00</ele>
			<time>2020-01-19T18:13:45.77Z</time>
		</trkpt>
		<trkpt lat="34.731737" lon="127.732201">
			<ele>0.00</ele>
			<time>2020-01-19T18:13:46.45Z</time>
		</trkpt>
		<trkpt lat="34.731644" lon="127.732256">
			<ele>0.00</ele>
			<time>2020-01-19T18:13:47.13Z</time>
		</trkpt>
		<trkpt lat="34.731632" lon="127.732265">
			<ele>0.00</ele>
			<time>2020-01-19T18:13:47.22Z</time>
		</trkpt>
		<trkpt lat="34.731554" lon="127.732330">
			<ele>0.00</ele>
			<time>2020-01-19T18:13:47.86Z</time>
		</trkpt>
		<trkpt lat="34.731492" lon="127.732342">
			<ele>0.00</ele>
			<time>2020-01-19T18:13:48.28Z</time>
		</trkpt>
		<trkpt lat="34.731433" lon="127.732365">
			<ele>0.00</ele>
			<time>2020-01-19T18:13:48.69Z</time>
		</trkpt>
		<trkpt lat="34.731350" lon="127.732423">
			<ele>0.00</ele>
			<time>2020-01-19T18:13:49.33Z</time>
		</trkpt>
		<trkpt lat="34.731301" lon="127.732475">
			<ele>0.00</ele>
			<time>2020-01-19T18:13:49.76Z</time>
		</trkpt>
		<trkpt lat="34.731114" lon="127.732655">
			<ele>0.00</ele>
			<time>2020-01-19T18:13:51.35Z</time>
		</trkpt>
		<trkpt lat="34.730953" lon="127.732765">
			<ele>0.00</ele>
			<time>2020-01-19T18:13:52.58Z</time>
		</trkpt>
		<trkpt lat="34.730756" lon="127.732872">
			<ele>0.00</ele>
			<time>2020-01-19T18:13:54.02Z</time>
		</trkpt>
		<trkpt lat="34.730593" lon="127.732907">
			<ele>0.00</ele>
			<time>2020-01-19T18:13:55.12Z</time>
		</trkpt>
		<trkpt lat="34.730414" lon="127.732910">
			<ele>0.00</ele>
			<time>2020-01-19T18:13:56.32Z</time>
		</trkpt>
		<trkpt lat="34.730249" lon="127.732754">
			<ele>0.00</ele>
			<time>2020-01-19T18:13:57.71Z</time>
		</trkpt>
		<trkpt lat="34.730194" lon="127.732604">
			<ele>0.00</ele>
			<time>2020-01-19T18:13:58.61Z</time>
		</trkpt>
		<trkpt lat="34.730123" lon="127.732431">
			<ele>0.00</ele>
			<time>2020-01-19T18:13:59.67Z</time>
		</trkpt>
		<trkpt lat="34.730098" lon="127.732319">
			<ele>0.00</ele>
			<time>2020-01-19T18:14:00.31Z</time>
		</trkpt>
		<trkpt lat="34.730107" lon="127.732157">
			<ele>0.00</ele>
			<time>2020-01-19T18:14:01.20Z</time>
		</trkpt>
		<trkpt lat="34.730113" lon="127.732051">
			<ele>0.00</ele>
			<time>2020-01-19T18:14:01.78Z</time>
		</trkpt>
		<trkpt lat="34.730123" lon="127.731958">
			<ele>0.00</ele>
			<time>2020-01-19T18:14:02.29Z</time>
		</trkpt>
		<trkpt lat="34.730095" lon="127.731909">
			<ele>0.00</ele>
			<time>2020-01-19T18:14:02.62Z</time>
		</trkpt>
		<trkpt lat="34.730059" lon="127.731843">
			<ele>0.00</ele>
			<time>2020-01-19T18:14:03.05Z</time>
		</trkpt>
		<trkpt lat="34.730010" lon="127.731776">
			<ele>0.00</ele>
			<time>2020-01-19T18:14:03.55Z</time>
		</trkpt>
		<trkpt lat="34.729945" lon="127.731743">
			<ele>0.00</ele>
			<time>2020-01-19T18:14:04.02Z</time>
		</trkpt>
		<trkpt lat="34.729865" lon="127.731733">
			<ele>0.00</ele>
			<time>2020-01-19T18:14:04.55Z</time>
		</trkpt>
		<trkpt lat="34.729772" lon="127.731790">
			<ele>0.00</ele>
			<time>2020-01-19T18:14:05.24Z</time>
		</trkpt>
		<trkpt lat="34.729701" lon="127.731857">
			<ele>0.00</ele>
			<time>2020-01-19T18:14:05.84Z</time>
		</trkpt>
		<trkpt lat="34.729596" lon="127.731919">
			<ele>0.00</ele>
			<time>2020-01-19T18:14:06.62Z</time>
		</trkpt>
		<trkpt lat="34.729512" lon="127.731869">
			<ele>0.00</ele>
			<time>2020-01-19T18:14:07.24Z</time>
		</trkpt>
		<trkpt lat="34.729439" lon="127.731727">
			<ele>0.00</ele>
			<time>2020-01-19T18:14:08.16Z</time>
		</trkpt>
		<trkpt lat="34.729421" lon="127.731624">
			<ele>0.00</ele>
			<time>2020-01-19T18:14:08.74Z</time>
		</trkpt>
		<trkpt lat="34.729395" lon="127.731558">
			<ele>0.00</ele>
			<time>2020-01-19T18:14:09.14Z</time>
		</trkpt>
		<trkpt lat="34.729372" lon="127.731450">
			<ele>0.00</ele>
			<time>2020-01-19T18:14:09.75Z</time>
		</trkpt>
		<trkpt lat="34.729382" lon="127.731307">
			<ele>0.00</ele>
			<time>2020-01-19T18:14:10.54Z</time>
		</trkpt>
		<trkpt lat="34.729394" lon="127.731214">
			<ele>0.00</ele>
			<time>2020-01-19T18:14:11.05Z</time>
		</trkpt>
		<trkpt lat="34.729708" lon="127.731285">
			<ele>0.00</ele>
			<time>2020-01-19T18:14:13.18Z</time>
		</trkpt>
		<trkpt lat="34.729742" lon="127.731132">
			<ele>0.00</ele>
			<time>2020-01-19T18:14:14.05Z</time>
		</trkpt>
		<trkpt lat="34.729818" lon="127.730934">
			<ele>0.00</ele>
			<time>2020-01-19T18:14:15.25Z</time>
		</trkpt>
		<trkpt lat="34.729856" lon="127.730669">
			<ele>0.00</ele>
			<time>2020-01-19T18:14:16.72Z</time>
		</trkpt>
		<trkpt lat="34.729898" lon="127.730453">
			<ele>0.00</ele>
			<time>2020-01-19T18:14:17.93Z</time>
		</trkpt>
		<trkpt lat="34.729995" lon="127.730059">
			<ele>0.00</ele>
			<time>2020-01-19T18:14:20.19Z</time>
		</trkpt>
		<trkpt lat="34.730029" lon="127.729749">
			<ele>0.00</ele>
			<time>2020-01-19T18:14:21.90Z</time>
		</trkpt>
		<trkpt lat="34.730081" lon="127.729474">
			<ele>0.00</ele>
			<time>2020-01-19T18:14:23.45Z</time>
		</trkpt>
		<trkpt lat="34.730124" lon="127.729054">
			<ele>0.00</ele>
			<time>2020-01-19T18:14:25.77Z</time>
		</trkpt>
		<trkpt lat="34.730130" lon="127.728634">
			<ele>0.00</ele>
			<time>2020-01-19T18:14:28.07Z</time>
		</trkpt>
		<trkpt lat="34.730235" lon="127.728045">
			<ele>0.00</ele>
			<time>2020-01-19T18:14:31.37Z</time>
		</trkpt>
		<trkpt lat="34.730316" lon="127.727524">
			<ele>0.00</ele>
			<time>2020-01-19T18:14:34.28Z</time>
		</trkpt>
		<trkpt lat="34.730398" lon="127.727139">
			<ele>0.00</ele>
			<time>2020-01-19T18:14:36.45Z</time>
		</trkpt>
		<trkpt lat="34.730483" lon="127.726700">
			<ele>0.00</ele>
			<time>2020-01-19T18:14:38.93Z</time>
		</trkpt>
		<trkpt lat="34.730551" lon="127.726360">
			<ele>0.00</ele>
			<time>2020-01-19T18:14:40.84Z</time>
		</trkpt>
		<trkpt lat="34.730583" lon="127.726027">
			<ele>0.00</ele>
			<time>2020-01-19T18:14:42.68Z</time>
		</trkpt>
		<trkpt lat="34.730590" lon="127.725886">
			<ele>0.00</ele>
			<time>2020-01-19T18:14:43.45Z</time>
		</trkpt>
		<trkpt lat="34.730593" lon="127.725641">
			<ele>0.00</ele>
			<time>2020-01-19T18:14:44.80Z</time>
		</trkpt>
		<trkpt lat="34.730477" lon="127.725427">
			<ele>0.00</ele>
			<time>2020-01-19T18:14:46.20Z</time>
		</trkpt>
		<trkpt lat="34.730221" lon="127.725403">
			<ele>0.00</ele>
			<time>2020-01-19T18:14:47.91Z</time>
		</trkpt>
		<trkpt lat="34.729930" lon="127.725295">
			<ele>0.00</ele>
			<time>2020-01-19T18:14:49.94Z</time>
		</trkpt>
		<trkpt lat="34.729706" lon="127.725134">
			<ele>0.00</ele>
			<time>2020-01-19T18:14:51.67Z</time>
		</trkpt>
		<trkpt lat="34.729612" lon="127.725148">
			<ele>0.00</ele>
			<time>2020-01-19T18:14:52.31Z</time>
		</trkpt>
		<trkpt lat="34.729462" lon="127.725197">
			<ele>0.00</ele>
			<time>2020-01-19T18:14:53.34Z</time>
		</trkpt>
		<trkpt lat="34.729306" lon="127.725041">
			<ele>0.00</ele>
			<time>2020-01-19T18:14:54.68Z</time>
		</trkpt>
		<trkpt lat="34.728992" lon="127.724692">
			<ele>0.00</ele>
			<time>2020-01-19T18:14:57.52Z</time>
		</trkpt>
		<trkpt lat="34.728729" lon="127.724321">
			<ele>0.00</ele>
			<time>2020-01-19T18:15:00.21Z</time>
		</trkpt>
		<trkpt lat="34.728544" lon="127.724317">
			<ele>0.00</ele>
			<time>2020-01-19T18:15:01.44Z</time>
		</trkpt>
		<trkpt lat="34.728449" lon="127.724229">
			<ele>0.00</ele>
			<time>2020-01-19T18:15:02.24Z</time>
		</trkpt>
		<trkpt lat="34.728422" lon="127.723931">
			<ele>0.00</ele>
			<time>2020-01-19T18:15:03.88Z</time>
		</trkpt>
		<trkpt lat="34.728146" lon="127.723675">
			<ele>0.00</ele>
			<time>2020-01-19T18:15:06.19Z</time>
		</trkpt>
		<trkpt lat="34.727918" lon="127.723383">
			<ele>0.00</ele>
			<time>2020-01-19T18:15:08.40Z</time>
		</trkpt>
		<trkpt lat="34.727680" lon="127.723112">
			<ele>0.00</ele>
			<time>2020-01-19T18:15:10.57Z</time>
		</trkpt>
		<trkpt lat="34.727404" lon="127.722831">
			<ele>0.00</ele>
			<time>2020-01-19T18:15:12.98Z</time>
		</trkpt>
		<trkpt lat="34.727106" lon="127.722419">
			<ele>0.00</ele>
			<time>2020-01-19T18:15:15.98Z</time>
		</trkpt>
		<trkpt lat="34.726820" lon="127.722139">
			<ele>0.00</ele>
			<time>2020-01-19T18:15:18.43Z</time>
		</trkpt>
		<trkpt lat="34.726518" lon="127.721827">
			<ele>0.00</ele>
			<time>2020-01-19T18:15:21.07Z</time>
		</trkpt>
		<trkpt lat="34.726267" lon="127.721503">
			<ele>0.00</ele>
			<time>2020-01-19T18:15:23.51Z</time>
		</trkpt>
		<trkpt lat="34.726033" lon="127.721284">
			<ele>0.00</ele>
			<time>2020-01-19T18:15:25.48Z</time>
		</trkpt>
		<trkpt lat="34.725931" lon="127.721021">
			<ele>0.00</ele>
			<time>2020-01-19T18:15:27.07Z</time>
		</trkpt>
		<trkpt lat="34.725818" lon="127.720553">
			<ele>0.00</ele>
			<time>2020-01-19T18:15:29.74Z</time>
		</trkpt>
		<trkpt lat="34.725645" lon="127.720076">
			<ele>0.00</ele>
			<time>2020-01-19T18:15:32.60Z</time>
		</trkpt>
		<trkpt lat="34.725516" lon="127.719636">
			<ele>0.00</ele>
			<time>2020-01-19T18:15:35.16Z</time>
		</trkpt>
		<trkpt lat="34.725372" lon="127.719208">
			<ele>0.00</ele>
			<time>2020-01-19T18:15:37.69Z</time>
		</trkpt>
		<trkpt lat="34.725262" lon="127.718754">
			<ele>0.00</ele>
			<time>2020-01-19T18:15:40.29Z</time>
		</trkpt>
		<trkpt lat="34.725135" lon="127.718362">
			<ele>0.00</ele>
			<time>2020-01-19T18:15:42.60Z</time>
		</trkpt>
		<trkpt lat="34.725021" lon="127.718037">
			<ele>0.00</ele>
			<time>2020-01-19T18:15:44.53Z</time>
		</trkpt>
		<trkpt lat="34.724952" lon="127.717760">
			<ele>0.00</ele>
			<time>2020-01-19T18:15:46.12Z</time>
		</trkpt>
		<trkpt lat="34.724884" lon="127.717440">
			<ele>0.00</ele>
			<time>2020-01-19T18:15:47.93Z</time>
		</trkpt>
		<trkpt lat="34.725112" lon="127.717319">
			<ele>0.00</ele>
			<time>2020-01-19T18:15:49.59Z</time>
		</trkpt>
		<trkpt lat="34.725337" lon="127.717214">
			<ele>0.00</ele>
			<time>2020-01-19T18:15:51.19Z</time>
		</trkpt>
		<trkpt lat="34.725600" lon="127.717088">
			<ele>0.00</ele>
			<time>2020-01-19T18:15:53.08Z</time>
		</trkpt>
		<trkpt lat="34.725845" lon="127.716988">
			<ele>0.00</ele>
			<time>2020-01-19T18:15:54.80Z</time>
		</trkpt>
		<trkpt lat="34.726102" lon="127.716845">
			<ele>0.00</ele>
			<time>2020-01-19T18:15:56.68Z</time>
		</trkpt>
		<trkpt lat="34.726153" lon="127.716766">
			<ele>0.00</ele>
			<time>2020-01-19T18:15:57.24Z</time>
		</trkpt>
		<trkpt lat="34.726054" lon="127.716442">
			<ele>0.00</ele>
			<time>2020-01-19T18:15:59.14Z</time>
		</trkpt>
		<trkpt lat="34.725915" lon="127.716039">
			<ele>0.00</ele>
			<time>2020-01-19T18:16:01.53Z</time>
		</trkpt>
		<trkpt lat="34.725764" lon="127.715579">
			<ele>0.00</ele>
			<time>2020-01-19T18:16:04.24Z</time>
		</trkpt>
		<trkpt lat="34.725590" lon="127.715051">
			<ele>0.00</ele>
			<time>2020-01-19T18:16:07.36Z</time>
		</trkpt>
		<trkpt lat="34.725469" lon="127.714670">
			<ele>0.00</ele>
			<time>2020-01-19T18:16:09.60Z</time>
		</trkpt>
		<trkpt lat="34.725351" lon="127.714309">
			<ele>0.00</ele>
			<time>2020-01-19T18:16:11.73Z</time>
		</trkpt>
		<trkpt lat="34.725188" lon="127.713926">
			<ele>0.00</ele>
			<time>2020-01-19T18:16:14.09Z</time>
		</trkpt>
		<trkpt lat="34.725084" lon="127.713655">
			<ele>0.00</ele>
			<time>2020-01-19T18:16:15.73Z</time>
		</trkpt>
		<trkpt lat="34.724993" lon="127.713336">
			<ele>0.00</ele>
			<time>2020-01-19T18:16:17.58Z</time>
		</trkpt>
		<trkpt lat="34.724889" lon="127.713106">
			<ele>0.00</ele>
			<time>2020-01-19T18:16:19.01Z</time>
		</trkpt>
		<trkpt lat="34.724789" lon="127.712824">
			<ele>0.00</ele>
			<time>2020-01-19T18:16:20.70Z</time>
		</trkpt>
		<trkpt lat="34.724707" lon="127.712609">
			<ele>0.00</ele>
			<time>2020-01-19T18:16:22Z</time>
		</trkpt>
		<trkpt lat="34.724676" lon="127.712415">
			<ele>0.00</ele>
			<time>2020-01-19T18:16:23.08Z</time>
		</trkpt>
		<trkpt lat="34.724680" lon="127.712289">
			<ele>0.00</ele>
			<time>2020-01-19T18:16:23.77Z</time>
		</trkpt>
		<trkpt lat="34.724794" lon="127.712224">
			<ele>0.00</ele>
			<time>2020-01-19T18:16:24.61Z</time>
		</trkpt>
		<trkpt lat="34.725105" lon="127.712110">
			<ele>0.00</ele>
			<time>2020-01-19T18:16:26.78Z</time>
		</trkpt>
		<trkpt lat="34.725320" lon="127.712028">
			<ele>0.00</ele>
			<time>2020-01-19T18:16:28.28Z</time>
		</trkpt>
		<trkpt lat="34.725618" lon="127.711876">
			<ele>0.00</ele>
			<time>2020-01-19T18:16:30.43Z</time>
		</trkpt>
		<trkpt lat="34.725812" lon="127.711768">
			<ele>0.00</ele>
			<time>2020-01-19T18:16:31.85Z</time>
		</trkpt>
		<trkpt lat="34.725952" lon="127.711677">
			<ele>0.00</ele>
			<time>2020-01-19T18:16:32.91Z</time>
		</trkpt>
		<trkpt lat="34.726056" lon="127.711606">
			<ele>0.00</ele>
			<time>2020-01-19T18:16:33.71Z</time>
		</trkpt>
		<trkpt lat="34.726073" lon="127.711499">
			<ele>0.00</ele>
			<time>2020-01-19T18:16:34.30Z</time>
		</trkpt>
		<trkpt lat="34.725974" lon="127.711373">
			<ele>0.00</ele>
			<time>2020-01-19T18:16:35.26Z</time>
		</trkpt>
		<trkpt lat="34.725805" lon="127.711145">
			<ele>0.00</ele>
			<time>2020-01-19T18:16:36.94Z</time>
		</trkpt>
		<trkpt lat="34.725588" lon="127.710863">
			<ele>0.00</ele>
			<time>2020-01-19T18:16:39.06Z</time>
		</trkpt>
		<trkpt lat="34.725399" lon="127.710645">
			<ele>0.00</ele>
			<time>2020-01-19T18:16:40.79Z</time>
		</trkpt>
		<trkpt lat="34.725216" lon="127.710357">
			<ele>0.00</ele>
			<time>2020-01-19T18:16:42.79Z</time>
		</trkpt>
		<trkpt lat="34.725025" lon="127.710098">
			<ele>0.00</ele>
			<time>2020-01-19T18:16:44.69Z</time>
		</trkpt>
		<trkpt lat="34.724909" lon="127.709912">
			<ele>0.00</ele>
			<time>2020-01-19T18:16:45.97Z</time>
		</trkpt>
		<trkpt lat="34.724747" lon="127.709722">
			<ele>0.00</ele>
			<time>2020-01-19T18:16:47.47Z</time>
		</trkpt>
		<trkpt lat="34.724506" lon="127.709410">
			<ele>0.00</ele>
			<time>2020-01-19T18:16:49.82Z</time>
		</trkpt>
		<trkpt lat="34.724325" lon="127.709168">
			<ele>0.00</ele>
			<time>2020-01-19T18:16:51.62Z</time>
		</trkpt>
		<trkpt lat="34.724211" lon="127.708974">
			<ele>0.00</ele>
			<time>2020-01-19T18:16:52.92Z</time>
		</trkpt>
		<trkpt lat="34.724009" lon="127.708717">
			<ele>0.00</ele>
			<time>2020-01-19T18:16:54.87Z</time>
		</trkpt>
		<trkpt lat="34.723826" lon="127.708500">
			<ele>0.00</ele>
			<time>2020-01-19T18:16:56.57Z</time>
		</trkpt>
		<trkpt lat="34.723609" lon="127.708179">
			<ele>0.00</ele>
			<time>2020-01-19T18:16:58.85Z</time>
		</trkpt>
		<trkpt lat="34.723378" lon="127.707846">
			<ele>0.00</ele>
			<time>2020-01-19T18:17:01.24Z</time>
		</trkpt>
		<trkpt lat="34.723220" lon="127.707655">
			<ele>0.00</ele>
			<time>2020-01-19T18:17:02.72Z</time>
		</trkpt>
		<trkpt lat="34.723068" lon="127.707290">
			<ele>0.00</ele>
			<time>2020-01-19T18:17:04.96Z</time>
		</trkpt>
		<trkpt lat="34.722946" lon="127.706962">
			<ele>0.00</ele>
			<time>2020-01-19T18:17:06.93Z</time>
		</trkpt>
		<trkpt lat="34.722865" lon="127.706452">
			<ele>0.00</ele>
			<time>2020-01-19T18:17:09.78Z</time>
		</trkpt>
		<trkpt lat="34.722841" lon="127.706179">
			<ele>0.00</ele>
			<time>2020-01-19T18:17:11.29Z</time>
		</trkpt>
		<trkpt lat="34.722822" lon="127.705733">
			<ele>0.00</ele>
			<time>2020-01-19T18:17:13.73Z</time>
		</trkpt>
		<trkpt lat="34.722810" lon="127.705374">
			<ele>0.00</ele>
			<time>2020-01-19T18:17:15.70Z</time>
		</trkpt>
		<trkpt lat="34.722809" lon="127.704936">
			<ele>0.00</ele>
			<time>2020-01-19T18:17:18.10Z</time>
		</trkpt>
		<trkpt lat="34.722808" lon="127.704527">
			<ele>0.00</ele>
			<time>2020-01-19T18:17:20.34Z</time>
		</trkpt>
		<trkpt lat="34.722812" lon="127.704033">
			<ele>0.00</ele>
			<time>2020-01-19T18:17:23.05Z</time>
		</trkpt>
		<trkpt lat="34.722846" lon="127.703555">
			<ele>0.00</ele>
			<time>2020-01-19T18:17:25.68Z</time>
		</trkpt>
		<trkpt lat="34.722933" lon="127.703215">
			<ele>0.00</ele>
			<time>2020-01-19T18:17:27.63Z</time>
		</trkpt>
		<trkpt lat="34.723025" lon="127.702905">
			<ele>0.00</ele>
			<time>2020-01-19T18:17:29.44Z</time>
		</trkpt>
		<trkpt lat="34.723166" lon="127.702597">
			<ele>0.00</ele>
			<time>2020-01-19T18:17:31.37Z</time>
		</trkpt>
		<trkpt lat="34.723321" lon="127.702312">
			<ele>0.00</ele>
			<time>2020-01-19T18:17:33.24Z</time>
		</trkpt>
		<trkpt lat="34.723474" lon="127.702005">
			<ele>0.00</ele>
			<time>2020-01-19T18:17:35.21Z</time>
		</trkpt>
		<trkpt lat="34.723708" lon="127.701712">
			<ele>0.00</ele>
			<time>2020-01-19T18:17:37.44Z</time>
		</trkpt>
		<trkpt lat="34.723969" lon="127.701388">
			<ele>0.00</ele>
			<time>2020-01-19T18:17:39.93Z</time>
		</trkpt>
		<trkpt lat="34.724211" lon="127.701089">
			<ele>0.00</ele>
			<time>2020-01-19T18:17:42.23Z</time>
		</trkpt>
		<trkpt lat="34.724425" lon="127.700783">
			<ele>0.00</ele>
			<time>2020-01-19T18:17:44.43Z</time>
		</trkpt>
		<trkpt lat="34.724652" lon="127.700476">
			<ele>0.00</ele>
			<time>2020-01-19T18:17:46.70Z</time>
		</trkpt>
		<trkpt lat="34.725251" lon="127.699697">
			<ele>0.00</ele>
			<time>2020-01-19T18:17:52.54Z</time>
		</trkpt>
		<trkpt lat="34.725538" lon="127.699327">
			<ele>0.00</ele>
			<time>2020-01-19T18:17:55.33Z</time>
		</trkpt>
		<trkpt lat="34.725818" lon="127.698966">
			<ele>0.00</ele>
			<time>2020-01-19T18:17:58.05Z</time>
		</trkpt>
		<trkpt lat="34.726070" lon="127.698609">
			<ele>0.00</ele>
			<time>2020-01-19T18:18:00.63Z</time>
		</trkpt>
		<trkpt lat="34.726278" lon="127.698322">
			<ele>0.00</ele>
			<time>2020-01-19T18:18:02.72Z</time>
		</trkpt>
		<trkpt lat="34.726534" lon="127.698012">
			<ele>0.00</ele>
			<time>2020-01-19T18:18:05.13Z</time>
		</trkpt>
		<trkpt lat="34.726685" lon="127.697735">
			<ele>0.00</ele>
			<time>2020-01-19T18:18:06.95Z</time>
		</trkpt>
		<trkpt lat="34.726825" lon="127.697463">
			<ele>0.00</ele>
			<time>2020-01-19T18:18:08.71Z</time>
		</trkpt>
		<trkpt lat="34.726965" lon="127.697205">
			<ele>0.00</ele>
			<time>2020-01-19T18:18:10.41Z</time>
		</trkpt>
		<trkpt lat="34.727131" lon="127.696838">
			<ele>0.00</ele>
			<time>2020-01-19T18:18:12.70Z</time>
		</trkpt>
		<trkpt lat="34.727283" lon="127.696507">
			<ele>0.00</ele>
			<time>2020-01-19T18:18:14.78Z</time>
		</trkpt>
		<trkpt lat="34.727464" lon="127.696145">
			<ele>0.00</ele>
			<time>2020-01-19T18:18:17.10Z</time>
		</trkpt>
		<trkpt lat="34.727679" lon="127.695674">
			<ele>0.00</ele>
			<time>2020-01-19T18:18:20.05Z</time>
		</trkpt>
		<trkpt lat="34.727822" lon="127.695321">
			<ele>0.00</ele>
			<time>2020-01-19T18:18:22.21Z</time>
		</trkpt>
		<trkpt lat="34.727970" lon="127.695096">
			<ele>0.00</ele>
			<time>2020-01-19T18:18:23.79Z</time>
		</trkpt>
		<trkpt lat="34.728141" lon="127.694675">
			<ele>0.00</ele>
			<time>2020-01-19T18:18:26.36Z</time>
		</trkpt>
		<trkpt lat="34.728266" lon="127.694454">
			<ele>0.00</ele>
			<time>2020-01-19T18:18:27.83Z</time>
		</trkpt>
		<trkpt lat="34.728537" lon="127.693928">
			<ele>0.00</ele>
			<time>2020-01-19T18:18:31.23Z</time>
		</trkpt>
		<trkpt lat="34.728923" lon="127.693085">
			<ele>0.00</ele>
			<time>2020-01-19T18:18:36.52Z</time>
		</trkpt>
		<trkpt lat="34.729333" lon="127.692217">
			<ele>0.00</ele>
			<time>2020-01-19T18:18:42.01Z</time>
		</trkpt>
		<trkpt lat="34.729678" lon="127.691498">
			<ele>0.00</ele>
			<time>2020-01-19T18:18:46.56Z</time>
		</trkpt>
		<trkpt lat="34.730039" lon="127.690860">
			<ele>0.00</ele>
			<time>2020-01-19T18:18:50.81Z</time>
		</trkpt>
		<trkpt lat="34.730428" lon="127.690222">
			<ele>0.00</ele>
			<time>2020-01-19T18:18:55.16Z</time>
		</trkpt>
		<trkpt lat="34.730941" lon="127.689498">
			<ele>0.00</ele>
			<time>2020-01-19T18:19:00.40Z</time>
		</trkpt>
		<trkpt lat="34.731291" lon="127.688948">
			<ele>0.00</ele>
			<time>2020-01-19T18:19:04.21Z</time>
		</trkpt>
		<trkpt lat="34.731752" lon="127.688212">
			<ele>0.00</ele>
			<time>2020-01-19T18:19:09.28Z</time>
		</trkpt>
		<trkpt lat="34.732087" lon="127.687653">
			<ele>0.00</ele>
			<time>2020-01-19T18:19:13.07Z</time>
		</trkpt>
		<trkpt lat="34.732437" lon="127.687089">
			<ele>0.00</ele>
			<time>2020-01-19T18:19:16.94Z</time>
		</trkpt>
		<trkpt lat="34.732743" lon="127.686615">
			<ele>0.00</ele>
			<time>2020-01-19T18:19:20.25Z</time>
		</trkpt>
		<trkpt lat="34.733152" lon="127.686046">
			<ele>0.00</ele>
			<time>2020-01-19T18:19:24.39Z</time>
		</trkpt>
		<trkpt lat="34.733463" lon="127.685539">
			<ele>0.00</ele>
			<time>2020-01-19T18:19:27.85Z</time>
		</trkpt>
		<trkpt lat="34.733832" lon="127.684908">
			<ele>0.00</ele>
			<time>2020-01-19T18:19:32.09Z</time>
		</trkpt>
		<trkpt lat="34.734104" lon="127.684573">
			<ele>0.00</ele>
			<time>2020-01-19T18:19:34.68Z</time>
		</trkpt>
		<trkpt lat="34.734247" lon="127.684339">
			<ele>0.00</ele>
			<time>2020-01-19T18:19:36.28Z</time>
		</trkpt>
		<trkpt lat="34.734557" lon="127.683807">
			<ele>0.00</ele>
			<time>2020-01-19T18:19:39.85Z</time>
		</trkpt>
		<trkpt lat="34.734815" lon="127.683429">
			<ele>0.00</ele>
			<time>2020-01-19T18:19:42.54Z</time>
		</trkpt>
		<trkpt lat="34.735151" lon="127.682948">
			<ele>0.00</ele>
			<time>2020-01-19T18:19:46Z</time>
		</trkpt>
		<trkpt lat="34.735338" lon="127.682717">
			<ele>0.00</ele>
			<time>2020-01-19T18:19:47.78Z</time>
		</trkpt>
		<trkpt lat="34.735590" lon="127.682484">
			<ele>0.00</ele>
			<time>2020-01-19T18:19:49.88Z</time>
		</trkpt>
		<trkpt lat="34.735972" lon="127.682178">
			<ele>0.00</ele>
			<time>2020-01-19T18:19:52.93Z</time>
		</trkpt>
		<trkpt lat="34.736463" lon="127.681911">
			<ele>0.00</ele>
			<time>2020-01-19T18:19:56.52Z</time>
		</trkpt>
		<trkpt lat="34.736787" lon="127.681832">
			<ele>0.00</ele>
			<time>2020-01-19T18:19:58.72Z</time>
		</trkpt>
		<trkpt lat="34.737158" lon="127.681765">
			<ele>0.00</ele>
			<time>2020-01-19T18:20:01.22Z</time>
		</trkpt>
		<trkpt lat="34.737533" lon="127.681788">
			<ele>0.00</ele>
			<time>2020-01-19T18:20:03.72Z</time>
		</trkpt>
		<trkpt lat="34.738005" lon="127.681767">
			<ele>0.00</ele>
			<time>2020-01-19T18:20:06.87Z</time>
		</trkpt>
		<trkpt lat="34.738454" lon="127.681904">
			<ele>0.00</ele>
			<time>2020-01-19T18:20:09.96Z</time>
		</trkpt>
		<trkpt lat="34.738802" lon="127.682043">
			<ele>0.00</ele>
			<time>2020-01-19T18:20:12.40Z</time>
		</trkpt>
		<trkpt lat="34.739238" lon="127.682261">
			<ele>0.00</ele>
			<time>2020-01-19T18:20:15.54Z</time>
		</trkpt>
		<trkpt lat="34.739621" lon="127.682364">
			<ele>0.00</ele>
			<time>2020-01-19T18:20:18.16Z</time>
		</trkpt>
		<trkpt lat="34.739912" lon="127.682490">
			<ele>0.00</ele>
			<time>2020-01-19T18:20:20.22Z</time>
		</trkpt>
		<trkpt lat="34.740038" lon="127.682459">
			<ele>0.00</ele>
			<time>2020-01-19T18:20:21.07Z</time>
		</trkpt>
		<trkpt lat="34.740237" lon="127.681967">
			<ele>0.00</ele>
			<time>2020-01-19T18:20:24.08Z</time>
		</trkpt>
		<trkpt lat="34.740448" lon="127.681357">
			<ele>0.00</ele>
			<time>2020-01-19T18:20:27.70Z</time>
		</trkpt>
		<trkpt lat="34.740449" lon="127.680869">
			<ele>0.00</ele>
			<time>2020-01-19T18:20:30.38Z</time>
		</trkpt>
		<trkpt lat="34.740468" lon="127.680240">
			<ele>0.00</ele>
			<time>2020-01-19T18:20:33.82Z</time>
		</trkpt>
		<trkpt lat="34.740486" lon="127.679570">
			<ele>0.00</ele>
			<time>2020-01-19T18:20:37.50Z</time>
		</trkpt>
		<trkpt lat="34.740471" lon="127.679062">
			<ele>0.00</ele>
			<time>2020-01-19T18:20:40.28Z</time>
		</trkpt>
		<trkpt lat="34.740462" lon="127.678238">
			<ele>0.00</ele>
			<time>2020-01-19T18:20:44.79Z</time>
		</trkpt>
		<trkpt lat="34.740528" lon="127.677867">
			<ele>0.00</ele>
			<time>2020-01-19T18:20:46.87Z</time>
		</trkpt>
		<trkpt lat="34.740632" lon="127.677342">
			<ele>0.00</ele>
			<time>2020-01-19T18:20:49.83Z</time>
		</trkpt>
		<trkpt lat="34.740777" lon="127.676865">
			<ele>0.00</ele>
			<time>2020-01-19T18:20:52.62Z</time>
		</trkpt>
		<trkpt lat="34.740947" lon="127.676462">
			<ele>0.00</ele>
			<time>2020-01-19T18:20:55.10Z</time>
		</trkpt>
		<trkpt lat="34.741159" lon="127.676000">
			<ele>0.00</ele>
			<time>2020-01-19T18:20:58Z</time>
		</trkpt>
		<trkpt lat="34.741437" lon="127.675643">
			<ele>0.00</ele>
			<time>2020-01-19T18:21:00.69Z</time>
		</trkpt>
		<trkpt lat="34.741681" lon="127.675376">
			<ele>0.00</ele>
			<time>2020-01-19T18:21:02.88Z</time>
		</trkpt>
		<trkpt lat="34.742096" lon="127.674978">
			<ele>0.00</ele>
			<time>2020-01-19T18:21:06.41Z</time>
		</trkpt>
		<trkpt lat="34.742526" lon="127.674637">
			<ele>0.00</ele>
			<time>2020-01-19T18:21:09.83Z</time>
		</trkpt>
		<trkpt lat="34.742441" lon="127.674262">
			<ele>0.00</ele>
			<time>2020-01-19T18:21:11.96Z</time>
		</trkpt>
		<trkpt lat="34.742610" lon="127.674127">
			<ele>0.00</ele>
			<time>2020-01-19T18:21:13.30Z</time>
		</trkpt>
		<trkpt lat="34.743252" lon="127.673824">
			<ele>0.00</ele>
			<time>2020-01-19T18:21:17.90Z</time>
		</trkpt>
		<trkpt lat="34.743804" lon="127.673790">
			<ele>0.00</ele>
			<time>2020-01-19T18:21:21.58Z</time>
		</trkpt>
		<trkpt lat="34.744539" lon="127.673787">
			<ele>0.00</ele>
			<time>2020-01-19T18:21:26.48Z</time>
		</trkpt>
		<trkpt lat="34.745026" lon="127.673808">
			<ele>0.00</ele>
			<time>2020-01-19T18:21:29.73Z</time>
		</trkpt>
		<trkpt lat="34.745455" lon="127.673807">
			<ele>0.00</ele>
			<time>2020-01-19T18:21:32.59Z</time>
		</trkpt>
		<trkpt lat="34.745669" lon="127.673798">
			<ele>0.00</ele>
			<time>2020-01-19T18:21:34.01Z</time>
		</trkpt>
		<trkpt lat="34.745777" lon="127.673630">
			<ele>0.00</ele>
			<time>2020-01-19T18:21:35.18Z</time>
		</trkpt>
		<trkpt lat="34.745841" lon="127.673290">
			<ele>0.00</ele>
			<time>2020-01-19T18:21:37.09Z</time>
		</trkpt>
		<trkpt lat="34.745873" lon="127.672761">
			<ele>0.00</ele>
			<time>2020-01-19T18:21:40Z</time>
		</trkpt>
		<trkpt lat="34.745872" lon="127.671852">
			<ele>0.00</ele>
			<time>2020-01-19T18:21:44.98Z</time>
		</trkpt>
		<trkpt lat="34.745883" lon="127.671172">
			<ele>0.00</ele>
			<time>2020-01-19T18:21:48.71Z</time>
		</trkpt>
		<trkpt lat="34.745881" lon="127.670602">
			<ele>0.00</ele>
			<time>2020-01-19T18:21:51.82Z</time>
		</trkpt>
		<trkpt lat="34.745880" lon="127.670215">
			<ele>0.00</ele>
			<time>2020-01-19T18:21:53.95Z</time>
		</trkpt>
		<trkpt lat="34.745892" lon="127.669764">
			<ele>0.00</ele>
			<time>2020-01-19T18:21:56.42Z</time>
		</trkpt>
		<trkpt lat="34.745897" lon="127.669487">
			<ele>0.00</ele>
			<time>2020-01-19T18:21:57.93Z</time>
		</trkpt>
		<trkpt lat="34.745877" lon="127.669282">
			<ele>0.00</ele>
			<time>2020-01-19T18:21:59.07Z</time>
		</trkpt>
		<trkpt lat="34.746026" lon="127.669068">
			<ele>0.00</ele>
			<time>2020-01-19T18:22:00.60Z</time>
		</trkpt>
		<trkpt lat="34.746322" lon="127.668717">
			<ele>0.00</ele>
			<time>2020-01-19T18:22:03.36Z</time>
		</trkpt>
		<trkpt lat="34.746633" lon="127.668368">
			<ele>0.00</ele>
			<time>2020-01-19T18:22:06.18Z</time>
		</trkpt>
		<trkpt lat="34.746950" lon="127.667908">
			<ele>0.00</ele>
			<time>2020-01-19T18:22:09.47Z</time>
		</trkpt>
		<trkpt lat="34.747222" lon="127.667510">
			<ele>0.00</ele>
			<time>2020-01-19T18:22:12.30Z</time>
		</trkpt>
		<trkpt lat="34.747538" lon="127.667097">
			<ele>0.00</ele>
			<time>2020-01-19T18:22:15.40Z</time>
		</trkpt>
		<trkpt lat="34.747803" lon="127.666718">
			<ele>0.00</ele>
			<time>2020-01-19T18:22:18.12Z</time>
		</trkpt>
		<trkpt lat="34.748023" lon="127.666361">
			<ele>0.00</ele>
			<time>2020-01-19T18:22:20.57Z</time>
		</trkpt>
		<trkpt lat="34.748211" lon="127.666313">
			<ele>0.00</ele>
			<time>2020-01-19T18:22:21.85Z</time>
		</trkpt>
		<trkpt lat="34.748417" lon="127.666013">
			<ele>0.00</ele>
			<time>2020-01-19T18:22:23.99Z</time>
		</trkpt>
		<trkpt lat="34.748575" lon="127.665856">
			<ele>0.00</ele>
			<time>2020-01-19T18:22:25.34Z</time>
		</trkpt>
		<trkpt lat="34.748830" lon="127.665788">
			<ele>0.00</ele>
			<time>2020-01-19T18:22:27.09Z</time>
		</trkpt>
		<trkpt lat="34.749053" lon="127.665538">
			<ele>0.00</ele>
			<time>2020-01-19T18:22:29.11Z</time>
		</trkpt>
		<trkpt lat="34.749193" lon="127.665413">
			<ele>0.00</ele>
			<time>2020-01-19T18:22:30.27Z</time>
		</trkpt>
		<trkpt lat="34.749286" lon="127.665089">
			<ele>0.00</ele>
			<time>2020-01-19T18:22:32.14Z</time>
		</trkpt>
		<trkpt lat="34.749385" lon="127.664552">
			<ele>0.00</ele>
			<time>2020-01-19T18:22:35.16Z</time>
		</trkpt>
		<trkpt lat="34.749487" lon="127.664255">
			<ele>0.00</ele>
			<time>2020-01-19T18:22:36.93Z</time>
		</trkpt>
		<trkpt lat="34.749695" lon="127.664039">
			<ele>0.00</ele>
			<time>2020-01-19T18:22:38.75Z</time>
		</trkpt>
		<trkpt lat="34.749899" lon="127.663904">
			<ele>0.00</ele>
			<time>2020-01-19T18:22:40.29Z</time>
		</trkpt>
		<trkpt lat="34.750056" lon="127.663940">
			<ele>0.00</ele>
			<time>2020-01-19T18:22:41.36Z</time>
		</trkpt>
		<trkpt lat="34.750140" lon="127.664042">
			<ele>0.00</ele>
			<time>2020-01-19T18:22:42.15Z</time>
		</trkpt>
		<trkpt lat="34.750224" lon="127.664144">
			<ele>0.00</ele>
			<time>2020-01-19T18:22:42.94Z</time>
		</trkpt>
		<trkpt lat="34.750389" lon="127.664075">
			<ele>0.00</ele>
			<time>2020-01-19T18:22:44.10Z</time>
		</trkpt>
		<trkpt lat="34.750700" lon="127.663838">
			<ele>0.00</ele>
			<time>2020-01-19T18:22:46.55Z</time>
		</trkpt>
		<trkpt lat="34.751076" lon="127.663652">
			<ele>0.00</ele>
			<time>2020-01-19T18:22:49.26Z</time>
		</trkpt>
		<trkpt lat="34.751398" lon="127.663487">
			<ele>0.00</ele>
			<time>2020-01-19T18:22:51.59Z</time>
		</trkpt>
		<trkpt lat="34.751586" lon="127.663311">
			<ele>0.00</ele>
			<time>2020-01-19T18:22:53.17Z</time>
		</trkpt>
		<trkpt lat="34.751721" lon="127.663082">
			<ele>0.00</ele>
			<time>2020-01-19T18:22:54.71Z</time>
		</trkpt>
		<trkpt lat="34.751789" lon="127.662861">
			<ele>0.00</ele>
			<time>2020-01-19T18:22:56Z</time>
		</trkpt>
		<trkpt lat="34.751916" lon="127.662561">
			<ele>0.00</ele>
			<time>2020-01-19T18:22:57.85Z</time>
		</trkpt>
		<trkpt lat="34.752100" lon="127.662467">
			<ele>0.00</ele>
			<time>2020-01-19T18:22:59.18Z</time>
		</trkpt>
		<trkpt lat="34.752291" lon="127.662475">
			<ele>0.00</ele>
			<time>2020-01-19T18:23:00.46Z</time>
		</trkpt>
		<trkpt lat="34.752575" lon="127.662612">
			<ele>0.00</ele>
			<time>2020-01-19T18:23:02.49Z</time>
		</trkpt>
		<trkpt lat="34.752837" lon="127.662756">
			<ele>0.00</ele>
			<time>2020-01-19T18:23:04.41Z</time>
		</trkpt>
		<trkpt lat="34.752998" lon="127.662808">
			<ele>0.00</ele>
			<time>2020-01-19T18:23:05.52Z</time>
		</trkpt>
		<trkpt lat="34.753173" lon="127.662831">
			<ele>0.00</ele>
			<time>2020-01-19T18:23:06.70Z</time>
		</trkpt>
		<trkpt lat="34.753348" lon="127.662960">
			<ele>0.00</ele>
			<time>2020-01-19T18:23:08.06Z</time>
		</trkpt>
		<trkpt lat="34.753561" lon="127.662960">
			<ele>0.00</ele>
			<time>2020-01-19T18:23:09.48Z</time>
		</trkpt>
		<trkpt lat="34.753725" lon="127.663028">
			<ele>0.00</ele>
			<time>2020-01-19T18:23:10.63Z</time>
		</trkpt>
		<trkpt lat="34.753848" lon="127.663126">
			<ele>0.00</ele>
			<time>2020-01-19T18:23:11.61Z</time>
		</trkpt>
		<trkpt lat="34.754024" lon="127.663076">
			<ele>0.00</ele>
			<time>2020-01-19T18:23:12.82Z</time>
		</trkpt>
		<trkpt lat="34.754154" lon="127.663071">
			<ele>0.00</ele>
			<time>2020-01-19T18:23:13.68Z</time>
		</trkpt>
		<trkpt lat="34.754226" lon="127.663205">
			<ele>0.00</ele>
			<time>2020-01-19T18:23:14.56Z</time>
		</trkpt>
		<trkpt lat="34.754361" lon="127.663356">
			<ele>0.00</ele>
			<time>2020-01-19T18:23:15.78Z</time>
		</trkpt>
		<trkpt lat="34.754482" lon="127.663332">
			<ele>0.00</ele>
			<time>2020-01-19T18:23:16.60Z</time>
		</trkpt>
		<trkpt lat="34.754595" lon="127.663281">
			<ele>0.00</ele>
			<time>2020-01-19T18:23:17.41Z</time>
		</trkpt>
		<trkpt lat="34.754845" lon="127.663383">
			<ele>0.00</ele>
			<time>2020-01-19T18:23:19.17Z</time>
		</trkpt>
		<trkpt lat="34.755046" lon="127.663564">
			<ele>0.00</ele>
			<time>2020-01-19T18:23:20.83Z</time>
		</trkpt>
		<trkpt lat="34.755224" lon="127.663797">
			<ele>0.00</ele>
			<time>2020-01-19T18:23:22.57Z</time>
		</trkpt>
		<trkpt lat="34.755371" lon="127.663895">
			<ele>0.00</ele>
			<time>2020-01-19T18:23:23.69Z</time>
		</trkpt>
		<trkpt lat="34.755532" lon="127.664016">
			<ele>0.00</ele>
			<time>2020-01-19T18:23:24.95Z</time>
		</trkpt>
		<trkpt lat="34.755652" lon="127.664132">
			<ele>0.00</ele>
			<time>2020-01-19T18:23:25.97Z</time>
		</trkpt>
		<trkpt lat="34.755833" lon="127.664276">
			<ele>0.00</ele>
			<time>2020-01-19T18:23:27.42Z</time>
		</trkpt>
		<trkpt lat="34.756099" lon="127.664553">
			<ele>0.00</ele>
			<time>2020-01-19T18:23:29.75Z</time>
		</trkpt>
		<trkpt lat="34.756241" lon="127.664677">
			<ele>0.00</ele>
			<time>2020-01-19T18:23:30.91Z</time>
		</trkpt>
		<trkpt lat="34.756260" lon="127.664664">
			<ele>0.00</ele>
			<time>2020-01-19T18:23:31.06Z</time>
		</trkpt>
		<trkpt lat="34.756283" lon="127.664593">
			<ele>0.00</ele>
			<time>2020-01-19T18:23:31.48Z</time>
		</trkpt>
		<trkpt lat="34.756329" lon="127.664530">
			<ele>0.00</ele>
			<time>2020-01-19T18:23:31.94Z</time>
		</trkpt>
		<trkpt lat="34.756390" lon="127.664384">
			<ele>0.00</ele>
			<time>2020-01-19T18:23:32.84Z</time>
		</trkpt>
		<trkpt lat="34.756445" lon="127.664264">
			<ele>0.00</ele>
			<time>2020-01-19T18:23:33.59Z</time>
		</trkpt>
		<trkpt lat="34.756541" lon="127.664121">
			<ele>0.00</ele>
			<time>2020-01-19T18:23:34.61Z</time>
		</trkpt>
		<trkpt lat="34.756613" lon="127.664002">
			<ele>0.00</ele>
			<time>2020-01-19T18:23:35.41Z</time>
		</trkpt>
		<trkpt lat="34.756689" lon="127.663863">
			<ele>0.00</ele>
			<time>2020-01-19T18:23:36.33Z</time>
		</trkpt>
		<trkpt lat="34.756771" lon="127.663689">
			<ele>0.00</ele>
			<time>2020-01-19T18:23:37.42Z</time>
		</trkpt>
		<trkpt lat="34.756811" lon="127.663572">
			<ele>0.00</ele>
			<time>2020-01-19T18:23:38.12Z</time>
		</trkpt>
		<trkpt lat="34.756837" lon="127.663411">
			<ele>0.00</ele>
			<time>2020-01-19T18:23:39.02Z</time>
		</trkpt>
		<trkpt lat="34.756842" lon="127.663217">
			<ele>0.00</ele>
			<time>2020-01-19T18:23:40.08Z</time>
		</trkpt>
		<trkpt lat="34.756854" lon="127.663049">
			<ele>0.00</ele>
			<time>2020-01-19T18:23:41.01Z</time>
		</trkpt>
		<trkpt lat="34.756854" lon="127.662913">
			<ele>0.00</ele>
			<time>2020-01-19T18:23:41.75Z</time>
		</trkpt>
		<trkpt lat="34.756835" lon="127.662742">
			<ele>0.00</ele>
			<time>2020-01-19T18:23:42.70Z</time>
		</trkpt>
		<trkpt lat="34.756807" lon="127.662584">
			<ele>0.00</ele>
			<time>2020-01-19T18:23:43.58Z</time>
		</trkpt>
		<trkpt lat="34.756790" lon="127.662476">
			<ele>0.00</ele>
			<time>2020-01-19T18:23:44.18Z</time>
		</trkpt>
		<trkpt lat="34.756747" lon="127.662359">
			<ele>0.00</ele>
			<time>2020-01-19T18:23:44.88Z</time>
		</trkpt>
		<trkpt lat="34.756713" lon="127.662234">
			<ele>0.00</ele>
			<time>2020-01-19T18:23:45.60Z</time>
		</trkpt>
		<trkpt lat="34.756656" lon="127.662077">
			<ele>0.00</ele>
			<time>2020-01-19T18:23:46.54Z</time>
		</trkpt>
		<trkpt lat="34.756604" lon="127.661960">
			<ele>0.00</ele>
			<time>2020-01-19T18:23:47.27Z</time>
		</trkpt>
		<trkpt lat="34.756555" lon="127.661859">
			<ele>0.00</ele>
			<time>2020-01-19T18:23:47.92Z</time>
		</trkpt>
		<trkpt lat="34.756478" lon="127.661745">
			<ele>0.00</ele>
			<time>2020-01-19T18:23:48.73Z</time>
		</trkpt>
		<trkpt lat="34.756395" lon="127.661652">
			<ele>0.00</ele>
			<time>2020-01-19T18:23:49.48Z</time>
		</trkpt>
		<trkpt lat="34.756321" lon="127.661548">
			<ele>0.00</ele>
			<time>2020-01-19T18:23:50.23Z</time>
		</trkpt>
		<trkpt lat="34.756238" lon="127.661429">
			<ele>0.00</ele>
			<time>2020-01-19T18:23:51.08Z</time>
		</trkpt>
		<trkpt lat="34.756153" lon="127.661316">
			<ele>0.00</ele>
			<time>2020-01-19T18:23:51.92Z</time>
		</trkpt>
		<trkpt lat="34.756079" lon="127.661155">
			<ele>0.00</ele>
			<time>2020-01-19T18:23:52.94Z</time>
		</trkpt>
		<trkpt lat="34.756025" lon="127.661016">
			<ele>0.00</ele>
			<time>2020-01-19T18:23:53.78Z</time>
		</trkpt>
		<trkpt lat="34.755992" lon="127.660818">
			<ele>0.00</ele>
			<time>2020-01-19T18:23:54.88Z</time>
		</trkpt>
		<trkpt lat="34.755968" lon="127.660530">
			<ele>0.00</ele>
			<time>2020-01-19T18:23:56.47Z</time>
		</trkpt>
		<trkpt lat="34.755932" lon="127.660330">
			<ele>0.00</ele>
			<time>2020-01-19T18:23:57.59Z</time>
		</trkpt>
		<trkpt lat="34.755899" lon="127.660117">
			<ele>0.00</ele>
			<time>2020-01-19T18:23:58.77Z</time>
		</trkpt>
		<trkpt lat="34.755877" lon="127.659869">
			<ele>0.00</ele>
			<time>2020-01-19T18:24:00.14Z</time>
		</trkpt>
		<trkpt lat="34.755845" lon="127.659660">
			<ele>0.00</ele>
			<time>2020-01-19T18:24:01.31Z</time>
		</trkpt>
		<trkpt lat="34.755817" lon="127.659437">
			<ele>0.00</ele>
			<time>2020-01-19T18:24:02.54Z</time>
		</trkpt>
		<trkpt lat="34.755792" lon="127.659236">
			<ele>0.00</ele>
			<time>2020-01-19T18:24:03.66Z</time>
		</trkpt>
		<trkpt lat="34.755768" lon="127.659001">
			<ele>0.00</ele>
			<time>2020-01-19T18:24:04.96Z</time>
		</trkpt>
		<trkpt lat="34.755749" lon="127.658832">
			<ele>0.00</ele>
			<time>2020-01-19T18:24:05.89Z</time>
		</trkpt>
		<trkpt lat="34.755720" lon="127.658612">
			<ele>0.00</ele>
			<time>2020-01-19T18:24:07.11Z</time>
		</trkpt>
		<trkpt lat="34.755702" lon="127.658394">
			<ele>0.00</ele>
			<time>2020-01-19T18:24:08.31Z</time>
		</trkpt>
		<trkpt lat="34.755672" lon="127.658175">
			<ele>0.00</ele>
			<time>2020-01-19T18:24:09.53Z</time>
		</trkpt>
		<trkpt lat="34.755642" lon="127.657965">
			<ele>0.00</ele>
			<time>2020-01-19T18:24:10.69Z</time>
		</trkpt>
		<trkpt lat="34.755636" lon="127.657815">
			<ele>0.00</ele>
			<time>2020-01-19T18:24:11.51Z</time>
		</trkpt>
		<trkpt lat="34.755601" lon="127.657683">
			<ele>0.00</ele>
			<time>2020-01-19T18:24:12.28Z</time>
		</trkpt>
		<trkpt lat="34.755570" lon="127.657582">
			<ele>0.00</ele>
			<time>2020-01-19T18:24:12.87Z</time>
		</trkpt>
		<trkpt lat="34.755523" lon="127.657491">
			<ele>0.00</ele>
			<time>2020-01-19T18:24:13.45Z</time>
		</trkpt>
		<trkpt lat="34.755452" lon="127.657361">
			<ele>0.00</ele>
			<time>2020-01-19T18:24:14.31Z</time>
		</trkpt>
		<trkpt lat="34.755379" lon="127.657298">
			<ele>0.00</ele>
			<time>2020-01-19T18:24:14.90Z</time>
		</trkpt>
		<trkpt lat="34.755308" lon="127.657257">
			<ele>0.00</ele>
			<time>2020-01-19T18:24:15.43Z</time>
		</trkpt>
		<trkpt lat="34.755200" lon="127.657213">
			<ele>0.00</ele>
			<time>2020-01-19T18:24:16.19Z</time>
		</trkpt>
		<trkpt lat="34.755042" lon="127.657185">
			<ele>0.00</ele>
			<time>2020-01-19T18:24:17.25Z</time>
		</trkpt>
		<trkpt lat="34.754886" lon="127.657200">
			<ele>0.00</ele>
			<time>2020-01-19T18:24:18.29Z</time>
		</trkpt>
		<trkpt lat="34.754779" lon="127.657191">
			<ele>0.00</ele>
			<time>2020-01-19T18:24:19.01Z</time>
		</trkpt>
		<trkpt lat="34.754637" lon="127.657208">
			<ele>0.00</ele>
			<time>2020-01-19T18:24:19.96Z</time>
		</trkpt>
		<trkpt lat="34.754467" lon="127.657197">
			<ele>0.00</ele>
			<time>2020-01-19T18:24:21.10Z</time>
		</trkpt>
		<trkpt lat="34.754341" lon="127.657196">
			<ele>0.00</ele>
			<time>2020-01-19T18:24:21.94Z</time>
		</trkpt>
		<trkpt lat="34.754167" lon="127.657197">
			<ele>0.00</ele>
			<time>2020-01-19T18:24:23.10Z</time>
		</trkpt>
		<trkpt lat="34.753914" lon="127.657223">
			<ele>0.00</ele>
			<time>2020-01-19T18:24:24.79Z</time>
		</trkpt>
		<trkpt lat="34.753800" lon="127.657230">
			<ele>0.00</ele>
			<time>2020-01-19T18:24:25.55Z</time>
		</trkpt>
		<trkpt lat="34.753674" lon="127.657237">
			<ele>0.00</ele>
			<time>2020-01-19T18:24:26.40Z</time>
		</trkpt>
		<trkpt lat="34.753486" lon="127.657241">
			<ele>0.00</ele>
			<time>2020-01-19T18:24:27.65Z</time>
		</trkpt>
		<trkpt lat="34.753278" lon="127.657219">
			<ele>0.00</ele>
			<time>2020-01-19T18:24:29.04Z</time>
		</trkpt>
		<trkpt lat="34.753129" lon="127.657203">
			<ele>0.00</ele>
			<time>2020-01-19T18:24:30.04Z</time>
		</trkpt>
		<trkpt lat="34.752987" lon="127.657139">
			<ele>0.00</ele>
			<time>2020-01-19T18:24:31.05Z</time>
		</trkpt>
		<trkpt lat="34.752883" lon="127.657121">
			<ele>0.00</ele>
			<time>2020-01-19T18:24:31.75Z</time>
		</trkpt>
		<trkpt lat="34.752783" lon="127.657068">
			<ele>0.00</ele>
			<time>2020-01-19T18:24:32.47Z</time>
		</trkpt>
		<trkpt lat="34.752690" lon="127.657053">
			<ele>0.00</ele>
			<time>2020-01-19T18:24:33.10Z</time>
		</trkpt>
		<trkpt lat="34.752572" lon="127.657000">
			<ele>0.00</ele>
			<time>2020-01-19T18:24:33.93Z</time>
		</trkpt>
		<trkpt lat="34.752493" lon="127.656971">
			<ele>0.00</ele>
			<time>2020-01-19T18:24:34.49Z</time>
		</trkpt>
		<trkpt lat="34.752433" lon="127.656928">
			<ele>0.00</ele>
			<time>2020-01-19T18:24:34.95Z</time>
		</trkpt>
		<trkpt lat="34.752256" lon="127.656816">
			<ele>0.00</ele>
			<time>2020-01-19T18:24:36.28Z</time>
		</trkpt>
		<trkpt lat="34.752146" lon="127.656734">
			<ele>0.00</ele>
			<time>2020-01-19T18:24:37.14Z</time>
		</trkpt>
		<trkpt lat="34.752023" lon="127.656656">
			<ele>0.00</ele>
			<time>2020-01-19T18:24:38.06Z</time>
		</trkpt>
		<trkpt lat="34.751902" lon="127.656561">
			<ele>0.00</ele>
			<time>2020-01-19T18:24:39.02Z</time>
		</trkpt>
		<trkpt lat="34.751749" lon="127.656477">
			<ele>0.00</ele>
			<time>2020-01-19T18:24:40.14Z</time>
		</trkpt>
		<trkpt lat="34.751558" lon="127.656382">
			<ele>0.00</ele>
			<time>2020-01-19T18:24:41.52Z</time>
		</trkpt>
		<trkpt lat="34.751406" lon="127.656282">
			<ele>0.00</ele>
			<time>2020-01-19T18:24:42.67Z</time>
		</trkpt>
		<trkpt lat="34.751403" lon="127.656278">
			<ele>0.00</ele>
			<time>2020-01-19T18:24:42.73Z</time>
		</trkpt>
		<trkpt lat="34.751270" lon="127.656185">
			<ele>0.00</ele>
			<time>2020-01-19T18:24:43.75Z</time>
		</trkpt>
		<trkpt lat="34.751151" lon="127.656104">
			<ele>0.00</ele>
			<time>2020-01-19T18:24:44.66Z</time>
		</trkpt>
		<trkpt lat="34.750990" lon="127.656007">
			<ele>0.00</ele>
			<time>2020-01-19T18:24:45.86Z</time>
		</trkpt>
		<trkpt lat="34.750816" lon="127.655881">
			<ele>0.00</ele>
			<time>2020-01-19T18:24:47.21Z</time>
		</trkpt>
		<trkpt lat="34.750633" lon="127.655761">
			<ele>0.00</ele>
			<time>2020-01-19T18:24:48.59Z</time>
		</trkpt>
		<trkpt lat="34.750459" lon="127.655665">
			<ele>0.00</ele>
			<time>2020-01-19T18:24:49.86Z</time>
		</trkpt>
		<trkpt lat="34.750153" lon="127.655471">
			<ele>0.00</ele>
			<time>2020-01-19T18:24:52.17Z</time>
		</trkpt>
		<trkpt lat="34.749965" lon="127.655368">
			<ele>0.00</ele>
			<time>2020-01-19T18:24:53.54Z</time>
		</trkpt>
		<trkpt lat="34.749811" lon="127.655323">
			<ele>0.00</ele>
			<time>2020-01-19T18:24:54.59Z</time>
		</trkpt>
		<trkpt lat="34.749648" lon="127.655303">
			<ele>0.00</ele>
			<time>2020-01-19T18:24:55.69Z</time>
		</trkpt>
		<trkpt lat="34.749514" lon="127.655300">
			<ele>0.00</ele>
			<time>2020-01-19T18:24:56.58Z</time>
		</trkpt>
		<trkpt lat="34.749411" lon="127.655581">
			<ele>0.00</ele>
			<time>2020-01-19T18:24:58.27Z</time>
		</trkpt>
		<trkpt lat="34.749292" lon="127.655914">
			<ele>0.00</ele>
			<time>2020-01-19T18:25:00.25Z</time>
		</trkpt>
		<trkpt lat="34.749167" lon="127.656297">
			<ele>0.00</ele>
			<time>2020-01-19T18:25:02.51Z</time>
		</trkpt>
		<trkpt lat="34.749100" lon="127.656681">
			<ele>0.00</ele>
			<time>2020-01-19T18:25:04.66Z</time>
		</trkpt>
		<trkpt lat="34.748923" lon="127.657161">
			<ele>0.00</ele>
			<time>2020-01-19T18:25:07.54Z</time>
		</trkpt>
		<trkpt lat="34.748767" lon="127.657403">
			<ele>0.00</ele>
			<time>2020-01-19T18:25:09.23Z</time>
		</trkpt>
		<trkpt lat="34.748495" lon="127.657651">
			<ele>0.00</ele>
			<time>2020-01-19T18:25:11.49Z</time>
		</trkpt>
		<trkpt lat="34.748103" lon="127.657761">
			<ele>0.00</ele>
			<time>2020-01-19T18:25:14.18Z</time>
		</trkpt>
		<trkpt lat="34.747743" lon="127.657870">
			<ele>0.00</ele>
			<time>2020-01-19T18:25:16.65Z</time>
		</trkpt>
		<trkpt lat="34.747450" lon="127.658012">
			<ele>0.00</ele>
			<time>2020-01-19T18:25:18.75Z</time>
		</trkpt>
		<trkpt lat="34.747125" lon="127.658148">
			<ele>0.00</ele>
			<time>2020-01-19T18:25:21.05Z</time>
		</trkpt>
		<trkpt lat="34.746828" lon="127.658233">
			<ele>0.00</ele>
			<time>2020-01-19T18:25:23.08Z</time>
		</trkpt>
		<trkpt lat="34.746593" lon="127.658247">
			<ele>0.00</ele>
			<time>2020-01-19T18:25:24.65Z</time>
		</trkpt>
		<trkpt lat="34.746372" lon="127.658159">
			<ele>0.00</ele>
			<time>2020-01-19T18:25:26.20Z</time>
		</trkpt>
		<trkpt lat="34.746183" lon="127.657956">
			<ele>0.00</ele>
			<time>2020-01-19T18:25:27.88Z</time>
		</trkpt>
		<trkpt lat="34.746130" lon="127.657694">
			<ele>0.00</ele>
			<time>2020-01-19T18:25:29.36Z</time>
		</trkpt>
		<trkpt lat="34.746197" lon="127.657489">
			<ele>0.00</ele>
			<time>2020-01-19T18:25:30.56Z</time>
		</trkpt>
		<trkpt lat="34.746338" lon="127.657284">
			<ele>0.00</ele>
			<time>2020-01-19T18:25:32.03Z</time>
		</trkpt>
		<trkpt lat="34.746353" lon="127.656978">
			<ele>0.00</ele>
			<time>2020-01-19T18:25:33.71Z</time>
		</trkpt>
		<trkpt lat="34.746346" lon="127.656520">
			<ele>0.00</ele>
			<time>2020-01-19T18:25:36.22Z</time>
		</trkpt>
		<trkpt lat="34.746277" lon="127.656201">
			<ele>0.00</ele>
			<time>2020-01-19T18:25:38.02Z</time>
		</trkpt>
		<trkpt lat="34.746213" lon="127.655876">
			<ele>0.00</ele>
			<time>2020-01-19T18:25:39.85Z</time>
		</trkpt>
		<trkpt lat="34.746170" lon="127.655442">
			<ele>0.00</ele>
			<time>2020-01-19T18:25:42.25Z</time>
		</trkpt>
		<trkpt lat="34.746116" lon="127.655129">
			<ele>0.00</ele>
			<time>2020-01-19T18:25:44Z</time>
		</trkpt>
		<trkpt lat="34.746037" lon="127.654986">
			<ele>0.00</ele>
			<time>2020-01-19T18:25:44.95Z</time>
		</trkpt>
		<trkpt lat="34.745963" lon="127.654829">
			<ele>0.00</ele>
			<time>2020-01-19T18:25:45.94Z</time>
		</trkpt>
		<trkpt lat="34.745944" lon="127.654624">
			<ele>0.00</ele>
			<time>2020-01-19T18:25:47.07Z</time>
		</trkpt>
		<trkpt lat="34.745888" lon="127.654472">
			<ele>0.00</ele>
			<time>2020-01-19T18:25:47.98Z</time>
		</trkpt>
		<trkpt lat="34.745737" lon="127.654222">
			<ele>0.00</ele>
			<time>2020-01-19T18:25:49.68Z</time>
		</trkpt>
		<trkpt lat="34.745569" lon="127.654006">
			<ele>0.00</ele>
			<time>2020-01-19T18:25:51.31Z</time>
		</trkpt>
		<trkpt lat="34.745366" lon="127.653744">
			<ele>0.00</ele>
			<time>2020-01-19T18:25:53.28Z</time>
		</trkpt>
		<trkpt lat="34.745264" lon="127.653555">
			<ele>0.00</ele>
			<time>2020-01-19T18:25:54.52Z</time>
		</trkpt>
		<trkpt lat="34.745231" lon="127.653476">
			<ele>0.00</ele>
			<time>2020-01-19T18:25:55.01Z</time>
		</trkpt>
		<trkpt lat="34.745141" lon="127.653473">
			<ele>0.00</ele>
			<time>2020-01-19T18:25:55.61Z</time>
		</trkpt>
		<trkpt lat="34.745006" lon="127.653450">
			<ele>0.00</ele>
			<time>2020-01-19T18:25:56.52Z</time>
		</trkpt>
		<trkpt lat="34.744933" lon="127.653421">
			<ele>0.00</ele>
			<time>2020-01-19T18:25:57.03Z</time>
		</trkpt>
		<trkpt lat="34.744825" lon="127.653388">
			<ele>0.00</ele>
			<time>2020-01-19T18:25:57.77Z</time>
		</trkpt>
		<trkpt lat="34.744734" lon="127.653257">
			<ele>0.00</ele>
			<time>2020-01-19T18:25:58.71Z</time>
		</trkpt>
		<trkpt lat="34.744650" lon="127.653095">
			<ele>0.00</ele>
			<time>2020-01-19T18:25:59.76Z</time>
		</trkpt>
		<trkpt lat="34.744586" lon="127.652938">
			<ele>0.00</ele>
			<time>2020-01-19T18:26:00.72Z</time>
		</trkpt>
		<trkpt lat="34.744534" lon="127.652828">
			<ele>0.00</ele>
			<time>2020-01-19T18:26:01.42Z</time>
		</trkpt>
		<trkpt lat="34.744446" lon="127.652713">
			<ele>0.00</ele>
			<time>2020-01-19T18:26:02.27Z</time>
		</trkpt>
		<trkpt lat="34.744345" lon="127.652646">
			<ele>0.00</ele>
			<time>2020-01-19T18:26:03.04Z</time>
		</trkpt>
		<trkpt lat="34.744241" lon="127.652591">
			<ele>0.00</ele>
			<time>2020-01-19T18:26:03.80Z</time>
		</trkpt>
		<trkpt lat="34.744143" lon="127.652528">
			<ele>0.00</ele>
			<time>2020-01-19T18:26:04.54Z</time>
		</trkpt>
		<trkpt lat="34.744049" lon="127.652389">
			<ele>0.00</ele>
			<time>2020-01-19T18:26:05.53Z</time>
		</trkpt>
		<trkpt lat="34.743990" lon="127.652296">
			<ele>0.00</ele>
			<time>2020-01-19T18:26:06.17Z</time>
		</trkpt>
		<trkpt lat="34.743857" lon="127.652305">
			<ele>0.00</ele>
			<time>2020-01-19T18:26:07.06Z</time>
		</trkpt>
		<trkpt lat="34.743684" lon="127.652306">
			<ele>0.00</ele>
			<time>2020-01-19T18:26:08.21Z</time>
		</trkpt>
		<trkpt lat="34.743632" lon="127.652179">
			<ele>0.00</ele>
			<time>2020-01-19T18:26:08.99Z</time>
		</trkpt>
		<trkpt lat="34.743602" lon="127.652048">
			<ele>0.00</ele>
			<time>2020-01-19T18:26:09.73Z</time>
		</trkpt>
		<trkpt lat="34.743560" lon="127.651968">
			<ele>0.00</ele>
			<time>2020-01-19T18:26:10.25Z</time>
		</trkpt>
		<trkpt lat="34.743448" lon="127.651921">
			<ele>0.00</ele>
			<time>2020-01-19T18:26:11.04Z</time>
		</trkpt>
		<trkpt lat="34.743433" lon="127.651695">
			<ele>0.00</ele>
			<time>2020-01-19T18:26:12.29Z</time>
		</trkpt>
		<trkpt lat="34.743186" lon="127.651715">
			<ele>0.00</ele>
			<time>2020-01-19T18:26:13.94Z</time>
		</trkpt>
		<trkpt lat="34.742910" lon="127.651734">
			<ele>0.00</ele>
			<time>2020-01-19T18:26:15.78Z</time>
		</trkpt>
		<trkpt lat="34.742756" lon="127.651691">
			<ele>0.00</ele>
			<time>2020-01-19T18:26:16.83Z</time>
		</trkpt>
		<trkpt lat="34.742637" lon="127.651594">
			<ele>0.00</ele>
			<time>2020-01-19T18:26:17.79Z</time>
		</trkpt>
		<trkpt lat="34.742539" lon="127.651435">
			<ele>0.00</ele>
			<time>2020-01-19T18:26:18.88Z</time>
		</trkpt>
		<trkpt lat="34.742360" lon="127.651325">
			<ele>0.00</ele>
			<time>2020-01-19T18:26:20.21Z</time>
		</trkpt>
		<trkpt lat="34.742094" lon="127.651351">
			<ele>0.00</ele>
			<time>2020-01-19T18:26:21.99Z</time>
		</trkpt>
		<trkpt lat="34.741878" lon="127.651393">
			<ele>0.00</ele>
			<time>2020-01-19T18:26:23.45Z</time>
		</trkpt>
		<trkpt lat="34.741638" lon="127.651339">
			<ele>0.00</ele>
			<time>2020-01-19T18:26:25.08Z</time>
		</trkpt>
		<trkpt lat="34.741479" lon="127.651151">
			<ele>0.00</ele>
			<time>2020-01-19T18:26:26.56Z</time>
		</trkpt>
		<trkpt lat="34.741320" lon="127.651083">
			<ele>0.00</ele>
			<time>2020-01-19T18:26:27.68Z</time>
		</trkpt>
		<trkpt lat="34.741063" lon="127.651080">
			<ele>0.00</ele>
			<time>2020-01-19T18:26:29.39Z</time>
		</trkpt>
		<trkpt lat="34.740894" lon="127.651068">
			<ele>0.00</ele>
			<time>2020-01-19T18:26:30.52Z</time>
		</trkpt>
		<trkpt lat="34.740746" lon="127.651013">
			<ele>0.00</ele>
			<time>2020-01-19T18:26:31.55Z</time>
		</trkpt>
		<trkpt lat="34.740612" lon="127.650949">
			<ele>0.00</ele>
			<time>2020-01-19T18:26:32.51Z</time>
		</trkpt>
		<trkpt lat="34.740425" lon="127.650954">
			<ele>0.00</ele>
			<time>2020-01-19T18:26:33.76Z</time>
		</trkpt>
		<trkpt lat="34.740263" lon="127.650822">
			<ele>0.00</ele>
			<time>2020-01-19T18:26:35.06Z</time>
		</trkpt>
		<trkpt lat="34.740126" lon="127.650714">
			<ele>0.00</ele>
			<time>2020-01-19T18:26:36.15Z</time>
		</trkpt>
		<trkpt lat="34.740018" lon="127.650645">
			<ele>0.00</ele>
			<time>2020-01-19T18:26:36.96Z</time>
		</trkpt>
		<trkpt lat="34.739936" lon="127.650464">
			<ele>0.00</ele>
			<time>2020-01-19T18:26:38.09Z</time>
		</trkpt>
		<trkpt lat="34.739874" lon="127.650374">
			<ele>0.00</ele>
			<time>2020-01-19T18:26:38.73Z</time>
		</trkpt>
		<trkpt lat="34.739642" lon="127.650418">
			<ele>0.00</ele>
			<time>2020-01-19T18:26:40.30Z</time>
		</trkpt>
		<trkpt lat="34.739513" lon="127.650391">
			<ele>0.00</ele>
			<time>2020-01-19T18:26:41.17Z</time>
		</trkpt>
		<trkpt lat="34.739352" lon="127.650330">
			<ele>0.00</ele>
			<time>2020-01-19T18:26:42.29Z</time>
		</trkpt>
		<trkpt lat="34.739223" lon="127.650335">
			<ele>0.00</ele>
			<time>2020-01-19T18:26:43.16Z</time>
		</trkpt>
		<trkpt lat="34.739059" lon="127.650397">
			<ele>0.00</ele>
			<time>2020-01-19T18:26:44.30Z</time>
		</trkpt>
		<trkpt lat="34.739087" lon="127.650233">
			<ele>0.00</ele>
			<time>2020-01-19T18:26:45.22Z</time>
		</trkpt>
		<trkpt lat="34.739061" lon="127.650058">
			<ele>0.00</ele>
			<time>2020-01-19T18:26:46.19Z</time>
		</trkpt>
		<trkpt lat="34.738796" lon="127.650010">
			<ele>0.00</ele>
			<time>2020-01-19T18:26:47.98Z</time>
		</trkpt>
		<trkpt lat="34.738429" lon="127.649858">
			<ele>0.00</ele>
			<time>2020-01-19T18:26:50.56Z</time>
		</trkpt>
		<trkpt lat="34.737918" lon="127.649690">
			<ele>0.00</ele>
			<time>2020-01-19T18:26:54.10Z</time>
		</trkpt>
		<trkpt lat="34.737618" lon="127.649538">
			<ele>0.00</ele>
			<time>2020-01-19T18:26:56.26Z</time>
		</trkpt>
		<extensions>
			<gte:name>#424</gte:name>
			<gte:color>#4eb4ce</gte:color>
		</extensions>
	</trkseg>
</trk>
</gpx>