<?xml version="1.0" encoding="UTF-8"?>
<gpx version="1.1" creator="GPS Track Editor" xmlns="http://www.topografix.com/GPX/1/1" xmlns:xsi="http://www.w3.org/2001/XMLSchema-instance" xmlns:gte="http://www.gpstrackeditor.com/xmlschemas/General/1" xmlns:gpxtpx="http://www.garmin.com/xmlschemas/TrackPointExtension/v1" xmlns:gpxx="http://www.garmin.com/xmlschemas/GpxExtensions/v3" targetNamespace="http://www.topografix.com/GPX/1/1" elementFormDefault="qualified" xsi:schemaLocation="http://www.topografix.com/GPX/1/1 http://www.topografix.com/GPX/1/1/gpx.xsd">
<metadata>
	<name>GPS_2020-01-17_044750</name>
</metadata>
<trk>
	<name>025-거제시 남부면 탑포리 탑포마을~거제시 거제면 거제파출소</name>
	<trkseg>
		<trkpt lat="34.766684" lon="128.601528">
			<ele>2.45</ele>
			<time>2020-01-17T04:47:50.63Z</time>
		</trkpt>
		<trkpt lat="34.767053" lon="128.601148">
			<ele>1.77</ele>
			<time>2020-01-17T04:47:53.85Z</time>
		</trkpt>
		<trkpt lat="34.767073" lon="128.601163">
			<ele>4.98</ele>
			<time>2020-01-17T04:47:54.01Z</time>
		</trkpt>
		<trkpt lat="34.767075" lon="128.601155">
			<ele>2.80</ele>
			<time>2020-01-17T04:47:54.07Z</time>
		</trkpt>
		<trkpt lat="34.767054" lon="128.601152">
			<ele>2.87</ele>
			<time>2020-01-17T04:47:54.21Z</time>
		</trkpt>
		<trkpt lat="34.767061" lon="128.601155">
			<ele>2.61</ele>
			<time>2020-01-17T04:47:54.27Z</time>
		</trkpt>
		<trkpt lat="34.767063" lon="128.601143">
			<ele>2.46</ele>
			<time>2020-01-17T04:47:54.34Z</time>
		</trkpt>
		<trkpt lat="34.767101" lon="128.601091">
			<ele>2.32</ele>
			<time>2020-01-17T04:47:54.72Z</time>
		</trkpt>
		<trkpt lat="34.767215" lon="128.600397">
			<ele>3.00</ele>
			<time>2020-01-17T04:47:58.59Z</time>
		</trkpt>
		<trkpt lat="34.767335" lon="128.599319">
			<ele>2.50</ele>
			<time>2020-01-17T04:48:04.55Z</time>
		</trkpt>
		<trkpt lat="34.767434" lon="128.598852">
			<ele>2.16</ele>
			<time>2020-01-17T04:48:07.19Z</time>
		</trkpt>
		<trkpt lat="34.767501" lon="128.598797">
			<ele>2.16</ele>
			<time>2020-01-17T04:48:07.73Z</time>
		</trkpt>
		<trkpt lat="34.767738" lon="128.598664">
			<ele>2.16</ele>
			<time>2020-01-17T04:48:09.47Z</time>
		</trkpt>
		<trkpt lat="34.767925" lon="128.598602">
			<ele>2.16</ele>
			<time>2020-01-17T04:48:10.77Z</time>
		</trkpt>
		<trkpt lat="34.768058" lon="128.598619">
			<ele>2.16</ele>
			<time>2020-01-17T04:48:11.65Z</time>
		</trkpt>
		<trkpt lat="34.768113" lon="128.598863">
			<ele>2.16</ele>
			<time>2020-01-17T04:48:13.04Z</time>
		</trkpt>
		<trkpt lat="34.768072" lon="128.599101">
			<ele>4.29</ele>
			<time>2020-01-17T04:48:14.37Z</time>
		</trkpt>
		<trkpt lat="34.768055" lon="128.599159">
			<ele>4.29</ele>
			<time>2020-01-17T04:48:14.71Z</time>
		</trkpt>
		<trkpt lat="34.768040" lon="128.599217">
			<ele>4.45</ele>
			<time>2020-01-17T04:48:15.04Z</time>
		</trkpt>
		<trkpt lat="34.768029" lon="128.599285">
			<ele>4.26</ele>
			<time>2020-01-17T04:48:15.42Z</time>
		</trkpt>
		<trkpt lat="34.768028" lon="128.599351">
			<ele>4.34</ele>
			<time>2020-01-17T04:48:15.78Z</time>
		</trkpt>
		<trkpt lat="34.768020" lon="128.599447">
			<ele>4.53</ele>
			<time>2020-01-17T04:48:16.31Z</time>
		</trkpt>
		<trkpt lat="34.768033" lon="128.599505">
			<ele>4.63</ele>
			<time>2020-01-17T04:48:16.64Z</time>
		</trkpt>
		<trkpt lat="34.768059" lon="128.599553">
			<ele>4.65</ele>
			<time>2020-01-17T04:48:16.95Z</time>
		</trkpt>
		<trkpt lat="34.768088" lon="128.599592">
			<ele>4.91</ele>
			<time>2020-01-17T04:48:17.24Z</time>
		</trkpt>
		<trkpt lat="34.768118" lon="128.599626">
			<ele>5.14</ele>
			<time>2020-01-17T04:48:17.52Z</time>
		</trkpt>
		<trkpt lat="34.768155" lon="128.599659">
			<ele>5.51</ele>
			<time>2020-01-17T04:48:17.82Z</time>
		</trkpt>
		<trkpt lat="34.768193" lon="128.599703">
			<ele>5.42</ele>
			<time>2020-01-17T04:48:18.17Z</time>
		</trkpt>
		<trkpt lat="34.768415" lon="128.599982">
			<ele>6.56</ele>
			<time>2020-01-17T04:48:20.30Z</time>
		</trkpt>
		<trkpt lat="34.768452" lon="128.600020">
			<ele>6.77</ele>
			<time>2020-01-17T04:48:20.62Z</time>
		</trkpt>
		<trkpt lat="34.768490" lon="128.600054">
			<ele>6.83</ele>
			<time>2020-01-17T04:48:20.93Z</time>
		</trkpt>
		<trkpt lat="34.768778" lon="128.600289">
			<ele>8.07</ele>
			<time>2020-01-17T04:48:23.25Z</time>
		</trkpt>
		<trkpt lat="34.768824" lon="128.600312">
			<ele>8.51</ele>
			<time>2020-01-17T04:48:23.58Z</time>
		</trkpt>
		<trkpt lat="34.768869" lon="128.600326">
			<ele>8.80</ele>
			<time>2020-01-17T04:48:23.89Z</time>
		</trkpt>
		<trkpt lat="34.769119" lon="128.600434">
			<ele>9.31</ele>
			<time>2020-01-17T04:48:25.66Z</time>
		</trkpt>
		<trkpt lat="34.769338" lon="128.600519">
			<ele>9.31</ele>
			<time>2020-01-17T04:48:27.19Z</time>
		</trkpt>
		<trkpt lat="34.769484" lon="128.600675">
			<ele>9.31</ele>
			<time>2020-01-17T04:48:28.48Z</time>
		</trkpt>
		<trkpt lat="34.769598" lon="128.600791">
			<ele>9.31</ele>
			<time>2020-01-17T04:48:29.48Z</time>
		</trkpt>
		<trkpt lat="34.769681" lon="128.600780">
			<ele>9.31</ele>
			<time>2020-01-17T04:48:30.03Z</time>
		</trkpt>
		<trkpt lat="34.769748" lon="128.600662">
			<ele>12.26</ele>
			<time>2020-01-17T04:48:30.82Z</time>
		</trkpt>
		<trkpt lat="34.769927" lon="128.600338">
			<ele>15.97</ele>
			<time>2020-01-17T04:48:32.95Z</time>
		</trkpt>
		<trkpt lat="34.770186" lon="128.599923">
			<ele>19.18</ele>
			<time>2020-01-17T04:48:35.81Z</time>
		</trkpt>
		<trkpt lat="34.770440" lon="128.599646">
			<ele>22.36</ele>
			<time>2020-01-17T04:48:38.08Z</time>
		</trkpt>
		<trkpt lat="34.770476" lon="128.599624">
			<ele>22.81</ele>
			<time>2020-01-17T04:48:38.35Z</time>
		</trkpt>
		<trkpt lat="34.770518" lon="128.599610">
			<ele>23.25</ele>
			<time>2020-01-17T04:48:38.64Z</time>
		</trkpt>
		<trkpt lat="34.770700" lon="128.599548">
			<ele>25.27</ele>
			<time>2020-01-17T04:48:39.90Z</time>
		</trkpt>
		<trkpt lat="34.770911" lon="128.599290">
			<ele>28.59</ele>
			<time>2020-01-17T04:48:41.89Z</time>
		</trkpt>
		<trkpt lat="34.771065" lon="128.599100">
			<ele>28.59</ele>
			<time>2020-01-17T04:48:43.36Z</time>
		</trkpt>
		<trkpt lat="34.771154" lon="128.599016">
			<ele>28.59</ele>
			<time>2020-01-17T04:48:44.11Z</time>
		</trkpt>
		<trkpt lat="34.771312" lon="128.598836">
			<ele>28.59</ele>
			<time>2020-01-17T04:48:45.55Z</time>
		</trkpt>
		<trkpt lat="34.771519" lon="128.598656">
			<ele>28.59</ele>
			<time>2020-01-17T04:48:47.24Z</time>
		</trkpt>
		<trkpt lat="34.771756" lon="128.598506">
			<ele>28.59</ele>
			<time>2020-01-17T04:48:49.02Z</time>
		</trkpt>
		<trkpt lat="34.771934" lon="128.598389">
			<ele>28.59</ele>
			<time>2020-01-17T04:48:50.38Z</time>
		</trkpt>
		<trkpt lat="34.772206" lon="128.598318">
			<ele>28.59</ele>
			<time>2020-01-17T04:48:52.23Z</time>
		</trkpt>
		<trkpt lat="34.772275" lon="128.598276">
			<ele>28.59</ele>
			<time>2020-01-17T04:48:52.74Z</time>
		</trkpt>
		<trkpt lat="34.772300" lon="128.598328">
			<ele>37.27</ele>
			<time>2020-01-17T04:48:53.07Z</time>
		</trkpt>
		<trkpt lat="34.772407" lon="128.598873">
			<ele>39.03</ele>
			<time>2020-01-17T04:48:56.14Z</time>
		</trkpt>
		<trkpt lat="34.772405" lon="128.598888">
			<ele>39.25</ele>
			<time>2020-01-17T04:48:56.22Z</time>
		</trkpt>
		<trkpt lat="34.772392" lon="128.599089">
			<ele>39.92</ele>
			<time>2020-01-17T04:48:57.33Z</time>
		</trkpt>
		<trkpt lat="34.772391" lon="128.599116">
			<ele>40.13</ele>
			<time>2020-01-17T04:48:57.48Z</time>
		</trkpt>
		<trkpt lat="34.772368" lon="128.599144">
			<ele>40.35</ele>
			<time>2020-01-17T04:48:57.69Z</time>
		</trkpt>
		<trkpt lat="34.772350" lon="128.599160">
			<ele>40.36</ele>
			<time>2020-01-17T04:48:57.84Z</time>
		</trkpt>
		<trkpt lat="34.772114" lon="128.599448">
			<ele>40.59</ele>
			<time>2020-01-17T04:49:00.07Z</time>
		</trkpt>
		<trkpt lat="34.772104" lon="128.599472">
			<ele>41.04</ele>
			<time>2020-01-17T04:49:00.22Z</time>
		</trkpt>
		<trkpt lat="34.772091" lon="128.599535">
			<ele>41.37</ele>
			<time>2020-01-17T04:49:00.57Z</time>
		</trkpt>
		<trkpt lat="34.772096" lon="128.599665">
			<ele>42.46</ele>
			<time>2020-01-17T04:49:01.28Z</time>
		</trkpt>
		<trkpt lat="34.772151" lon="128.599986">
			<ele>43.90</ele>
			<time>2020-01-17T04:49:03.08Z</time>
		</trkpt>
		<trkpt lat="34.772254" lon="128.600247">
			<ele>44.52</ele>
			<time>2020-01-17T04:49:04.67Z</time>
		</trkpt>
		<trkpt lat="34.772375" lon="128.600277">
			<ele>44.52</ele>
			<time>2020-01-17T04:49:05.49Z</time>
		</trkpt>
		<trkpt lat="34.772526" lon="128.600460">
			<ele>44.52</ele>
			<time>2020-01-17T04:49:06.91Z</time>
		</trkpt>
		<trkpt lat="34.772549" lon="128.600672">
			<ele>44.52</ele>
			<time>2020-01-17T04:49:08.08Z</time>
		</trkpt>
		<trkpt lat="34.772549" lon="128.600911">
			<ele>44.52</ele>
			<time>2020-01-17T04:49:09.39Z</time>
		</trkpt>
		<trkpt lat="34.772603" lon="128.601112">
			<ele>51.14</ele>
			<time>2020-01-17T04:49:10.55Z</time>
		</trkpt>
		<trkpt lat="34.772717" lon="128.601389">
			<ele>54.78</ele>
			<time>2020-01-17T04:49:12.24Z</time>
		</trkpt>
		<trkpt lat="34.772813" lon="128.601627">
			<ele>58.06</ele>
			<time>2020-01-17T04:49:13.69Z</time>
		</trkpt>
		<trkpt lat="34.772785" lon="128.601783">
			<ele>60.43</ele>
			<time>2020-01-17T04:49:14.57Z</time>
		</trkpt>
		<trkpt lat="34.772717" lon="128.602011">
			<ele>63.91</ele>
			<time>2020-01-17T04:49:15.90Z</time>
		</trkpt>
		<trkpt lat="34.772714" lon="128.602185">
			<ele>63.91</ele>
			<time>2020-01-17T04:49:16.85Z</time>
		</trkpt>
		<trkpt lat="34.772783" lon="128.602285">
			<ele>63.91</ele>
			<time>2020-01-17T04:49:17.56Z</time>
		</trkpt>
		<trkpt lat="34.772892" lon="128.602374">
			<ele>63.91</ele>
			<time>2020-01-17T04:49:18.44Z</time>
		</trkpt>
		<trkpt lat="34.772975" lon="128.602429">
			<ele>63.91</ele>
			<time>2020-01-17T04:49:19.07Z</time>
		</trkpt>
		<trkpt lat="34.773237" lon="128.602217">
			<ele>72.66</ele>
			<time>2020-01-17T04:49:21.17Z</time>
		</trkpt>
		<trkpt lat="34.773562" lon="128.601893">
			<ele>75.70</ele>
			<time>2020-01-17T04:49:23.97Z</time>
		</trkpt>
		<trkpt lat="34.773787" lon="128.601937">
			<ele>75.70</ele>
			<time>2020-01-17T04:49:25.48Z</time>
		</trkpt>
		<trkpt lat="34.773928" lon="128.601990">
			<ele>75.70</ele>
			<time>2020-01-17T04:49:26.47Z</time>
		</trkpt>
		<trkpt lat="34.774008" lon="128.602035">
			<ele>75.70</ele>
			<time>2020-01-17T04:49:27.06Z</time>
		</trkpt>
		<trkpt lat="34.774002" lon="128.602040">
			<ele>83.55</ele>
			<time>2020-01-17T04:49:27.12Z</time>
		</trkpt>
		<trkpt lat="34.774032" lon="128.602073">
			<ele>84.26</ele>
			<time>2020-01-17T04:49:27.39Z</time>
		</trkpt>
		<trkpt lat="34.774055" lon="128.602091">
			<ele>84.92</ele>
			<time>2020-01-17T04:49:27.57Z</time>
		</trkpt>
		<trkpt lat="34.774232" lon="128.602189">
			<ele>88.14</ele>
			<time>2020-01-17T04:49:28.87Z</time>
		</trkpt>
		<trkpt lat="34.774315" lon="128.602240">
			<ele>91.45</ele>
			<time>2020-01-17T04:49:29.49Z</time>
		</trkpt>
		<trkpt lat="34.774412" lon="128.602305">
			<ele>94.58</ele>
			<time>2020-01-17T04:49:30.22Z</time>
		</trkpt>
		<trkpt lat="34.774445" lon="128.602330">
			<ele>94.58</ele>
			<time>2020-01-17T04:49:30.49Z</time>
		</trkpt>
		<trkpt lat="34.774502" lon="128.602357">
			<ele>94.58</ele>
			<time>2020-01-17T04:49:30.89Z</time>
		</trkpt>
		<trkpt lat="34.774533" lon="128.602417">
			<ele>94.58</ele>
			<time>2020-01-17T04:49:31.28Z</time>
		</trkpt>
		<trkpt lat="34.774547" lon="128.602557">
			<ele>94.58</ele>
			<time>2020-01-17T04:49:32.05Z</time>
		</trkpt>
		<trkpt lat="34.774527" lon="128.602577">
			<ele>94.58</ele>
			<time>2020-01-17T04:49:32.22Z</time>
		</trkpt>
		<trkpt lat="34.774465" lon="128.602670">
			<ele>103.00</ele>
			<time>2020-01-17T04:49:32.88Z</time>
		</trkpt>
		<trkpt lat="34.774411" lon="128.602801">
			<ele>106.45</ele>
			<time>2020-01-17T04:49:33.68Z</time>
		</trkpt>
		<trkpt lat="34.774294" lon="128.602916">
			<ele>109.54</ele>
			<time>2020-01-17T04:49:34.68Z</time>
		</trkpt>
		<trkpt lat="34.774174" lon="128.603036">
			<ele>112.63</ele>
			<time>2020-01-17T04:49:35.72Z</time>
		</trkpt>
		<trkpt lat="34.773975" lon="128.603213">
			<ele>115.71</ele>
			<time>2020-01-17T04:49:37.36Z</time>
		</trkpt>
		<trkpt lat="34.773819" lon="128.603487">
			<ele>119.01</ele>
			<time>2020-01-17T04:49:39.19Z</time>
		</trkpt>
		<trkpt lat="34.773786" lon="128.603748">
			<ele>121.63</ele>
			<time>2020-01-17T04:49:40.63Z</time>
		</trkpt>
		<trkpt lat="34.773792" lon="128.603971">
			<ele>124.87</ele>
			<time>2020-01-17T04:49:41.86Z</time>
		</trkpt>
		<trkpt lat="34.773790" lon="128.604267">
			<ele>126.80</ele>
			<time>2020-01-17T04:49:43.48Z</time>
		</trkpt>
		<trkpt lat="34.773790" lon="128.604267">
			<ele>127.04</ele>
			<time>2020-01-17T04:49:43.54Z</time>
		</trkpt>
		<trkpt lat="34.773787" lon="128.604335">
			<ele>127.33</ele>
			<time>2020-01-17T04:49:43.91Z</time>
		</trkpt>
		<trkpt lat="34.773786" lon="128.604341">
			<ele>127.27</ele>
			<time>2020-01-17T04:49:43.97Z</time>
		</trkpt>
		<trkpt lat="34.773787" lon="128.604504">
			<ele>127.95</ele>
			<time>2020-01-17T04:49:44.86Z</time>
		</trkpt>
		<trkpt lat="34.773852" lon="128.604783">
			<ele>129.06</ele>
			<time>2020-01-17T04:49:46.45Z</time>
		</trkpt>
		<trkpt lat="34.773983" lon="128.605115">
			<ele>130.56</ele>
			<time>2020-01-17T04:49:48.47Z</time>
		</trkpt>
		<trkpt lat="34.773990" lon="128.605154">
			<ele>131.06</ele>
			<time>2020-01-17T04:49:48.68Z</time>
		</trkpt>
		<trkpt lat="34.774015" lon="128.605326">
			<ele>132.95</ele>
			<time>2020-01-17T04:49:49.64Z</time>
		</trkpt>
		<trkpt lat="34.774080" lon="128.605637">
			<ele>136.69</ele>
			<time>2020-01-17T04:49:51.40Z</time>
		</trkpt>
		<trkpt lat="34.774080" lon="128.605882">
			<ele>139.21</ele>
			<time>2020-01-17T04:49:52.74Z</time>
		</trkpt>
		<trkpt lat="34.774080" lon="128.605882">
			<ele>139.09</ele>
			<time>2020-01-17T04:49:52.80Z</time>
		</trkpt>
		<trkpt lat="34.774073" lon="128.605920">
			<ele>139.33</ele>
			<time>2020-01-17T04:49:53.01Z</time>
		</trkpt>
		<trkpt lat="34.774058" lon="128.605997">
			<ele>140.12</ele>
			<time>2020-01-17T04:49:53.45Z</time>
		</trkpt>
		<trkpt lat="34.774055" lon="128.606041">
			<ele>141.12</ele>
			<time>2020-01-17T04:49:53.69Z</time>
		</trkpt>
		<trkpt lat="34.773997" lon="128.606368">
			<ele>144.14</ele>
			<time>2020-01-17T04:49:55.52Z</time>
		</trkpt>
		<trkpt lat="34.773943" lon="128.606609">
			<ele>147.47</ele>
			<time>2020-01-17T04:49:56.89Z</time>
		</trkpt>
		<trkpt lat="34.773909" lon="128.606845">
			<ele>150.60</ele>
			<time>2020-01-17T04:49:58.20Z</time>
		</trkpt>
		<trkpt lat="34.773892" lon="128.607116">
			<ele>153.67</ele>
			<time>2020-01-17T04:49:59.69Z</time>
		</trkpt>
		<trkpt lat="34.773869" lon="128.607234">
			<ele>154.05</ele>
			<time>2020-01-17T04:50:00.35Z</time>
		</trkpt>
		<trkpt lat="34.773944" lon="128.607434">
			<ele>154.05</ele>
			<time>2020-01-17T04:50:01.56Z</time>
		</trkpt>
		<trkpt lat="34.773994" lon="128.607525">
			<ele>154.05</ele>
			<time>2020-01-17T04:50:02.16Z</time>
		</trkpt>
		<trkpt lat="34.773999" lon="128.607630">
			<ele>154.05</ele>
			<time>2020-01-17T04:50:02.73Z</time>
		</trkpt>
		<trkpt lat="34.773941" lon="128.607701">
			<ele>154.05</ele>
			<time>2020-01-17T04:50:03.28Z</time>
		</trkpt>
		<trkpt lat="34.773865" lon="128.607747">
			<ele>154.83</ele>
			<time>2020-01-17T04:50:03.84Z</time>
		</trkpt>
		<trkpt lat="34.773845" lon="128.607755">
			<ele>155.03</ele>
			<time>2020-01-17T04:50:03.98Z</time>
		</trkpt>
		<trkpt lat="34.773845" lon="128.607755">
			<ele>155.14</ele>
			<time>2020-01-17T04:50:04.04Z</time>
		</trkpt>
		<trkpt lat="34.773464" lon="128.607999">
			<ele>158.18</ele>
			<time>2020-01-17T04:50:06.92Z</time>
		</trkpt>
		<trkpt lat="34.773198" lon="128.608143">
			<ele>161.64</ele>
			<time>2020-01-17T04:50:08.86Z</time>
		</trkpt>
		<trkpt lat="34.773163" lon="128.608164">
			<ele>161.91</ele>
			<time>2020-01-17T04:50:09.12Z</time>
		</trkpt>
		<trkpt lat="34.772941" lon="128.608306">
			<ele>165.32</ele>
			<time>2020-01-17T04:50:10.79Z</time>
		</trkpt>
		<trkpt lat="34.772825" lon="128.608518">
			<ele>168.54</ele>
			<time>2020-01-17T04:50:12.18Z</time>
		</trkpt>
		<trkpt lat="34.772757" lon="128.608773">
			<ele>171.71</ele>
			<time>2020-01-17T04:50:13.65Z</time>
		</trkpt>
		<trkpt lat="34.772770" lon="128.608974">
			<ele>175.14</ele>
			<time>2020-01-17T04:50:14.75Z</time>
		</trkpt>
		<trkpt lat="34.772870" lon="128.609047">
			<ele>178.40</ele>
			<time>2020-01-17T04:50:15.53Z</time>
		</trkpt>
		<trkpt lat="34.772997" lon="128.609085">
			<ele>178.40</ele>
			<time>2020-01-17T04:50:16.40Z</time>
		</trkpt>
		<trkpt lat="34.773090" lon="128.609181">
			<ele>178.40</ele>
			<time>2020-01-17T04:50:17.22Z</time>
		</trkpt>
		<trkpt lat="34.773189" lon="128.609227">
			<ele>178.40</ele>
			<time>2020-01-17T04:50:17.93Z</time>
		</trkpt>
		<trkpt lat="34.773237" lon="128.609319">
			<ele>178.40</ele>
			<time>2020-01-17T04:50:18.52Z</time>
		</trkpt>
		<trkpt lat="34.773334" lon="128.609395">
			<ele>178.40</ele>
			<time>2020-01-17T04:50:19.29Z</time>
		</trkpt>
		<trkpt lat="34.773402" lon="128.609441">
			<ele>178.40</ele>
			<time>2020-01-17T04:50:19.81Z</time>
		</trkpt>
		<trkpt lat="34.773495" lon="128.609453">
			<ele>178.40</ele>
			<time>2020-01-17T04:50:20.43Z</time>
		</trkpt>
		<trkpt lat="34.773512" lon="128.609453">
			<ele>178.40</ele>
			<time>2020-01-17T04:50:20.55Z</time>
		</trkpt>
		<trkpt lat="34.773639" lon="128.609474">
			<ele>178.40</ele>
			<time>2020-01-17T04:50:21.40Z</time>
		</trkpt>
		<trkpt lat="34.773725" lon="128.609474">
			<ele>178.40</ele>
			<time>2020-01-17T04:50:21.97Z</time>
		</trkpt>
		<trkpt lat="34.773811" lon="128.609516">
			<ele>178.40</ele>
			<time>2020-01-17T04:50:22.59Z</time>
		</trkpt>
		<trkpt lat="34.773833" lon="128.609568">
			<ele>193.25</ele>
			<time>2020-01-17T04:50:22.91Z</time>
		</trkpt>
		<trkpt lat="34.774019" lon="128.609778">
			<ele>196.00</ele>
			<time>2020-01-17T04:50:24.60Z</time>
		</trkpt>
		<trkpt lat="34.774312" lon="128.609787">
			<ele>198.66</ele>
			<time>2020-01-17T04:50:26.55Z</time>
		</trkpt>
		<trkpt lat="34.774481" lon="128.609727">
			<ele>201.81</ele>
			<time>2020-01-17T04:50:27.73Z</time>
		</trkpt>
		<trkpt lat="34.774706" lon="128.609632">
			<ele>204.93</ele>
			<time>2020-01-17T04:50:29.32Z</time>
		</trkpt>
		<trkpt lat="34.774774" lon="128.609599">
			<ele>205.65</ele>
			<time>2020-01-17T04:50:29.80Z</time>
		</trkpt>
		<trkpt lat="34.775017" lon="128.609495">
			<ele>208.66</ele>
			<time>2020-01-17T04:50:31.52Z</time>
		</trkpt>
		<trkpt lat="34.775193" lon="128.609469">
			<ele>211.73</ele>
			<time>2020-01-17T04:50:32.70Z</time>
		</trkpt>
		<trkpt lat="34.775226" lon="128.609473">
			<ele>211.93</ele>
			<time>2020-01-17T04:50:32.92Z</time>
		</trkpt>
		<trkpt lat="34.775514" lon="128.609615">
			<ele>214.94</ele>
			<time>2020-01-17T04:50:35Z</time>
		</trkpt>
		<trkpt lat="34.775566" lon="128.609650">
			<ele>215.60</ele>
			<time>2020-01-17T04:50:35.39Z</time>
		</trkpt>
		<trkpt lat="34.775750" lon="128.609647">
			<ele>218.68</ele>
			<time>2020-01-17T04:50:36.62Z</time>
		</trkpt>
		<trkpt lat="34.775943" lon="128.609601">
			<ele>218.68</ele>
			<time>2020-01-17T04:50:37.93Z</time>
		</trkpt>
		<trkpt lat="34.776152" lon="128.609613">
			<ele>221.96</ele>
			<time>2020-01-17T04:50:39.33Z</time>
		</trkpt>
		<trkpt lat="34.776250" lon="128.609648">
			<ele>224.99</ele>
			<time>2020-01-17T04:50:40.01Z</time>
		</trkpt>
		<trkpt lat="34.776315" lon="128.609647">
			<ele>224.99</ele>
			<time>2020-01-17T04:50:40.44Z</time>
		</trkpt>
		<trkpt lat="34.776315" lon="128.609694">
			<ele>224.99</ele>
			<time>2020-01-17T04:50:40.69Z</time>
		</trkpt>
		<trkpt lat="34.776280" lon="128.609753">
			<ele>224.99</ele>
			<time>2020-01-17T04:50:41.09Z</time>
		</trkpt>
		<trkpt lat="34.776247" lon="128.609759">
			<ele>224.99</ele>
			<time>2020-01-17T04:50:41.31Z</time>
		</trkpt>
		<trkpt lat="34.776194" lon="128.609787">
			<ele>229.43</ele>
			<time>2020-01-17T04:50:41.70Z</time>
		</trkpt>
		<trkpt lat="34.776028" lon="128.609850">
			<ele>229.43</ele>
			<time>2020-01-17T04:50:42.86Z</time>
		</trkpt>
		<trkpt lat="34.775925" lon="128.609951">
			<ele>233.16</ele>
			<time>2020-01-17T04:50:43.74Z</time>
		</trkpt>
		<trkpt lat="34.775845" lon="128.610022">
			<ele>235.06</ele>
			<time>2020-01-17T04:50:44.40Z</time>
		</trkpt>
		<trkpt lat="34.775807" lon="128.610085">
			<ele>235.06</ele>
			<time>2020-01-17T04:50:44.82Z</time>
		</trkpt>
		<trkpt lat="34.775823" lon="128.610137">
			<ele>242.13</ele>
			<time>2020-01-17T04:50:45.13Z</time>
		</trkpt>
		<trkpt lat="34.775862" lon="128.610159">
			<ele>242.37</ele>
			<time>2020-01-17T04:50:45.42Z</time>
		</trkpt>
		<trkpt lat="34.776089" lon="128.610117">
			<ele>244.32</ele>
			<time>2020-01-17T04:50:46.95Z</time>
		</trkpt>
		<trkpt lat="34.776184" lon="128.610090">
			<ele>244.32</ele>
			<time>2020-01-17T04:50:47.60Z</time>
		</trkpt>
		<trkpt lat="34.776302" lon="128.610090">
			<ele>244.32</ele>
			<time>2020-01-17T04:50:48.38Z</time>
		</trkpt>
		<trkpt lat="34.776454" lon="128.610137">
			<ele>244.32</ele>
			<time>2020-01-17T04:50:49.43Z</time>
		</trkpt>
		<trkpt lat="34.776525" lon="128.610190">
			<ele>245.89</ele>
			<time>2020-01-17T04:50:49.98Z</time>
		</trkpt>
		<trkpt lat="34.776539" lon="128.610189">
			<ele>246.14</ele>
			<time>2020-01-17T04:50:50.08Z</time>
		</trkpt>
		<trkpt lat="34.777072" lon="128.610234">
			<ele>249.59</ele>
			<time>2020-01-17T04:50:53.64Z</time>
		</trkpt>
		<trkpt lat="34.777297" lon="128.610202">
			<ele>252.79</ele>
			<time>2020-01-17T04:50:55.15Z</time>
		</trkpt>
		<trkpt lat="34.777527" lon="128.610146">
			<ele>256.69</ele>
			<time>2020-01-17T04:50:56.71Z</time>
		</trkpt>
		<trkpt lat="34.777553" lon="128.610152">
			<ele>256.77</ele>
			<time>2020-01-17T04:50:56.89Z</time>
		</trkpt>
		<trkpt lat="34.777761" lon="128.610154">
			<ele>259.33</ele>
			<time>2020-01-17T04:50:58.28Z</time>
		</trkpt>
		<trkpt lat="34.777902" lon="128.610234">
			<ele>262.45</ele>
			<time>2020-01-17T04:50:59.31Z</time>
		</trkpt>
		<trkpt lat="34.777891" lon="128.610290">
			<ele>262.45</ele>
			<time>2020-01-17T04:50:59.63Z</time>
		</trkpt>
		<trkpt lat="34.777841" lon="128.610450">
			<ele>262.45</ele>
			<time>2020-01-17T04:51:00.56Z</time>
		</trkpt>
		<trkpt lat="34.777770" lon="128.610581">
			<ele>262.45</ele>
			<time>2020-01-17T04:51:01.43Z</time>
		</trkpt>
		<trkpt lat="34.777624" lon="128.610710">
			<ele>262.45</ele>
			<time>2020-01-17T04:51:02.63Z</time>
		</trkpt>
		<trkpt lat="34.777543" lon="128.610763">
			<ele>271.15</ele>
			<time>2020-01-17T04:51:03.24Z</time>
		</trkpt>
		<trkpt lat="34.777518" lon="128.610904">
			<ele>274.33</ele>
			<time>2020-01-17T04:51:04.03Z</time>
		</trkpt>
		<trkpt lat="34.777580" lon="128.610961">
			<ele>276.22</ele>
			<time>2020-01-17T04:51:04.55Z</time>
		</trkpt>
		<trkpt lat="34.777871" lon="128.610963">
			<ele>279.63</ele>
			<time>2020-01-17T04:51:06.49Z</time>
		</trkpt>
		<trkpt lat="34.778116" lon="128.610943">
			<ele>283.01</ele>
			<time>2020-01-17T04:51:08.13Z</time>
		</trkpt>
		<trkpt lat="34.778310" lon="128.610872">
			<ele>286.18</ele>
			<time>2020-01-17T04:51:09.48Z</time>
		</trkpt>
		<trkpt lat="34.778659" lon="128.610668">
			<ele>286.18</ele>
			<time>2020-01-17T04:51:12.06Z</time>
		</trkpt>
		<trkpt lat="34.778820" lon="128.610577">
			<ele>286.18</ele>
			<time>2020-01-17T04:51:13.24Z</time>
		</trkpt>
		<trkpt lat="34.779014" lon="128.610355">
			<ele>286.18</ele>
			<time>2020-01-17T04:51:15.02Z</time>
		</trkpt>
		<trkpt lat="34.779162" lon="128.610140">
			<ele>296.89</ele>
			<time>2020-01-17T04:51:16.55Z</time>
		</trkpt>
		<trkpt lat="34.779223" lon="128.610132">
			<ele>296.89</ele>
			<time>2020-01-17T04:51:16.96Z</time>
		</trkpt>
		<trkpt lat="34.779296" lon="128.610169">
			<ele>296.89</ele>
			<time>2020-01-17T04:51:17.49Z</time>
		</trkpt>
		<trkpt lat="34.779300" lon="128.610287">
			<ele>298.84</ele>
			<time>2020-01-17T04:51:18.14Z</time>
		</trkpt>
		<trkpt lat="34.779270" lon="128.610629">
			<ele>299.38</ele>
			<time>2020-01-17T04:51:20.02Z</time>
		</trkpt>
		<trkpt lat="34.779272" lon="128.610724">
			<ele>299.38</ele>
			<time>2020-01-17T04:51:20.54Z</time>
		</trkpt>
		<trkpt lat="34.779267" lon="128.610817">
			<ele>299.38</ele>
			<time>2020-01-17T04:51:21.05Z</time>
		</trkpt>
		<trkpt lat="34.779317" lon="128.610882">
			<ele>299.95</ele>
			<time>2020-01-17T04:51:21.54Z</time>
		</trkpt>
		<trkpt lat="34.779385" lon="128.611100">
			<ele>298.82</ele>
			<time>2020-01-17T04:51:22.82Z</time>
		</trkpt>
		<trkpt lat="34.779385" lon="128.611100">
			<ele>298.98</ele>
			<time>2020-01-17T04:51:22.88Z</time>
		</trkpt>
		<trkpt lat="34.779386" lon="128.611102">
			<ele>298.69</ele>
			<time>2020-01-17T04:51:22.94Z</time>
		</trkpt>
		<trkpt lat="34.779386" lon="128.611133">
			<ele>298.60</ele>
			<time>2020-01-17T04:51:23.11Z</time>
		</trkpt>
		<trkpt lat="34.779471" lon="128.611270">
			<ele>297.99</ele>
			<time>2020-01-17T04:51:24.05Z</time>
		</trkpt>
		<trkpt lat="34.779860" lon="128.611471">
			<ele>296.88</ele>
			<time>2020-01-17T04:51:26.87Z</time>
		</trkpt>
		<trkpt lat="34.780227" lon="128.611617">
			<ele>293.82</ele>
			<time>2020-01-17T04:51:29.44Z</time>
		</trkpt>
		<trkpt lat="34.780282" lon="128.611625">
			<ele>293.82</ele>
			<time>2020-01-17T04:51:29.81Z</time>
		</trkpt>
		<trkpt lat="34.780366" lon="128.611702">
			<ele>293.82</ele>
			<time>2020-01-17T04:51:30.51Z</time>
		</trkpt>
		<trkpt lat="34.780420" lon="128.611805">
			<ele>293.82</ele>
			<time>2020-01-17T04:51:31.18Z</time>
		</trkpt>
		<trkpt lat="34.780443" lon="128.611873">
			<ele>293.82</ele>
			<time>2020-01-17T04:51:31.58Z</time>
		</trkpt>
		<trkpt lat="34.780527" lon="128.611932">
			<ele>294.02</ele>
			<time>2020-01-17T04:51:32.23Z</time>
		</trkpt>
		<trkpt lat="34.780837" lon="128.612098">
			<ele>293.73</ele>
			<time>2020-01-17T04:51:34.49Z</time>
		</trkpt>
		<trkpt lat="34.781188" lon="128.612476">
			<ele>294.84</ele>
			<time>2020-01-17T04:51:37.61Z</time>
		</trkpt>
		<trkpt lat="34.781346" lon="128.612534">
			<ele>297.58</ele>
			<time>2020-01-17T04:51:38.71Z</time>
		</trkpt>
		<trkpt lat="34.781471" lon="128.612524">
			<ele>297.58</ele>
			<time>2020-01-17T04:51:39.54Z</time>
		</trkpt>
		<trkpt lat="34.781597" lon="128.612455">
			<ele>297.58</ele>
			<time>2020-01-17T04:51:40.47Z</time>
		</trkpt>
		<trkpt lat="34.781713" lon="128.612263">
			<ele>297.58</ele>
			<time>2020-01-17T04:51:41.77Z</time>
		</trkpt>
		<trkpt lat="34.781792" lon="128.612089">
			<ele>300.81</ele>
			<time>2020-01-17T04:51:42.86Z</time>
		</trkpt>
		<trkpt lat="34.781882" lon="128.611953">
			<ele>300.81</ele>
			<time>2020-01-17T04:51:43.81Z</time>
		</trkpt>
		<trkpt lat="34.782070" lon="128.611775">
			<ele>300.81</ele>
			<time>2020-01-17T04:51:45.40Z</time>
		</trkpt>
		<trkpt lat="34.782202" lon="128.611685">
			<ele>302.35</ele>
			<time>2020-01-17T04:51:46.41Z</time>
		</trkpt>
		<trkpt lat="34.782369" lon="128.611469">
			<ele>303.67</ele>
			<time>2020-01-17T04:51:48.04Z</time>
		</trkpt>
		<trkpt lat="34.782379" lon="128.611464">
			<ele>303.84</ele>
			<time>2020-01-17T04:51:48.11Z</time>
		</trkpt>
		<trkpt lat="34.782421" lon="128.611425">
			<ele>304.49</ele>
			<time>2020-01-17T04:51:48.46Z</time>
		</trkpt>
		<trkpt lat="34.782461" lon="128.611372">
			<ele>304.95</ele>
			<time>2020-01-17T04:51:48.86Z</time>
		</trkpt>
		<trkpt lat="34.782504" lon="128.611358">
			<ele>305.10</ele>
			<time>2020-01-17T04:51:49.15Z</time>
		</trkpt>
		<trkpt lat="34.782571" lon="128.611390">
			<ele>305.12</ele>
			<time>2020-01-17T04:51:49.63Z</time>
		</trkpt>
		<trkpt lat="34.782609" lon="128.611441">
			<ele>305.12</ele>
			<time>2020-01-17T04:51:50.01Z</time>
		</trkpt>
		<trkpt lat="34.782641" lon="128.611520">
			<ele>305.12</ele>
			<time>2020-01-17T04:51:50.49Z</time>
		</trkpt>
		<trkpt lat="34.782710" lon="128.611601">
			<ele>305.12</ele>
			<time>2020-01-17T04:51:51.13Z</time>
		</trkpt>
		<trkpt lat="34.782800" lon="128.611661">
			<ele>305.12</ele>
			<time>2020-01-17T04:51:51.81Z</time>
		</trkpt>
		<trkpt lat="34.782905" lon="128.611640">
			<ele>303.63</ele>
			<time>2020-01-17T04:51:52.52Z</time>
		</trkpt>
		<trkpt lat="34.782987" lon="128.611686">
			<ele>303.48</ele>
			<time>2020-01-17T04:51:53.12Z</time>
		</trkpt>
		<trkpt lat="34.782987" lon="128.611687">
			<ele>303.43</ele>
			<time>2020-01-17T04:51:53.18Z</time>
		</trkpt>
		<trkpt lat="34.782996" lon="128.611684">
			<ele>303.68</ele>
			<time>2020-01-17T04:51:53.24Z</time>
		</trkpt>
		<trkpt lat="34.783023" lon="128.611663">
			<ele>303.58</ele>
			<time>2020-01-17T04:51:53.46Z</time>
		</trkpt>
		<trkpt lat="34.783382" lon="128.611491">
			<ele>303.90</ele>
			<time>2020-01-17T04:51:56.03Z</time>
		</trkpt>
		<trkpt lat="34.783587" lon="128.611397">
			<ele>304.64</ele>
			<time>2020-01-17T04:51:57.49Z</time>
		</trkpt>
		<trkpt lat="34.783587" lon="128.611397">
			<ele>304.89</ele>
			<time>2020-01-17T04:51:57.55Z</time>
		</trkpt>
		<trkpt lat="34.783588" lon="128.611399">
			<ele>305.00</ele>
			<time>2020-01-17T04:51:57.61Z</time>
		</trkpt>
		<trkpt lat="34.783588" lon="128.611399">
			<ele>305.14</ele>
			<time>2020-01-17T04:51:57.67Z</time>
		</trkpt>
		<trkpt lat="34.783620" lon="128.611369">
			<ele>305.54</ele>
			<time>2020-01-17T04:51:57.94Z</time>
		</trkpt>
		<trkpt lat="34.783986" lon="128.611149">
			<ele>308.40</ele>
			<time>2020-01-17T04:52:00.66Z</time>
		</trkpt>
		<trkpt lat="34.784230" lon="128.610996">
			<ele>311.41</ele>
			<time>2020-01-17T04:52:02.49Z</time>
		</trkpt>
		<trkpt lat="34.784270" lon="128.610987">
			<ele>311.41</ele>
			<time>2020-01-17T04:52:02.76Z</time>
		</trkpt>
		<trkpt lat="34.784343" lon="128.610997">
			<ele>311.41</ele>
			<time>2020-01-17T04:52:03.25Z</time>
		</trkpt>
		<trkpt lat="34.784360" lon="128.611039">
			<ele>311.41</ele>
			<time>2020-01-17T04:52:03.51Z</time>
		</trkpt>
		<trkpt lat="34.784377" lon="128.611086">
			<ele>311.41</ele>
			<time>2020-01-17T04:52:03.79Z</time>
		</trkpt>
		<trkpt lat="34.784393" lon="128.611149">
			<ele>310.78</ele>
			<time>2020-01-17T04:52:04.15Z</time>
		</trkpt>
		<trkpt lat="34.784512" lon="128.611409">
			<ele>310.78</ele>
			<time>2020-01-17T04:52:05.79Z</time>
		</trkpt>
		<trkpt lat="34.784593" lon="128.611565">
			<ele>307.12</ele>
			<time>2020-01-17T04:52:06.79Z</time>
		</trkpt>
		<trkpt lat="34.784633" lon="128.611630">
			<ele>307.12</ele>
			<time>2020-01-17T04:52:07.24Z</time>
		</trkpt>
		<trkpt lat="34.784723" lon="128.611698">
			<ele>307.12</ele>
			<time>2020-01-17T04:52:07.94Z</time>
		</trkpt>
		<trkpt lat="34.784824" lon="128.611727">
			<ele>307.12</ele>
			<time>2020-01-17T04:52:08.64Z</time>
		</trkpt>
		<trkpt lat="34.784950" lon="128.611704">
			<ele>305.92</ele>
			<time>2020-01-17T04:52:09.49Z</time>
		</trkpt>
		<trkpt lat="34.785317" lon="128.611482">
			<ele>304.62</ele>
			<time>2020-01-17T04:52:12.22Z</time>
		</trkpt>
		<trkpt lat="34.785574" lon="128.611379">
			<ele>301.12</ele>
			<time>2020-01-17T04:52:14.02Z</time>
		</trkpt>
		<trkpt lat="34.785673" lon="128.611335">
			<ele>301.12</ele>
			<time>2020-01-17T04:52:14.72Z</time>
		</trkpt>
		<trkpt lat="34.785770" lon="128.611232">
			<ele>301.12</ele>
			<time>2020-01-17T04:52:15.58Z</time>
		</trkpt>
		<trkpt lat="34.785918" lon="128.611125">
			<ele>301.12</ele>
			<time>2020-01-17T04:52:16.73Z</time>
		</trkpt>
		<trkpt lat="34.786082" lon="128.611031">
			<ele>301.12</ele>
			<time>2020-01-17T04:52:17.94Z</time>
		</trkpt>
		<trkpt lat="34.786206" lon="128.611007">
			<ele>301.12</ele>
			<time>2020-01-17T04:52:18.77Z</time>
		</trkpt>
		<trkpt lat="34.786397" lon="128.610995">
			<ele>301.12</ele>
			<time>2020-01-17T04:52:20.05Z</time>
		</trkpt>
		<trkpt lat="34.786543" lon="128.610909">
			<ele>301.12</ele>
			<time>2020-01-17T04:52:21.13Z</time>
		</trkpt>
		<trkpt lat="34.786683" lon="128.610830">
			<ele>301.12</ele>
			<time>2020-01-17T04:52:22.16Z</time>
		</trkpt>
		<trkpt lat="34.786797" lon="128.610762">
			<ele>301.12</ele>
			<time>2020-01-17T04:52:23Z</time>
		</trkpt>
		<trkpt lat="34.786828" lon="128.610753">
			<ele>301.12</ele>
			<time>2020-01-17T04:52:23.22Z</time>
		</trkpt>
		<trkpt lat="34.786928" lon="128.610647">
			<ele>301.12</ele>
			<time>2020-01-17T04:52:24.10Z</time>
		</trkpt>
		<trkpt lat="34.786927" lon="128.610635">
			<ele>301.12</ele>
			<time>2020-01-17T04:52:24.17Z</time>
		</trkpt>
		<trkpt lat="34.787044" lon="128.610470">
			<ele>301.12</ele>
			<time>2020-01-17T04:52:25.36Z</time>
		</trkpt>
		<trkpt lat="34.787203" lon="128.610381">
			<ele>301.12</ele>
			<time>2020-01-17T04:52:26.53Z</time>
		</trkpt>
		<trkpt lat="34.787523" lon="128.610569">
			<ele>301.12</ele>
			<time>2020-01-17T04:52:28.89Z</time>
		</trkpt>
		<trkpt lat="34.787935" lon="128.610693">
			<ele>301.12</ele>
			<time>2020-01-17T04:52:31.72Z</time>
		</trkpt>
		<trkpt lat="34.788180" lon="128.610760">
			<ele>301.12</ele>
			<time>2020-01-17T04:52:33.40Z</time>
		</trkpt>
		<trkpt lat="34.788489" lon="128.610781">
			<ele>276.00</ele>
			<time>2020-01-17T04:52:35.46Z</time>
		</trkpt>
		<trkpt lat="34.788556" lon="128.610586">
			<ele>276.00</ele>
			<time>2020-01-17T04:52:36.62Z</time>
		</trkpt>
		<trkpt lat="34.788725" lon="128.610396">
			<ele>271.37</ele>
			<time>2020-01-17T04:52:38.15Z</time>
		</trkpt>
		<trkpt lat="34.788962" lon="128.610120">
			<ele>268.61</ele>
			<time>2020-01-17T04:52:40.34Z</time>
		</trkpt>
		<trkpt lat="34.789111" lon="128.610005">
			<ele>265.73</ele>
			<time>2020-01-17T04:52:41.52Z</time>
		</trkpt>
		<trkpt lat="34.789143" lon="128.610011">
			<ele>265.23</ele>
			<time>2020-01-17T04:52:41.73Z</time>
		</trkpt>
		<trkpt lat="34.789193" lon="128.610248">
			<ele>265.23</ele>
			<time>2020-01-17T04:52:43.07Z</time>
		</trkpt>
		<trkpt lat="34.789253" lon="128.610448">
			<ele>265.23</ele>
			<time>2020-01-17T04:52:44.24Z</time>
		</trkpt>
		<trkpt lat="34.789287" lon="128.610628">
			<ele>265.23</ele>
			<time>2020-01-17T04:52:45.25Z</time>
		</trkpt>
		<trkpt lat="34.789343" lon="128.610823">
			<ele>265.23</ele>
			<time>2020-01-17T04:52:46.38Z</time>
		</trkpt>
		<trkpt lat="34.789375" lon="128.611026">
			<ele>265.23</ele>
			<time>2020-01-17T04:52:47.51Z</time>
		</trkpt>
		<trkpt lat="34.789433" lon="128.611206">
			<ele>265.23</ele>
			<time>2020-01-17T04:52:48.57Z</time>
		</trkpt>
		<trkpt lat="34.789460" lon="128.611362">
			<ele>265.23</ele>
			<time>2020-01-17T04:52:49.45Z</time>
		</trkpt>
		<trkpt lat="34.789540" lon="128.611519">
			<ele>265.23</ele>
			<time>2020-01-17T04:52:50.45Z</time>
		</trkpt>
		<trkpt lat="34.789596" lon="128.611660">
			<ele>265.23</ele>
			<time>2020-01-17T04:52:51.31Z</time>
		</trkpt>
		<trkpt lat="34.789642" lon="128.611858">
			<ele>265.23</ele>
			<time>2020-01-17T04:52:52.44Z</time>
		</trkpt>
		<trkpt lat="34.789688" lon="128.611979">
			<ele>265.23</ele>
			<time>2020-01-17T04:52:53.17Z</time>
		</trkpt>
		<trkpt lat="34.789688" lon="128.611985">
			<ele>265.23</ele>
			<time>2020-01-17T04:52:53.23Z</time>
		</trkpt>
		<trkpt lat="34.789780" lon="128.612111">
			<ele>265.23</ele>
			<time>2020-01-17T04:52:54.15Z</time>
		</trkpt>
		<trkpt lat="34.789853" lon="128.612217">
			<ele>265.23</ele>
			<time>2020-01-17T04:52:54.91Z</time>
		</trkpt>
		<trkpt lat="34.789953" lon="128.612360">
			<ele>240.42</ele>
			<time>2020-01-17T04:52:55.94Z</time>
		</trkpt>
		<trkpt lat="34.790003" lon="128.612393">
			<ele>239.71</ele>
			<time>2020-01-17T04:52:56.32Z</time>
		</trkpt>
		<trkpt lat="34.790237" lon="128.612533">
			<ele>235.90</ele>
			<time>2020-01-17T04:52:58.06Z</time>
		</trkpt>
		<trkpt lat="34.790369" lon="128.612639">
			<ele>234.37</ele>
			<time>2020-01-17T04:52:59.11Z</time>
		</trkpt>
		<trkpt lat="34.790550" lon="128.612897">
			<ele>230.52</ele>
			<time>2020-01-17T04:53:00.97Z</time>
		</trkpt>
		<trkpt lat="34.790725" lon="128.613101">
			<ele>227.24</ele>
			<time>2020-01-17T04:53:02.58Z</time>
		</trkpt>
		<trkpt lat="34.790877" lon="128.613273">
			<ele>225.12</ele>
			<time>2020-01-17T04:53:03.97Z</time>
		</trkpt>
		<trkpt lat="34.790877" lon="128.613273">
			<ele>225.22</ele>
			<time>2020-01-17T04:53:04.03Z</time>
		</trkpt>
		<trkpt lat="34.790909" lon="128.613285">
			<ele>224.99</ele>
			<time>2020-01-17T04:53:04.25Z</time>
		</trkpt>
		<trkpt lat="34.791123" lon="128.613435">
			<ele>221.13</ele>
			<time>2020-01-17T04:53:05.90Z</time>
		</trkpt>
		<trkpt lat="34.791244" lon="128.613526">
			<ele>218.01</ele>
			<time>2020-01-17T04:53:06.84Z</time>
		</trkpt>
		<trkpt lat="34.791258" lon="128.613529">
			<ele>217.72</ele>
			<time>2020-01-17T04:53:06.94Z</time>
		</trkpt>
		<trkpt lat="34.791267" lon="128.613534">
			<ele>217.44</ele>
			<time>2020-01-17T04:53:07Z</time>
		</trkpt>
		<trkpt lat="34.791317" lon="128.613534">
			<ele>217.18</ele>
			<time>2020-01-17T04:53:07.34Z</time>
		</trkpt>
		<trkpt lat="34.791405" lon="128.613535">
			<ele>215.99</ele>
			<time>2020-01-17T04:53:07.92Z</time>
		</trkpt>
		<trkpt lat="34.791499" lon="128.613567">
			<ele>214.75</ele>
			<time>2020-01-17T04:53:08.57Z</time>
		</trkpt>
		<trkpt lat="34.791646" lon="128.613611">
			<ele>214.75</ele>
			<time>2020-01-17T04:53:09.59Z</time>
		</trkpt>
		<trkpt lat="34.791729" lon="128.613664">
			<ele>214.75</ele>
			<time>2020-01-17T04:53:10.21Z</time>
		</trkpt>
		<trkpt lat="34.791881" lon="128.613632">
			<ele>214.75</ele>
			<time>2020-01-17T04:53:11.24Z</time>
		</trkpt>
		<trkpt lat="34.791973" lon="128.613587">
			<ele>214.75</ele>
			<time>2020-01-17T04:53:11.90Z</time>
		</trkpt>
		<trkpt lat="34.791993" lon="128.613511">
			<ele>207.11</ele>
			<time>2020-01-17T04:53:12.34Z</time>
		</trkpt>
		<trkpt lat="34.791918" lon="128.613343">
			<ele>207.11</ele>
			<time>2020-01-17T04:53:13.39Z</time>
		</trkpt>
		<trkpt lat="34.791851" lon="128.613097">
			<ele>204.32</ele>
			<time>2020-01-17T04:53:14.80Z</time>
		</trkpt>
		<trkpt lat="34.791804" lon="128.613004">
			<ele>204.25</ele>
			<time>2020-01-17T04:53:15.40Z</time>
		</trkpt>
		<trkpt lat="34.791857" lon="128.612891">
			<ele>204.25</ele>
			<time>2020-01-17T04:53:16.11Z</time>
		</trkpt>
		<trkpt lat="34.791934" lon="128.612846">
			<ele>200.84</ele>
			<time>2020-01-17T04:53:16.68Z</time>
		</trkpt>
		<trkpt lat="34.792068" lon="128.612824">
			<ele>198.60</ele>
			<time>2020-01-17T04:53:17.58Z</time>
		</trkpt>
		<trkpt lat="34.792314" lon="128.612946">
			<ele>195.14</ele>
			<time>2020-01-17T04:53:19.35Z</time>
		</trkpt>
		<trkpt lat="34.792469" lon="128.612938">
			<ele>191.65</ele>
			<time>2020-01-17T04:53:20.39Z</time>
		</trkpt>
		<trkpt lat="34.792661" lon="128.612868">
			<ele>188.59</ele>
			<time>2020-01-17T04:53:21.72Z</time>
		</trkpt>
		<trkpt lat="34.792870" lon="128.612805">
			<ele>185.40</ele>
			<time>2020-01-17T04:53:23.16Z</time>
		</trkpt>
		<trkpt lat="34.793018" lon="128.612766">
			<ele>182.15</ele>
			<time>2020-01-17T04:53:24.17Z</time>
		</trkpt>
		<trkpt lat="34.793165" lon="128.612718">
			<ele>179.11</ele>
			<time>2020-01-17T04:53:25.18Z</time>
		</trkpt>
		<trkpt lat="34.793304" lon="128.612665">
			<ele>175.78</ele>
			<time>2020-01-17T04:53:26.15Z</time>
		</trkpt>
		<trkpt lat="34.793341" lon="128.612652">
			<ele>174.71</ele>
			<time>2020-01-17T04:53:26.41Z</time>
		</trkpt>
		<trkpt lat="34.793493" lon="128.612602">
			<ele>173.43</ele>
			<time>2020-01-17T04:53:27.46Z</time>
		</trkpt>
		<trkpt lat="34.793680" lon="128.612528">
			<ele>169.75</ele>
			<time>2020-01-17T04:53:28.77Z</time>
		</trkpt>
		<trkpt lat="34.793767" lon="128.612492">
			<ele>167.82</ele>
			<time>2020-01-17T04:53:29.38Z</time>
		</trkpt>
		<trkpt lat="34.793810" lon="128.612482">
			<ele>167.16</ele>
			<time>2020-01-17T04:53:29.68Z</time>
		</trkpt>
		<trkpt lat="34.793852" lon="128.612476">
			<ele>166.27</ele>
			<time>2020-01-17T04:53:29.96Z</time>
		</trkpt>
		<trkpt lat="34.793977" lon="128.612464">
			<ele>163.84</ele>
			<time>2020-01-17T04:53:30.79Z</time>
		</trkpt>
		<trkpt lat="34.794024" lon="128.612470">
			<ele>163.79</ele>
			<time>2020-01-17T04:53:31.11Z</time>
		</trkpt>
		<trkpt lat="34.794070" lon="128.612481">
			<ele>163.84</ele>
			<time>2020-01-17T04:53:31.42Z</time>
		</trkpt>
		<trkpt lat="34.794477" lon="128.612699">
			<ele>165.00</ele>
			<time>2020-01-17T04:53:34.39Z</time>
		</trkpt>
		<trkpt lat="34.794418" lon="128.612663">
			<ele>164.54</ele>
			<time>2020-01-17T04:53:34.83Z</time>
		</trkpt>
		<trkpt lat="34.794681" lon="128.612793">
			<ele>169.40</ele>
			<time>2020-01-17T04:53:36.72Z</time>
		</trkpt>
		<trkpt lat="34.794701" lon="128.612811">
			<ele>169.44</ele>
			<time>2020-01-17T04:53:36.88Z</time>
		</trkpt>
		<trkpt lat="34.794797" lon="128.612836">
			<ele>170.83</ele>
			<time>2020-01-17T04:53:37.54Z</time>
		</trkpt>
		<trkpt lat="34.795370" lon="128.613125">
			<ele>169.58</ele>
			<time>2020-01-17T04:53:41.67Z</time>
		</trkpt>
		<trkpt lat="34.795464" lon="128.613194">
			<ele>168.42</ele>
			<time>2020-01-17T04:53:42.40Z</time>
		</trkpt>
		<trkpt lat="34.795506" lon="128.613238">
			<ele>167.56</ele>
			<time>2020-01-17T04:53:42.77Z</time>
		</trkpt>
		<trkpt lat="34.795629" lon="128.613382">
			<ele>164.90</ele>
			<time>2020-01-17T04:53:43.91Z</time>
		</trkpt>
		<trkpt lat="34.795851" lon="128.613504">
			<ele>162.26</ele>
			<time>2020-01-17T04:53:45.54Z</time>
		</trkpt>
		<trkpt lat="34.796049" lon="128.613469">
			<ele>160.51</ele>
			<time>2020-01-17T04:53:46.87Z</time>
		</trkpt>
		<trkpt lat="34.796141" lon="128.613472">
			<ele>160.51</ele>
			<time>2020-01-17T04:53:47.48Z</time>
		</trkpt>
		<trkpt lat="34.796243" lon="128.613537">
			<ele>160.51</ele>
			<time>2020-01-17T04:53:48.25Z</time>
		</trkpt>
		<trkpt lat="34.796243" lon="128.613637">
			<ele>160.51</ele>
			<time>2020-01-17T04:53:48.80Z</time>
		</trkpt>
		<trkpt lat="34.796240" lon="128.613776">
			<ele>160.51</ele>
			<time>2020-01-17T04:53:49.56Z</time>
		</trkpt>
		<trkpt lat="34.796253" lon="128.613832">
			<ele>160.51</ele>
			<time>2020-01-17T04:53:49.87Z</time>
		</trkpt>
		<trkpt lat="34.796271" lon="128.613877">
			<ele>157.52</ele>
			<time>2020-01-17T04:53:50.15Z</time>
		</trkpt>
		<trkpt lat="34.796424" lon="128.613974">
			<ele>156.23</ele>
			<time>2020-01-17T04:53:51.30Z</time>
		</trkpt>
		<trkpt lat="34.796699" lon="128.613974">
			<ele>152.63</ele>
			<time>2020-01-17T04:53:53.13Z</time>
		</trkpt>
		<trkpt lat="34.796741" lon="128.613980">
			<ele>152.34</ele>
			<time>2020-01-17T04:53:53.41Z</time>
		</trkpt>
		<trkpt lat="34.796772" lon="128.613971">
			<ele>151.87</ele>
			<time>2020-01-17T04:53:53.63Z</time>
		</trkpt>
		<trkpt lat="34.796868" lon="128.613979">
			<ele>150.45</ele>
			<time>2020-01-17T04:53:54.27Z</time>
		</trkpt>
		<trkpt lat="34.797043" lon="128.614045">
			<ele>147.24</ele>
			<time>2020-01-17T04:53:55.49Z</time>
		</trkpt>
		<trkpt lat="34.797196" lon="128.614145">
			<ele>144.62</ele>
			<time>2020-01-17T04:53:56.65Z</time>
		</trkpt>
		<trkpt lat="34.797427" lon="128.614184">
			<ele>142.88</ele>
			<time>2020-01-17T04:53:58.20Z</time>
		</trkpt>
		<trkpt lat="34.797605" lon="128.614128">
			<ele>140.78</ele>
			<time>2020-01-17T04:53:59.43Z</time>
		</trkpt>
		<trkpt lat="34.797925" lon="128.614103">
			<ele>137.78</ele>
			<time>2020-01-17T04:54:01.56Z</time>
		</trkpt>
		<trkpt lat="34.797986" lon="128.614112">
			<ele>137.03</ele>
			<time>2020-01-17T04:54:01.97Z</time>
		</trkpt>
		<trkpt lat="34.798201" lon="128.614180">
			<ele>135.42</ele>
			<time>2020-01-17T04:54:03.46Z</time>
		</trkpt>
		<trkpt lat="34.798262" lon="128.614206">
			<ele>133.44</ele>
			<time>2020-01-17T04:54:03.89Z</time>
		</trkpt>
		<trkpt lat="34.798537" lon="128.614382">
			<ele>130.32</ele>
			<time>2020-01-17T04:54:05.96Z</time>
		</trkpt>
		<trkpt lat="34.798743" lon="128.614497">
			<ele>129.65</ele>
			<time>2020-01-17T04:54:07.47Z</time>
		</trkpt>
		<trkpt lat="34.798743" lon="128.614497">
			<ele>129.26</ele>
			<time>2020-01-17T04:54:07.53Z</time>
		</trkpt>
		<trkpt lat="34.798743" lon="128.614497">
			<ele>129.16</ele>
			<time>2020-01-17T04:54:07.59Z</time>
		</trkpt>
		<trkpt lat="34.798960" lon="128.614571">
			<ele>125.70</ele>
			<time>2020-01-17T04:54:09.09Z</time>
		</trkpt>
		<trkpt lat="34.799122" lon="128.614727">
			<ele>122.40</ele>
			<time>2020-01-17T04:54:10.47Z</time>
		</trkpt>
		<trkpt lat="34.799493" lon="128.615021">
			<ele>119.01</ele>
			<time>2020-01-17T04:54:13.42Z</time>
		</trkpt>
		<trkpt lat="34.799719" lon="128.615344">
			<ele>115.70</ele>
			<time>2020-01-17T04:54:15.74Z</time>
		</trkpt>
		<trkpt lat="34.799854" lon="128.615576">
			<ele>115.70</ele>
			<time>2020-01-17T04:54:17.30Z</time>
		</trkpt>
		<trkpt lat="34.799910" lon="128.615671">
			<ele>115.70</ele>
			<time>2020-01-17T04:54:17.94Z</time>
		</trkpt>
		<trkpt lat="34.800004" lon="128.615789">
			<ele>115.70</ele>
			<time>2020-01-17T04:54:18.84Z</time>
		</trkpt>
		<trkpt lat="34.800052" lon="128.615837">
			<ele>115.70</ele>
			<time>2020-01-17T04:54:19.25Z</time>
		</trkpt>
		<trkpt lat="34.800068" lon="128.615737">
			<ele>115.70</ele>
			<time>2020-01-17T04:54:19.81Z</time>
		</trkpt>
		<trkpt lat="34.800041" lon="128.615549">
			<ele>115.70</ele>
			<time>2020-01-17T04:54:20.85Z</time>
		</trkpt>
		<trkpt lat="34.800031" lon="128.615431">
			<ele>115.70</ele>
			<time>2020-01-17T04:54:21.50Z</time>
		</trkpt>
		<trkpt lat="34.800017" lon="128.615308">
			<ele>115.70</ele>
			<time>2020-01-17T04:54:22.18Z</time>
		</trkpt>
		<trkpt lat="34.800017" lon="128.615160">
			<ele>115.70</ele>
			<time>2020-01-17T04:54:22.99Z</time>
		</trkpt>
		<trkpt lat="34.800009" lon="128.615027">
			<ele>115.70</ele>
			<time>2020-01-17T04:54:23.72Z</time>
		</trkpt>
		<trkpt lat="34.800007" lon="128.614867">
			<ele>115.70</ele>
			<time>2020-01-17T04:54:24.60Z</time>
		</trkpt>
		<trkpt lat="34.800005" lon="128.614732">
			<ele>115.70</ele>
			<time>2020-01-17T04:54:25.34Z</time>
		</trkpt>
		<trkpt lat="34.800023" lon="128.614431">
			<ele>115.70</ele>
			<time>2020-01-17T04:54:26.99Z</time>
		</trkpt>
		<trkpt lat="34.800013" lon="128.614230">
			<ele>115.70</ele>
			<time>2020-01-17T04:54:28.09Z</time>
		</trkpt>
		<trkpt lat="34.800013" lon="128.614093">
			<ele>115.70</ele>
			<time>2020-01-17T04:54:28.84Z</time>
		</trkpt>
		<trkpt lat="34.800028" lon="128.613942">
			<ele>115.70</ele>
			<time>2020-01-17T04:54:29.67Z</time>
		</trkpt>
		<trkpt lat="34.800036" lon="128.613744">
			<ele>115.70</ele>
			<time>2020-01-17T04:54:30.76Z</time>
		</trkpt>
		<trkpt lat="34.800081" lon="128.613599">
			<ele>115.70</ele>
			<time>2020-01-17T04:54:31.61Z</time>
		</trkpt>
		<trkpt lat="34.800153" lon="128.613416">
			<ele>115.70</ele>
			<time>2020-01-17T04:54:32.72Z</time>
		</trkpt>
		<trkpt lat="34.800285" lon="128.613193">
			<ele>115.70</ele>
			<time>2020-01-17T04:54:34.22Z</time>
		</trkpt>
		<trkpt lat="34.800427" lon="128.612990">
			<ele>115.70</ele>
			<time>2020-01-17T04:54:35.68Z</time>
		</trkpt>
		<trkpt lat="34.800555" lon="128.612827">
			<ele>115.70</ele>
			<time>2020-01-17T04:54:36.91Z</time>
		</trkpt>
		<trkpt lat="34.800633" lon="128.612737">
			<ele>115.70</ele>
			<time>2020-01-17T04:54:37.63Z</time>
		</trkpt>
		<trkpt lat="34.800740" lon="128.612675">
			<ele>115.70</ele>
			<time>2020-01-17T04:54:38.42Z</time>
		</trkpt>
		<trkpt lat="34.801168" lon="128.612441">
			<ele>115.70</ele>
			<time>2020-01-17T04:54:41.55Z</time>
		</trkpt>
		<trkpt lat="34.801291" lon="128.612371">
			<ele>115.70</ele>
			<time>2020-01-17T04:54:42.46Z</time>
		</trkpt>
		<trkpt lat="34.801242" lon="128.612293">
			<ele>69.96</ele>
			<time>2020-01-17T04:54:43Z</time>
		</trkpt>
		<trkpt lat="34.801086" lon="128.612084">
			<ele>70.39</ele>
			<time>2020-01-17T04:54:44.54Z</time>
		</trkpt>
		<trkpt lat="34.801090" lon="128.612076">
			<ele>70.28</ele>
			<time>2020-01-17T04:54:44.60Z</time>
		</trkpt>
		<trkpt lat="34.801090" lon="128.612044">
			<ele>70.35</ele>
			<time>2020-01-17T04:54:44.78Z</time>
		</trkpt>
		<trkpt lat="34.800934" lon="128.611724">
			<ele>73.41</ele>
			<time>2020-01-17T04:54:46.81Z</time>
		</trkpt>
		<trkpt lat="34.800879" lon="128.611583">
			<ele>73.41</ele>
			<time>2020-01-17T04:54:47.67Z</time>
		</trkpt>
		<trkpt lat="34.800840" lon="128.611378">
			<ele>73.41</ele>
			<time>2020-01-17T04:54:48.82Z</time>
		</trkpt>
		<trkpt lat="34.800795" lon="128.611231">
			<ele>73.41</ele>
			<time>2020-01-17T04:54:49.68Z</time>
		</trkpt>
		<trkpt lat="34.800764" lon="128.611047">
			<ele>73.41</ele>
			<time>2020-01-17T04:54:50.71Z</time>
		</trkpt>
		<trkpt lat="34.800747" lon="128.610910">
			<ele>73.41</ele>
			<time>2020-01-17T04:54:51.47Z</time>
		</trkpt>
		<trkpt lat="34.800694" lon="128.610746">
			<ele>73.41</ele>
			<time>2020-01-17T04:54:52.43Z</time>
		</trkpt>
		<trkpt lat="34.800584" lon="128.610528">
			<ele>73.41</ele>
			<time>2020-01-17T04:54:53.83Z</time>
		</trkpt>
		<trkpt lat="34.800528" lon="128.610405">
			<ele>73.41</ele>
			<time>2020-01-17T04:54:54.60Z</time>
		</trkpt>
		<trkpt lat="34.800492" lon="128.610241">
			<ele>73.41</ele>
			<time>2020-01-17T04:54:55.53Z</time>
		</trkpt>
		<trkpt lat="34.800492" lon="128.610231">
			<ele>73.41</ele>
			<time>2020-01-17T04:54:55.59Z</time>
		</trkpt>
		<trkpt lat="34.800581" lon="128.610088">
			<ele>73.41</ele>
			<time>2020-01-17T04:54:56.58Z</time>
		</trkpt>
		<trkpt lat="34.800772" lon="128.609883">
			<ele>73.41</ele>
			<time>2020-01-17T04:54:58.27Z</time>
		</trkpt>
		<trkpt lat="34.800892" lon="128.609803">
			<ele>73.85</ele>
			<time>2020-01-17T04:54:59.18Z</time>
		</trkpt>
		<trkpt lat="34.800973" lon="128.609728">
			<ele>73.85</ele>
			<time>2020-01-17T04:54:59.86Z</time>
		</trkpt>
		<trkpt lat="34.801164" lon="128.609574">
			<ele>73.85</ele>
			<time>2020-01-17T04:55:01.38Z</time>
		</trkpt>
		<trkpt lat="34.801334" lon="128.609434">
			<ele>73.85</ele>
			<time>2020-01-17T04:55:02.76Z</time>
		</trkpt>
		<trkpt lat="34.801497" lon="128.609345">
			<ele>73.85</ele>
			<time>2020-01-17T04:55:03.95Z</time>
		</trkpt>
		<trkpt lat="34.801660" lon="128.609308">
			<ele>73.85</ele>
			<time>2020-01-17T04:55:05.05Z</time>
		</trkpt>
		<trkpt lat="34.801772" lon="128.609318">
			<ele>73.85</ele>
			<time>2020-01-17T04:55:05.80Z</time>
		</trkpt>
		<trkpt lat="34.801865" lon="128.609338">
			<ele>74.28</ele>
			<time>2020-01-17T04:55:06.43Z</time>
		</trkpt>
		<trkpt lat="34.802278" lon="128.609474">
			<ele>71.21</ele>
			<time>2020-01-17T04:55:09.28Z</time>
		</trkpt>
		<trkpt lat="34.802903" lon="128.609573">
			<ele>68.18</ele>
			<time>2020-01-17T04:55:13.48Z</time>
		</trkpt>
		<trkpt lat="34.803029" lon="128.609620">
			<ele>67.72</ele>
			<time>2020-01-17T04:55:14.36Z</time>
		</trkpt>
		<trkpt lat="34.803155" lon="128.609625">
			<ele>66.69</ele>
			<time>2020-01-17T04:55:15.20Z</time>
		</trkpt>
		<trkpt lat="34.803719" lon="128.609544">
			<ele>63.70</ele>
			<time>2020-01-17T04:55:18.99Z</time>
		</trkpt>
		<trkpt lat="34.804275" lon="128.609353">
			<ele>60.81</ele>
			<time>2020-01-17T04:55:22.84Z</time>
		</trkpt>
		<trkpt lat="34.804522" lon="128.609272">
			<ele>58.31</ele>
			<time>2020-01-17T04:55:24.55Z</time>
		</trkpt>
		<trkpt lat="34.804834" lon="128.608879">
			<ele>54.73</ele>
			<time>2020-01-17T04:55:27.54Z</time>
		</trkpt>
		<trkpt lat="34.804898" lon="128.608795">
			<ele>53.66</ele>
			<time>2020-01-17T04:55:28.17Z</time>
		</trkpt>
		<trkpt lat="34.805321" lon="128.608226">
			<ele>50.46</ele>
			<time>2020-01-17T04:55:32.37Z</time>
		</trkpt>
		<trkpt lat="34.805650" lon="128.607740">
			<ele>48.04</ele>
			<time>2020-01-17T04:55:35.81Z</time>
		</trkpt>
		<trkpt lat="34.805799" lon="128.607638">
			<ele>46.15</ele>
			<time>2020-01-17T04:55:36.95Z</time>
		</trkpt>
		<trkpt lat="34.806046" lon="128.607603">
			<ele>44.67</ele>
			<time>2020-01-17T04:55:38.61Z</time>
		</trkpt>
		<trkpt lat="34.806046" lon="128.607603">
			<ele>44.53</ele>
			<time>2020-01-17T04:55:38.67Z</time>
		</trkpt>
		<trkpt lat="34.806191" lon="128.607600">
			<ele>44.53</ele>
			<time>2020-01-17T04:55:39.64Z</time>
		</trkpt>
		<trkpt lat="34.806345" lon="128.607613">
			<ele>44.53</ele>
			<time>2020-01-17T04:55:40.67Z</time>
		</trkpt>
		<trkpt lat="34.806368" lon="128.607482">
			<ele>44.53</ele>
			<time>2020-01-17T04:55:41.40Z</time>
		</trkpt>
		<trkpt lat="34.806425" lon="128.607079">
			<ele>44.53</ele>
			<time>2020-01-17T04:55:43.64Z</time>
		</trkpt>
		<trkpt lat="34.806465" lon="128.606418">
			<ele>44.53</ele>
			<time>2020-01-17T04:55:47.26Z</time>
		</trkpt>
		<trkpt lat="34.806510" lon="128.606109">
			<ele>44.53</ele>
			<time>2020-01-17T04:55:48.98Z</time>
		</trkpt>
		<trkpt lat="34.806576" lon="128.605774">
			<ele>44.53</ele>
			<time>2020-01-17T04:55:50.87Z</time>
		</trkpt>
		<trkpt lat="34.806701" lon="128.605528">
			<ele>44.53</ele>
			<time>2020-01-17T04:55:52.45Z</time>
		</trkpt>
		<trkpt lat="34.806813" lon="128.605323">
			<ele>44.53</ele>
			<time>2020-01-17T04:55:53.80Z</time>
		</trkpt>
		<trkpt lat="34.806855" lon="128.605219">
			<ele>44.53</ele>
			<time>2020-01-17T04:55:54.44Z</time>
		</trkpt>
		<trkpt lat="34.806844" lon="128.605133">
			<ele>38.09</ele>
			<time>2020-01-17T04:55:54.91Z</time>
		</trkpt>
		<trkpt lat="34.806796" lon="128.604922">
			<ele>38.09</ele>
			<time>2020-01-17T04:55:56.11Z</time>
		</trkpt>
		<trkpt lat="34.806765" lon="128.604690">
			<ele>38.09</ele>
			<time>2020-01-17T04:55:57.40Z</time>
		</trkpt>
		<trkpt lat="34.806734" lon="128.604355">
			<ele>38.09</ele>
			<time>2020-01-17T04:55:59.24Z</time>
		</trkpt>
		<trkpt lat="34.806745" lon="128.604075">
			<ele>38.09</ele>
			<time>2020-01-17T04:56:00.78Z</time>
		</trkpt>
		<trkpt lat="34.806787" lon="128.603836">
			<ele>38.09</ele>
			<time>2020-01-17T04:56:02.11Z</time>
		</trkpt>
		<trkpt lat="34.806904" lon="128.603494">
			<ele>38.09</ele>
			<time>2020-01-17T04:56:04.14Z</time>
		</trkpt>
		<trkpt lat="34.806977" lon="128.603098">
			<ele>38.09</ele>
			<time>2020-01-17T04:56:06.36Z</time>
		</trkpt>
		<trkpt lat="34.807117" lon="128.602292">
			<ele>38.09</ele>
			<time>2020-01-17T04:56:10.87Z</time>
		</trkpt>
		<trkpt lat="34.807150" lon="128.602040">
			<ele>38.09</ele>
			<time>2020-01-17T04:56:12.27Z</time>
		</trkpt>
		<trkpt lat="34.808315" lon="128.601300">
			<ele>32.90</ele>
			<time>2020-01-17T04:56:21.03Z</time>
		</trkpt>
		<trkpt lat="34.808730" lon="128.601069">
			<ele>32.89</ele>
			<time>2020-01-17T04:56:24.07Z</time>
		</trkpt>
		<trkpt lat="34.809076" lon="128.600884">
			<ele>29.85</ele>
			<time>2020-01-17T04:56:26.59Z</time>
		</trkpt>
		<trkpt lat="34.810559" lon="128.600068">
			<ele>28.46</ele>
			<time>2020-01-17T04:56:37.44Z</time>
		</trkpt>
		<trkpt lat="34.811026" lon="128.599834">
			<ele>27.59</ele>
			<time>2020-01-17T04:56:40.81Z</time>
		</trkpt>
		<trkpt lat="34.811140" lon="128.599781">
			<ele>26.78</ele>
			<time>2020-01-17T04:56:41.62Z</time>
		</trkpt>
		<trkpt lat="34.811246" lon="128.599827">
			<ele>26.78</ele>
			<time>2020-01-17T04:56:42.37Z</time>
		</trkpt>
		<trkpt lat="34.811338" lon="128.599872">
			<ele>26.78</ele>
			<time>2020-01-17T04:56:43.03Z</time>
		</trkpt>
		<trkpt lat="34.811411" lon="128.599944">
			<ele>24.74</ele>
			<time>2020-01-17T04:56:43.66Z</time>
		</trkpt>
		<trkpt lat="34.811987" lon="128.600338">
			<ele>21.77</ele>
			<time>2020-01-17T04:56:48.06Z</time>
		</trkpt>
		<trkpt lat="34.812051" lon="128.600355">
			<ele>21.48</ele>
			<time>2020-01-17T04:56:48.50Z</time>
		</trkpt>
		<trkpt lat="34.812070" lon="128.600363">
			<ele>21.32</ele>
			<time>2020-01-17T04:56:48.63Z</time>
		</trkpt>
		<trkpt lat="34.812095" lon="128.600376">
			<ele>21.29</ele>
			<time>2020-01-17T04:56:48.81Z</time>
		</trkpt>
		<trkpt lat="34.812127" lon="128.600392">
			<ele>21.21</ele>
			<time>2020-01-17T04:56:49.05Z</time>
		</trkpt>
		<trkpt lat="34.812650" lon="128.600713">
			<ele>21.94</ele>
			<time>2020-01-17T04:56:52.95Z</time>
		</trkpt>
		<trkpt lat="34.812908" lon="128.600846">
			<ele>21.94</ele>
			<time>2020-01-17T04:56:54.82Z</time>
		</trkpt>
		<trkpt lat="34.813088" lon="128.601013">
			<ele>21.94</ele>
			<time>2020-01-17T04:56:56.33Z</time>
		</trkpt>
		<trkpt lat="34.813208" lon="128.601140">
			<ele>21.94</ele>
			<time>2020-01-17T04:56:57.39Z</time>
		</trkpt>
		<trkpt lat="34.813263" lon="128.601211">
			<ele>23.26</ele>
			<time>2020-01-17T04:56:57.92Z</time>
		</trkpt>
		<trkpt lat="34.813317" lon="128.601297">
			<ele>23.49</ele>
			<time>2020-01-17T04:56:58.51Z</time>
		</trkpt>
		<trkpt lat="34.814127" lon="128.602819">
			<ele>21.18</ele>
			<time>2020-01-17T04:57:08.44Z</time>
		</trkpt>
		<trkpt lat="34.814198" lon="128.602903">
			<ele>21.18</ele>
			<time>2020-01-17T04:57:09.10Z</time>
		</trkpt>
		<trkpt lat="34.814272" lon="128.602971">
			<ele>20.89</ele>
			<time>2020-01-17T04:57:09.72Z</time>
		</trkpt>
		<trkpt lat="34.814345" lon="128.603025">
			<ele>20.46</ele>
			<time>2020-01-17T04:57:10.29Z</time>
		</trkpt>
		<trkpt lat="34.814417" lon="128.603072">
			<ele>19.13</ele>
			<time>2020-01-17T04:57:10.83Z</time>
		</trkpt>
		<trkpt lat="34.814494" lon="128.603114">
			<ele>19.13</ele>
			<time>2020-01-17T04:57:11.39Z</time>
		</trkpt>
		<trkpt lat="34.815490" lon="128.603606">
			<ele>16.71</ele>
			<time>2020-01-17T04:57:18.56Z</time>
		</trkpt>
		<trkpt lat="34.815556" lon="128.603601">
			<ele>16.71</ele>
			<time>2020-01-17T04:57:19Z</time>
		</trkpt>
		<trkpt lat="34.815618" lon="128.603606">
			<ele>16.71</ele>
			<time>2020-01-17T04:57:19.41Z</time>
		</trkpt>
		<trkpt lat="34.815898" lon="128.603619">
			<ele>18.89</ele>
			<time>2020-01-17T04:57:21.28Z</time>
		</trkpt>
		<trkpt lat="34.817080" lon="128.603695">
			<ele>19.06</ele>
			<time>2020-01-17T04:57:29.17Z</time>
		</trkpt>
		<trkpt lat="34.817231" lon="128.603726">
			<ele>19.06</ele>
			<time>2020-01-17T04:57:30.20Z</time>
		</trkpt>
		<trkpt lat="34.817495" lon="128.603841">
			<ele>19.06</ele>
			<time>2020-01-17T04:57:32.06Z</time>
		</trkpt>
		<trkpt lat="34.817836" lon="128.603983">
			<ele>19.06</ele>
			<time>2020-01-17T04:57:34.47Z</time>
		</trkpt>
		<trkpt lat="34.819218" lon="128.604562">
			<ele>12.25</ele>
			<time>2020-01-17T04:57:44.21Z</time>
		</trkpt>
		<trkpt lat="34.819755" lon="128.604770">
			<ele>11.40</ele>
			<time>2020-01-17T04:57:47.97Z</time>
		</trkpt>
		<trkpt lat="34.820387" lon="128.605001">
			<ele>12.64</ele>
			<time>2020-01-17T04:57:52.37Z</time>
		</trkpt>
		<trkpt lat="34.820772" lon="128.605138">
			<ele>10.45</ele>
			<time>2020-01-17T04:57:55.04Z</time>
		</trkpt>
		<trkpt lat="34.820913" lon="128.605176">
			<ele>9.66</ele>
			<time>2020-01-17T04:57:56Z</time>
		</trkpt>
		<trkpt lat="34.821074" lon="128.605178">
			<ele>9.66</ele>
			<time>2020-01-17T04:57:57.08Z</time>
		</trkpt>
		<trkpt lat="34.821248" lon="128.605154">
			<ele>9.66</ele>
			<time>2020-01-17T04:57:58.24Z</time>
		</trkpt>
		<trkpt lat="34.821377" lon="128.605113">
			<ele>9.66</ele>
			<time>2020-01-17T04:57:59.13Z</time>
		</trkpt>
		<trkpt lat="34.821545" lon="128.605027">
			<ele>9.66</ele>
			<time>2020-01-17T04:58:00.34Z</time>
		</trkpt>
		<trkpt lat="34.821660" lon="128.604976">
			<ele>9.66</ele>
			<time>2020-01-17T04:58:01.16Z</time>
		</trkpt>
		<trkpt lat="34.821794" lon="128.604891">
			<ele>9.66</ele>
			<time>2020-01-17T04:58:02.17Z</time>
		</trkpt>
		<trkpt lat="34.821948" lon="128.604904">
			<ele>9.66</ele>
			<time>2020-01-17T04:58:03.20Z</time>
		</trkpt>
		<trkpt lat="34.822035" lon="128.604931">
			<ele>9.66</ele>
			<time>2020-01-17T04:58:03.80Z</time>
		</trkpt>
		<trkpt lat="34.822125" lon="128.605160">
			<ele>9.66</ele>
			<time>2020-01-17T04:58:05.19Z</time>
		</trkpt>
		<trkpt lat="34.822210" lon="128.605415">
			<ele>9.66</ele>
			<time>2020-01-17T04:58:06.69Z</time>
		</trkpt>
		<trkpt lat="34.822381" lon="128.605419">
			<ele>9.66</ele>
			<time>2020-01-17T04:58:07.83Z</time>
		</trkpt>
		<trkpt lat="34.822618" lon="128.605430">
			<ele>9.66</ele>
			<time>2020-01-17T04:58:09.42Z</time>
		</trkpt>
		<trkpt lat="34.822970" lon="128.605333">
			<ele>9.66</ele>
			<time>2020-01-17T04:58:11.82Z</time>
		</trkpt>
		<trkpt lat="34.823162" lon="128.605340">
			<ele>9.66</ele>
			<time>2020-01-17T04:58:13.11Z</time>
		</trkpt>
		<trkpt lat="34.823768" lon="128.605269">
			<ele>9.66</ele>
			<time>2020-01-17T04:58:17.16Z</time>
		</trkpt>
		<trkpt lat="34.824631" lon="128.605160">
			<ele>9.66</ele>
			<time>2020-01-17T04:58:22.95Z</time>
		</trkpt>
		<trkpt lat="34.825303" lon="128.605063">
			<ele>9.66</ele>
			<time>2020-01-17T04:58:27.46Z</time>
		</trkpt>
		<trkpt lat="34.825550" lon="128.604986">
			<ele>9.66</ele>
			<time>2020-01-17T04:58:29.16Z</time>
		</trkpt>
		<trkpt lat="34.826370" lon="128.604625">
			<ele>9.66</ele>
			<time>2020-01-17T04:58:34.97Z</time>
		</trkpt>
		<trkpt lat="34.827017" lon="128.604470">
			<ele>9.66</ele>
			<time>2020-01-17T04:58:39.37Z</time>
		</trkpt>
		<trkpt lat="34.827719" lon="128.604416">
			<ele>9.66</ele>
			<time>2020-01-17T04:58:44.06Z</time>
		</trkpt>
		<trkpt lat="34.828400" lon="128.604329">
			<ele>9.66</ele>
			<time>2020-01-17T04:58:48.62Z</time>
		</trkpt>
		<trkpt lat="34.828555" lon="128.604253">
			<ele>9.66</ele>
			<time>2020-01-17T04:58:49.74Z</time>
		</trkpt>
		<trkpt lat="34.828665" lon="128.604148">
			<ele>9.66</ele>
			<time>2020-01-17T04:58:50.67Z</time>
		</trkpt>
		<trkpt lat="34.828824" lon="128.604027">
			<ele>9.66</ele>
			<time>2020-01-17T04:58:51.92Z</time>
		</trkpt>
		<trkpt lat="34.828940" lon="128.603886">
			<ele>9.66</ele>
			<time>2020-01-17T04:58:53.01Z</time>
		</trkpt>
		<trkpt lat="34.829036" lon="128.603790">
			<ele>9.66</ele>
			<time>2020-01-17T04:58:53.84Z</time>
		</trkpt>
		<trkpt lat="34.829085" lon="128.603738">
			<ele>9.66</ele>
			<time>2020-01-17T04:58:54.27Z</time>
		</trkpt>
		<trkpt lat="34.829195" lon="128.603584">
			<ele>9.66</ele>
			<time>2020-01-17T04:58:55.39Z</time>
		</trkpt>
		<trkpt lat="34.829486" lon="128.602895">
			<ele>9.66</ele>
			<time>2020-01-17T04:58:59.63Z</time>
		</trkpt>
		<trkpt lat="34.829849" lon="128.601690">
			<ele>8.42</ele>
			<time>2020-01-17T04:59:06.65Z</time>
		</trkpt>
		<trkpt lat="34.830248" lon="128.600355">
			<ele>6.95</ele>
			<time>2020-01-17T04:59:14.43Z</time>
		</trkpt>
		<trkpt lat="34.830322" lon="128.600114">
			<ele>6.95</ele>
			<time>2020-01-17T04:59:15.84Z</time>
		</trkpt>
		<trkpt lat="34.830408" lon="128.599947">
			<ele>6.95</ele>
			<time>2020-01-17T04:59:16.92Z</time>
		</trkpt>
		<trkpt lat="34.830629" lon="128.599766">
			<ele>4.46</ele>
			<time>2020-01-17T04:59:18.69Z</time>
		</trkpt>
		<trkpt lat="34.830959" lon="128.599376">
			<ele>4.53</ele>
			<time>2020-01-17T04:59:21.75Z</time>
		</trkpt>
		<trkpt lat="34.831117" lon="128.599149">
			<ele>4.36</ele>
			<time>2020-01-17T04:59:23.38Z</time>
		</trkpt>
		<trkpt lat="34.831118" lon="128.599145">
			<ele>4.52</ele>
			<time>2020-01-17T04:59:23.44Z</time>
		</trkpt>
		<trkpt lat="34.831128" lon="128.599134">
			<ele>4.41</ele>
			<time>2020-01-17T04:59:23.53Z</time>
		</trkpt>
		<trkpt lat="34.831141" lon="128.599120">
			<ele>4.34</ele>
			<time>2020-01-17T04:59:23.65Z</time>
		</trkpt>
		<trkpt lat="34.831401" lon="128.598787">
			<ele>4.31</ele>
			<time>2020-01-17T04:59:26.16Z</time>
		</trkpt>
		<trkpt lat="34.831447" lon="128.598730">
			<ele>4.24</ele>
			<time>2020-01-17T04:59:26.60Z</time>
		</trkpt>
		<trkpt lat="34.831450" lon="128.598726">
			<ele>4.18</ele>
			<time>2020-01-17T04:59:26.66Z</time>
		</trkpt>
		<trkpt lat="34.831465" lon="128.598706">
			<ele>4.14</ele>
			<time>2020-01-17T04:59:26.81Z</time>
		</trkpt>
		<trkpt lat="34.831680" lon="128.598485">
			<ele>4.10</ele>
			<time>2020-01-17T04:59:28.68Z</time>
		</trkpt>
		<trkpt lat="34.832012" lon="128.598077">
			<ele>4.10</ele>
			<time>2020-01-17T04:59:31.83Z</time>
		</trkpt>
		<trkpt lat="34.832520" lon="128.597475">
			<ele>4.34</ele>
			<time>2020-01-17T04:59:36.55Z</time>
		</trkpt>
		<trkpt lat="34.832921" lon="128.596996">
			<ele>4.82</ele>
			<time>2020-01-17T04:59:40.30Z</time>
		</trkpt>
		<trkpt lat="34.833160" lon="128.596701">
			<ele>4.33</ele>
			<time>2020-01-17T04:59:42.57Z</time>
		</trkpt>
		<trkpt lat="34.833179" lon="128.596663">
			<ele>4.66</ele>
			<time>2020-01-17T04:59:42.81Z</time>
		</trkpt>
		<trkpt lat="34.833298" lon="128.596537">
			<ele>4.60</ele>
			<time>2020-01-17T04:59:43.86Z</time>
		</trkpt>
		<trkpt lat="34.833584" lon="128.596188">
			<ele>4.86</ele>
			<time>2020-01-17T04:59:46.56Z</time>
		</trkpt>
		<trkpt lat="34.833896" lon="128.595805">
			<ele>4.88</ele>
			<time>2020-01-17T04:59:49.51Z</time>
		</trkpt>
		<trkpt lat="34.834489" lon="128.595126">
			<ele>4.97</ele>
			<time>2020-01-17T04:59:54.94Z</time>
		</trkpt>
		<trkpt lat="34.834618" lon="128.594945">
			<ele>4.97</ele>
			<time>2020-01-17T04:59:56.25Z</time>
		</trkpt>
		<trkpt lat="34.834782" lon="128.595118">
			<ele>4.97</ele>
			<time>2020-01-17T04:59:57.69Z</time>
		</trkpt>
		<trkpt lat="34.835156" lon="128.595584">
			<ele>4.97</ele>
			<time>2020-01-17T05:00:01.26Z</time>
		</trkpt>
		<trkpt lat="34.835343" lon="128.595849">
			<ele>5.84</ele>
			<time>2020-01-17T05:00:03.17Z</time>
		</trkpt>
		<trkpt lat="34.835459" lon="128.595968">
			<ele>5.56</ele>
			<time>2020-01-17T05:00:04.18Z</time>
		</trkpt>
		<trkpt lat="34.835458" lon="128.595967">
			<ele>5.42</ele>
			<time>2020-01-17T05:00:04.24Z</time>
		</trkpt>
		<trkpt lat="34.835626" lon="128.596023">
			<ele>5.42</ele>
			<time>2020-01-17T05:00:05.40Z</time>
		</trkpt>
		<trkpt lat="34.835674" lon="128.596025">
			<ele>5.42</ele>
			<time>2020-01-17T05:00:05.73Z</time>
		</trkpt>
		<trkpt lat="34.837222" lon="128.594733">
			<ele>7.13</ele>
			<time>2020-01-17T05:00:18.24Z</time>
		</trkpt>
		<trkpt lat="34.837262" lon="128.594717">
			<ele>7.27</ele>
			<time>2020-01-17T05:00:18.52Z</time>
		</trkpt>
		<trkpt lat="34.837301" lon="128.594703">
			<ele>7.54</ele>
			<time>2020-01-17T05:00:18.79Z</time>
		</trkpt>
		<trkpt lat="34.837400" lon="128.594663">
			<ele>7.38</ele>
			<time>2020-01-17T05:00:19.48Z</time>
		</trkpt>
		<trkpt lat="34.837552" lon="128.594554">
			<ele>7.78</ele>
			<time>2020-01-17T05:00:20.66Z</time>
		</trkpt>
		<trkpt lat="34.837603" lon="128.594560">
			<ele>8.39</ele>
			<time>2020-01-17T05:00:21Z</time>
		</trkpt>
		<trkpt lat="34.838040" lon="128.594772">
			<ele>8.39</ele>
			<time>2020-01-17T05:00:24.14Z</time>
		</trkpt>
		<trkpt lat="34.838391" lon="128.594826">
			<ele>8.53</ele>
			<time>2020-01-17T05:00:26.49Z</time>
		</trkpt>
		<trkpt lat="34.838835" lon="128.594823">
			<ele>9.43</ele>
			<time>2020-01-17T05:00:29.46Z</time>
		</trkpt>
		<trkpt lat="34.839098" lon="128.594853">
			<ele>9.23</ele>
			<time>2020-01-17T05:00:31.22Z</time>
		</trkpt>
		<trkpt lat="34.839280" lon="128.594822">
			<ele>9.06</ele>
			<time>2020-01-17T05:00:32.44Z</time>
		</trkpt>
		<trkpt lat="34.839485" lon="128.594779">
			<ele>9.06</ele>
			<time>2020-01-17T05:00:33.83Z</time>
		</trkpt>
		<trkpt lat="34.839665" lon="128.594718">
			<ele>9.06</ele>
			<time>2020-01-17T05:00:35.08Z</time>
		</trkpt>
		<trkpt lat="34.839792" lon="128.594600">
			<ele>9.45</ele>
			<time>2020-01-17T05:00:36.14Z</time>
		</trkpt>
		<trkpt lat="34.839936" lon="128.594484">
			<ele>8.95</ele>
			<time>2020-01-17T05:00:37.29Z</time>
		</trkpt>
		<trkpt lat="34.839991" lon="128.594459">
			<ele>9.07</ele>
			<time>2020-01-17T05:00:37.68Z</time>
		</trkpt>
		<trkpt lat="34.840052" lon="128.594444">
			<ele>9.21</ele>
			<time>2020-01-17T05:00:38.10Z</time>
		</trkpt>
		<trkpt lat="34.840180" lon="128.594413">
			<ele>8.78</ele>
			<time>2020-01-17T05:00:38.97Z</time>
		</trkpt>
		<trkpt lat="34.840244" lon="128.594390">
			<ele>9.18</ele>
			<time>2020-01-17T05:00:39.41Z</time>
		</trkpt>
		<trkpt lat="34.840307" lon="128.594361">
			<ele>9.38</ele>
			<time>2020-01-17T05:00:39.86Z</time>
		</trkpt>
		<trkpt lat="34.840464" lon="128.594262">
			<ele>9.38</ele>
			<time>2020-01-17T05:00:41.04Z</time>
		</trkpt>
		<trkpt lat="34.840556" lon="128.594170">
			<ele>9.38</ele>
			<time>2020-01-17T05:00:41.83Z</time>
		</trkpt>
		<trkpt lat="34.840667" lon="128.593985">
			<ele>9.38</ele>
			<time>2020-01-17T05:00:43.08Z</time>
		</trkpt>
		<trkpt lat="34.840806" lon="128.593862">
			<ele>9.38</ele>
			<time>2020-01-17T05:00:44.23Z</time>
		</trkpt>
		<trkpt lat="34.840907" lon="128.593869">
			<ele>9.38</ele>
			<time>2020-01-17T05:00:44.90Z</time>
		</trkpt>
		<trkpt lat="34.841148" lon="128.593976">
			<ele>9.38</ele>
			<time>2020-01-17T05:00:46.62Z</time>
		</trkpt>
		<trkpt lat="34.841264" lon="128.594000">
			<ele>9.38</ele>
			<time>2020-01-17T05:00:47.40Z</time>
		</trkpt>
		<trkpt lat="34.841384" lon="128.593998">
			<ele>9.38</ele>
			<time>2020-01-17T05:00:48.20Z</time>
		</trkpt>
		<trkpt lat="34.841539" lon="128.593960">
			<ele>9.38</ele>
			<time>2020-01-17T05:00:49.25Z</time>
		</trkpt>
		<trkpt lat="34.841719" lon="128.593831">
			<ele>9.76</ele>
			<time>2020-01-17T05:00:50.64Z</time>
		</trkpt>
		<trkpt lat="34.841908" lon="128.593763">
			<ele>9.76</ele>
			<time>2020-01-17T05:00:51.96Z</time>
		</trkpt>
		<trkpt lat="34.842079" lon="128.593686">
			<ele>9.76</ele>
			<time>2020-01-17T05:00:53.17Z</time>
		</trkpt>
		<trkpt lat="34.842173" lon="128.593518">
			<ele>7.42</ele>
			<time>2020-01-17T05:00:54.28Z</time>
		</trkpt>
		<trkpt lat="34.842259" lon="128.593367">
			<ele>8.54</ele>
			<time>2020-01-17T05:00:55.29Z</time>
		</trkpt>
		<trkpt lat="34.842417" lon="128.593167">
			<ele>8.54</ele>
			<time>2020-01-17T05:00:56.81Z</time>
		</trkpt>
		<trkpt lat="34.842498" lon="128.593006">
			<ele>8.54</ele>
			<time>2020-01-17T05:00:57.84Z</time>
		</trkpt>
		<trkpt lat="34.842541" lon="128.592795">
			<ele>8.54</ele>
			<time>2020-01-17T05:00:59.03Z</time>
		</trkpt>
		<trkpt lat="34.842571" lon="128.592531">
			<ele>8.54</ele>
			<time>2020-01-17T05:01:00.49Z</time>
		</trkpt>
		<trkpt lat="34.842591" lon="128.592444">
			<ele>8.54</ele>
			<time>2020-01-17T05:01:00.99Z</time>
		</trkpt>
		<trkpt lat="34.842490" lon="128.592125">
			<ele>8.54</ele>
			<time>2020-01-17T05:01:02.85Z</time>
		</trkpt>
		<trkpt lat="34.842398" lon="128.591986">
			<ele>7.22</ele>
			<time>2020-01-17T05:01:03.84Z</time>
		</trkpt>
		<trkpt lat="34.842207" lon="128.591814">
			<ele>7.22</ele>
			<time>2020-01-17T05:01:05.42Z</time>
		</trkpt>
		<trkpt lat="34.842080" lon="128.591715">
			<ele>7.22</ele>
			<time>2020-01-17T05:01:06.42Z</time>
		</trkpt>
		<trkpt lat="34.841958" lon="128.591599">
			<ele>7.22</ele>
			<time>2020-01-17T05:01:07.45Z</time>
		</trkpt>
		<trkpt lat="34.841731" lon="128.591299">
			<ele>7.22</ele>
			<time>2020-01-17T05:01:09.69Z</time>
		</trkpt>
		<trkpt lat="34.841727" lon="128.591294">
			<ele>7.22</ele>
			<time>2020-01-17T05:01:09.75Z</time>
		</trkpt>
		<trkpt lat="34.841476" lon="128.590790">
			<ele>7.22</ele>
			<time>2020-01-17T05:01:12.98Z</time>
		</trkpt>
		<trkpt lat="34.841145" lon="128.590153">
			<ele>7.22</ele>
			<time>2020-01-17T05:01:17.10Z</time>
		</trkpt>
		<trkpt lat="34.840909" lon="128.589584">
			<ele>8.53</ele>
			<time>2020-01-17T05:01:20.59Z</time>
		</trkpt>
		<trkpt lat="34.840835" lon="128.589022">
			<ele>8.53</ele>
			<time>2020-01-17T05:01:23.70Z</time>
		</trkpt>
		<trkpt lat="34.840798" lon="128.588397">
			<ele>8.38</ele>
			<time>2020-01-17T05:01:27.13Z</time>
		</trkpt>
		<trkpt lat="34.840735" lon="128.588092">
			<ele>8.38</ele>
			<time>2020-01-17T05:01:28.86Z</time>
		</trkpt>
		<trkpt lat="34.840704" lon="128.587861">
			<ele>8.38</ele>
			<time>2020-01-17T05:01:30.13Z</time>
		</trkpt>
		<trkpt lat="34.840728" lon="128.587569">
			<ele>8.30</ele>
			<time>2020-01-17T05:01:31.74Z</time>
		</trkpt>
		<trkpt lat="34.840714" lon="128.587424">
			<ele>6.25</ele>
			<time>2020-01-17T05:01:32.54Z</time>
		</trkpt>
		<trkpt lat="34.840717" lon="128.587418">
			<ele>6.42</ele>
			<time>2020-01-17T05:01:32.60Z</time>
		</trkpt>
		<trkpt lat="34.841204" lon="128.587531">
			<ele>4.38</ele>
			<time>2020-01-17T05:01:35.90Z</time>
		</trkpt>
		<trkpt lat="34.841634" lon="128.587653">
			<ele>4.64</ele>
			<time>2020-01-17T05:01:38.85Z</time>
		</trkpt>
		<trkpt lat="34.841936" lon="128.587745">
			<ele>4.40</ele>
			<time>2020-01-17T05:01:40.92Z</time>
		</trkpt>
		<trkpt lat="34.841936" lon="128.587745">
			<ele>4.56</ele>
			<time>2020-01-17T05:01:40.98Z</time>
		</trkpt>
		<trkpt lat="34.841960" lon="128.587751">
			<ele>4.31</ele>
			<time>2020-01-17T05:01:41.15Z</time>
		</trkpt>
		<trkpt lat="34.842238" lon="128.587824">
			<ele>3.97</ele>
			<time>2020-01-17T05:01:43.04Z</time>
		</trkpt>
		<trkpt lat="34.842591" lon="128.587925">
			<ele>4.48</ele>
			<time>2020-01-17T05:01:45.46Z</time>
		</trkpt>
		<trkpt lat="34.842634" lon="128.587941">
			<ele>4.28</ele>
			<time>2020-01-17T05:01:45.76Z</time>
		</trkpt>
		<trkpt lat="34.842634" lon="128.587940">
			<ele>4.25</ele>
			<time>2020-01-17T05:01:45.82Z</time>
		</trkpt>
		<trkpt lat="34.842639" lon="128.587941">
			<ele>4.55</ele>
			<time>2020-01-17T05:01:45.88Z</time>
		</trkpt>
		<trkpt lat="34.842663" lon="128.587950">
			<ele>4.46</ele>
			<time>2020-01-17T05:01:46.05Z</time>
		</trkpt>
		<trkpt lat="34.843154" lon="128.588086">
			<ele>4.70</ele>
			<time>2020-01-17T05:01:49.40Z</time>
		</trkpt>
		<trkpt lat="34.843801" lon="128.588257">
			<ele>4.50</ele>
			<time>2020-01-17T05:01:53.82Z</time>
		</trkpt>
		<trkpt lat="34.844557" lon="128.588495">
			<ele>4.25</ele>
			<time>2020-01-17T05:01:59.02Z</time>
		</trkpt>
		<trkpt lat="34.844595" lon="128.588503">
			<ele>4.09</ele>
			<time>2020-01-17T05:01:59.28Z</time>
		</trkpt>
		<trkpt lat="34.845193" lon="128.588669">
			<ele>4.63</ele>
			<time>2020-01-17T05:02:03.37Z</time>
		</trkpt>
		<trkpt lat="34.845505" lon="128.588755">
			<ele>4.58</ele>
			<time>2020-01-17T05:02:05.50Z</time>
		</trkpt>
		<trkpt lat="34.846070" lon="128.588918">
			<ele>4.42</ele>
			<time>2020-01-17T05:02:09.37Z</time>
		</trkpt>
		<trkpt lat="34.846356" lon="128.588985">
			<ele>4.72</ele>
			<time>2020-01-17T05:02:11.31Z</time>
		</trkpt>
		<trkpt lat="34.846548" lon="128.589061">
			<ele>5.02</ele>
			<time>2020-01-17T05:02:12.66Z</time>
		</trkpt>
		<trkpt lat="34.846552" lon="128.589063">
			<ele>4.67</ele>
			<time>2020-01-17T05:02:12.72Z</time>
		</trkpt>
		<trkpt lat="34.846579" lon="128.589071">
			<ele>5.05</ele>
			<time>2020-01-17T05:02:12.90Z</time>
		</trkpt>
		<trkpt lat="34.846610" lon="128.589083">
			<ele>4.76</ele>
			<time>2020-01-17T05:02:13.12Z</time>
		</trkpt>
		<trkpt lat="34.846625" lon="128.589089">
			<ele>4.59</ele>
			<time>2020-01-17T05:02:13.23Z</time>
		</trkpt>
		<trkpt lat="34.846666" lon="128.589089">
			<ele>4.74</ele>
			<time>2020-01-17T05:02:13.50Z</time>
		</trkpt>
		<trkpt lat="34.847055" lon="128.589220">
			<ele>5.56</ele>
			<time>2020-01-17T05:02:16.19Z</time>
		</trkpt>
		<trkpt lat="34.847091" lon="128.589185">
			<ele>5.71</ele>
			<time>2020-01-17T05:02:16.50Z</time>
		</trkpt>
		<trkpt lat="34.847371" lon="128.589219">
			<ele>5.71</ele>
			<time>2020-01-17T05:02:18.37Z</time>
		</trkpt>
		<trkpt lat="34.847439" lon="128.589230">
			<ele>5.71</ele>
			<time>2020-01-17T05:02:18.83Z</time>
		</trkpt>
		<trkpt lat="34.847557" lon="128.588852">
			<ele>5.71</ele>
			<time>2020-01-17T05:02:21.04Z</time>
		</trkpt>
		<extensions>
			<gte:name>#142</gte:name>
			<gte:color>#fbaf00</gte:color>
		</extensions>
	</trkseg>
</trk>
</gpx>