<?xml version="1.0" encoding="UTF-8"?>
<gpx version="1.1" creator="GPS Visualizer Sandbox https://www.gpsvisualizer.com/draw/" xmlns="http://www.topografix.com/GPX/1/1" xmlns:xsi="http://www.w3.org/2001/XMLSchema-instance" xsi:schemaLocation="http://www.topografix.com/GPX/1/1 http://www.topografix.com/GPX/1/1/gpx.xsd">
	<trk>
		<name>남파랑길-048-하동군 하동읍 광평리 섬진교~광양시 진월면 선소리 진월초등학교- 13.7km_20201101(시점변경)</name>
		<desc>Length: 13.68 km (8.501 mi)</desc>
		<extensions>
			<line xmlns="http://www.topografix.com/GPX/gpx_style/0/2"><color>21ff06</color></line>
		</extensions>
		<trkseg>
			<trkpt lat="35.0642757" lon="127.7418916"></trkpt>
			<trkpt lat="35.0642264" lon="127.7416193"></trkpt>
			<trkpt lat="35.0641355" lon="127.741224"></trkpt>
			<trkpt lat="35.0638414" lon="127.7401158"></trkpt>
			<trkpt lat="35.0637925" lon="127.7399533"></trkpt>
			<trkpt lat="35.0637154" lon="127.7396514"></trkpt>
			<trkpt lat="35.0635556" lon="127.73907"></trkpt>
			<trkpt lat="35.0635015" lon="127.7388925"></trkpt>
			<trkpt lat="35.0634223" lon="127.7385923"></trkpt>
			<trkpt lat="35.0632753" lon="127.7380825"></trkpt>
			<trkpt lat="35.0631519" lon="127.737735"></trkpt>
			<trkpt lat="35.0630884" lon="127.7375212"></trkpt>
			<trkpt lat="35.0630259" lon="127.7373384"></trkpt>
			<trkpt lat="35.0630102" lon="127.7372697"></trkpt>
			<trkpt lat="35.0630057" lon="127.7372051"></trkpt>
			<trkpt lat="35.0630123" lon="127.7371426"></trkpt>
			<trkpt lat="35.0630469" lon="127.7370517"></trkpt>
			<trkpt lat="35.0631003" lon="127.7369743"></trkpt>
			<trkpt lat="35.0631487" lon="127.7369271"></trkpt>
			<trkpt lat="35.0631947" lon="127.7369196"></trkpt>
			<trkpt lat="35.0632519" lon="127.7369442"></trkpt>
			<trkpt lat="35.0633042" lon="127.7370189"></trkpt>
			<trkpt lat="35.0633524" lon="127.7371144"></trkpt>
			<trkpt lat="35.0634928" lon="127.7374625"></trkpt>
			<trkpt lat="35.063542" lon="127.737606"></trkpt>
			<trkpt lat="35.0635872" lon="127.7376945"></trkpt>
			<trkpt lat="35.0635985" lon="127.7377475"></trkpt>
			<trkpt lat="35.0635617" lon="127.7379009"></trkpt>
			<trkpt lat="35.0635456" lon="127.7379364"></trkpt>
			<trkpt lat="35.0635265" lon="127.7379462"></trkpt>
			<trkpt lat="35.0634137" lon="127.7379554"></trkpt>
			<trkpt lat="35.0632853" lon="127.7379888"></trkpt>
			<trkpt lat="35.0631184" lon="127.738068"></trkpt>
			<trkpt lat="35.0627485" lon="127.7383035"></trkpt>
			<trkpt lat="35.0626481" lon="127.7383534"></trkpt>
			<trkpt lat="35.0620767" lon="127.7386821"></trkpt>
			<trkpt lat="35.0616921" lon="127.7388911"></trkpt>
			<trkpt lat="35.0613921" lon="127.7390717"></trkpt>
			<trkpt lat="35.0609741" lon="127.739396"></trkpt>
			<trkpt lat="35.0604009" lon="127.739884"></trkpt>
			<trkpt lat="35.0602496" lon="127.7399956"></trkpt>
			<trkpt lat="35.0598639" lon="127.7402432"></trkpt>
			<trkpt lat="35.0598113" lon="127.7403442"></trkpt>
			<trkpt lat="35.0597521" lon="127.7404908"></trkpt>
			<trkpt lat="35.0596896" lon="127.7406162"></trkpt>
			<trkpt lat="35.0596036" lon="127.7407552"></trkpt>
			<trkpt lat="35.0595427" lon="127.7408806"></trkpt>
			<trkpt lat="35.0593365" lon="127.7412666"></trkpt>
			<trkpt lat="35.0590595" lon="127.7418156"></trkpt>
			<trkpt lat="35.0588316" lon="127.7423017"></trkpt>
			<trkpt lat="35.058774" lon="127.7424521"></trkpt>
			<trkpt lat="35.0586874" lon="127.7428412"></trkpt>
			<trkpt lat="35.0586694" lon="127.7430414"></trkpt>
			<trkpt lat="35.0586402" lon="127.7432166"></trkpt>
			<trkpt lat="35.0585715" lon="127.74347"></trkpt>
			<trkpt lat="35.0585091" lon="127.7436166"></trkpt>
			<trkpt lat="35.0583655" lon="127.7439175"></trkpt>
			<trkpt lat="35.058189" lon="127.7442649"></trkpt>
			<trkpt lat="35.0579935" lon="127.7446963"></trkpt>
			<trkpt lat="35.0579474" lon="127.7448103"></trkpt>
			<trkpt lat="35.0579147" lon="127.7449109"></trkpt>
			<trkpt lat="35.0578871" lon="127.7450473"></trkpt>
			<trkpt lat="35.0578448" lon="127.7452047"></trkpt>
			<trkpt lat="35.0577425" lon="127.7458557"></trkpt>
			<trkpt lat="35.0577088" lon="127.7460012"></trkpt>
			<trkpt lat="35.0576168" lon="127.7462892"></trkpt>
			<trkpt lat="35.0575065" lon="127.7465893"></trkpt>
			<trkpt lat="35.0574034" lon="127.7468459"></trkpt>
			<trkpt lat="35.057212" lon="127.7472408"></trkpt>
			<trkpt lat="35.0571332" lon="127.7474404"></trkpt>
			<trkpt lat="35.0570861" lon="127.7476073"></trkpt>
			<trkpt lat="35.0569916" lon="127.7478893"></trkpt>
			<trkpt lat="35.0569845" lon="127.7479478"></trkpt>
			<trkpt lat="35.057034" lon="127.7480598"></trkpt>
			<trkpt lat="35.0570564" lon="127.748148"></trkpt>
			<trkpt lat="35.0570457" lon="127.7482139"></trkpt>
			<trkpt lat="35.0570189" lon="127.748271"></trkpt>
			<trkpt lat="35.0569824" lon="127.7483236"></trkpt>
			<trkpt lat="35.056909" lon="127.7483615"></trkpt>
			<trkpt lat="35.0568196" lon="127.7483875"></trkpt>
			<trkpt lat="35.056772" lon="127.7484192"></trkpt>
			<trkpt lat="35.0566782" lon="127.748559"></trkpt>
			<trkpt lat="35.0565976" lon="127.7486314"></trkpt>
			<trkpt lat="35.0565483" lon="127.7486665"></trkpt>
			<trkpt lat="35.0564063" lon="127.7487063"></trkpt>
			<trkpt lat="35.0563441" lon="127.748783"></trkpt>
			<trkpt lat="35.0562747" lon="127.7489002"></trkpt>
			<trkpt lat="35.0562089" lon="127.7489949"></trkpt>
			<trkpt lat="35.0561223" lon="127.7490883"></trkpt>
			<trkpt lat="35.0559245" lon="127.7492616"></trkpt>
			<trkpt lat="35.0558293" lon="127.7493685"></trkpt>
			<trkpt lat="35.0556262" lon="127.7496419"></trkpt>
			<trkpt lat="35.055464" lon="127.7498331"></trkpt>
			<trkpt lat="35.0553958" lon="127.7499233"></trkpt>
			<trkpt lat="35.0551291" lon="127.7503546"></trkpt>
			<trkpt lat="35.0550634" lon="127.7504748"></trkpt>
			<trkpt lat="35.0548519" lon="127.7509043"></trkpt>
			<trkpt lat="35.0547193" lon="127.7512153"></trkpt>
			<trkpt lat="35.0546236" lon="127.7514973"></trkpt>
			<trkpt lat="35.054568" lon="127.7516968"></trkpt>
			<trkpt lat="35.054409" lon="127.7523744"></trkpt>
			<trkpt lat="35.0543682" lon="127.7525828"></trkpt>
			<trkpt lat="35.0543181" lon="127.7529274"></trkpt>
			<trkpt lat="35.0542413" lon="127.7533366"></trkpt>
			<trkpt lat="35.0542147" lon="127.753437"></trkpt>
			<trkpt lat="35.0541237" lon="127.7539676"></trkpt>
			<trkpt lat="35.0540553" lon="127.7543289"></trkpt>
			<trkpt lat="35.0540267" lon="127.7545282"></trkpt>
			<trkpt lat="35.0539381" lon="127.7550169"></trkpt>
			<trkpt lat="35.0538707" lon="127.7553317"></trkpt>
			<trkpt lat="35.0538038" lon="127.7557558"></trkpt>
			<trkpt lat="35.0537098" lon="127.7561967"></trkpt>
			<trkpt lat="35.053635" lon="127.7566339"></trkpt>
			<trkpt lat="35.0533296" lon="127.758266"></trkpt>
			<trkpt lat="35.0532501" lon="127.7587425"></trkpt>
			<trkpt lat="35.0531437" lon="127.7592793"></trkpt>
			<trkpt lat="35.0530458" lon="127.7598443"></trkpt>
			<trkpt lat="35.0530125" lon="127.7600008"></trkpt>
			<trkpt lat="35.0529574" lon="127.7603277"></trkpt>
			<trkpt lat="35.0529181" lon="127.7605074"></trkpt>
			<trkpt lat="35.0528632" lon="127.7608129"></trkpt>
			<trkpt lat="35.0528015" lon="127.7610956"></trkpt>
			<trkpt lat="35.052739" lon="127.7614853"></trkpt>
			<trkpt lat="35.0526524" lon="127.7618938"></trkpt>
			<trkpt lat="35.0525694" lon="127.7621848"></trkpt>
			<trkpt lat="35.0524406" lon="127.7625936"></trkpt>
			<trkpt lat="35.0523785" lon="127.7627653"></trkpt>
			<trkpt lat="35.0521852" lon="127.7632038"></trkpt>
			<trkpt lat="35.0519093" lon="127.7637031"></trkpt>
			<trkpt lat="35.0517503" lon="127.763948"></trkpt>
			<trkpt lat="35.0515413" lon="127.7642282"></trkpt>
			<trkpt lat="35.0514052" lon="127.7643908"></trkpt>
			<trkpt lat="35.0511824" lon="127.7646232"></trkpt>
			<trkpt lat="35.0508635" lon="127.7648974"></trkpt>
			<trkpt lat="35.0505637" lon="127.7651054"></trkpt>
			<trkpt lat="35.0503864" lon="127.765209"></trkpt>
			<trkpt lat="35.0501412" lon="127.7653289"></trkpt>
			<trkpt lat="35.0498333" lon="127.7654294"></trkpt>
			<trkpt lat="35.0496009" lon="127.76549"></trkpt>
			<trkpt lat="35.0493608" lon="127.7655296"></trkpt>
			<trkpt lat="35.0487386" lon="127.7655956"></trkpt>
			<trkpt lat="35.0486858" lon="127.7656104"></trkpt>
			<trkpt lat="35.0485168" lon="127.7657443"></trkpt>
			<trkpt lat="35.0484276" lon="127.7657948"></trkpt>
			<trkpt lat="35.0482565" lon="127.7658472"></trkpt>
			<trkpt lat="35.0479387" lon="127.7659267"></trkpt>
			<trkpt lat="35.0476901" lon="127.7659781"></trkpt>
			<trkpt lat="35.0474274" lon="127.7660178"></trkpt>
			<trkpt lat="35.0470179" lon="127.7660676"></trkpt>
			<trkpt lat="35.046879" lon="127.7660776"></trkpt>
			<trkpt lat="35.0460268" lon="127.7661879"></trkpt>
			<trkpt lat="35.045894" lon="127.7662157"></trkpt>
			<trkpt lat="35.0458643" lon="127.7662363"></trkpt>
			<trkpt lat="35.0458608" lon="127.7662698"></trkpt>
			<trkpt lat="35.0458431" lon="127.766315"></trkpt>
			<trkpt lat="35.0458206" lon="127.7663486"></trkpt>
			<trkpt lat="35.0457885" lon="127.7663662"></trkpt>
			<trkpt lat="35.0457504" lon="127.7663752"></trkpt>
			<trkpt lat="35.0457051" lon="127.7663638"></trkpt>
			<trkpt lat="35.0456549" lon="127.7663277"></trkpt>
			<trkpt lat="35.0456202" lon="127.7662872"></trkpt>
			<trkpt lat="35.0455701" lon="127.7662627"></trkpt>
			<trkpt lat="35.0454259" lon="127.7662607"></trkpt>
			<trkpt lat="35.0451227" lon="127.7662966"></trkpt>
			<trkpt lat="35.0447216" lon="127.7663309"></trkpt>
			<trkpt lat="35.0443167" lon="127.7663859"></trkpt>
			<trkpt lat="35.0437775" lon="127.7664434"></trkpt>
			<trkpt lat="35.0430879" lon="127.7665317"></trkpt>
			<trkpt lat="35.0422825" lon="127.766647"></trkpt>
			<trkpt lat="35.0418924" lon="127.7666896"></trkpt>
			<trkpt lat="35.0410041" lon="127.7668089"></trkpt>
			<trkpt lat="35.0407772" lon="127.7668155"></trkpt>
			<trkpt lat="35.0406652" lon="127.7668284"></trkpt>
			<trkpt lat="35.040562" lon="127.7668834"></trkpt>
			<trkpt lat="35.0404974" lon="127.7668838"></trkpt>
			<trkpt lat="35.040457" lon="127.7668524"></trkpt>
			<trkpt lat="35.0404511" lon="127.7668226"></trkpt>
			<trkpt lat="35.0404567" lon="127.7667823"></trkpt>
			<trkpt lat="35.0404983" lon="127.7667504"></trkpt>
			<trkpt lat="35.0406129" lon="127.7666831"></trkpt>
			<trkpt lat="35.0406917" lon="127.7666247"></trkpt>
			<trkpt lat="35.0407792" lon="127.7665839"></trkpt>
			<trkpt lat="35.0407848" lon="127.7665558"></trkpt>
			<trkpt lat="35.0407646" lon="127.7665366"></trkpt>
			<trkpt lat="35.0403856" lon="127.7665967"></trkpt>
			<trkpt lat="35.0400283" lon="127.7666409"></trkpt>
			<trkpt lat="35.0396335" lon="127.7666801"></trkpt>
			<trkpt lat="35.0394504" lon="127.7666917"></trkpt>
			<trkpt lat="35.0389823" lon="127.7667435"></trkpt>
			<trkpt lat="35.0388344" lon="127.7667707"></trkpt>
			<trkpt lat="35.0386564" lon="127.7667858"></trkpt>
			<trkpt lat="35.0384757" lon="127.7668167"></trkpt>
			<trkpt lat="35.0378899" lon="127.7668833"></trkpt>
			<trkpt lat="35.0377334" lon="127.7669123"></trkpt>
			<trkpt lat="35.0373142" lon="127.7669586"></trkpt>
			<trkpt lat="35.0371233" lon="127.7669878"></trkpt>
			<trkpt lat="35.0368576" lon="127.7670051"></trkpt>
			<trkpt lat="35.0364895" lon="127.7670406"></trkpt>
			<trkpt lat="35.0363014" lon="127.7670733"></trkpt>
			<trkpt lat="35.0362499" lon="127.7671052"></trkpt>
			<trkpt lat="35.035898" lon="127.7671336"></trkpt>
			<trkpt lat="35.0357731" lon="127.767136"></trkpt>
			<trkpt lat="35.035274" lon="127.7672021"></trkpt>
			<trkpt lat="35.0351061" lon="127.7672364"></trkpt>
			<trkpt lat="35.034599" lon="127.7673587"></trkpt>
			<trkpt lat="35.0338687" lon="127.7676132"></trkpt>
			<trkpt lat="35.0335917" lon="127.7676587"></trkpt>
			<trkpt lat="35.0333435" lon="127.7677356"></trkpt>
			<trkpt lat="35.0331823" lon="127.7677751"></trkpt>
			<trkpt lat="35.0330001" lon="127.7678411"></trkpt>
			<trkpt lat="35.0319874" lon="127.7681646"></trkpt>
			<trkpt lat="35.0318354" lon="127.7682356"></trkpt>
			<trkpt lat="35.0308146" lon="127.76861"></trkpt>
			<trkpt lat="35.0306209" lon="127.7686725"></trkpt>
			<trkpt lat="35.0301835" lon="127.7688434"></trkpt>
			<trkpt lat="35.0301255" lon="127.7689065"></trkpt>
			<trkpt lat="35.0300932" lon="127.768973"></trkpt>
			<trkpt lat="35.0300757" lon="127.7690527"></trkpt>
			<trkpt lat="35.0301026" lon="127.7693601"></trkpt>
			<trkpt lat="35.0300931" lon="127.7694458"></trkpt>
			<trkpt lat="35.0300736" lon="127.7695098"></trkpt>
			<trkpt lat="35.030008" lon="127.7696536"></trkpt>
			<trkpt lat="35.0298754" lon="127.7698413"></trkpt>
			<trkpt lat="35.0295254" lon="127.7702424"></trkpt>
			<trkpt lat="35.0294065" lon="127.770389"></trkpt>
			<trkpt lat="35.0293495" lon="127.7704786"></trkpt>
			<trkpt lat="35.0292172" lon="127.7707315"></trkpt>
			<trkpt lat="35.0290311" lon="127.7709956"></trkpt>
			<trkpt lat="35.0288325" lon="127.7712162"></trkpt>
			<trkpt lat="35.0281823" lon="127.7717726"></trkpt>
			<trkpt lat="35.0273849" lon="127.7724688"></trkpt>
			<trkpt lat="35.0272511" lon="127.7726035"></trkpt>
			<trkpt lat="35.0270463" lon="127.7728534"></trkpt>
			<trkpt lat="35.0267507" lon="127.7732592"></trkpt>
			<trkpt lat="35.0264149" lon="127.7738025"></trkpt>
			<trkpt lat="35.026351" lon="127.7738946"></trkpt>
			<trkpt lat="35.026048" lon="127.7743819"></trkpt>
			<trkpt lat="35.0259331" lon="127.7745345"></trkpt>
			<trkpt lat="35.0257728" lon="127.7747127"></trkpt>
			<trkpt lat="35.0256811" lon="127.77483"></trkpt>
			<trkpt lat="35.0256253" lon="127.7749593"></trkpt>
			<trkpt lat="35.0255476" lon="127.7753011"></trkpt>
			<trkpt lat="35.0255232" lon="127.7753796"></trkpt>
			<trkpt lat="35.0254546" lon="127.7755199"></trkpt>
			<trkpt lat="35.0253041" lon="127.7756715"></trkpt>
			<trkpt lat="35.0251547" lon="127.7757702"></trkpt>
			<trkpt lat="35.0250277" lon="127.7758807"></trkpt>
			<trkpt lat="35.024951" lon="127.7759607"></trkpt>
			<trkpt lat="35.024893" lon="127.7760395"></trkpt>
			<trkpt lat="35.0247141" lon="127.7762433"></trkpt>
			<trkpt lat="35.0245554" lon="127.7764457"></trkpt>
			<trkpt lat="35.0241431" lon="127.7769449"></trkpt>
			<trkpt lat="35.0239078" lon="127.7772552"></trkpt>
			<trkpt lat="35.0237966" lon="127.7774237"></trkpt>
			<trkpt lat="35.0235486" lon="127.7777514"></trkpt>
			<trkpt lat="35.0232823" lon="127.7780497"></trkpt>
			<trkpt lat="35.022975" lon="127.7784136"></trkpt>
			<trkpt lat="35.0227288" lon="127.7786835"></trkpt>
			<trkpt lat="35.0226853" lon="127.7787654"></trkpt>
			<trkpt lat="35.0226468" lon="127.7788576"></trkpt>
			<trkpt lat="35.0225925" lon="127.7789633"></trkpt>
			<trkpt lat="35.0224999" lon="127.7792102"></trkpt>
			<trkpt lat="35.022468" lon="127.7794558"></trkpt>
			<trkpt lat="35.0224807" lon="127.7795878"></trkpt>
			<trkpt lat="35.0225938" lon="127.7799404"></trkpt>
			<trkpt lat="35.0226003" lon="127.7800442"></trkpt>
			<trkpt lat="35.0225793" lon="127.780261"></trkpt>
			<trkpt lat="35.0225011" lon="127.780484"></trkpt>
			<trkpt lat="35.0223948" lon="127.7806405"></trkpt>
			<trkpt lat="35.0223088" lon="127.7807285"></trkpt>
			<trkpt lat="35.0220446" lon="127.7809274"></trkpt>
			<trkpt lat="35.0218807" lon="127.7809979"></trkpt>
			<trkpt lat="35.0218236" lon="127.7810086"></trkpt>
			<trkpt lat="35.0215733" lon="127.7810219"></trkpt>
			<trkpt lat="35.0213354" lon="127.7810767"></trkpt>
			<trkpt lat="35.0200836" lon="127.781444"></trkpt>
			<trkpt lat="35.01982" lon="127.7814811"></trkpt>
			<trkpt lat="35.0195112" lon="127.781468"></trkpt>
			<trkpt lat="35.0194688" lon="127.7817101"></trkpt>
			<trkpt lat="35.0193059" lon="127.7816903"></trkpt>
			<trkpt lat="35.0191136" lon="127.781638"></trkpt>
			<trkpt lat="35.0190091" lon="127.7816311"></trkpt>
			<trkpt lat="35.0188609" lon="127.7816424"></trkpt>
			<trkpt lat="35.018744" lon="127.7816653"></trkpt>
			<trkpt lat="35.0186409" lon="127.781703"></trkpt>
			<trkpt lat="35.0185257" lon="127.78176"></trkpt>
			<trkpt lat="35.018431" lon="127.7817932"></trkpt>
			<trkpt lat="35.018317" lon="127.7818577"></trkpt>
			<trkpt lat="35.0179783" lon="127.7820213"></trkpt>
			<trkpt lat="35.0178751" lon="127.7820501"></trkpt>
			<trkpt lat="35.0176759" lon="127.7820839"></trkpt>
			<trkpt lat="35.0174804" lon="127.7821295"></trkpt>
			<trkpt lat="35.0174015" lon="127.7821582"></trkpt>
			<trkpt lat="35.0172606" lon="127.7821924"></trkpt>
			<trkpt lat="35.017149" lon="127.782242"></trkpt>
			<trkpt lat="35.0170228" lon="127.7822798"></trkpt>
			<trkpt lat="35.0169271" lon="127.7823649"></trkpt>
			<trkpt lat="35.0167352" lon="127.7825827"></trkpt>
			<trkpt lat="35.0166528" lon="127.7826633"></trkpt>
			<trkpt lat="35.016551" lon="127.7827336"></trkpt>
			<trkpt lat="35.016437" lon="127.7827995"></trkpt>
			<trkpt lat="35.0162284" lon="127.7828957"></trkpt>
			<trkpt lat="35.0155979" lon="127.7830855"></trkpt>
			<trkpt lat="35.0154218" lon="127.7831206"></trkpt>
			<trkpt lat="35.0147693" lon="127.7832875"></trkpt>
			<trkpt lat="35.0146188" lon="127.7833329"></trkpt>
			<trkpt lat="35.0135777" lon="127.7836036"></trkpt>
			<trkpt lat="35.0132794" lon="127.7837878"></trkpt>
			<trkpt lat="35.0131774" lon="127.7838151"></trkpt>
			<trkpt lat="35.0130875" lon="127.783829"></trkpt>
			<trkpt lat="35.0129637" lon="127.7838282"></trkpt>
			<trkpt lat="35.012745" lon="127.7838398"></trkpt>
			<trkpt lat="35.012394" lon="127.7839056"></trkpt>
			<trkpt lat="35.0120435" lon="127.7839877"></trkpt>
			<trkpt lat="35.0118905" lon="127.7840346"></trkpt>
			<trkpt lat="35.0117715" lon="127.7840575"></trkpt>
			<trkpt lat="35.0109675" lon="127.7842639"></trkpt>
			<trkpt lat="35.0103968" lon="127.7843114"></trkpt>
			<trkpt lat="35.0102752" lon="127.7843077"></trkpt>
			<trkpt lat="35.0100115" lon="127.7843151"></trkpt>
			<trkpt lat="35.0097378" lon="127.7842974"></trkpt>
			<trkpt lat="35.0095725" lon="127.7842938"></trkpt>
			<trkpt lat="35.0092443" lon="127.7842705"></trkpt>
			<trkpt lat="35.0088423" lon="127.7842253"></trkpt>
			<trkpt lat="35.0086234" lon="127.7841894"></trkpt>
			<trkpt lat="35.0085298" lon="127.7841855"></trkpt>
			<trkpt lat="35.0085065" lon="127.7841159"></trkpt>
			<trkpt lat="35.0083544" lon="127.7840663"></trkpt>
			<trkpt lat="35.0080903" lon="127.783958"></trkpt>
			<trkpt lat="35.007731" lon="127.7837434"></trkpt>
			<trkpt lat="35.0076079" lon="127.7836521"></trkpt>
			<trkpt lat="35.0074124" lon="127.7835553"></trkpt>
			<trkpt lat="35.0072018" lon="127.7834793"></trkpt>
			<trkpt lat="35.0070303" lon="127.7834343"></trkpt>
			<trkpt lat="35.006229" lon="127.7831837"></trkpt>
			<trkpt lat="35.0059565" lon="127.7831081"></trkpt>
			<trkpt lat="35.0058083" lon="127.7830585"></trkpt>
			<trkpt lat="35.0056464" lon="127.7829912"></trkpt>
			<trkpt lat="35.0055089" lon="127.7829445"></trkpt>
			<trkpt lat="35.0052546" lon="127.7828747"></trkpt>
			<trkpt lat="35.0048663" lon="127.7827274"></trkpt>
			<trkpt lat="35.0046106" lon="127.7826057"></trkpt>
			<trkpt lat="35.0042282" lon="127.7823957"></trkpt>
			<trkpt lat="35.0039841" lon="127.7822535"></trkpt>
			<trkpt lat="35.0037199" lon="127.7821289"></trkpt>
			<trkpt lat="35.0033376" lon="127.7819295"></trkpt>
			<trkpt lat="35.0031184" lon="127.7817972"></trkpt>
			<trkpt lat="35.0029649" lon="127.781715"></trkpt>
			<trkpt lat="35.0022672" lon="127.7812734"></trkpt>
			<trkpt lat="35.0020907" lon="127.7811958"></trkpt>
			<trkpt lat="35.0015889" lon="127.7809212"></trkpt>
			<trkpt lat="35.001098" lon="127.7806154"></trkpt>
			<trkpt lat="35.0008703" lon="127.7804441"></trkpt>
			<trkpt lat="35.0006546" lon="127.7803074"></trkpt>
			<trkpt lat="35.0005035" lon="127.7801896"></trkpt>
			<trkpt lat="35.0002366" lon="127.7800056"></trkpt>
			<trkpt lat="34.999977" lon="127.7798098"></trkpt>
			<trkpt lat="34.9997609" lon="127.7796715"></trkpt>
			<trkpt lat="34.9994988" lon="127.7794668"></trkpt>
			<trkpt lat="34.999388" lon="127.7793903"></trkpt>
			<trkpt lat="34.9991746" lon="127.7792031"></trkpt>
			<trkpt lat="34.99905" lon="127.779051"></trkpt>
			<trkpt lat="34.999012" lon="127.7789741"></trkpt>
			<trkpt lat="34.9989993" lon="127.7789191"></trkpt>
			<trkpt lat="34.9989974" lon="127.7787381"></trkpt>
			<trkpt lat="34.9990091" lon="127.7786297"></trkpt>
			<trkpt lat="34.9991218" lon="127.7782137"></trkpt>
			<trkpt lat="34.9991711" lon="127.7780858"></trkpt>
			<trkpt lat="34.9992346" lon="127.7778496"></trkpt>
			<trkpt lat="34.9993376" lon="127.7775531"></trkpt>
			<trkpt lat="34.9993721" lon="127.7773601"></trkpt>
			<trkpt lat="34.9993582" lon="127.7772177"></trkpt>
			<trkpt lat="34.9993289" lon="127.7771763"></trkpt>
			<trkpt lat="34.9992692" lon="127.7771307"></trkpt>
			<trkpt lat="34.9991974" lon="127.7771266"></trkpt>
			<trkpt lat="34.9991123" lon="127.7771034"></trkpt>
			<trkpt lat="34.9990222" lon="127.7770624"></trkpt>
			<trkpt lat="34.9989089" lon="127.7769955"></trkpt>
			<trkpt lat="34.9988175" lon="127.7769189"></trkpt>
			<trkpt lat="34.9987103" lon="127.7768572"></trkpt>
			<trkpt lat="34.9984898" lon="127.7767116"></trkpt>
			<trkpt lat="34.9982367" lon="127.7766388"></trkpt>
			<trkpt lat="34.9981297" lon="127.7766276"></trkpt>
			<trkpt lat="34.9980204" lon="127.7766282"></trkpt>
			<trkpt lat="34.9976606" lon="127.7767181"></trkpt>
			<trkpt lat="34.9972574" lon="127.7767931"></trkpt>
			<trkpt lat="34.9971163" lon="127.7768296"></trkpt>
			<trkpt lat="34.9966451" lon="127.7769124"></trkpt>
			<trkpt lat="34.996373" lon="127.7769377"></trkpt>
			<trkpt lat="34.9962594" lon="127.7769339"></trkpt>
			<trkpt lat="34.996156" lon="127.7769137"></trkpt>
			<trkpt lat="34.9960428" lon="127.7768639"></trkpt>
			<trkpt lat="34.9955888" lon="127.7766959"></trkpt>
			<trkpt lat="34.995135" lon="127.7764232"></trkpt>
			<trkpt lat="34.9949219" lon="127.7763176"></trkpt>
			<trkpt lat="34.994748" lon="127.7762934"></trkpt>
			<trkpt lat="34.9946556" lon="127.7762895"></trkpt>
			<trkpt lat="34.9945558" lon="127.7763029"></trkpt>
			<trkpt lat="34.9943334" lon="127.7763057"></trkpt>
			<trkpt lat="34.993644" lon="127.7764497"></trkpt>
			<trkpt lat="34.99348" lon="127.7764699"></trkpt>
			<trkpt lat="34.9932189" lon="127.7765218"></trkpt>
			<trkpt lat="34.9931096" lon="127.7765358"></trkpt>
			<trkpt lat="34.9929968" lon="127.7765335"></trkpt>
			<trkpt lat="34.9928618" lon="127.7765165"></trkpt>
			<trkpt lat="34.9923801" lon="127.776405"></trkpt>
			<trkpt lat="34.9921927" lon="127.7763853"></trkpt>
			<trkpt lat="34.9919105" lon="127.7763172"></trkpt>
			<trkpt lat="34.9917561" lon="127.7763018"></trkpt>
			<trkpt lat="34.9912654" lon="127.7762007"></trkpt>
			<trkpt lat="34.9911365" lon="127.7761911"></trkpt>
			<trkpt lat="34.9909203" lon="127.7762176"></trkpt>
			<trkpt lat="34.9906149" lon="127.7761807"></trkpt>
			<trkpt lat="34.9904701" lon="127.7761519"></trkpt>
			<trkpt lat="34.9904044" lon="127.77613"></trkpt>
			<trkpt lat="34.9902095" lon="127.776014"></trkpt>
			<trkpt lat="34.9901121" lon="127.77597"></trkpt>
			<trkpt lat="34.9901073" lon="127.775973"></trkpt>
			<trkpt lat="34.9900667" lon="127.7759391"></trkpt>
			<trkpt lat="34.9899876" lon="127.7759084"></trkpt>
			<trkpt lat="34.9899292" lon="127.7758969"></trkpt>
			<trkpt lat="34.989798" lon="127.7759095"></trkpt>
			<trkpt lat="34.9897154" lon="127.7759278"></trkpt>
			<trkpt lat="34.9896583" lon="127.7759311"></trkpt>
			<trkpt lat="34.9894881" lon="127.7759083"></trkpt>
			<trkpt lat="34.9892519" lon="127.7757729"></trkpt>
			<trkpt lat="34.9891885" lon="127.7757124"></trkpt>
			<trkpt lat="34.9891081" lon="127.7756521"></trkpt>
			<trkpt lat="34.9890531" lon="127.7755827"></trkpt>
			<trkpt lat="34.9889834" lon="127.7754718"></trkpt>
			<trkpt lat="34.9889199" lon="127.7753876"></trkpt>
			<trkpt lat="34.9888357" lon="127.7752976"></trkpt>
			<trkpt lat="34.9887309" lon="127.7752315"></trkpt>
			<trkpt lat="34.9884663" lon="127.7750949"></trkpt>
			<trkpt lat="34.9881946" lon="127.7749214"></trkpt>
			<trkpt lat="34.9881203" lon="127.7748625"></trkpt>
			<trkpt lat="34.9880373" lon="127.7747695"></trkpt>
			<trkpt lat="34.987926" lon="127.774604"></trkpt>
			<trkpt lat="34.9878977" lon="127.7745093"></trkpt>
			<trkpt lat="34.9878373" lon="127.7743644"></trkpt>
			<trkpt lat="34.9878129" lon="127.7743438"></trkpt>
			<trkpt lat="34.9877049" lon="127.7743904"></trkpt>
			<trkpt lat="34.9876176" lon="127.7744458"></trkpt>
			<trkpt lat="34.9875436" lon="127.7744818"></trkpt>
			<trkpt lat="34.9873398" lon="127.7745616"></trkpt>
			<trkpt lat="34.9872887" lon="127.774556"></trkpt>
			<trkpt lat="34.9870908" lon="127.7743717"></trkpt>
			<trkpt lat="34.9867867" lon="127.7739878"></trkpt>
			<trkpt lat="34.9866706" lon="127.7738695"></trkpt>
			<trkpt lat="34.9864703" lon="127.7736318"></trkpt>
			<trkpt lat="34.9862506" lon="127.7733898"></trkpt>
			<trkpt lat="34.9861785" lon="127.7732849"></trkpt>
			<trkpt lat="34.9860882" lon="127.7731757"></trkpt>
			<trkpt lat="34.9858297" lon="127.7727983"></trkpt>
			<trkpt lat="34.9857149" lon="127.7726477"></trkpt>
			<trkpt lat="34.9855375" lon="127.7724492"></trkpt>
			<trkpt lat="34.9854172" lon="127.7722816"></trkpt>
			<trkpt lat="34.9852604" lon="127.7721015"></trkpt>
			<trkpt lat="34.9847716" lon="127.7714695"></trkpt>
			<trkpt lat="34.9845807" lon="127.7712039"></trkpt>
			<trkpt lat="34.9844263" lon="127.7709667"></trkpt>
			<trkpt lat="34.9840886" lon="127.7704131"></trkpt>
			<trkpt lat="34.9839236" lon="127.7701188"></trkpt>
			<trkpt lat="34.9836784" lon="127.7696546"></trkpt>
			<trkpt lat="34.9834925" lon="127.7693382"></trkpt>
			<trkpt lat="34.9833587" lon="127.7690596"></trkpt>
			<trkpt lat="34.9830888" lon="127.7685501"></trkpt>
			<trkpt lat="34.9829157" lon="127.7681828"></trkpt>
			<trkpt lat="34.9825514" lon="127.7674834"></trkpt>
			<trkpt lat="34.9823994" lon="127.7671764"></trkpt>
			<trkpt lat="34.9821802" lon="127.7667654"></trkpt>
			<trkpt lat="34.981952" lon="127.7662874"></trkpt>
			<trkpt lat="34.9817109" lon="127.7658285"></trkpt>
			<trkpt lat="34.9813233" lon="127.7651546"></trkpt>
			<trkpt lat="34.981098" lon="127.7647242"></trkpt>
			<trkpt lat="34.9808597" lon="127.7643415"></trkpt>
			<trkpt lat="34.9804748" lon="127.7635809"></trkpt>
			<trkpt lat="34.980302" lon="127.7633025"></trkpt>
			<trkpt lat="34.9800823" lon="127.7629959"></trkpt>
			<trkpt lat="34.9798863" lon="127.7627495"></trkpt>
			<trkpt lat="34.9796875" lon="127.7624713"></trkpt>
			<trkpt lat="34.9795148" lon="127.7622088"></trkpt>
			<trkpt lat="34.9791953" lon="127.7617599"></trkpt>
			<trkpt lat="34.9788133" lon="127.761194"></trkpt>
			<trkpt lat="34.9787347" lon="127.7610675"></trkpt>
			<trkpt lat="34.978682" lon="127.7610096"></trkpt>
			<trkpt lat="34.9786292" lon="127.7609731"></trkpt>
			<trkpt lat="34.9785539" lon="127.7609552"></trkpt>
			<trkpt lat="34.9785348" lon="127.7608321"></trkpt>
			<trkpt lat="34.9785078" lon="127.760806"></trkpt>
			<trkpt lat="34.978376" lon="127.7607429"></trkpt>
			<trkpt lat="34.9776402" lon="127.7603443"></trkpt>
			<trkpt lat="34.9774467" lon="127.760221"></trkpt>
			<trkpt lat="34.9773511" lon="127.7601494"></trkpt>
			<trkpt lat="34.9772809" lon="127.7600417"></trkpt>
			<trkpt lat="34.9771764" lon="127.7598099"></trkpt>
			<trkpt lat="34.9771529" lon="127.7597444"></trkpt>
			<trkpt lat="34.9770742" lon="127.7595685"></trkpt>
			<trkpt lat="34.977036" lon="127.7595146"></trkpt>
			<trkpt lat="34.9770174" lon="127.7594979"></trkpt>
		</trkseg>
	</trk>
</gpx>
