<?xml version="1.0" encoding="utf-8" standalone="yes"?>
<gpx version="1.1" creator="GPS Visualizer https://www.gpsvisualizer.com/" xmlns="http://www.topografix.com/GPX/1/1" xmlns:xsi="http://www.w3.org/2001/XMLSchema-instance" xsi:schemaLocation="http://www.topografix.com/GPX/1/1 http://www.topografix.com/GPX/1/1/gpx.xsd">
<trk>
  <name>남파랑길-001코스-부산 19.2km_노선수정</name>
  <trkseg>
    <trkpt lat="35.0997" lon="129.123631"></trkpt>
    <trkpt lat="35.09974" lon="129.1236"></trkpt>
    <trkpt lat="35.099781" lon="129.123572"></trkpt>
    <trkpt lat="35.099835" lon="129.123533"></trkpt>
    <trkpt lat="35.099911" lon="129.12348"></trkpt>
    <trkpt lat="35.099951" lon="129.123447"></trkpt>
    <trkpt lat="35.099994" lon="129.123423"></trkpt>
    <trkpt lat="35.100052" lon="129.123421"></trkpt>
    <trkpt lat="35.100112" lon="129.123422"></trkpt>
    <trkpt lat="35.100179" lon="129.123427"></trkpt>
    <trkpt lat="35.100227" lon="129.123429"></trkpt>
    <trkpt lat="35.100273" lon="129.123431"></trkpt>
    <trkpt lat="35.100323" lon="129.123428"></trkpt>
    <trkpt lat="35.100355" lon="129.123429"></trkpt>
    <trkpt lat="35.100417" lon="129.123429"></trkpt>
    <trkpt lat="35.100487" lon="129.12343"></trkpt>
    <trkpt lat="35.10056" lon="129.12343"></trkpt>
    <trkpt lat="35.100632" lon="129.123428"></trkpt>
    <trkpt lat="35.100694" lon="129.123425"></trkpt>
    <trkpt lat="35.10076" lon="129.123426"></trkpt>
    <trkpt lat="35.10082" lon="129.123425"></trkpt>
    <trkpt lat="35.100894" lon="129.123421"></trkpt>
    <trkpt lat="35.100948" lon="129.123409"></trkpt>
    <trkpt lat="35.100989" lon="129.123403"></trkpt>
    <trkpt lat="35.101041" lon="129.123387"></trkpt>
    <trkpt lat="35.101074" lon="129.123369"></trkpt>
    <trkpt lat="35.101127" lon="129.123315"></trkpt>
    <trkpt lat="35.10117" lon="129.123257"></trkpt>
    <trkpt lat="35.101225" lon="129.12318"></trkpt>
    <trkpt lat="35.101296" lon="129.123084"></trkpt>
    <trkpt lat="35.101336" lon="129.123022"></trkpt>
    <trkpt lat="35.101371" lon="129.122977"></trkpt>
    <trkpt lat="35.101374" lon="129.122947"></trkpt>
    <trkpt lat="35.10135" lon="129.122924"></trkpt>
    <trkpt lat="35.101316" lon="129.1229"></trkpt>
    <trkpt lat="35.101297763" lon="129.122886973"></trkpt>
    <trkpt lat="35.101342283" lon="129.122797441"></trkpt>
    <trkpt lat="35.101382875" lon="129.122715904"></trkpt>
    <trkpt lat="35.101414323" lon="129.12259598"></trkpt>
    <trkpt lat="35.101396263" lon="129.122472134"></trkpt>
    <trkpt lat="35.101366327" lon="129.122066772"></trkpt>
    <trkpt lat="35.101336332" lon="129.121810361"></trkpt>
    <trkpt lat="35.101299825" lon="129.121476461"></trkpt>
    <trkpt lat="35.101273139" lon="129.121274944"></trkpt>
    <trkpt lat="35.101223506" lon="129.121047826"></trkpt>
    <trkpt lat="35.101179281" lon="129.120775126"></trkpt>
    <trkpt lat="35.1011297" lon="129.120405679"></trkpt>
    <trkpt lat="35.101118093" lon="129.11994844"></trkpt>
    <trkpt lat="35.101105123" lon="129.119636585"></trkpt>
    <trkpt lat="35.101067416" lon="129.118983367"></trkpt>
    <trkpt lat="35.101096447" lon="129.118291231"></trkpt>
    <trkpt lat="35.101167238" lon="129.11789786"></trkpt>
    <trkpt lat="35.101255051" lon="129.117463128"></trkpt>
    <trkpt lat="35.101371394" lon="129.116955347"></trkpt>
    <trkpt lat="35.10155877" lon="129.116575945"></trkpt>
    <trkpt lat="35.101774031" lon="129.116212765"></trkpt>
    <trkpt lat="35.101929992" lon="129.11594585"></trkpt>
    <trkpt lat="35.102022426" lon="129.115837978"></trkpt>
    <trkpt lat="35.102088152" lon="129.115775267"></trkpt>
    <trkpt lat="35.102160037" lon="129.115715069"></trkpt>
    <trkpt lat="35.102246298" lon="129.115647348"></trkpt>
    <trkpt lat="35.102316119" lon="129.115619776"></trkpt>
    <trkpt lat="35.102435219" lon="129.115589718"></trkpt>
    <trkpt lat="35.102640553" lon="129.115574761"></trkpt>
    <trkpt lat="35.102852048" lon="129.115554788"></trkpt>
    <trkpt lat="35.102916" lon="129.115542"></trkpt>
    <trkpt lat="35.102966" lon="129.115538"></trkpt>
    <trkpt lat="35.103017" lon="129.115536"></trkpt>
    <trkpt lat="35.103077" lon="129.115529"></trkpt>
    <trkpt lat="35.103118" lon="129.115529"></trkpt>
    <trkpt lat="35.103172" lon="129.11553"></trkpt>
    <trkpt lat="35.103228" lon="129.115525"></trkpt>
    <trkpt lat="35.103303626" lon="129.115517364"></trkpt>
    <trkpt lat="35.103372" lon="129.115511"></trkpt>
    <trkpt lat="35.103428" lon="129.11551"></trkpt>
    <trkpt lat="35.103489" lon="129.115504"></trkpt>
    <trkpt lat="35.10355" lon="129.115503"></trkpt>
    <trkpt lat="35.103614" lon="129.115496"></trkpt>
    <trkpt lat="35.103669" lon="129.115494"></trkpt>
    <trkpt lat="35.103729" lon="129.115495"></trkpt>
    <trkpt lat="35.103789" lon="129.115494"></trkpt>
    <trkpt lat="35.103855" lon="129.115485"></trkpt>
    <trkpt lat="35.103932" lon="129.115489"></trkpt>
    <trkpt lat="35.103994" lon="129.115482"></trkpt>
    <trkpt lat="35.104064" lon="129.115485"></trkpt>
    <trkpt lat="35.104129" lon="129.115481"></trkpt>
    <trkpt lat="35.104188" lon="129.115481"></trkpt>
    <trkpt lat="35.104256" lon="129.115478"></trkpt>
    <trkpt lat="35.104335" lon="129.115479"></trkpt>
    <trkpt lat="35.104404" lon="129.115473"></trkpt>
    <trkpt lat="35.104447" lon="129.115477"></trkpt>
    <trkpt lat="35.104516368" lon="129.115471565"></trkpt>
    <trkpt lat="35.104607064" lon="129.115457753"></trkpt>
    <trkpt lat="35.10469776" lon="129.115440477"></trkpt>
    <trkpt lat="35.1047828" lon="129.115388555"></trkpt>
    <trkpt lat="35.104992577" lon="129.11522584"></trkpt>
    <trkpt lat="35.10518253" lon="129.115018078"></trkpt>
    <trkpt lat="35.105624237" lon="129.114465579"></trkpt>
    <trkpt lat="35.105848206" lon="129.11423358"></trkpt>
    <trkpt lat="35.10592476" lon="129.114129688"></trkpt>
    <trkpt lat="35.105988861" lon="129.114056969"></trkpt>
    <trkpt lat="35.10605407" lon="129.113977322"></trkpt>
    <trkpt lat="35.106124953" lon="129.113883819"></trkpt>
    <trkpt lat="35.1062" lon="129.113789"></trkpt>
    <trkpt lat="35.106297" lon="129.113662"></trkpt>
    <trkpt lat="35.106355" lon="129.113568"></trkpt>
    <trkpt lat="35.106421" lon="129.113472"></trkpt>
    <trkpt lat="35.106501" lon="129.113346"></trkpt>
    <trkpt lat="35.106568" lon="129.113255"></trkpt>
    <trkpt lat="35.106671" lon="129.113131"></trkpt>
    <trkpt lat="35.106732984" lon="129.113039972"></trkpt>
    <trkpt lat="35.106806702" lon="129.112939541"></trkpt>
    <trkpt lat="35.106880417" lon="129.112846038"></trkpt>
    <trkpt lat="35.106968307" lon="129.112738685"></trkpt>
    <trkpt lat="35.10704202" lon="129.112652111"></trkpt>
    <trkpt lat="35.107107231" lon="129.112565532"></trkpt>
    <trkpt lat="35.107180952" lon="129.112451243"></trkpt>
    <trkpt lat="35.107193431" lon="129.112390947"></trkpt>
    <trkpt lat="35.107178129" lon="129.112334761"></trkpt>
    <trkpt lat="35.107221917" lon="129.112273253"></trkpt>
    <trkpt lat="35.10723069" lon="129.112209053"></trkpt>
    <trkpt lat="35.10721759" lon="129.112107392"></trkpt>
    <trkpt lat="35.107195744" lon="129.111978974"></trkpt>
    <trkpt lat="35.107284646" lon="129.111958284"></trkpt>
    <trkpt lat="35.107328" lon="129.111934"></trkpt>
    <trkpt lat="35.10737" lon="129.111898"></trkpt>
    <trkpt lat="35.107393" lon="129.11183"></trkpt>
    <trkpt lat="35.107397" lon="129.111726"></trkpt>
    <trkpt lat="35.107396" lon="129.111538"></trkpt>
    <trkpt lat="35.107391" lon="129.111426"></trkpt>
    <trkpt lat="35.107388" lon="129.111319"></trkpt>
    <trkpt lat="35.10739" lon="129.111195"></trkpt>
    <trkpt lat="35.107378" lon="129.111062"></trkpt>
    <trkpt lat="35.107363664" lon="129.110878008"></trkpt>
    <trkpt lat="35.107357003" lon="129.110749032"></trkpt>
    <trkpt lat="35.107333606" lon="129.110577058"></trkpt>
    <trkpt lat="35.107325261" lon="129.11047879"></trkpt>
    <trkpt lat="35.10730184" lon="129.11039075"></trkpt>
    <trkpt lat="35.107290136" lon="129.110321141"></trkpt>
    <trkpt lat="35.107253315" lon="129.110241285"></trkpt>
    <trkpt lat="35.107173" lon="129.110162"></trkpt>
    <trkpt lat="35.107088" lon="129.110089"></trkpt>
    <trkpt lat="35.106966" lon="129.110012"></trkpt>
    <trkpt lat="35.10684668" lon="129.109958806"></trkpt>
    <trkpt lat="35.10676128" lon="129.109915779"></trkpt>
    <trkpt lat="35.106648194" lon="129.109826599"></trkpt>
    <trkpt lat="35.106566912" lon="129.109746957"></trkpt>
    <trkpt lat="35.106469809" lon="129.10962818"></trkpt>
    <trkpt lat="35.106386108" lon="129.109497126"></trkpt>
    <trkpt lat="35.106292308" lon="129.109336246"></trkpt>
    <trkpt lat="35.1062354" lon="129.109215439"></trkpt>
    <trkpt lat="35.106186866" lon="129.109090542"></trkpt>
    <trkpt lat="35.106150062" lon="129.108943132"></trkpt>
    <trkpt lat="35.106138371" lon="129.108828486"></trkpt>
    <trkpt lat="35.106141" lon="129.108704"></trkpt>
    <trkpt lat="35.106151" lon="129.108563"></trkpt>
    <trkpt lat="35.106174" lon="129.10845"></trkpt>
    <trkpt lat="35.106217" lon="129.108346"></trkpt>
    <trkpt lat="35.106291352" lon="129.108211878"></trkpt>
    <trkpt lat="35.106361" lon="129.108121"></trkpt>
    <trkpt lat="35.10646" lon="129.108037"></trkpt>
    <trkpt lat="35.106556" lon="129.107976"></trkpt>
    <trkpt lat="35.106652" lon="129.107906"></trkpt>
    <trkpt lat="35.106758" lon="129.107832"></trkpt>
    <trkpt lat="35.106868" lon="129.107744"></trkpt>
    <trkpt lat="35.106961" lon="129.107655"></trkpt>
    <trkpt lat="35.10705" lon="129.107575"></trkpt>
    <trkpt lat="35.107131741" lon="129.107470919"></trkpt>
    <trkpt lat="35.107174337" lon="129.107350618"></trkpt>
    <trkpt lat="35.107203624" lon="129.107259578"></trkpt>
    <trkpt lat="35.107208981" lon="129.107119751"></trkpt>
    <trkpt lat="35.107185084" lon="129.106944143"></trkpt>
    <trkpt lat="35.107131926" lon="129.106762019"></trkpt>
    <trkpt lat="35.107086747" lon="129.106586403"></trkpt>
    <trkpt lat="35.107026611" lon="129.106373622"></trkpt>
    <trkpt lat="35.106992" lon="129.106198"></trkpt>
    <trkpt lat="35.106946" lon="129.106009"></trkpt>
    <trkpt lat="35.106909" lon="129.105758"></trkpt>
    <trkpt lat="35.106872" lon="129.105542"></trkpt>
    <trkpt lat="35.106827" lon="129.105393"></trkpt>
    <trkpt lat="35.106748" lon="129.105207"></trkpt>
    <trkpt lat="35.106682" lon="129.105086"></trkpt>
    <trkpt lat="35.106639935" lon="129.105015834"></trkpt>
    <trkpt lat="35.106555462" lon="129.104910111"></trkpt>
    <trkpt lat="35.10650242" lon="129.104845236"></trkpt>
    <trkpt lat="35.106626248" lon="129.104734784"></trkpt>
    <trkpt lat="35.106653787" lon="129.104619494"></trkpt>
    <trkpt lat="35.106653807" lon="129.104537824"></trkpt>
    <trkpt lat="35.106647924" lon="129.104484976"></trkpt>
    <trkpt lat="35.106616507" lon="129.104381675"></trkpt>
    <trkpt lat="35.10653597" lon="129.10424713"></trkpt>
    <trkpt lat="35.106711" lon="129.104126"></trkpt>
    <trkpt lat="35.106897" lon="129.104031"></trkpt>
    <trkpt lat="35.10709" lon="129.104003"></trkpt>
    <trkpt lat="35.107287" lon="129.103993"></trkpt>
    <trkpt lat="35.10745" lon="129.104015"></trkpt>
    <trkpt lat="35.107574848" lon="129.104106402"></trkpt>
    <trkpt lat="35.10764362" lon="129.10413285"></trkpt>
    <trkpt lat="35.107693405" lon="129.104144879"></trkpt>
    <trkpt lat="35.107803454" lon="129.104130505"></trkpt>
    <trkpt lat="35.107911541" lon="129.104106521"></trkpt>
    <trkpt lat="35.10802945" lon="129.10409215"></trkpt>
    <trkpt lat="35.108148453" lon="129.104080182"></trkpt>
    <trkpt lat="35.108244743" lon="129.104080216"></trkpt>
    <trkpt lat="35.108360685" lon="129.104075453"></trkpt>
    <trkpt lat="35.108482524" lon="129.104065887"></trkpt>
    <trkpt lat="35.108595" lon="129.104067"></trkpt>
    <trkpt lat="35.108702" lon="129.104072"></trkpt>
    <trkpt lat="35.108784" lon="129.104075"></trkpt>
    <trkpt lat="35.108861" lon="129.104087"></trkpt>
    <trkpt lat="35.108976" lon="129.104089"></trkpt>
    <trkpt lat="35.109087" lon="129.104098"></trkpt>
    <trkpt lat="35.109184" lon="129.104117"></trkpt>
    <trkpt lat="35.109317" lon="129.104141"></trkpt>
    <trkpt lat="35.109453" lon="129.104167"></trkpt>
    <trkpt lat="35.109575" lon="129.104195"></trkpt>
    <trkpt lat="35.109705" lon="129.104228"></trkpt>
    <trkpt lat="35.109828" lon="129.104271"></trkpt>
    <trkpt lat="35.10994" lon="129.104304"></trkpt>
    <trkpt lat="35.110068" lon="129.104344"></trkpt>
    <trkpt lat="35.110185" lon="129.104384"></trkpt>
    <trkpt lat="35.110297" lon="129.104423"></trkpt>
    <trkpt lat="35.110403" lon="129.104443"></trkpt>
    <trkpt lat="35.110499" lon="129.104476"></trkpt>
    <trkpt lat="35.110592" lon="129.104498"></trkpt>
    <trkpt lat="35.110682" lon="129.104526"></trkpt>
    <trkpt lat="35.110787" lon="129.104554"></trkpt>
    <trkpt lat="35.110877" lon="129.104592"></trkpt>
    <trkpt lat="35.111" lon="129.104614"></trkpt>
    <trkpt lat="35.111093" lon="129.10463"></trkpt>
    <trkpt lat="35.111203" lon="129.104647"></trkpt>
    <trkpt lat="35.111274" lon="129.104653"></trkpt>
    <trkpt lat="35.111354" lon="129.104646"></trkpt>
    <trkpt lat="35.111455" lon="129.104614"></trkpt>
    <trkpt lat="35.111536" lon="129.104596"></trkpt>
    <trkpt lat="35.111636" lon="129.104554"></trkpt>
    <trkpt lat="35.111725" lon="129.10452"></trkpt>
    <trkpt lat="35.111823" lon="129.104437"></trkpt>
    <trkpt lat="35.11191" lon="129.104366"></trkpt>
    <trkpt lat="35.112005" lon="129.104282"></trkpt>
    <trkpt lat="35.112083" lon="129.104218"></trkpt>
    <trkpt lat="35.112173" lon="129.104134"></trkpt>
    <trkpt lat="35.112277" lon="129.10403"></trkpt>
    <trkpt lat="35.112386" lon="129.103926"></trkpt>
    <trkpt lat="35.11248" lon="129.103842"></trkpt>
    <trkpt lat="35.112578" lon="129.103734"></trkpt>
    <trkpt lat="35.112695" lon="129.103631"></trkpt>
    <trkpt lat="35.112827" lon="129.103482"></trkpt>
    <trkpt lat="35.112989" lon="129.103329"></trkpt>
    <trkpt lat="35.113089" lon="129.103246"></trkpt>
    <trkpt lat="35.113192" lon="129.103151"></trkpt>
    <trkpt lat="35.113267" lon="129.10308"></trkpt>
    <trkpt lat="35.113347" lon="129.10299"></trkpt>
    <trkpt lat="35.113465" lon="129.102869"></trkpt>
    <trkpt lat="35.113558" lon="129.102768"></trkpt>
    <trkpt lat="35.11364" lon="129.102693"></trkpt>
    <trkpt lat="35.113762" lon="129.102573"></trkpt>
    <trkpt lat="35.113912" lon="129.102434"></trkpt>
    <trkpt lat="35.114013" lon="129.102329"></trkpt>
    <trkpt lat="35.114141" lon="129.102194"></trkpt>
    <trkpt lat="35.114244" lon="129.10211"></trkpt>
    <trkpt lat="35.114324" lon="129.102025"></trkpt>
    <trkpt lat="35.1144" lon="129.10194"></trkpt>
    <trkpt lat="35.114505" lon="129.101835"></trkpt>
    <trkpt lat="35.114596" lon="129.101761"></trkpt>
    <trkpt lat="35.114702" lon="129.101659"></trkpt>
    <trkpt lat="35.114791" lon="129.101568"></trkpt>
    <trkpt lat="35.114913" lon="129.10145"></trkpt>
    <trkpt lat="35.114999" lon="129.101364"></trkpt>
    <trkpt lat="35.115123" lon="129.101278"></trkpt>
    <trkpt lat="35.115221" lon="129.101196"></trkpt>
    <trkpt lat="35.11535" lon="129.101111"></trkpt>
    <trkpt lat="35.115466" lon="129.101038"></trkpt>
    <trkpt lat="35.115667" lon="129.100893"></trkpt>
    <trkpt lat="35.115836" lon="129.10078"></trkpt>
    <trkpt lat="35.115974" lon="129.100663"></trkpt>
    <trkpt lat="35.116139" lon="129.100534"></trkpt>
    <trkpt lat="35.116254" lon="129.100416"></trkpt>
    <trkpt lat="35.116374" lon="129.100268"></trkpt>
    <trkpt lat="35.116491" lon="129.100134"></trkpt>
    <trkpt lat="35.116605" lon="129.100001"></trkpt>
    <trkpt lat="35.116725" lon="129.099848"></trkpt>
    <trkpt lat="35.116846" lon="129.099729"></trkpt>
    <trkpt lat="35.11701" lon="129.099599"></trkpt>
    <trkpt lat="35.117151" lon="129.099486"></trkpt>
    <trkpt lat="35.11725" lon="129.099396"></trkpt>
    <trkpt lat="35.11732" lon="129.099332"></trkpt>
    <trkpt lat="35.117381" lon="129.099293"></trkpt>
    <trkpt lat="35.117445" lon="129.099254"></trkpt>
    <trkpt lat="35.117507" lon="129.099227"></trkpt>
    <trkpt lat="35.117586233" lon="129.099267617"></trkpt>
    <trkpt lat="35.117667886" lon="129.099309677"></trkpt>
    <trkpt lat="35.117766732" lon="129.099351743"></trkpt>
    <trkpt lat="35.117880621" lon="129.09939644"></trkpt>
    <trkpt lat="35.117982134" lon="129.099433251"></trkpt>
    <trkpt lat="35.118074534" lon="129.099464805"></trkpt>
    <trkpt lat="35.118205613" lon="129.099517389"></trkpt>
    <trkpt lat="35.118345283" lon="129.099593622"></trkpt>
    <trkpt lat="35.118472063" lon="129.099651461"></trkpt>
    <trkpt lat="35.118637523" lon="129.099719821"></trkpt>
    <trkpt lat="35.118798468" lon="129.099791444"></trkpt>
    <trkpt lat="35.118935994" lon="129.099841405"></trkpt>
    <trkpt lat="35.119058478" lon="129.09989136"></trkpt>
    <trkpt lat="35.119216" lon="129.099954"></trkpt>
    <trkpt lat="35.119385" lon="129.100037"></trkpt>
    <trkpt lat="35.119512" lon="129.100088"></trkpt>
    <trkpt lat="35.119614" lon="129.100139"></trkpt>
    <trkpt lat="35.119781" lon="129.100196"></trkpt>
    <trkpt lat="35.119877" lon="129.100251"></trkpt>
    <trkpt lat="35.120031" lon="129.100309"></trkpt>
    <trkpt lat="35.120144" lon="129.100368"></trkpt>
    <trkpt lat="35.120234" lon="129.100415"></trkpt>
    <trkpt lat="35.120316" lon="129.100453"></trkpt>
    <trkpt lat="35.120396" lon="129.100442"></trkpt>
    <trkpt lat="35.120438838" lon="129.100380195"></trkpt>
    <trkpt lat="35.120479691" lon="129.100272487"></trkpt>
    <trkpt lat="35.120499054" lon="129.100164773"></trkpt>
    <trkpt lat="35.120696886" lon="129.099547414"></trkpt>
    <trkpt lat="35.120823755" lon="129.099153353"></trkpt>
    <trkpt lat="35.120871055" lon="129.099045646"></trkpt>
    <trkpt lat="35.120899016" lon="129.098919627"></trkpt>
    <trkpt lat="35.120903327" lon="129.098851318"></trkpt>
    <trkpt lat="35.120892594" lon="129.098788259"></trkpt>
    <trkpt lat="35.12102" lon="129.098756"></trkpt>
    <trkpt lat="35.121077" lon="129.098745"></trkpt>
    <trkpt lat="35.121119" lon="129.098756"></trkpt>
    <trkpt lat="35.121149" lon="129.098792"></trkpt>
    <trkpt lat="35.121214" lon="129.098836"></trkpt>
    <trkpt lat="35.121294" lon="129.098876"></trkpt>
    <trkpt lat="35.121366" lon="129.098909"></trkpt>
    <trkpt lat="35.121448" lon="129.098952"></trkpt>
    <trkpt lat="35.121531" lon="129.098989"></trkpt>
    <trkpt lat="35.121571" lon="129.098984"></trkpt>
    <trkpt lat="35.121595" lon="129.09891"></trkpt>
    <trkpt lat="35.121621" lon="129.098818"></trkpt>
    <trkpt lat="35.121647" lon="129.09872"></trkpt>
    <trkpt lat="35.121659" lon="129.098662"></trkpt>
    <trkpt lat="35.121697" lon="129.098642"></trkpt>
    <trkpt lat="35.121732" lon="129.098636"></trkpt>
    <trkpt lat="35.121768" lon="129.09865"></trkpt>
    <trkpt lat="35.121797" lon="129.098677"></trkpt>
    <trkpt lat="35.121835" lon="129.098672"></trkpt>
    <trkpt lat="35.121891" lon="129.098637"></trkpt>
    <trkpt lat="35.121912" lon="129.098623"></trkpt>
    <trkpt lat="35.121932" lon="129.09866"></trkpt>
    <trkpt lat="35.121959" lon="129.098702"></trkpt>
    <trkpt lat="35.122018" lon="129.098759"></trkpt>
    <trkpt lat="35.122094" lon="129.098788"></trkpt>
    <trkpt lat="35.122175" lon="129.098829"></trkpt>
    <trkpt lat="35.122236" lon="129.098855"></trkpt>
    <trkpt lat="35.122292" lon="129.098878"></trkpt>
    <trkpt lat="35.122355" lon="129.098899"></trkpt>
    <trkpt lat="35.122433" lon="129.098923"></trkpt>
    <trkpt lat="35.122538" lon="129.098969"></trkpt>
    <trkpt lat="35.122639" lon="129.099001"></trkpt>
    <trkpt lat="35.122718" lon="129.099037"></trkpt>
    <trkpt lat="35.1228" lon="129.099065"></trkpt>
    <trkpt lat="35.122899" lon="129.099093"></trkpt>
    <trkpt lat="35.123016" lon="129.099131"></trkpt>
    <trkpt lat="35.12312" lon="129.099171"></trkpt>
    <trkpt lat="35.123236" lon="129.099211"></trkpt>
    <trkpt lat="35.123286" lon="129.099211"></trkpt>
    <trkpt lat="35.123313" lon="129.099191"></trkpt>
    <trkpt lat="35.123365" lon="129.099203"></trkpt>
    <trkpt lat="35.123423" lon="129.09922"></trkpt>
    <trkpt lat="35.12344" lon="129.099265"></trkpt>
    <trkpt lat="35.123497" lon="129.099289"></trkpt>
    <trkpt lat="35.123577" lon="129.099317"></trkpt>
    <trkpt lat="35.123654" lon="129.09934"></trkpt>
    <trkpt lat="35.123744" lon="129.099367"></trkpt>
    <trkpt lat="35.123813" lon="129.099395"></trkpt>
    <trkpt lat="35.123898" lon="129.099422"></trkpt>
    <trkpt lat="35.123956" lon="129.099433"></trkpt>
    <trkpt lat="35.124022" lon="129.099456"></trkpt>
    <trkpt lat="35.124163" lon="129.099504"></trkpt>
    <trkpt lat="35.124305" lon="129.099544"></trkpt>
    <trkpt lat="35.124435" lon="129.099593"></trkpt>
    <trkpt lat="35.124612" lon="129.099655"></trkpt>
    <trkpt lat="35.124738" lon="129.099703"></trkpt>
    <trkpt lat="35.124871" lon="129.099779"></trkpt>
    <trkpt lat="35.124967" lon="129.099835"></trkpt>
    <trkpt lat="35.125021958" lon="129.099804205"></trkpt>
    <trkpt lat="35.125065582" lon="129.099872816"></trkpt>
    <trkpt lat="35.125107139" lon="129.099888072"></trkpt>
    <trkpt lat="35.125159089" lon="129.099888088"></trkpt>
    <trkpt lat="35.125190259" lon="129.099888098"></trkpt>
    <trkpt lat="35.125188166" lon="129.099961776"></trkpt>
    <trkpt lat="35.125208935" lon="129.100012596"></trkpt>
    <trkpt lat="35.125316976" lon="129.100086308"></trkpt>
    <trkpt lat="35.125385542" lon="129.10012952"></trkpt>
    <trkpt lat="35.125497736" lon="129.100215937"></trkpt>
    <trkpt lat="35.125615" lon="129.10028"></trkpt>
    <trkpt lat="35.125748" lon="129.100364"></trkpt>
    <trkpt lat="35.125863" lon="129.100449"></trkpt>
    <trkpt lat="35.125975" lon="129.10055"></trkpt>
    <trkpt lat="35.126058" lon="129.100609"></trkpt>
    <trkpt lat="35.126116394" lon="129.100661531"></trkpt>
    <trkpt lat="35.126219" lon="129.100744"></trkpt>
    <trkpt lat="35.126292" lon="129.100797"></trkpt>
    <trkpt lat="35.126384" lon="129.100845"></trkpt>
    <trkpt lat="35.126471" lon="129.100916"></trkpt>
    <trkpt lat="35.126604" lon="129.101017"></trkpt>
    <trkpt lat="35.126664" lon="129.101067"></trkpt>
    <trkpt lat="35.126765" lon="129.101151"></trkpt>
    <trkpt lat="35.126847" lon="129.101224"></trkpt>
    <trkpt lat="35.12693" lon="129.101285"></trkpt>
    <trkpt lat="35.127017" lon="129.10136"></trkpt>
    <trkpt lat="35.127106" lon="129.10143"></trkpt>
    <trkpt lat="35.127188" lon="129.101508"></trkpt>
    <trkpt lat="35.127262" lon="129.101558"></trkpt>
    <trkpt lat="35.127332" lon="129.101616"></trkpt>
    <trkpt lat="35.127378" lon="129.101627"></trkpt>
    <trkpt lat="35.127415" lon="129.101599"></trkpt>
    <trkpt lat="35.127459" lon="129.10153"></trkpt>
    <trkpt lat="35.127512" lon="129.101425"></trkpt>
    <trkpt lat="35.127564" lon="129.101336"></trkpt>
    <trkpt lat="35.127649" lon="129.101181"></trkpt>
    <trkpt lat="35.127731" lon="129.101048"></trkpt>
    <trkpt lat="35.127828" lon="129.100898"></trkpt>
    <trkpt lat="35.12789" lon="129.100808"></trkpt>
    <trkpt lat="35.12795" lon="129.100763"></trkpt>
    <trkpt lat="35.12805" lon="129.100741"></trkpt>
    <trkpt lat="35.128147" lon="129.100699"></trkpt>
    <trkpt lat="35.1282" lon="129.100594"></trkpt>
    <trkpt lat="35.128293" lon="129.100421"></trkpt>
    <trkpt lat="35.128372" lon="129.100285"></trkpt>
    <trkpt lat="35.128471" lon="129.100079"></trkpt>
    <trkpt lat="35.128581" lon="129.099883"></trkpt>
    <trkpt lat="35.128699" lon="129.099716"></trkpt>
    <trkpt lat="35.128805" lon="129.099523"></trkpt>
    <trkpt lat="35.128881" lon="129.099376"></trkpt>
    <trkpt lat="35.128976" lon="129.099194"></trkpt>
    <trkpt lat="35.129073" lon="129.099006"></trkpt>
    <trkpt lat="35.129181" lon="129.098812"></trkpt>
    <trkpt lat="35.129266" lon="129.098659"></trkpt>
    <trkpt lat="35.129328" lon="129.098543"></trkpt>
    <trkpt lat="35.129395926" lon="129.098411185"></trkpt>
    <trkpt lat="35.129404244" lon="129.098378157"></trkpt>
    <trkpt lat="35.129352301" lon="129.098340031"></trkpt>
    <trkpt lat="35.129271627" lon="129.098278611"></trkpt>
    <trkpt lat="35.129248957" lon="129.098231068"></trkpt>
    <trkpt lat="35.129219813" lon="129.098153812"></trkpt>
    <trkpt lat="35.129197149" lon="129.098074577"></trkpt>
    <trkpt lat="35.129187446" lon="129.097985443"></trkpt>
    <trkpt lat="35.129187453" lon="129.097945829"></trkpt>
    <trkpt lat="35.129226343" lon="129.097884437"></trkpt>
    <trkpt lat="35.129273692" lon="129.097762044"></trkpt>
    <trkpt lat="35.129283417" lon="129.097736298"></trkpt>
    <trkpt lat="35.129260207" lon="129.097705718"></trkpt>
    <trkpt lat="35.129171255" lon="129.097624032"></trkpt>
    <trkpt lat="35.129028445" lon="129.097504594"></trkpt>
    <trkpt lat="35.128831569" lon="129.097344983"></trkpt>
    <trkpt lat="35.128361114" lon="129.097001274"></trkpt>
    <trkpt lat="35.128001171" lon="129.0967214"></trkpt>
    <trkpt lat="35.127443292" lon="129.096287508"></trkpt>
    <trkpt lat="35.127204301" lon="129.096093208"></trkpt>
    <trkpt lat="35.127195169" lon="129.096036243"></trkpt>
    <trkpt lat="35.12722288" lon="129.095927548"></trkpt>
    <trkpt lat="35.127294004" lon="129.095783221"></trkpt>
    <trkpt lat="35.127339196" lon="129.095720861"></trkpt>
    <trkpt lat="35.127451446" lon="129.095569418"></trkpt>
    <trkpt lat="35.127617575" lon="129.095381208"></trkpt>
    <trkpt lat="35.127610435" lon="129.095253942"></trkpt>
    <trkpt lat="35.127738954" lon="129.095208639"></trkpt>
    <trkpt lat="35.127813" lon="129.095181"></trkpt>
    <trkpt lat="35.127858" lon="129.095155"></trkpt>
    <trkpt lat="35.127928" lon="129.095123"></trkpt>
    <trkpt lat="35.127978" lon="129.095076"></trkpt>
    <trkpt lat="35.128013" lon="129.094989"></trkpt>
    <trkpt lat="35.128005601" lon="129.094908922"></trkpt>
    <trkpt lat="35.127976254" lon="129.094832898"></trkpt>
    <trkpt lat="35.127953814" lon="129.094767433"></trkpt>
    <trkpt lat="35.127922737" lon="129.094712524"></trkpt>
    <trkpt lat="35.127893389" lon="129.094638612"></trkpt>
    <trkpt lat="35.12786231" lon="129.094594261"></trkpt>
    <trkpt lat="35.12789" lon="129.094551"></trkpt>
    <trkpt lat="35.127866" lon="129.094519"></trkpt>
    <trkpt lat="35.12788" lon="129.09444"></trkpt>
    <trkpt lat="35.127905516" lon="129.094397894"></trkpt>
    <trkpt lat="35.127826091" lon="129.094288073"></trkpt>
    <trkpt lat="35.127615432" lon="129.094066308"></trkpt>
    <trkpt lat="35.127453" lon="129.094059"></trkpt>
    <trkpt lat="35.127322" lon="129.093979"></trkpt>
    <trkpt lat="35.127153" lon="129.093794"></trkpt>
    <trkpt lat="35.126969" lon="129.093617"></trkpt>
    <trkpt lat="35.12677" lon="129.093409"></trkpt>
    <trkpt lat="35.126660258" lon="129.093271712"></trkpt>
    <trkpt lat="35.126705" lon="129.093153"></trkpt>
    <trkpt lat="35.126657" lon="129.093009"></trkpt>
    <trkpt lat="35.126652" lon="129.09282"></trkpt>
    <trkpt lat="35.126697" lon="129.09271"></trkpt>
    <trkpt lat="35.126807" lon="129.092613"></trkpt>
    <trkpt lat="35.12679" lon="129.092552"></trkpt>
    <trkpt lat="35.12676574" lon="129.092481312"></trkpt>
    <trkpt lat="35.126706733" lon="129.092379275"></trkpt>
    <trkpt lat="35.126806483" lon="129.092207597"></trkpt>
    <trkpt lat="35.127128129" lon="129.091590541"></trkpt>
    <trkpt lat="35.127483761" lon="129.09085966"></trkpt>
    <trkpt lat="35.127538724" lon="129.090765111"></trkpt>
    <trkpt lat="35.127034722" lon="129.090383995"></trkpt>
    <trkpt lat="35.126576258" lon="129.090079671"></trkpt>
    <trkpt lat="35.126547764" lon="129.090092108"></trkpt>
    <trkpt lat="35.126397171" lon="129.089990057"></trkpt>
    <trkpt lat="35.126395142" lon="129.089937801"></trkpt>
    <trkpt lat="35.1250267" lon="129.089108979"></trkpt>
    <trkpt lat="35.124831338" lon="129.088959647"></trkpt>
    <trkpt lat="35.124583078" lon="129.0886411"></trkpt>
    <trkpt lat="35.124693" lon="129.088444541"></trkpt>
    <trkpt lat="35.124471729" lon="129.088200524"></trkpt>
    <trkpt lat="35.124159618" lon="129.087844774"></trkpt>
    <trkpt lat="35.123954093" lon="129.087551123"></trkpt>
    <trkpt lat="35.123765657" lon="129.087305895"></trkpt>
    <trkpt lat="35.123617119" lon="129.086984884"></trkpt>
    <trkpt lat="35.12347638" lon="129.086636493"></trkpt>
    <trkpt lat="35.123339693" lon="129.086289441"></trkpt>
    <trkpt lat="35.123227791" lon="129.085903743"></trkpt>
    <trkpt lat="35.123060849" lon="129.085348886"></trkpt>
    <trkpt lat="35.122906219" lon="129.084779054"></trkpt>
    <trkpt lat="35.122806486" lon="129.084536785"></trkpt>
    <trkpt lat="35.122676264" lon="129.084113766"></trkpt>
    <trkpt lat="35.12241779" lon="129.083203891"></trkpt>
    <trkpt lat="35.122209548" lon="129.082519493"></trkpt>
    <trkpt lat="35.121997226" lon="129.081809112"></trkpt>
    <trkpt lat="35.121883276" lon="129.081381383"></trkpt>
    <trkpt lat="35.121893461" lon="129.081199742"></trkpt>
    <trkpt lat="35.121948418" lon="129.081065381"></trkpt>
    <trkpt lat="35.122009478" lon="129.080995714"></trkpt>
    <trkpt lat="35.122422635" lon="129.080772392"></trkpt>
    <trkpt lat="35.12279712" lon="129.080595751"></trkpt>
    <trkpt lat="35.1231337" lon="129.080403984"></trkpt>
    <trkpt lat="35.123410494" lon="129.08024724"></trkpt>
    <trkpt lat="35.123591633" lon="129.080100442"></trkpt>
    <trkpt lat="35.123742243" lon="129.079971059"></trkpt>
    <trkpt lat="35.123856745" lon="129.079869759"></trkpt>
    <trkpt lat="35.124007357" lon="129.079678169"></trkpt>
    <trkpt lat="35.124170182" lon="129.079414417"></trkpt>
    <trkpt lat="35.124241418" lon="129.079302447"></trkpt>
    <trkpt lat="35.124552612" lon="129.079183243"></trkpt>
    <trkpt lat="35.124757288" lon="129.079273041"></trkpt>
    <trkpt lat="35.124816028" lon="129.079077625"></trkpt>
    <trkpt lat="35.124631345" lon="129.078990042"></trkpt>
    <trkpt lat="35.124569368" lon="129.078937874"></trkpt>
    <trkpt lat="35.124493514" lon="129.0787133"></trkpt>
    <trkpt lat="35.124493554" lon="129.078600506"></trkpt>
    <trkpt lat="35.124586035" lon="129.077875639"></trkpt>
    <trkpt lat="35.124622089" lon="129.077317539"></trkpt>
    <trkpt lat="35.124629221" lon="129.076920846"></trkpt>
    <trkpt lat="35.124661857" lon="129.076112388"></trkpt>
    <trkpt lat="35.124677172" lon="129.075829649"></trkpt>
    <trkpt lat="35.12468926" lon="129.075234728"></trkpt>
    <trkpt lat="35.124728909" lon="129.074980461"></trkpt>
    <trkpt lat="35.124788564" lon="129.074744214"></trkpt>
    <trkpt lat="35.124896623" lon="129.07433373"></trkpt>
    <trkpt lat="35.12503966" lon="129.073799822"></trkpt>
    <trkpt lat="35.12514767" lon="129.073407261"></trkpt>
    <trkpt lat="35.125206916" lon="129.073178692"></trkpt>
    <trkpt lat="35.125257019" lon="129.072817324"></trkpt>
    <trkpt lat="35.125273614" lon="129.072033408"></trkpt>
    <trkpt lat="35.125270388" lon="129.071218449"></trkpt>
    <trkpt lat="35.125289795" lon="129.070878566"></trkpt>
    <trkpt lat="35.125273844" lon="129.070158123"></trkpt>
    <trkpt lat="35.126220047" lon="129.070139517"></trkpt>
    <trkpt lat="35.126230574" lon="129.070962543"></trkpt>
    <trkpt lat="35.12665399" lon="129.070995002"></trkpt>
    <trkpt lat="35.126635937" lon="129.071170047"></trkpt>
    <trkpt lat="35.126703536" lon="129.071175308"></trkpt>
    <trkpt lat="35.126729316" lon="129.071412299"></trkpt>
    <trkpt lat="35.126730356" lon="129.071650448"></trkpt>
    <trkpt lat="35.126692401" lon="129.071787952"></trkpt>
    <trkpt lat="35.126738645" lon="129.071792098"></trkpt>
    <trkpt lat="35.126831391" lon="129.071750429"></trkpt>
    <trkpt lat="35.127004252" lon="129.071751003"></trkpt>
    <trkpt lat="35.127076734" lon="129.071762698"></trkpt>
    <trkpt lat="35.127218033" lon="129.071812025"></trkpt>
    <trkpt lat="35.127347858" lon="129.071826944"></trkpt>
    <trkpt lat="35.127414158" lon="129.071833498"></trkpt>
    <trkpt lat="35.127490192" lon="129.071802586"></trkpt>
    <trkpt lat="35.127495513" lon="129.072011908"></trkpt>
    <trkpt lat="35.12741493" lon="129.072114221"></trkpt>
    <trkpt lat="35.127379087" lon="129.072236253"></trkpt>
    <trkpt lat="35.127284611" lon="129.07234469"></trkpt>
    <trkpt lat="35.127159134" lon="129.072442077"></trkpt>
    <trkpt lat="35.127128475" lon="129.072564189"></trkpt>
    <trkpt lat="35.127042311" lon="129.072704459"></trkpt>
    <trkpt lat="35.12685729" lon="129.073095522"></trkpt>
    <trkpt lat="35.126947391" lon="129.073148083"></trkpt>
    <trkpt lat="35.127073485" lon="129.073259952"></trkpt>
    <trkpt lat="35.127093943" lon="129.073368924"></trkpt>
    <trkpt lat="35.127250309" lon="129.073579376"></trkpt>
    <trkpt lat="35.127592184" lon="129.07382445"></trkpt>
    <trkpt lat="35.127691539" lon="129.073863749"></trkpt>
    <trkpt lat="35.127811307" lon="129.073940563"></trkpt>
    <trkpt lat="35.127849296" lon="129.073965573"></trkpt>
    <trkpt lat="35.127871471" lon="129.074027071"></trkpt>
    <trkpt lat="35.127882976" lon="129.074120833"></trkpt>
    <trkpt lat="35.12792132" lon="129.07417709"></trkpt>
    <trkpt lat="35.128089499" lon="129.074258835"></trkpt>
    <trkpt lat="35.128173954" lon="129.074291679"></trkpt>
    <trkpt lat="35.128262285" lon="129.074335378"></trkpt>
    <trkpt lat="35.128387659" lon="129.07438558"></trkpt>
    <trkpt lat="35.128537385" lon="129.074443054"></trkpt>
    <trkpt lat="35.128647033" lon="129.07449301"></trkpt>
    <trkpt lat="35.128726727" lon="129.074516507"></trkpt>
    <trkpt lat="35.128773672" lon="129.074508853"></trkpt>
    <trkpt lat="35.128920767" lon="129.074508852"></trkpt>
    <trkpt lat="35.129044389" lon="129.074485891"></trkpt>
    <trkpt lat="35.129091334" lon="129.074476323"></trkpt>
    <trkpt lat="35.129106557" lon="129.07443685"></trkpt>
    <trkpt lat="35.129124301" lon="129.074358027"></trkpt>
    <trkpt lat="35.129156343" lon="129.074283001"></trkpt>
    <trkpt lat="35.129193892" lon="129.074220344"></trkpt>
    <trkpt lat="35.12924785" lon="129.074199789"></trkpt>
    <trkpt lat="35.129349839" lon="129.074110399"></trkpt>
    <trkpt lat="35.129423255" lon="129.074061269"></trkpt>
    <trkpt lat="35.129582957" lon="129.073987038"></trkpt>
    <trkpt lat="35.129658619" lon="129.073985915"></trkpt>
    <trkpt lat="35.129756983" lon="129.073969341"></trkpt>
    <trkpt lat="35.129838046" lon="129.073948528"></trkpt>
    <trkpt lat="35.129946182" lon="129.073961983"></trkpt>
    <trkpt lat="35.130057063" lon="129.07389559"></trkpt>
    <trkpt lat="35.13015778" lon="129.07378841"></trkpt>
    <trkpt lat="35.130161338" lon="129.073786378"></trkpt>
    <trkpt lat="35.13022207" lon="129.073721793"></trkpt>
    <trkpt lat="35.130288701" lon="129.073671815"></trkpt>
    <trkpt lat="35.130359552" lon="129.073630084"></trkpt>
    <trkpt lat="35.130408978" lon="129.073572544"></trkpt>
    <trkpt lat="35.130479068" lon="129.073510485"></trkpt>
    <trkpt lat="35.130514346" lon="129.073462932"></trkpt>
    <trkpt lat="35.130559554" lon="129.073357497"></trkpt>
    <trkpt lat="35.130646888" lon="129.073237108"></trkpt>
    <trkpt lat="35.130720721" lon="129.073119305"></trkpt>
    <trkpt lat="35.130751539" lon="129.07300612"></trkpt>
    <trkpt lat="35.130819035" lon="129.072860454"></trkpt>
    <trkpt lat="35.130946467" lon="129.072735184"></trkpt>
    <trkpt lat="35.131011896" lon="129.072684893"></trkpt>
    <trkpt lat="35.131093021" lon="129.072649459"></trkpt>
    <trkpt lat="35.131201986" lon="129.072648339"></trkpt>
    <trkpt lat="35.131287472" lon="129.072679831"></trkpt>
    <trkpt lat="35.131422945" lon="129.072786919"></trkpt>
    <trkpt lat="35.131501681" lon="129.072865024"></trkpt>
    <trkpt lat="35.131564497" lon="129.072928499"></trkpt>
    <trkpt lat="35.131666824" lon="129.072927056"></trkpt>
    <trkpt lat="35.131776425" lon="129.072921913"></trkpt>
    <trkpt lat="35.13191331" lon="129.072878027"></trkpt>
    <trkpt lat="35.131985437" lon="129.072846032"></trkpt>
    <trkpt lat="35.132093679" lon="129.072694452"></trkpt>
    <trkpt lat="35.132127862" lon="129.07263573"></trkpt>
    <trkpt lat="35.132156131" lon="129.0724941"></trkpt>
    <trkpt lat="35.132157857" lon="129.072422916"></trkpt>
    <trkpt lat="35.132152672" lon="129.072315721"></trkpt>
    <trkpt lat="35.132135417" lon="129.072220643"></trkpt>
    <trkpt lat="35.132123361" lon="129.072144802"></trkpt>
    <trkpt lat="35.13212508" lon="129.072069546"></trkpt>
    <trkpt lat="35.13218902" lon="129.071928845"></trkpt>
    <trkpt lat="35.132260499" lon="129.071827176"></trkpt>
    <trkpt lat="35.132360985" lon="129.071724876"></trkpt>
    <trkpt lat="35.132466385" lon="129.071668309"></trkpt>
    <trkpt lat="35.132560471" lon="129.071606617"></trkpt>
    <trkpt lat="35.13264465" lon="129.071587448"></trkpt>
    <trkpt lat="35.132700037" lon="129.071617971"></trkpt>
    <trkpt lat="35.132739042" lon="129.07171389"></trkpt>
    <trkpt lat="35.132776367" lon="129.071825519"></trkpt>
    <trkpt lat="35.132806353" lon="129.071852261"></trkpt>
    <trkpt lat="35.132919746" lon="129.07181238"></trkpt>
    <trkpt lat="35.133002063" lon="129.071762426"></trkpt>
    <trkpt lat="35.133105281" lon="129.071731526"></trkpt>
    <trkpt lat="35.133193262" lon="129.071689232"></trkpt>
    <trkpt lat="35.133439967" lon="129.071623403"></trkpt>
    <trkpt lat="35.133572555" lon="129.071563583"></trkpt>
    <trkpt lat="35.133681367" lon="129.071498473"></trkpt>
    <trkpt lat="35.133731664" lon="129.071474326"></trkpt>
    <trkpt lat="35.133762068" lon="129.071309394"></trkpt>
    <trkpt lat="35.133816445" lon="129.071181579"></trkpt>
    <trkpt lat="35.133845602" lon="129.071138909"></trkpt>
    <trkpt lat="35.133851079" lon="129.071087235"></trkpt>
    <trkpt lat="35.133840123" lon="129.071039744"></trkpt>
    <trkpt lat="35.133840123" lon="129.07103759"></trkpt>
    <trkpt lat="35.133858388" lon="129.071009654"></trkpt>
    <trkpt lat="35.13392081" lon="129.071025051"></trkpt>
    <trkpt lat="35.13400419" lon="129.071016745"></trkpt>
    <trkpt lat="35.134123255" lon="129.070977972"></trkpt>
    <trkpt lat="35.134224223" lon="129.070888054"></trkpt>
    <trkpt lat="35.134319294" lon="129.070811919"></trkpt>
    <trkpt lat="35.134353659" lon="129.070775607"></trkpt>
    <trkpt lat="35.134362724" lon="129.070685396"></trkpt>
    <trkpt lat="35.134355467" lon="129.070627428"></trkpt>
    <trkpt lat="35.134333737" lon="129.070554643"></trkpt>
    <trkpt lat="35.134294056" lon="129.070486615"></trkpt>
    <trkpt lat="35.13424742" lon="129.070434001"></trkpt>
    <trkpt lat="35.134218859" lon="129.070421757"></trkpt>
    <trkpt lat="35.134204617" lon="129.070388001"></trkpt>
    <trkpt lat="35.134206393" lon="129.070302873"></trkpt>
    <trkpt lat="35.134264581" lon="129.070214046"></trkpt>
    <trkpt lat="35.134312022" lon="129.070029818"></trkpt>
    <trkpt lat="35.134441769" lon="129.069765634"></trkpt>
    <trkpt lat="35.13456125" lon="129.069508062"></trkpt>
    <trkpt lat="35.13493545" lon="129.069430209"></trkpt>
    <trkpt lat="35.13542255" lon="129.069347457"></trkpt>
    <trkpt lat="35.135604594" lon="129.069318243"></trkpt>
    <trkpt lat="35.135601014" lon="129.069222279"></trkpt>
    <trkpt lat="35.135640437" lon="129.069204999"></trkpt>
    <trkpt lat="35.135676444" lon="129.069089091"></trkpt>
    <trkpt lat="35.135676435" lon="129.068904818"></trkpt>
    <trkpt lat="35.135713" lon="129.068902"></trkpt>
    <trkpt lat="35.135767" lon="129.068892"></trkpt>
    <trkpt lat="35.135824" lon="129.068865"></trkpt>
    <trkpt lat="35.13591" lon="129.068809"></trkpt>
    <trkpt lat="35.136032" lon="129.068731"></trkpt>
    <trkpt lat="35.136194" lon="129.068627"></trkpt>
    <trkpt lat="35.136263" lon="129.06857"></trkpt>
    <trkpt lat="35.136333" lon="129.068523"></trkpt>
    <trkpt lat="35.136401" lon="129.068479"></trkpt>
    <trkpt lat="35.136459" lon="129.068459"></trkpt>
    <trkpt lat="35.136504" lon="129.068462"></trkpt>
    <trkpt lat="35.136561" lon="129.068437"></trkpt>
    <trkpt lat="35.136621" lon="129.068393"></trkpt>
    <trkpt lat="35.136661" lon="129.068309"></trkpt>
    <trkpt lat="35.136675" lon="129.068193"></trkpt>
    <trkpt lat="35.136675" lon="129.068076"></trkpt>
    <trkpt lat="35.136678" lon="129.067967"></trkpt>
    <trkpt lat="35.136675" lon="129.067851"></trkpt>
    <trkpt lat="35.136671" lon="129.067783"></trkpt>
    <trkpt lat="35.136649" lon="129.067681"></trkpt>
    <trkpt lat="35.136629" lon="129.067616"></trkpt>
    <trkpt lat="35.136613" lon="129.067537"></trkpt>
    <trkpt lat="35.136606" lon="129.067464"></trkpt>
    <trkpt lat="35.136593" lon="129.06738"></trkpt>
    <trkpt lat="35.13658" lon="129.067313"></trkpt>
    <trkpt lat="35.136573" lon="129.067245"></trkpt>
    <trkpt lat="35.136589" lon="129.067201"></trkpt>
    <trkpt lat="35.136634" lon="129.06717"></trkpt>
    <trkpt lat="35.136672" lon="129.067118"></trkpt>
    <trkpt lat="35.136702" lon="129.067044"></trkpt>
    <trkpt lat="35.136724" lon="129.066985"></trkpt>
    <trkpt lat="35.13676" lon="129.066899"></trkpt>
    <trkpt lat="35.136801" lon="129.066795"></trkpt>
    <trkpt lat="35.136799" lon="129.066535"></trkpt>
    <trkpt lat="35.136801" lon="129.066362"></trkpt>
    <trkpt lat="35.136815" lon="129.065995"></trkpt>
    <trkpt lat="35.136846" lon="129.065696"></trkpt>
    <trkpt lat="35.136907" lon="129.064676"></trkpt>
    <trkpt lat="35.136949" lon="129.06417"></trkpt>
    <trkpt lat="35.136783" lon="129.063707"></trkpt>
    <trkpt lat="35.136317" lon="129.063211"></trkpt>
    <trkpt lat="35.136506" lon="129.062873"></trkpt>
    <trkpt lat="35.136564" lon="129.062942"></trkpt>
    <trkpt lat="35.136648" lon="129.062913"></trkpt>
    <trkpt lat="35.136698" lon="129.062822"></trkpt>
    <trkpt lat="35.136707" lon="129.062629"></trkpt>
    <trkpt lat="35.136815" lon="129.062149"></trkpt>
    <trkpt lat="35.136823" lon="129.062107"></trkpt>
    <trkpt lat="35.1371" lon="129.061599"></trkpt>
    <trkpt lat="35.137215" lon="129.061384"></trkpt>
    <trkpt lat="35.137234" lon="129.061357"></trkpt>
    <trkpt lat="35.137259" lon="129.061213"></trkpt>
    <trkpt lat="35.137267" lon="129.061085"></trkpt>
    <trkpt lat="35.137282" lon="129.060941"></trkpt>
    <trkpt lat="35.137291" lon="129.060827"></trkpt>
    <trkpt lat="35.137276" lon="129.060724"></trkpt>
    <trkpt lat="35.137252" lon="129.060592"></trkpt>
    <trkpt lat="35.137228" lon="129.060478"></trkpt>
    <trkpt lat="35.137207" lon="129.060353"></trkpt>
    <trkpt lat="35.137196" lon="129.060248"></trkpt>
    <trkpt lat="35.137186" lon="129.060171"></trkpt>
    <trkpt lat="35.137169" lon="129.060101"></trkpt>
    <trkpt lat="35.137152" lon="129.060019"></trkpt>
    <trkpt lat="35.137132" lon="129.059901"></trkpt>
    <trkpt lat="35.137112" lon="129.059797"></trkpt>
    <trkpt lat="35.137093" lon="129.059716"></trkpt>
    <trkpt lat="35.137085" lon="129.059628"></trkpt>
    <trkpt lat="35.137072" lon="129.059573"></trkpt>
    <trkpt lat="35.137038" lon="129.05954"></trkpt>
    <trkpt lat="35.137008" lon="129.059511"></trkpt>
    <trkpt lat="35.137001" lon="129.059431"></trkpt>
    <trkpt lat="35.136993" lon="129.059356"></trkpt>
    <trkpt lat="35.136992" lon="129.059278"></trkpt>
    <trkpt lat="35.136992" lon="129.059244"></trkpt>
    <trkpt lat="35.137025" lon="129.059233"></trkpt>
    <trkpt lat="35.137026" lon="129.059172"></trkpt>
    <trkpt lat="35.137032" lon="129.059067"></trkpt>
    <trkpt lat="35.137034" lon="129.058923"></trkpt>
    <trkpt lat="35.13703" lon="129.058827"></trkpt>
    <trkpt lat="35.137035" lon="129.058741"></trkpt>
    <trkpt lat="35.13704" lon="129.058648"></trkpt>
    <trkpt lat="35.137045" lon="129.058542"></trkpt>
    <trkpt lat="35.137045" lon="129.058428"></trkpt>
    <trkpt lat="35.137049" lon="129.058297"></trkpt>
    <trkpt lat="35.137045" lon="129.058205"></trkpt>
    <trkpt lat="35.137044" lon="129.058083"></trkpt>
    <trkpt lat="35.137046" lon="129.057981"></trkpt>
    <trkpt lat="35.137039" lon="129.057823"></trkpt>
    <trkpt lat="35.137041" lon="129.057708"></trkpt>
    <trkpt lat="35.137041" lon="129.057581"></trkpt>
    <trkpt lat="35.137039" lon="129.057387"></trkpt>
    <trkpt lat="35.137047" lon="129.057286"></trkpt>
    <trkpt lat="35.137047" lon="129.05716"></trkpt>
    <trkpt lat="35.137048" lon="129.057054"></trkpt>
    <trkpt lat="35.137045" lon="129.056941"></trkpt>
    <trkpt lat="35.13701" lon="129.056874"></trkpt>
    <trkpt lat="35.136971" lon="129.056802"></trkpt>
    <trkpt lat="35.136902" lon="129.056746"></trkpt>
    <trkpt lat="35.13682" lon="129.056722"></trkpt>
    <trkpt lat="35.13676" lon="129.056705"></trkpt>
    <trkpt lat="35.136685" lon="129.056681"></trkpt>
    <trkpt lat="35.136672" lon="129.056623"></trkpt>
    <trkpt lat="35.136671" lon="129.056524"></trkpt>
    <trkpt lat="35.136673" lon="129.056415"></trkpt>
    <trkpt lat="35.136668" lon="129.056297"></trkpt>
    <trkpt lat="35.136606" lon="129.056289"></trkpt>
    <trkpt lat="35.136542" lon="129.056287"></trkpt>
    <trkpt lat="35.136491" lon="129.056254"></trkpt>
    <trkpt lat="35.136477" lon="129.056216"></trkpt>
    <trkpt lat="35.136481" lon="129.05616"></trkpt>
    <trkpt lat="35.136507" lon="129.05609"></trkpt>
    <trkpt lat="35.136539" lon="129.056033"></trkpt>
    <trkpt lat="35.136566" lon="129.055971"></trkpt>
    <trkpt lat="35.136579" lon="129.055918"></trkpt>
    <trkpt lat="35.136608" lon="129.055831"></trkpt>
    <trkpt lat="35.136635" lon="129.055739"></trkpt>
    <trkpt lat="35.136661" lon="129.055655"></trkpt>
    <trkpt lat="35.136687" lon="129.055593"></trkpt>
    <trkpt lat="35.136661" lon="129.055521"></trkpt>
    <trkpt lat="35.136616" lon="129.055479"></trkpt>
    <trkpt lat="35.136572" lon="129.055442"></trkpt>
    <trkpt lat="35.136529" lon="129.055393"></trkpt>
    <trkpt lat="35.136478" lon="129.055346"></trkpt>
    <trkpt lat="35.13643" lon="129.05528"></trkpt>
    <trkpt lat="35.136383" lon="129.055245"></trkpt>
    <trkpt lat="35.136342" lon="129.055196"></trkpt>
    <trkpt lat="35.136285" lon="129.055141"></trkpt>
    <trkpt lat="35.136216" lon="129.055069"></trkpt>
    <trkpt lat="35.136151" lon="129.055009"></trkpt>
    <trkpt lat="35.136089" lon="129.054947"></trkpt>
    <trkpt lat="35.136035" lon="129.054883"></trkpt>
    <trkpt lat="35.135972" lon="129.054827"></trkpt>
    <trkpt lat="35.135898" lon="129.054746"></trkpt>
    <trkpt lat="35.135837" lon="129.05469"></trkpt>
    <trkpt lat="35.135773" lon="129.054622"></trkpt>
    <trkpt lat="35.1357" lon="129.054553"></trkpt>
    <trkpt lat="35.135639" lon="129.054496"></trkpt>
    <trkpt lat="35.135566" lon="129.05442"></trkpt>
    <trkpt lat="35.135503" lon="129.054363"></trkpt>
    <trkpt lat="35.135443" lon="129.054299"></trkpt>
    <trkpt lat="35.13539" lon="129.054245"></trkpt>
    <trkpt lat="35.13533" lon="129.054186"></trkpt>
    <trkpt lat="35.135277" lon="129.054134"></trkpt>
    <trkpt lat="35.135216" lon="129.054063"></trkpt>
    <trkpt lat="35.135141" lon="129.053988"></trkpt>
    <trkpt lat="35.135079" lon="129.053922"></trkpt>
    <trkpt lat="35.135021" lon="129.053871"></trkpt>
    <trkpt lat="35.134961" lon="129.053814"></trkpt>
    <trkpt lat="35.134919" lon="129.053774"></trkpt>
    <trkpt lat="35.134856" lon="129.053711"></trkpt>
    <trkpt lat="35.134808" lon="129.053665"></trkpt>
    <trkpt lat="35.134761" lon="129.053621"></trkpt>
    <trkpt lat="35.134704" lon="129.053564"></trkpt>
    <trkpt lat="35.13466" lon="129.053509"></trkpt>
    <trkpt lat="35.134616" lon="129.053463"></trkpt>
    <trkpt lat="35.134584" lon="129.053421"></trkpt>
    <trkpt lat="35.134559" lon="129.053386"></trkpt>
    <trkpt lat="35.134573" lon="129.053362"></trkpt>
    <trkpt lat="35.1346" lon="129.05332"></trkpt>
    <trkpt lat="35.134648" lon="129.053241"></trkpt>
    <trkpt lat="35.134683" lon="129.05319"></trkpt>
    <trkpt lat="35.134727" lon="129.053176"></trkpt>
    <trkpt lat="35.13478" lon="129.053164"></trkpt>
    <trkpt lat="35.134834" lon="129.053156"></trkpt>
    <trkpt lat="35.134886" lon="129.053157"></trkpt>
    <trkpt lat="35.134934" lon="129.053152"></trkpt>
    <trkpt lat="35.134973" lon="129.053149"></trkpt>
    <trkpt lat="35.134996" lon="129.053108"></trkpt>
    <trkpt lat="35.135012" lon="129.053076"></trkpt>
    <trkpt lat="35.135039" lon="129.052999"></trkpt>
    <trkpt lat="35.135056" lon="129.052911"></trkpt>
    <trkpt lat="35.135057" lon="129.052832"></trkpt>
    <trkpt lat="35.135042" lon="129.052769"></trkpt>
    <trkpt lat="35.135017" lon="129.052715"></trkpt>
    <trkpt lat="35.134991" lon="129.052665"></trkpt>
    <trkpt lat="35.134963" lon="129.052628"></trkpt>
    <trkpt lat="35.134919" lon="129.052586"></trkpt>
    <trkpt lat="35.13488" lon="129.052555"></trkpt>
    <trkpt lat="35.134829" lon="129.052522"></trkpt>
    <trkpt lat="35.134786" lon="129.052491"></trkpt>
    <trkpt lat="35.134744" lon="129.052465"></trkpt>
    <trkpt lat="35.134681" lon="129.052426"></trkpt>
    <trkpt lat="35.134651" lon="129.052394"></trkpt>
    <trkpt lat="35.134638" lon="129.052365"></trkpt>
    <trkpt lat="35.134639" lon="129.052331"></trkpt>
    <trkpt lat="35.134652" lon="129.052317"></trkpt>
    <trkpt lat="35.134683" lon="129.052327"></trkpt>
    <trkpt lat="35.134726" lon="129.052361"></trkpt>
    <trkpt lat="35.134795" lon="129.052411"></trkpt>
    <trkpt lat="35.134859" lon="129.052459"></trkpt>
    <trkpt lat="35.134941" lon="129.052515"></trkpt>
    <trkpt lat="35.135007" lon="129.052558"></trkpt>
    <trkpt lat="35.135043" lon="129.052577"></trkpt>
    <trkpt lat="35.135059" lon="129.052523"></trkpt>
    <trkpt lat="35.135125" lon="129.052531"></trkpt>
    <trkpt lat="35.1352" lon="129.052551"></trkpt>
    <trkpt lat="35.135264" lon="129.052557"></trkpt>
    <trkpt lat="35.135332" lon="129.052558"></trkpt>
    <trkpt lat="35.135383" lon="129.052562"></trkpt>
    <trkpt lat="35.135458" lon="129.052605"></trkpt>
    <trkpt lat="35.135508" lon="129.052629"></trkpt>
    <trkpt lat="35.135553" lon="129.05263"></trkpt>
    <trkpt lat="35.135673" lon="129.052706"></trkpt>
    <trkpt lat="35.135794" lon="129.052797"></trkpt>
    <trkpt lat="35.13594" lon="129.05261"></trkpt>
    <trkpt lat="35.136035" lon="129.052518"></trkpt>
    <trkpt lat="35.136074" lon="129.052489"></trkpt>
    <trkpt lat="35.136098" lon="129.052507"></trkpt>
    <trkpt lat="35.136373" lon="129.052302"></trkpt>
    <trkpt lat="35.136634" lon="129.052113"></trkpt>
    <trkpt lat="35.136705" lon="129.052058"></trkpt>
    <trkpt lat="35.136768" lon="129.051954"></trkpt>
    <trkpt lat="35.136818" lon="129.051868"></trkpt>
    <trkpt lat="35.136977" lon="129.051667"></trkpt>
    <trkpt lat="35.136996" lon="129.051551"></trkpt>
    <trkpt lat="35.137018" lon="129.051469"></trkpt>
    <trkpt lat="35.136825" lon="129.051275"></trkpt>
    <trkpt lat="35.136755" lon="129.051102"></trkpt>
    <trkpt lat="35.136812" lon="129.05092"></trkpt>
    <trkpt lat="35.136899" lon="129.050875"></trkpt>
    <trkpt lat="35.136996" lon="129.05089"></trkpt>
    <trkpt lat="35.137146" lon="129.050865"></trkpt>
    <trkpt lat="35.137331" lon="129.050898"></trkpt>
    <trkpt lat="35.137417" lon="129.050943"></trkpt>
    <trkpt lat="35.13746" lon="129.050973"></trkpt>
    <trkpt lat="35.137489" lon="129.050984"></trkpt>
    <trkpt lat="35.137539" lon="129.051023"></trkpt>
    <trkpt lat="35.137613" lon="129.05106"></trkpt>
    <trkpt lat="35.137699" lon="129.051114"></trkpt>
    <trkpt lat="35.13776" lon="129.051158"></trkpt>
    <trkpt lat="35.137816" lon="129.051212"></trkpt>
    <trkpt lat="35.137839" lon="129.051299"></trkpt>
    <trkpt lat="35.137862" lon="129.051438"></trkpt>
    <trkpt lat="35.137894" lon="129.05153"></trkpt>
    <trkpt lat="35.137934" lon="129.051583"></trkpt>
    <trkpt lat="35.137993" lon="129.051632"></trkpt>
    <trkpt lat="35.138053" lon="129.051654"></trkpt>
    <trkpt lat="35.138098" lon="129.05165"></trkpt>
    <trkpt lat="35.138128" lon="129.051588"></trkpt>
    <trkpt lat="35.138146" lon="129.05152"></trkpt>
    <trkpt lat="35.138166" lon="129.05142"></trkpt>
    <trkpt lat="35.138171" lon="129.051327"></trkpt>
    <trkpt lat="35.138175" lon="129.051216"></trkpt>
    <trkpt lat="35.138167" lon="129.051124"></trkpt>
    <trkpt lat="35.138134" lon="129.051028"></trkpt>
    <trkpt lat="35.138097" lon="129.05095"></trkpt>
    <trkpt lat="35.138054" lon="129.050853"></trkpt>
    <trkpt lat="35.138005" lon="129.050751"></trkpt>
    <trkpt lat="35.137969" lon="129.050681"></trkpt>
    <trkpt lat="35.137918" lon="129.050604"></trkpt>
    <trkpt lat="35.137862" lon="129.050518"></trkpt>
    <trkpt lat="35.137793" lon="129.05044"></trkpt>
    <trkpt lat="35.137703" lon="129.050358"></trkpt>
    <trkpt lat="35.137631" lon="129.050303"></trkpt>
    <trkpt lat="35.137528" lon="129.050233"></trkpt>
    <trkpt lat="35.137446" lon="129.050174"></trkpt>
    <trkpt lat="35.137356" lon="129.050101"></trkpt>
    <trkpt lat="35.137309" lon="129.05007"></trkpt>
    <trkpt lat="35.137264" lon="129.050018"></trkpt>
    <trkpt lat="35.137228" lon="129.049965"></trkpt>
    <trkpt lat="35.137205" lon="129.049896"></trkpt>
    <trkpt lat="35.137203" lon="129.049836"></trkpt>
    <trkpt lat="35.137232" lon="129.049778"></trkpt>
    <trkpt lat="35.137279" lon="129.04972"></trkpt>
    <trkpt lat="35.137361" lon="129.049681"></trkpt>
    <trkpt lat="35.13744" lon="129.049654"></trkpt>
    <trkpt lat="35.13751" lon="129.049642"></trkpt>
    <trkpt lat="35.137562" lon="129.049627"></trkpt>
    <trkpt lat="35.137585" lon="129.049609"></trkpt>
    <trkpt lat="35.137635" lon="129.049569"></trkpt>
    <trkpt lat="35.137719" lon="129.049544"></trkpt>
    <trkpt lat="35.137903" lon="129.04947"></trkpt>
    <trkpt lat="35.138152" lon="129.049344"></trkpt>
    <trkpt lat="35.138338" lon="129.049195"></trkpt>
    <trkpt lat="35.138532" lon="129.048998"></trkpt>
    <trkpt lat="35.138591" lon="129.048886"></trkpt>
    <trkpt lat="35.138604" lon="129.048824"></trkpt>
    <trkpt lat="35.138614" lon="129.04865"></trkpt>
    <trkpt lat="35.138623" lon="129.048439"></trkpt>
    <trkpt lat="35.138601" lon="129.048215"></trkpt>
    <trkpt lat="35.138594" lon="129.048065"></trkpt>
    <trkpt lat="35.138557" lon="129.047998"></trkpt>
    <trkpt lat="35.138475" lon="129.047947"></trkpt>
    <trkpt lat="35.138501" lon="129.047893"></trkpt>
    <trkpt lat="35.138307" lon="129.047797"></trkpt>
    <trkpt lat="35.138189" lon="129.047772"></trkpt>
    <trkpt lat="35.138127" lon="129.04775"></trkpt>
    <trkpt lat="35.138073" lon="129.047714"></trkpt>
    <trkpt lat="35.138087" lon="129.047634"></trkpt>
    <trkpt lat="35.138155" lon="129.047455"></trkpt>
    <trkpt lat="35.138236" lon="129.047251"></trkpt>
    <trkpt lat="35.138251" lon="129.047188"></trkpt>
    <trkpt lat="35.138211" lon="129.047097"></trkpt>
    <trkpt lat="35.138147" lon="129.047008"></trkpt>
    <trkpt lat="35.138058" lon="129.046935"></trkpt>
    <trkpt lat="35.137974" lon="129.046893"></trkpt>
    <trkpt lat="35.137973" lon="129.046893"></trkpt>
    <trkpt lat="35.13788" lon="129.046843"></trkpt>
    <trkpt lat="35.137813" lon="129.04677"></trkpt>
    <trkpt lat="35.137749" lon="129.046717"></trkpt>
    <trkpt lat="35.137709" lon="129.046655"></trkpt>
    <trkpt lat="35.137819" lon="129.046497"></trkpt>
    <trkpt lat="35.137887" lon="129.04637"></trkpt>
    <trkpt lat="35.137921" lon="129.046239"></trkpt>
    <trkpt lat="35.137967" lon="129.046161"></trkpt>
    <trkpt lat="35.138019" lon="129.046088"></trkpt>
    <trkpt lat="35.137959" lon="129.045891"></trkpt>
    <trkpt lat="35.137845" lon="129.045697"></trkpt>
    <trkpt lat="35.137756" lon="129.045511"></trkpt>
    <trkpt lat="35.137655" lon="129.045455"></trkpt>
    <trkpt lat="35.137538" lon="129.045389"></trkpt>
    <trkpt lat="35.137448" lon="129.045345"></trkpt>
    <trkpt lat="35.137411" lon="129.045293"></trkpt>
    <trkpt lat="35.137385" lon="129.045201"></trkpt>
    <trkpt lat="35.137322" lon="129.0451"></trkpt>
    <trkpt lat="35.137228" lon="129.045067"></trkpt>
    <trkpt lat="35.137123" lon="129.045044"></trkpt>
    <trkpt lat="35.13696" lon="129.044845"></trkpt>
    <trkpt lat="35.136873" lon="129.044727"></trkpt>
    <trkpt lat="35.136751" lon="129.044502"></trkpt>
    <trkpt lat="35.136648" lon="129.044287"></trkpt>
    <trkpt lat="35.136594" lon="129.044135"></trkpt>
    <trkpt lat="35.136506" lon="129.043845"></trkpt>
    <trkpt lat="35.136384" lon="129.04344"></trkpt>
    <trkpt lat="35.136268" lon="129.042931"></trkpt>
    <trkpt lat="35.136232" lon="129.04277"></trkpt>
    <trkpt lat="35.136423" lon="129.042791"></trkpt>
    <trkpt lat="35.136456" lon="129.042372"></trkpt>
    <trkpt lat="35.136314" lon="129.042203"></trkpt>
    <trkpt lat="35.136253" lon="129.042051"></trkpt>
    <trkpt lat="35.136227" lon="129.041897"></trkpt>
    <trkpt lat="35.136026" lon="129.041448"></trkpt>
    <trkpt lat="35.135912" lon="129.041366"></trkpt>
    <trkpt lat="35.135783" lon="129.041153"></trkpt>
    <trkpt lat="35.135716" lon="129.040962"></trkpt>
    <trkpt lat="35.135674" lon="129.04086"></trkpt>
    <trkpt lat="35.135578" lon="129.040696"></trkpt>
    <trkpt lat="35.13543" lon="129.040653"></trkpt>
    <trkpt lat="35.135315" lon="129.040597"></trkpt>
    <trkpt lat="35.135193" lon="129.040513"></trkpt>
    <trkpt lat="35.135134" lon="129.040453"></trkpt>
    <trkpt lat="35.135108" lon="129.040374"></trkpt>
    <trkpt lat="35.135096" lon="129.040006"></trkpt>
    <trkpt lat="35.135096" lon="129.03989"></trkpt>
    <trkpt lat="35.135102" lon="129.039812"></trkpt>
    <trkpt lat="35.135084" lon="129.039723"></trkpt>
    <trkpt lat="35.135057" lon="129.039665"></trkpt>
    <trkpt lat="35.134932" lon="129.039608"></trkpt>
    <trkpt lat="35.134825" lon="129.039639"></trkpt>
    <trkpt lat="35.134704" lon="129.039698"></trkpt>
    <trkpt lat="35.134602" lon="129.039754"></trkpt>
    <trkpt lat="35.134509" lon="129.039753"></trkpt>
    <trkpt lat="35.134428" lon="129.039676"></trkpt>
    <trkpt lat="35.134414" lon="129.039656"></trkpt>
    <trkpt lat="35.134327" lon="129.03967"></trkpt>
    <trkpt lat="35.134244" lon="129.039717"></trkpt>
    <trkpt lat="35.134155" lon="129.039772"></trkpt>
    <trkpt lat="35.134089" lon="129.039799"></trkpt>
    <trkpt lat="35.133788" lon="129.039889"></trkpt>
    <trkpt lat="35.133666" lon="129.03996"></trkpt>
    <trkpt lat="35.133614" lon="129.040002"></trkpt>
    <trkpt lat="35.133537" lon="129.040022"></trkpt>
    <trkpt lat="35.133401" lon="129.04004"></trkpt>
    <trkpt lat="35.133298" lon="129.040012"></trkpt>
    <trkpt lat="35.133192" lon="129.03999"></trkpt>
    <trkpt lat="35.133091" lon="129.039849"></trkpt>
    <trkpt lat="35.132986" lon="129.039666"></trkpt>
    <trkpt lat="35.132917" lon="129.03955"></trkpt>
    <trkpt lat="35.132853" lon="129.039327"></trkpt>
    <trkpt lat="35.13283" lon="129.039266"></trkpt>
    <trkpt lat="35.132749" lon="129.039163"></trkpt>
    <trkpt lat="35.132694" lon="129.038966"></trkpt>
    <trkpt lat="35.132629" lon="129.03873"></trkpt>
    <trkpt lat="35.13273" lon="129.038545"></trkpt>
    <trkpt lat="35.132709" lon="129.0385"></trkpt>
    <trkpt lat="35.132648" lon="129.038377"></trkpt>
    <trkpt lat="35.132585" lon="129.038251"></trkpt>
    <trkpt lat="35.132524" lon="129.038165"></trkpt>
    <trkpt lat="35.132459" lon="129.038125"></trkpt>
    <trkpt lat="35.132411" lon="129.038077"></trkpt>
    <trkpt lat="35.132335" lon="129.0381"></trkpt>
    <trkpt lat="35.132242" lon="129.03811"></trkpt>
    <trkpt lat="35.132155" lon="129.038121"></trkpt>
    <trkpt lat="35.132067" lon="129.038154"></trkpt>
    <trkpt lat="35.13204" lon="129.038233"></trkpt>
    <trkpt lat="35.132012" lon="129.038317"></trkpt>
    <trkpt lat="35.131971" lon="129.038388"></trkpt>
    <trkpt lat="35.131924" lon="129.038406"></trkpt>
    <trkpt lat="35.131791" lon="129.038439"></trkpt>
    <trkpt lat="35.13161" lon="129.03846"></trkpt>
    <trkpt lat="35.131505" lon="129.038485"></trkpt>
    <trkpt lat="35.131428" lon="129.03851"></trkpt>
    <trkpt lat="35.131289" lon="129.038466"></trkpt>
    <trkpt lat="35.131052" lon="129.038474"></trkpt>
    <trkpt lat="35.130889" lon="129.038486"></trkpt>
    <trkpt lat="35.130654" lon="129.038444"></trkpt>
    <trkpt lat="35.130521" lon="129.038436"></trkpt>
    <trkpt lat="35.130227" lon="129.038433"></trkpt>
    <trkpt lat="35.130011" lon="129.03842"></trkpt>
    <trkpt lat="35.129864" lon="129.038396"></trkpt>
    <trkpt lat="35.129768" lon="129.03841"></trkpt>
    <trkpt lat="35.129651" lon="129.038444"></trkpt>
    <trkpt lat="35.129595" lon="129.03848"></trkpt>
    <trkpt lat="35.129513" lon="129.038565"></trkpt>
    <trkpt lat="35.12942" lon="129.038653"></trkpt>
    <trkpt lat="35.129272" lon="129.038765"></trkpt>
    <trkpt lat="35.129105" lon="129.038926"></trkpt>
    <trkpt lat="35.128994" lon="129.03901"></trkpt>
    <trkpt lat="35.128899" lon="129.039007"></trkpt>
    <trkpt lat="35.128784" lon="129.038945"></trkpt>
    <trkpt lat="35.128707" lon="129.038799"></trkpt>
    <trkpt lat="35.128645" lon="129.038685"></trkpt>
    <trkpt lat="35.128291" lon="129.037662"></trkpt>
    <trkpt lat="35.128091" lon="129.037068"></trkpt>
    <trkpt lat="35.127962" lon="129.036757"></trkpt>
    <trkpt lat="35.127909651" lon="129.036606465"></trkpt>
    <trkpt lat="35.127879" lon="129.036541"></trkpt>
    <trkpt lat="35.127862" lon="129.036419"></trkpt>
    <trkpt lat="35.127830789" lon="129.036300408"></trkpt>
    <trkpt lat="35.127889286" lon="129.036158035"></trkpt>
    <trkpt lat="35.127950152" lon="129.036057925"></trkpt>
    <trkpt lat="35.128035875" lon="129.03596201"></trkpt>
    <trkpt lat="35.128117728" lon="129.03587068"></trkpt>
    <trkpt lat="35.128186601" lon="129.035779638"></trkpt>
    <trkpt lat="35.128249169" lon="129.035715126"></trkpt>
    <trkpt lat="35.128301555" lon="129.035645356"></trkpt>
    <trkpt lat="35.128374659" lon="129.03560116"></trkpt>
    <trkpt lat="35.128448742" lon="129.035547642"></trkpt>
    <trkpt lat="35.128523837" lon="129.035528552"></trkpt>
    <trkpt lat="35.128628766" lon="129.035507144"></trkpt>
    <trkpt lat="35.128690728" lon="129.035498556"></trkpt>
    <trkpt lat="35.128680951" lon="129.035333655"></trkpt>
    <trkpt lat="35.128678976" lon="129.035228987"></trkpt>
    <trkpt lat="35.128538866" lon="129.03515248"></trkpt>
    <trkpt lat="35.128548331" lon="129.03508838"></trkpt>
    <trkpt lat="35.128562525" lon="129.035028474"></trkpt>
    <trkpt lat="35.128514518" lon="129.034969672"></trkpt>
    <trkpt lat="35.128453452" lon="129.034867928"></trkpt>
    <trkpt lat="35.128299069" lon="129.034604422"></trkpt>
    <trkpt lat="35.128232524" lon="129.034539862"></trkpt>
    <trkpt lat="35.128147814" lon="129.034430916"></trkpt>
    <trkpt lat="35.128006732" lon="129.034330464"></trkpt>
    <trkpt lat="35.127965746" lon="129.034272909"></trkpt>
    <trkpt lat="35.127908944" lon="129.034235437"></trkpt>
    <trkpt lat="35.127870371" lon="129.034205613"></trkpt>
    <trkpt lat="35.127832085" lon="129.034130229"></trkpt>
    <trkpt lat="35.12779882" lon="129.034030524"></trkpt>
    <trkpt lat="35.12763027" lon="129.033843058"></trkpt>
    <trkpt lat="35.127549951" lon="129.033753813"></trkpt>
    <trkpt lat="35.127486618" lon="129.033627649"></trkpt>
    <trkpt lat="35.127450576" lon="129.033564403"></trkpt>
    <trkpt lat="35.127383928" lon="129.033508583"></trkpt>
    <trkpt lat="35.127318199" lon="129.033462856"></trkpt>
    <trkpt lat="35.127275874" lon="129.033409145"></trkpt>
    <trkpt lat="35.12715663" lon="129.033216048"></trkpt>
    <trkpt lat="35.127076974" lon="129.033072793"></trkpt>
    <trkpt lat="35.127004614" lon="129.03295191"></trkpt>
    <trkpt lat="35.126981222" lon="129.032901116"></trkpt>
    <trkpt lat="35.126945072" lon="129.03284353"></trkpt>
    <trkpt lat="35.126865086" lon="129.032706101"></trkpt>
    <trkpt lat="35.126774747" lon="129.032580933"></trkpt>
    <trkpt lat="35.126708879" lon="129.03250931"></trkpt>
    <trkpt lat="35.12662237" lon="129.032502877"></trkpt>
    <trkpt lat="35.126593335" lon="129.03249407"></trkpt>
    <trkpt lat="35.126550942" lon="129.032491741"></trkpt>
    <trkpt lat="35.12651394" lon="129.03251864"></trkpt>
    <trkpt lat="35.126449015" lon="129.032573541"></trkpt>
    <trkpt lat="35.126345893" lon="129.032632568"></trkpt>
    <trkpt lat="35.126232635" lon="129.032695182"></trkpt>
    <trkpt lat="35.126117416" lon="129.032797193"></trkpt>
    <trkpt lat="35.126082367" lon="129.032838481"></trkpt>
    <trkpt lat="35.126047" lon="129.03286"></trkpt>
    <trkpt lat="35.125957" lon="129.03284"></trkpt>
    <trkpt lat="35.125799" lon="129.032782"></trkpt>
    <trkpt lat="35.125699" lon="129.032728"></trkpt>
    <trkpt lat="35.125556" lon="129.032701"></trkpt>
    <trkpt lat="35.125431" lon="129.032715"></trkpt>
    <trkpt lat="35.125333" lon="129.032757"></trkpt>
    <trkpt lat="35.125203" lon="129.032806"></trkpt>
    <trkpt lat="35.125129" lon="129.032828"></trkpt>
    <trkpt lat="35.124922" lon="129.032856"></trkpt>
    <trkpt lat="35.124697" lon="129.032855"></trkpt>
    <trkpt lat="35.1246" lon="129.032854"></trkpt>
    <trkpt lat="35.124456465" lon="129.032838928"></trkpt>
    <trkpt lat="35.124301658" lon="129.032882466"></trkpt>
    <trkpt lat="35.124110534" lon="129.032904439"></trkpt>
    <trkpt lat="35.123912427" lon="129.032946183"></trkpt>
    <trkpt lat="35.123892164" lon="129.033097365"></trkpt>
    <trkpt lat="35.123853374" lon="129.033197784"></trkpt>
    <trkpt lat="35.123674434" lon="129.033295186"></trkpt>
    <trkpt lat="35.123542575" lon="129.033395044"></trkpt>
    <trkpt lat="35.123485719" lon="129.033434256"></trkpt>
    <trkpt lat="35.123420481" lon="129.033476326"></trkpt>
    <trkpt lat="35.123282085" lon="129.033491547"></trkpt>
    <trkpt lat="35.123105047" lon="129.033445491"></trkpt>
    <trkpt lat="35.123004" lon="129.033531"></trkpt>
    <trkpt lat="35.122942" lon="129.033579"></trkpt>
    <trkpt lat="35.122752975" lon="129.03375938"></trkpt>
    <trkpt lat="35.122624057" lon="129.033589609"></trkpt>
    <trkpt lat="35.122518995" lon="129.03343536"></trkpt>
    <trkpt lat="35.12247099" lon="129.0334828"></trkpt>
    <trkpt lat="35.12237361" lon="129.033585227"></trkpt>
    <trkpt lat="35.122253249" lon="129.0337038"></trkpt>
    <trkpt lat="35.122227415" lon="129.033688091"></trkpt>
    <trkpt lat="35.122144772" lon="129.033602427"></trkpt>
    <trkpt lat="35.122072345" lon="129.033531194"></trkpt>
    <trkpt lat="35.122011" lon="129.033478"></trkpt>
    <trkpt lat="35.121895" lon="129.033409"></trkpt>
    <trkpt lat="35.121768" lon="129.033332"></trkpt>
    <trkpt lat="35.121637" lon="129.033213"></trkpt>
    <trkpt lat="35.121542" lon="129.033108"></trkpt>
    <trkpt lat="35.121428" lon="129.032937"></trkpt>
    <trkpt lat="35.121338" lon="129.032802"></trkpt>
    <trkpt lat="35.121218" lon="129.032634"></trkpt>
    <trkpt lat="35.121125" lon="129.032473"></trkpt>
    <trkpt lat="35.121011" lon="129.032312"></trkpt>
    <trkpt lat="35.120911" lon="129.03216"></trkpt>
    <trkpt lat="35.120816" lon="129.032009"></trkpt>
    <trkpt lat="35.120695" lon="129.031829"></trkpt>
    <trkpt lat="35.120585" lon="129.031668"></trkpt>
    <trkpt lat="35.120482912" lon="129.031519898"></trkpt>
    <trkpt lat="35.120388" lon="129.031393"></trkpt>
    <trkpt lat="35.120297" lon="129.031248"></trkpt>
    <trkpt lat="35.120203" lon="129.031097"></trkpt>
    <trkpt lat="35.120088469" lon="129.030941372"></trkpt>
    <trkpt lat="35.119960867" lon="129.030783986"></trkpt>
    <trkpt lat="35.11985463" lon="129.03065217"></trkpt>
    <trkpt lat="35.119762533" lon="129.030494002"></trkpt>
    <trkpt lat="35.119696346" lon="129.03032668"></trkpt>
    <trkpt lat="35.119659412" lon="129.030237574"></trkpt>
    <trkpt lat="35.119628799" lon="129.030173791"></trkpt>
    <trkpt lat="35.119612532" lon="129.03014208"></trkpt>
    <trkpt lat="35.119571" lon="129.030171"></trkpt>
    <trkpt lat="35.119527876" lon="129.030197642"></trkpt>
    <trkpt lat="35.119491" lon="129.030112"></trkpt>
    <trkpt lat="35.119465" lon="129.030047"></trkpt>
    <trkpt lat="35.119431" lon="129.029994"></trkpt>
    <trkpt lat="35.119386" lon="129.029908"></trkpt>
    <trkpt lat="35.119344" lon="129.029863"></trkpt>
    <trkpt lat="35.119299" lon="129.029837"></trkpt>
    <trkpt lat="35.119271" lon="129.029862"></trkpt>
    <trkpt lat="35.11925" lon="129.029951"></trkpt>
    <trkpt lat="35.119235" lon="129.029972"></trkpt>
    <trkpt lat="35.1191" lon="129.029987"></trkpt>
    <trkpt lat="35.119068" lon="129.029816"></trkpt>
    <trkpt lat="35.118947" lon="129.029657"></trkpt>
    <trkpt lat="35.118810116" lon="129.029675595"></trkpt>
    <trkpt lat="35.118747981" lon="129.029716995"></trkpt>
    <trkpt lat="35.118707534" lon="129.029761143"></trkpt>
    <trkpt lat="35.118671351" lon="129.02980214"></trkpt>
    <trkpt lat="35.118623442" lon="129.029908804"></trkpt>
    <trkpt lat="35.118613535" lon="129.030016777"></trkpt>
    <trkpt lat="35.118587807" lon="129.030170407"></trkpt>
    <trkpt lat="35.118566" lon="129.030278"></trkpt>
    <trkpt lat="35.118535" lon="129.030418"></trkpt>
    <trkpt lat="35.118496" lon="129.030553"></trkpt>
    <trkpt lat="35.118442" lon="129.030723"></trkpt>
    <trkpt lat="35.118374" lon="129.030897"></trkpt>
    <trkpt lat="35.118101" lon="129.031547"></trkpt>
    <trkpt lat="35.117966" lon="129.031883"></trkpt>
    <trkpt lat="35.117816" lon="129.032231"></trkpt>
    <trkpt lat="35.11771" lon="129.032453"></trkpt>
    <trkpt lat="35.1176" lon="129.032742"></trkpt>
    <trkpt lat="35.1175" lon="129.032979"></trkpt>
    <trkpt lat="35.117469" lon="129.033111"></trkpt>
    <trkpt lat="35.117435" lon="129.033323"></trkpt>
    <trkpt lat="35.117421" lon="129.033625"></trkpt>
    <trkpt lat="35.117425" lon="129.033918"></trkpt>
    <trkpt lat="35.117455" lon="129.034122"></trkpt>
    <trkpt lat="35.11749" lon="129.034245"></trkpt>
    <trkpt lat="35.117514" lon="129.034375"></trkpt>
    <trkpt lat="35.117515" lon="129.034531"></trkpt>
    <trkpt lat="35.117467" lon="129.034646"></trkpt>
    <trkpt lat="35.117431" lon="129.034729"></trkpt>
    <trkpt lat="35.117284" lon="129.034821"></trkpt>
    <trkpt lat="35.117196852" lon="129.034868346"></trkpt>
    <trkpt lat="35.117180602" lon="129.035130395"></trkpt>
    <trkpt lat="35.117162351" lon="129.035363932"></trkpt>
    <trkpt lat="35.117160343" lon="129.035444428"></trkpt>
    <trkpt lat="35.117159" lon="129.035567"></trkpt>
    <trkpt lat="35.117157" lon="129.035797"></trkpt>
    <trkpt lat="35.11708" lon="129.035963"></trkpt>
    <trkpt lat="35.116993562" lon="129.036131088"></trkpt>
    <trkpt lat="35.116909" lon="129.036419"></trkpt>
    <trkpt lat="35.11687" lon="129.036535"></trkpt>
    <trkpt lat="35.116833579" lon="129.036634025"></trkpt>
    <trkpt lat="35.116798127" lon="129.036727805"></trkpt>
    <trkpt lat="35.116735" lon="129.03686"></trkpt>
    <trkpt lat="35.116630653" lon="129.037081261"></trkpt>
    <trkpt lat="35.117077297" lon="129.037336299"></trkpt>
    <trkpt lat="35.117410284" lon="129.037543565"></trkpt>
    <trkpt lat="35.11755" lon="129.037629"></trkpt>
    <trkpt lat="35.117588864" lon="129.037710284"></trkpt>
    <trkpt lat="35.117564729" lon="129.037790886"></trkpt>
    <trkpt lat="35.117582316" lon="129.0378857"></trkpt>
    <trkpt lat="35.117715501" lon="129.037866495"></trkpt>
    <trkpt lat="35.117734" lon="129.037991"></trkpt>
    <trkpt lat="35.117504" lon="129.038591"></trkpt>
    <trkpt lat="35.117347" lon="129.039005"></trkpt>
    <trkpt lat="35.117275" lon="129.039167"></trkpt>
    <trkpt lat="35.117209" lon="129.039361"></trkpt>
    <trkpt lat="35.116543" lon="129.039003"></trkpt>
    <trkpt lat="35.116202" lon="129.038865"></trkpt>
    <trkpt lat="35.116045" lon="129.038784"></trkpt>
    <trkpt lat="35.115635" lon="129.039266"></trkpt>
    <trkpt lat="35.115429" lon="129.039507"></trkpt>
    <trkpt lat="35.115349" lon="129.03955"></trkpt>
    <trkpt lat="35.115246" lon="129.039819"></trkpt>
    <trkpt lat="35.11521888" lon="129.039935929"></trkpt>
    <trkpt lat="35.115021737" lon="129.039902365"></trkpt>
    <trkpt lat="35.114848394" lon="129.039843549"></trkpt>
    <trkpt lat="35.11480079" lon="129.039991985"></trkpt>
    <trkpt lat="35.114705153" lon="129.040318794"></trkpt>
    <trkpt lat="35.114613032" lon="129.040595771"></trkpt>
    <trkpt lat="35.114552317" lon="129.040769301"></trkpt>
  </trkseg>
</trk>
</gpx>
