<?xml version="1.0" encoding="UTF-8"?>
<gpx version="1.1" creator="GPS Track Editor" xmlns="http://www.topografix.com/GPX/1/1" xmlns:xsi="http://www.w3.org/2001/XMLSchema-instance" xmlns:gte="http://www.gpstrackeditor.com/xmlschemas/General/1" xmlns:gpxtpx="http://www.garmin.com/xmlschemas/TrackPointExtension/v1" xmlns:gpxx="http://www.garmin.com/xmlschemas/GpxExtensions/v3" targetNamespace="http://www.topografix.com/GPX/1/1" elementFormDefault="qualified" xsi:schemaLocation="http://www.topografix.com/GPX/1/1 http://www.topografix.com/GPX/1/1/gpx.xsd">
<metadata>
	<name>GPS_2020-01-20_021213</name>
</metadata>
<trk>
	<name>078-보성군 회천면 동율리 율포솔밭 입구~장흥군 용산면 덕암리 원등마을회관 앞</name>
	<trkseg>
		<trkpt lat="34.670544" lon="127.092024">
			<ele>0.00</ele>
			<time>2020-01-20T02:12:13.38Z</time>
		</trkpt>
		<trkpt lat="34.670497" lon="127.092020">
			<ele>0.00</ele>
			<time>2020-01-20T02:12:13.69Z</time>
		</trkpt>
		<trkpt lat="34.670466" lon="127.092009">
			<ele>0.00</ele>
			<time>2020-01-20T02:12:13.90Z</time>
		</trkpt>
		<trkpt lat="34.670450" lon="127.091971">
			<ele>0.00</ele>
			<time>2020-01-20T02:12:14.14Z</time>
		</trkpt>
		<trkpt lat="34.670439" lon="127.091794">
			<ele>0.00</ele>
			<time>2020-01-20T02:12:15.11Z</time>
		</trkpt>
		<trkpt lat="34.670440" lon="127.091429">
			<ele>0.00</ele>
			<time>2020-01-20T02:12:17.11Z</time>
		</trkpt>
		<trkpt lat="34.670435" lon="127.090655">
			<ele>0.00</ele>
			<time>2020-01-20T02:12:21.36Z</time>
		</trkpt>
		<trkpt lat="34.670429" lon="127.090200">
			<ele>0.00</ele>
			<time>2020-01-20T02:12:23.85Z</time>
		</trkpt>
		<trkpt lat="34.670419" lon="127.090009">
			<ele>0.00</ele>
			<time>2020-01-20T02:12:24.90Z</time>
		</trkpt>
		<trkpt lat="34.670407" lon="127.089748">
			<ele>0.00</ele>
			<time>2020-01-20T02:12:26.33Z</time>
		</trkpt>
		<trkpt lat="34.670404" lon="127.089591">
			<ele>0.00</ele>
			<time>2020-01-20T02:12:27.20Z</time>
		</trkpt>
		<trkpt lat="34.670325" lon="127.089589">
			<ele>0.00</ele>
			<time>2020-01-20T02:12:27.73Z</time>
		</trkpt>
		<trkpt lat="34.670326" lon="127.089416">
			<ele>0.00</ele>
			<time>2020-01-20T02:12:28.68Z</time>
		</trkpt>
		<trkpt lat="34.670318" lon="127.088923">
			<ele>0.00</ele>
			<time>2020-01-20T02:12:31.38Z</time>
		</trkpt>
		<trkpt lat="34.670292" lon="127.088883">
			<ele>0.00</ele>
			<time>2020-01-20T02:12:31.66Z</time>
		</trkpt>
		<trkpt lat="34.670269" lon="127.088867">
			<ele>0.00</ele>
			<time>2020-01-20T02:12:31.84Z</time>
		</trkpt>
		<trkpt lat="34.670197" lon="127.088851">
			<ele>0.00</ele>
			<time>2020-01-20T02:12:32.32Z</time>
		</trkpt>
		<trkpt lat="34.670015" lon="127.088847">
			<ele>0.00</ele>
			<time>2020-01-20T02:12:33.54Z</time>
		</trkpt>
		<trkpt lat="34.669889" lon="127.088868">
			<ele>0.00</ele>
			<time>2020-01-20T02:12:34.39Z</time>
		</trkpt>
		<trkpt lat="34.669837" lon="127.088868">
			<ele>0.00</ele>
			<time>2020-01-20T02:12:34.74Z</time>
		</trkpt>
		<trkpt lat="34.669812" lon="127.088817">
			<ele>0.00</ele>
			<time>2020-01-20T02:12:35.06Z</time>
		</trkpt>
		<trkpt lat="34.669776" lon="127.088632">
			<ele>0.00</ele>
			<time>2020-01-20T02:12:36.10Z</time>
		</trkpt>
		<trkpt lat="34.669733" lon="127.088183">
			<ele>0.00</ele>
			<time>2020-01-20T02:12:38.59Z</time>
		</trkpt>
		<trkpt lat="34.669667" lon="127.087399">
			<ele>0.00</ele>
			<time>2020-01-20T02:12:42.91Z</time>
		</trkpt>
		<trkpt lat="34.669553" lon="127.086797">
			<ele>0.00</ele>
			<time>2020-01-20T02:12:46.29Z</time>
		</trkpt>
		<trkpt lat="34.669501" lon="127.086577">
			<ele>0.00</ele>
			<time>2020-01-20T02:12:47.55Z</time>
		</trkpt>
		<trkpt lat="34.669469" lon="127.086507">
			<ele>0.00</ele>
			<time>2020-01-20T02:12:47.99Z</time>
		</trkpt>
		<trkpt lat="34.669464" lon="127.086455">
			<ele>0.00</ele>
			<time>2020-01-20T02:12:48.28Z</time>
		</trkpt>
		<trkpt lat="34.669489" lon="127.086432">
			<ele>0.00</ele>
			<time>2020-01-20T02:12:48.49Z</time>
		</trkpt>
		<trkpt lat="34.669500" lon="127.086404">
			<ele>0.00</ele>
			<time>2020-01-20T02:12:48.66Z</time>
		</trkpt>
		<trkpt lat="34.669369" lon="127.086198">
			<ele>0.00</ele>
			<time>2020-01-20T02:12:50.09Z</time>
		</trkpt>
		<trkpt lat="34.669375" lon="127.086062">
			<ele>0.00</ele>
			<time>2020-01-20T02:12:50.83Z</time>
		</trkpt>
		<trkpt lat="34.669146" lon="127.086064">
			<ele>0.00</ele>
			<time>2020-01-20T02:12:52.36Z</time>
		</trkpt>
		<trkpt lat="34.668978" lon="127.086076">
			<ele>0.00</ele>
			<time>2020-01-20T02:12:53.49Z</time>
		</trkpt>
		<trkpt lat="34.668757" lon="127.086076">
			<ele>0.00</ele>
			<time>2020-01-20T02:12:54.96Z</time>
		</trkpt>
		<trkpt lat="34.668695" lon="127.086050">
			<ele>0.00</ele>
			<time>2020-01-20T02:12:55.39Z</time>
		</trkpt>
		<trkpt lat="34.668638" lon="127.086014">
			<ele>0.00</ele>
			<time>2020-01-20T02:12:55.83Z</time>
		</trkpt>
		<trkpt lat="34.668572" lon="127.085909">
			<ele>0.00</ele>
			<time>2020-01-20T02:12:56.55Z</time>
		</trkpt>
		<trkpt lat="34.668501" lon="127.085743">
			<ele>0.00</ele>
			<time>2020-01-20T02:12:57.57Z</time>
		</trkpt>
		<trkpt lat="34.668440" lon="127.085552">
			<ele>0.00</ele>
			<time>2020-01-20T02:12:58.70Z</time>
		</trkpt>
		<trkpt lat="34.668384" lon="127.085332">
			<ele>0.00</ele>
			<time>2020-01-20T02:12:59.96Z</time>
		</trkpt>
		<trkpt lat="34.668360" lon="127.085228">
			<ele>0.00</ele>
			<time>2020-01-20T02:13:00.55Z</time>
		</trkpt>
		<trkpt lat="34.668362" lon="127.085165">
			<ele>0.00</ele>
			<time>2020-01-20T02:13:00.90Z</time>
		</trkpt>
		<trkpt lat="34.668371" lon="127.085096">
			<ele>0.00</ele>
			<time>2020-01-20T02:13:01.29Z</time>
		</trkpt>
		<trkpt lat="34.668384" lon="127.085005">
			<ele>0.00</ele>
			<time>2020-01-20T02:13:01.79Z</time>
		</trkpt>
		<trkpt lat="34.668384" lon="127.084943">
			<ele>0.00</ele>
			<time>2020-01-20T02:13:02.13Z</time>
		</trkpt>
		<trkpt lat="34.668356" lon="127.084854">
			<ele>0.00</ele>
			<time>2020-01-20T02:13:02.65Z</time>
		</trkpt>
		<trkpt lat="34.668304" lon="127.084744">
			<ele>0.00</ele>
			<time>2020-01-20T02:13:03.35Z</time>
		</trkpt>
		<trkpt lat="34.668217" lon="127.084550">
			<ele>0.00</ele>
			<time>2020-01-20T02:13:04.56Z</time>
		</trkpt>
		<trkpt lat="34.668164" lon="127.084458">
			<ele>0.00</ele>
			<time>2020-01-20T02:13:05.17Z</time>
		</trkpt>
		<trkpt lat="34.668043" lon="127.084294">
			<ele>0.00</ele>
			<time>2020-01-20T02:13:06.39Z</time>
		</trkpt>
		<trkpt lat="34.667849" lon="127.084094">
			<ele>0.00</ele>
			<time>2020-01-20T02:13:08.08Z</time>
		</trkpt>
		<trkpt lat="34.667623" lon="127.083860">
			<ele>0.00</ele>
			<time>2020-01-20T02:13:10.06Z</time>
		</trkpt>
		<trkpt lat="34.667517" lon="127.083774">
			<ele>0.00</ele>
			<time>2020-01-20T02:13:10.91Z</time>
		</trkpt>
		<trkpt lat="34.667434" lon="127.083750">
			<ele>0.00</ele>
			<time>2020-01-20T02:13:11.48Z</time>
		</trkpt>
		<trkpt lat="34.667325" lon="127.083709">
			<ele>0.00</ele>
			<time>2020-01-20T02:13:12.23Z</time>
		</trkpt>
		<trkpt lat="34.667215" lon="127.083597">
			<ele>0.00</ele>
			<time>2020-01-20T02:13:13.19Z</time>
		</trkpt>
		<trkpt lat="34.667107" lon="127.083461">
			<ele>0.00</ele>
			<time>2020-01-20T02:13:14.23Z</time>
		</trkpt>
		<trkpt lat="34.667086" lon="127.083392">
			<ele>0.00</ele>
			<time>2020-01-20T02:13:14.64Z</time>
		</trkpt>
		<trkpt lat="34.667080" lon="127.083313">
			<ele>0.00</ele>
			<time>2020-01-20T02:13:15.07Z</time>
		</trkpt>
		<trkpt lat="34.667055" lon="127.083213">
			<ele>0.00</ele>
			<time>2020-01-20T02:13:15.64Z</time>
		</trkpt>
		<trkpt lat="34.667001" lon="127.083125">
			<ele>0.00</ele>
			<time>2020-01-20T02:13:16.24Z</time>
		</trkpt>
		<trkpt lat="34.666707" lon="127.082829">
			<ele>0.00</ele>
			<time>2020-01-20T02:13:18.79Z</time>
		</trkpt>
		<trkpt lat="34.666445" lon="127.082605">
			<ele>0.00</ele>
			<time>2020-01-20T02:13:20.92Z</time>
		</trkpt>
		<trkpt lat="34.666235" lon="127.082459">
			<ele>0.00</ele>
			<time>2020-01-20T02:13:22.54Z</time>
		</trkpt>
		<trkpt lat="34.665970" lon="127.082330">
			<ele>0.00</ele>
			<time>2020-01-20T02:13:24.44Z</time>
		</trkpt>
		<trkpt lat="34.665830" lon="127.082301">
			<ele>0.00</ele>
			<time>2020-01-20T02:13:25.39Z</time>
		</trkpt>
		<trkpt lat="34.665646" lon="127.082298">
			<ele>0.00</ele>
			<time>2020-01-20T02:13:26.61Z</time>
		</trkpt>
		<trkpt lat="34.665486" lon="127.082257">
			<ele>0.00</ele>
			<time>2020-01-20T02:13:27.70Z</time>
		</trkpt>
		<trkpt lat="34.665381" lon="127.082205">
			<ele>0.00</ele>
			<time>2020-01-20T02:13:28.46Z</time>
		</trkpt>
		<trkpt lat="34.665310" lon="127.082121">
			<ele>0.00</ele>
			<time>2020-01-20T02:13:29.12Z</time>
		</trkpt>
		<trkpt lat="34.665225" lon="127.081975">
			<ele>0.00</ele>
			<time>2020-01-20T02:13:30.10Z</time>
		</trkpt>
		<trkpt lat="34.665159" lon="127.081780">
			<ele>0.00</ele>
			<time>2020-01-20T02:13:31.25Z</time>
		</trkpt>
		<trkpt lat="34.665140" lon="127.081636">
			<ele>0.00</ele>
			<time>2020-01-20T02:13:32.05Z</time>
		</trkpt>
		<trkpt lat="34.665139" lon="127.081498">
			<ele>0.00</ele>
			<time>2020-01-20T02:13:32.81Z</time>
		</trkpt>
		<trkpt lat="34.665188" lon="127.081341">
			<ele>0.00</ele>
			<time>2020-01-20T02:13:33.73Z</time>
		</trkpt>
		<trkpt lat="34.665280" lon="127.081263">
			<ele>0.00</ele>
			<time>2020-01-20T02:13:34.48Z</time>
		</trkpt>
		<trkpt lat="34.665484" lon="127.081065">
			<ele>0.00</ele>
			<time>2020-01-20T02:13:36.22Z</time>
		</trkpt>
		<trkpt lat="34.665652" lon="127.080933">
			<ele>0.00</ele>
			<time>2020-01-20T02:13:37.55Z</time>
		</trkpt>
		<trkpt lat="34.665698" lon="127.080888">
			<ele>0.00</ele>
			<time>2020-01-20T02:13:37.95Z</time>
		</trkpt>
		<trkpt lat="34.665715" lon="127.080841">
			<ele>0.00</ele>
			<time>2020-01-20T02:13:38.23Z</time>
		</trkpt>
		<trkpt lat="34.665700" lon="127.080497">
			<ele>0.00</ele>
			<time>2020-01-20T02:13:40.12Z</time>
		</trkpt>
		<trkpt lat="34.665672" lon="127.079891">
			<ele>0.00</ele>
			<time>2020-01-20T02:13:43.45Z</time>
		</trkpt>
		<trkpt lat="34.665661" lon="127.079628">
			<ele>0.00</ele>
			<time>2020-01-20T02:13:44.89Z</time>
		</trkpt>
		<trkpt lat="34.665606" lon="127.079262">
			<ele>0.00</ele>
			<time>2020-01-20T02:13:46.93Z</time>
		</trkpt>
		<trkpt lat="34.665549" lon="127.078873">
			<ele>0.00</ele>
			<time>2020-01-20T02:13:49.10Z</time>
		</trkpt>
		<trkpt lat="34.665442" lon="127.078322">
			<ele>0.00</ele>
			<time>2020-01-20T02:13:52.20Z</time>
		</trkpt>
		<trkpt lat="34.665332" lon="127.077690">
			<ele>0.00</ele>
			<time>2020-01-20T02:13:55.74Z</time>
		</trkpt>
		<trkpt lat="34.665210" lon="127.077189">
			<ele>0.00</ele>
			<time>2020-01-20T02:13:58.61Z</time>
		</trkpt>
		<trkpt lat="34.665176" lon="127.077073">
			<ele>0.00</ele>
			<time>2020-01-20T02:13:59.28Z</time>
		</trkpt>
		<trkpt lat="34.665111" lon="127.076902">
			<ele>0.00</ele>
			<time>2020-01-20T02:14:00.31Z</time>
		</trkpt>
		<trkpt lat="34.665047" lon="127.076684">
			<ele>0.00</ele>
			<time>2020-01-20T02:14:01.58Z</time>
		</trkpt>
		<trkpt lat="34.664960" lon="127.076367">
			<ele>0.00</ele>
			<time>2020-01-20T02:14:03.42Z</time>
		</trkpt>
		<trkpt lat="34.664877" lon="127.076091">
			<ele>0.00</ele>
			<time>2020-01-20T02:14:05.03Z</time>
		</trkpt>
		<trkpt lat="34.664741" lon="127.075670">
			<ele>0.00</ele>
			<time>2020-01-20T02:14:07.51Z</time>
		</trkpt>
		<trkpt lat="34.664601" lon="127.075348">
			<ele>0.00</ele>
			<time>2020-01-20T02:14:09.50Z</time>
		</trkpt>
		<trkpt lat="34.664500" lon="127.075200">
			<ele>0.00</ele>
			<time>2020-01-20T02:14:10.56Z</time>
		</trkpt>
		<trkpt lat="34.664380" lon="127.074973">
			<ele>0.00</ele>
			<time>2020-01-20T02:14:12.04Z</time>
		</trkpt>
		<trkpt lat="34.664097" lon="127.074360">
			<ele>0.00</ele>
			<time>2020-01-20T02:14:15.89Z</time>
		</trkpt>
		<trkpt lat="34.663967" lon="127.074118">
			<ele>0.00</ele>
			<time>2020-01-20T02:14:17.48Z</time>
		</trkpt>
		<trkpt lat="34.663962" lon="127.074079">
			<ele>0.00</ele>
			<time>2020-01-20T02:14:17.69Z</time>
		</trkpt>
		<trkpt lat="34.663972" lon="127.074009">
			<ele>0.00</ele>
			<time>2020-01-20T02:14:18.08Z</time>
		</trkpt>
		<trkpt lat="34.663955" lon="127.073913">
			<ele>0.00</ele>
			<time>2020-01-20T02:14:18.62Z</time>
		</trkpt>
		<trkpt lat="34.663883" lon="127.073648">
			<ele>0.00</ele>
			<time>2020-01-20T02:14:20.15Z</time>
		</trkpt>
		<trkpt lat="34.663822" lon="127.073472">
			<ele>0.00</ele>
			<time>2020-01-20T02:14:21.20Z</time>
		</trkpt>
		<trkpt lat="34.663670" lon="127.073250">
			<ele>0.00</ele>
			<time>2020-01-20T02:14:22.78Z</time>
		</trkpt>
		<trkpt lat="34.663499" lon="127.072960">
			<ele>0.00</ele>
			<time>2020-01-20T02:14:24.74Z</time>
		</trkpt>
		<trkpt lat="34.663310" lon="127.072623">
			<ele>0.00</ele>
			<time>2020-01-20T02:14:26.97Z</time>
		</trkpt>
		<trkpt lat="34.663160" lon="127.072324">
			<ele>0.00</ele>
			<time>2020-01-20T02:14:28.90Z</time>
		</trkpt>
		<trkpt lat="34.663116" lon="127.072186">
			<ele>0.00</ele>
			<time>2020-01-20T02:14:29.70Z</time>
		</trkpt>
		<trkpt lat="34.663084" lon="127.072000">
			<ele>0.00</ele>
			<time>2020-01-20T02:14:30.75Z</time>
		</trkpt>
		<trkpt lat="34.663070" lon="127.071868">
			<ele>0.00</ele>
			<time>2020-01-20T02:14:31.48Z</time>
		</trkpt>
		<trkpt lat="34.663075" lon="127.071706">
			<ele>0.00</ele>
			<time>2020-01-20T02:14:32.37Z</time>
		</trkpt>
		<trkpt lat="34.663074" lon="127.071704">
			<ele>0.00</ele>
			<time>2020-01-20T02:14:32.43Z</time>
		</trkpt>
		<trkpt lat="34.663103" lon="127.071551">
			<ele>0.00</ele>
			<time>2020-01-20T02:14:33.29Z</time>
		</trkpt>
		<trkpt lat="34.663172" lon="127.071308">
			<ele>0.00</ele>
			<time>2020-01-20T02:14:34.70Z</time>
		</trkpt>
		<trkpt lat="34.663277" lon="127.071014">
			<ele>0.00</ele>
			<time>2020-01-20T02:14:36.45Z</time>
		</trkpt>
		<trkpt lat="34.663477" lon="127.070469">
			<ele>0.00</ele>
			<time>2020-01-20T02:14:39.72Z</time>
		</trkpt>
		<trkpt lat="34.663454" lon="127.070390">
			<ele>0.00</ele>
			<time>2020-01-20T02:14:40.19Z</time>
		</trkpt>
		<trkpt lat="34.663428" lon="127.070320">
			<ele>0.00</ele>
			<time>2020-01-20T02:14:40.60Z</time>
		</trkpt>
		<trkpt lat="34.663473" lon="127.070176">
			<ele>0.00</ele>
			<time>2020-01-20T02:14:41.45Z</time>
		</trkpt>
		<trkpt lat="34.663599" lon="127.069864">
			<ele>0.00</ele>
			<time>2020-01-20T02:14:43.35Z</time>
		</trkpt>
		<trkpt lat="34.663684" lon="127.069765">
			<ele>0.00</ele>
			<time>2020-01-20T02:14:44.14Z</time>
		</trkpt>
		<trkpt lat="34.663804" lon="127.069651">
			<ele>0.00</ele>
			<time>2020-01-20T02:14:45.16Z</time>
		</trkpt>
		<trkpt lat="34.663945" lon="127.069521">
			<ele>0.00</ele>
			<time>2020-01-20T02:14:46.33Z</time>
		</trkpt>
		<trkpt lat="34.664220" lon="127.069271">
			<ele>0.00</ele>
			<time>2020-01-20T02:14:48.62Z</time>
		</trkpt>
		<trkpt lat="34.664479" lon="127.069065">
			<ele>0.00</ele>
			<time>2020-01-20T02:14:50.68Z</time>
		</trkpt>
		<trkpt lat="34.664827" lon="127.068800">
			<ele>0.00</ele>
			<time>2020-01-20T02:14:53.42Z</time>
		</trkpt>
		<trkpt lat="34.665400" lon="127.068314">
			<ele>0.00</ele>
			<time>2020-01-20T02:14:58.09Z</time>
		</trkpt>
		<trkpt lat="34.665990" lon="127.067846">
			<ele>0.00</ele>
			<time>2020-01-20T02:15:02.78Z</time>
		</trkpt>
		<trkpt lat="34.666255" lon="127.067624">
			<ele>0.00</ele>
			<time>2020-01-20T02:15:04.92Z</time>
		</trkpt>
		<trkpt lat="34.666252" lon="127.067632">
			<ele>0.00</ele>
			<time>2020-01-20T02:15:04.98Z</time>
		</trkpt>
		<trkpt lat="34.666196" lon="127.067565">
			<ele>0.00</ele>
			<time>2020-01-20T02:15:05.50Z</time>
		</trkpt>
		<trkpt lat="34.666093" lon="127.067450">
			<ele>0.00</ele>
			<time>2020-01-20T02:15:06.44Z</time>
		</trkpt>
		<trkpt lat="34.665775" lon="127.067139">
			<ele>0.00</ele>
			<time>2020-01-20T02:15:09.16Z</time>
		</trkpt>
		<trkpt lat="34.665425" lon="127.066810">
			<ele>0.00</ele>
			<time>2020-01-20T02:15:12.11Z</time>
		</trkpt>
		<trkpt lat="34.665228" lon="127.066566">
			<ele>0.00</ele>
			<time>2020-01-20T02:15:13.99Z</time>
		</trkpt>
		<trkpt lat="34.665037" lon="127.066341">
			<ele>0.00</ele>
			<time>2020-01-20T02:15:15.76Z</time>
		</trkpt>
		<trkpt lat="34.664965" lon="127.066205">
			<ele>0.00</ele>
			<time>2020-01-20T02:15:16.64Z</time>
		</trkpt>
		<trkpt lat="34.664954" lon="127.066066">
			<ele>0.00</ele>
			<time>2020-01-20T02:15:17.41Z</time>
		</trkpt>
		<trkpt lat="34.664982" lon="127.065894">
			<ele>0.00</ele>
			<time>2020-01-20T02:15:18.37Z</time>
		</trkpt>
		<trkpt lat="34.664999" lon="127.065803">
			<ele>0.00</ele>
			<time>2020-01-20T02:15:18.88Z</time>
		</trkpt>
		<trkpt lat="34.665100" lon="127.065677">
			<ele>0.00</ele>
			<time>2020-01-20T02:15:19.85Z</time>
		</trkpt>
		<trkpt lat="34.665636" lon="127.065129">
			<ele>0.00</ele>
			<time>2020-01-20T02:15:24.52Z</time>
		</trkpt>
		<trkpt lat="34.665970" lon="127.064741">
			<ele>0.00</ele>
			<time>2020-01-20T02:15:27.60Z</time>
		</trkpt>
		<trkpt lat="34.666266" lon="127.064403">
			<ele>0.00</ele>
			<time>2020-01-20T02:15:30.31Z</time>
		</trkpt>
		<trkpt lat="34.666373" lon="127.064276">
			<ele>0.00</ele>
			<time>2020-01-20T02:15:31.30Z</time>
		</trkpt>
		<trkpt lat="34.666469" lon="127.064206">
			<ele>0.00</ele>
			<time>2020-01-20T02:15:32.05Z</time>
		</trkpt>
		<trkpt lat="34.666600" lon="127.064152">
			<ele>0.00</ele>
			<time>2020-01-20T02:15:32.97Z</time>
		</trkpt>
		<trkpt lat="34.666758" lon="127.064095">
			<ele>0.00</ele>
			<time>2020-01-20T02:15:34.07Z</time>
		</trkpt>
		<trkpt lat="34.666940" lon="127.064043">
			<ele>0.00</ele>
			<time>2020-01-20T02:15:35.32Z</time>
		</trkpt>
		<trkpt lat="34.667100" lon="127.064051">
			<ele>0.00</ele>
			<time>2020-01-20T02:15:36.38Z</time>
		</trkpt>
		<trkpt lat="34.667262" lon="127.064059">
			<ele>0.00</ele>
			<time>2020-01-20T02:15:37.47Z</time>
		</trkpt>
		<trkpt lat="34.667215" lon="127.063775">
			<ele>0.00</ele>
			<time>2020-01-20T02:15:39.06Z</time>
		</trkpt>
		<trkpt lat="34.667103" lon="127.063763">
			<ele>0.00</ele>
			<time>2020-01-20T02:15:39.81Z</time>
		</trkpt>
		<trkpt lat="34.666934" lon="127.063788">
			<ele>0.00</ele>
			<time>2020-01-20T02:15:40.94Z</time>
		</trkpt>
		<trkpt lat="34.666771" lon="127.063822">
			<ele>0.00</ele>
			<time>2020-01-20T02:15:42.05Z</time>
		</trkpt>
		<trkpt lat="34.666575" lon="127.063890">
			<ele>0.00</ele>
			<time>2020-01-20T02:15:43.41Z</time>
		</trkpt>
		<trkpt lat="34.666418" lon="127.063974">
			<ele>0.00</ele>
			<time>2020-01-20T02:15:44.55Z</time>
		</trkpt>
		<trkpt lat="34.666325" lon="127.064041">
			<ele>0.00</ele>
			<time>2020-01-20T02:15:45.27Z</time>
		</trkpt>
		<trkpt lat="34.666207" lon="127.064146">
			<ele>0.00</ele>
			<time>2020-01-20T02:15:46.25Z</time>
		</trkpt>
		<trkpt lat="34.665957" lon="127.064415">
			<ele>0.00</ele>
			<time>2020-01-20T02:15:48.47Z</time>
		</trkpt>
		<trkpt lat="34.665782" lon="127.064613">
			<ele>0.00</ele>
			<time>2020-01-20T02:15:50.07Z</time>
		</trkpt>
		<trkpt lat="34.665558" lon="127.064870">
			<ele>0.00</ele>
			<time>2020-01-20T02:15:52.12Z</time>
		</trkpt>
		<trkpt lat="34.665412" lon="127.065038">
			<ele>0.00</ele>
			<time>2020-01-20T02:15:53.46Z</time>
		</trkpt>
		<trkpt lat="34.665153" lon="127.065329">
			<ele>0.00</ele>
			<time>2020-01-20T02:15:55.81Z</time>
		</trkpt>
		<trkpt lat="34.664963" lon="127.065538">
			<ele>0.00</ele>
			<time>2020-01-20T02:15:57.52Z</time>
		</trkpt>
		<trkpt lat="34.664842" lon="127.065621">
			<ele>0.00</ele>
			<time>2020-01-20T02:15:58.44Z</time>
		</trkpt>
		<trkpt lat="34.664712" lon="127.065681">
			<ele>0.00</ele>
			<time>2020-01-20T02:15:59.37Z</time>
		</trkpt>
		<trkpt lat="34.664488" lon="127.065722">
			<ele>0.00</ele>
			<time>2020-01-20T02:16:00.88Z</time>
		</trkpt>
		<trkpt lat="34.664263" lon="127.065785">
			<ele>0.00</ele>
			<time>2020-01-20T02:16:02.42Z</time>
		</trkpt>
		<trkpt lat="34.664036" lon="127.065856">
			<ele>0.00</ele>
			<time>2020-01-20T02:16:03.98Z</time>
		</trkpt>
		<trkpt lat="34.663837" lon="127.066030">
			<ele>0.00</ele>
			<time>2020-01-20T02:16:05.61Z</time>
		</trkpt>
		<trkpt lat="34.663624" lon="127.066237">
			<ele>0.00</ele>
			<time>2020-01-20T02:16:07.44Z</time>
		</trkpt>
		<trkpt lat="34.663376" lon="127.066480">
			<ele>0.00</ele>
			<time>2020-01-20T02:16:09.56Z</time>
		</trkpt>
		<trkpt lat="34.663156" lon="127.066656">
			<ele>0.00</ele>
			<time>2020-01-20T02:16:11.31Z</time>
		</trkpt>
		<trkpt lat="34.662694" lon="127.066971">
			<ele>0.00</ele>
			<time>2020-01-20T02:16:14.84Z</time>
		</trkpt>
		<trkpt lat="34.662418" lon="127.067144">
			<ele>0.00</ele>
			<time>2020-01-20T02:16:16.91Z</time>
		</trkpt>
		<trkpt lat="34.662365" lon="127.067156">
			<ele>0.00</ele>
			<time>2020-01-20T02:16:17.28Z</time>
		</trkpt>
		<trkpt lat="34.662317" lon="127.067156">
			<ele>0.00</ele>
			<time>2020-01-20T02:16:17.60Z</time>
		</trkpt>
		<trkpt lat="34.662280" lon="127.067125">
			<ele>0.00</ele>
			<time>2020-01-20T02:16:17.89Z</time>
		</trkpt>
		<trkpt lat="34.661811" lon="127.066372">
			<ele>0.00</ele>
			<time>2020-01-20T02:16:23.07Z</time>
		</trkpt>
		<trkpt lat="34.661255" lon="127.065484">
			<ele>0.00</ele>
			<time>2020-01-20T02:16:29.19Z</time>
		</trkpt>
		<trkpt lat="34.660805" lon="127.064776">
			<ele>0.00</ele>
			<time>2020-01-20T02:16:34.10Z</time>
		</trkpt>
		<trkpt lat="34.660634" lon="127.064515">
			<ele>0.00</ele>
			<time>2020-01-20T02:16:35.93Z</time>
		</trkpt>
		<trkpt lat="34.660514" lon="127.064319">
			<ele>0.00</ele>
			<time>2020-01-20T02:16:37.27Z</time>
		</trkpt>
		<trkpt lat="34.660423" lon="127.064274">
			<ele>0.00</ele>
			<time>2020-01-20T02:16:37.92Z</time>
		</trkpt>
		<trkpt lat="34.659898" lon="127.063988">
			<ele>0.00</ele>
			<time>2020-01-20T02:16:41.76Z</time>
		</trkpt>
		<trkpt lat="34.659316" lon="127.063697">
			<ele>0.00</ele>
			<time>2020-01-20T02:16:45.96Z</time>
		</trkpt>
		<trkpt lat="34.659197" lon="127.063678">
			<ele>0.00</ele>
			<time>2020-01-20T02:16:46.75Z</time>
		</trkpt>
		<trkpt lat="34.659077" lon="127.063645">
			<ele>0.00</ele>
			<time>2020-01-20T02:16:47.57Z</time>
		</trkpt>
		<trkpt lat="34.658977" lon="127.063605">
			<ele>0.00</ele>
			<time>2020-01-20T02:16:48.27Z</time>
		</trkpt>
		<trkpt lat="34.658889" lon="127.063530">
			<ele>0.00</ele>
			<time>2020-01-20T02:16:48.99Z</time>
		</trkpt>
		<trkpt lat="34.658836" lon="127.063461">
			<ele>0.00</ele>
			<time>2020-01-20T02:16:49.51Z</time>
		</trkpt>
		<trkpt lat="34.658827" lon="127.063375">
			<ele>0.00</ele>
			<time>2020-01-20T02:16:49.98Z</time>
		</trkpt>
		<trkpt lat="34.658854" lon="127.063254">
			<ele>0.00</ele>
			<time>2020-01-20T02:16:50.67Z</time>
		</trkpt>
		<trkpt lat="34.659028" lon="127.062889">
			<ele>0.00</ele>
			<time>2020-01-20T02:16:52.99Z</time>
		</trkpt>
		<trkpt lat="34.659167" lon="127.062608">
			<ele>0.00</ele>
			<time>2020-01-20T02:16:54.78Z</time>
		</trkpt>
		<trkpt lat="34.659256" lon="127.062370">
			<ele>0.00</ele>
			<time>2020-01-20T02:16:56.22Z</time>
		</trkpt>
		<trkpt lat="34.659432" lon="127.061905">
			<ele>0.00</ele>
			<time>2020-01-20T02:16:59.03Z</time>
		</trkpt>
		<trkpt lat="34.659565" lon="127.061565">
			<ele>0.00</ele>
			<time>2020-01-20T02:17:01.09Z</time>
		</trkpt>
		<trkpt lat="34.659726" lon="127.061300">
			<ele>0.00</ele>
			<time>2020-01-20T02:17:02.90Z</time>
		</trkpt>
		<trkpt lat="34.659805" lon="127.061194">
			<ele>0.00</ele>
			<time>2020-01-20T02:17:03.68Z</time>
		</trkpt>
		<trkpt lat="34.659896" lon="127.061076">
			<ele>0.00</ele>
			<time>2020-01-20T02:17:04.57Z</time>
		</trkpt>
		<trkpt lat="34.659942" lon="127.060988">
			<ele>0.00</ele>
			<time>2020-01-20T02:17:05.14Z</time>
		</trkpt>
		<trkpt lat="34.659936" lon="127.060990">
			<ele>0.00</ele>
			<time>2020-01-20T02:17:05.20Z</time>
		</trkpt>
		<trkpt lat="34.659364" lon="127.061082">
			<ele>0.00</ele>
			<time>2020-01-20T02:17:09.04Z</time>
		</trkpt>
		<trkpt lat="34.658510" lon="127.061216">
			<ele>0.00</ele>
			<time>2020-01-20T02:17:14.78Z</time>
		</trkpt>
		<trkpt lat="34.657689" lon="127.061336">
			<ele>0.00</ele>
			<time>2020-01-20T02:17:20.29Z</time>
		</trkpt>
		<trkpt lat="34.657373" lon="127.061375">
			<ele>0.00</ele>
			<time>2020-01-20T02:17:22.41Z</time>
		</trkpt>
		<trkpt lat="34.657042" lon="127.061381">
			<ele>0.00</ele>
			<time>2020-01-20T02:17:24.62Z</time>
		</trkpt>
		<trkpt lat="34.656656" lon="127.061377">
			<ele>0.00</ele>
			<time>2020-01-20T02:17:27.19Z</time>
		</trkpt>
		<trkpt lat="34.656202" lon="127.061311">
			<ele>0.00</ele>
			<time>2020-01-20T02:17:30.24Z</time>
		</trkpt>
		<trkpt lat="34.655667" lon="127.061261">
			<ele>0.00</ele>
			<time>2020-01-20T02:17:33.82Z</time>
		</trkpt>
		<trkpt lat="34.655063" lon="127.061180">
			<ele>0.00</ele>
			<time>2020-01-20T02:17:37.87Z</time>
		</trkpt>
		<trkpt lat="34.654399" lon="127.061089">
			<ele>0.00</ele>
			<time>2020-01-20T02:17:42.32Z</time>
		</trkpt>
		<trkpt lat="34.653649" lon="127.061008">
			<ele>0.00</ele>
			<time>2020-01-20T02:17:47.34Z</time>
		</trkpt>
		<trkpt lat="34.653072" lon="127.060927">
			<ele>0.00</ele>
			<time>2020-01-20T02:17:51.22Z</time>
		</trkpt>
		<trkpt lat="34.652670" lon="127.060888">
			<ele>0.00</ele>
			<time>2020-01-20T02:17:53.90Z</time>
		</trkpt>
		<trkpt lat="34.652239" lon="127.060849">
			<ele>0.00</ele>
			<time>2020-01-20T02:17:56.79Z</time>
		</trkpt>
		<trkpt lat="34.651958" lon="127.060789">
			<ele>0.00</ele>
			<time>2020-01-20T02:17:58.68Z</time>
		</trkpt>
		<trkpt lat="34.651725" lon="127.060721">
			<ele>0.00</ele>
			<time>2020-01-20T02:18:00.28Z</time>
		</trkpt>
		<trkpt lat="34.651364" lon="127.060571">
			<ele>0.00</ele>
			<time>2020-01-20T02:18:02.83Z</time>
		</trkpt>
		<trkpt lat="34.651191" lon="127.060433">
			<ele>0.00</ele>
			<time>2020-01-20T02:18:04.20Z</time>
		</trkpt>
		<trkpt lat="34.651082" lon="127.060338">
			<ele>0.00</ele>
			<time>2020-01-20T02:18:05.10Z</time>
		</trkpt>
		<trkpt lat="34.650859" lon="127.060062">
			<ele>0.00</ele>
			<time>2020-01-20T02:18:07.22Z</time>
		</trkpt>
		<trkpt lat="34.650681" lon="127.059820">
			<ele>0.00</ele>
			<time>2020-01-20T02:18:09Z</time>
		</trkpt>
		<trkpt lat="34.650552" lon="127.059648">
			<ele>0.00</ele>
			<time>2020-01-20T02:18:10.28Z</time>
		</trkpt>
		<trkpt lat="34.650498" lon="127.059608">
			<ele>0.00</ele>
			<time>2020-01-20T02:18:10.70Z</time>
		</trkpt>
		<trkpt lat="34.650495" lon="127.059611">
			<ele>0.00</ele>
			<time>2020-01-20T02:18:10.76Z</time>
		</trkpt>
		<trkpt lat="34.650451" lon="127.059650">
			<ele>0.00</ele>
			<time>2020-01-20T02:18:11.12Z</time>
		</trkpt>
		<trkpt lat="34.650413" lon="127.059677">
			<ele>0.00</ele>
			<time>2020-01-20T02:18:11.42Z</time>
		</trkpt>
		<trkpt lat="34.650367" lon="127.059674">
			<ele>0.00</ele>
			<time>2020-01-20T02:18:11.72Z</time>
		</trkpt>
		<trkpt lat="34.650173" lon="127.059348">
			<ele>0.00</ele>
			<time>2020-01-20T02:18:13.93Z</time>
		</trkpt>
		<trkpt lat="34.649854" lon="127.058781">
			<ele>0.00</ele>
			<time>2020-01-20T02:18:17.70Z</time>
		</trkpt>
		<trkpt lat="34.649516" lon="127.058209">
			<ele>0.00</ele>
			<time>2020-01-20T02:18:21.56Z</time>
		</trkpt>
		<trkpt lat="34.649190" lon="127.057722">
			<ele>0.00</ele>
			<time>2020-01-20T02:18:25.01Z</time>
		</trkpt>
		<trkpt lat="34.648905" lon="127.057288">
			<ele>0.00</ele>
			<time>2020-01-20T02:18:28.05Z</time>
		</trkpt>
		<trkpt lat="34.648551" lon="127.056791">
			<ele>0.00</ele>
			<time>2020-01-20T02:18:31.66Z</time>
		</trkpt>
		<trkpt lat="34.648464" lon="127.056703">
			<ele>0.00</ele>
			<time>2020-01-20T02:18:32.41Z</time>
		</trkpt>
		<trkpt lat="34.648392" lon="127.056646">
			<ele>0.00</ele>
			<time>2020-01-20T02:18:32.98Z</time>
		</trkpt>
		<trkpt lat="34.648350" lon="127.056624">
			<ele>0.00</ele>
			<time>2020-01-20T02:18:33.29Z</time>
		</trkpt>
		<trkpt lat="34.648313" lon="127.056650">
			<ele>0.00</ele>
			<time>2020-01-20T02:18:33.58Z</time>
		</trkpt>
		<trkpt lat="34.648262" lon="127.056677">
			<ele>0.00</ele>
			<time>2020-01-20T02:18:33.95Z</time>
		</trkpt>
		<trkpt lat="34.648220" lon="127.056675">
			<ele>0.00</ele>
			<time>2020-01-20T02:18:34.22Z</time>
		</trkpt>
		<trkpt lat="34.648173" lon="127.056652">
			<ele>0.00</ele>
			<time>2020-01-20T02:18:34.56Z</time>
		</trkpt>
		<trkpt lat="34.648141" lon="127.056608">
			<ele>0.00</ele>
			<time>2020-01-20T02:18:34.88Z</time>
		</trkpt>
		<trkpt lat="34.648101" lon="127.056565">
			<ele>0.00</ele>
			<time>2020-01-20T02:18:35.24Z</time>
		</trkpt>
		<trkpt lat="34.647600" lon="127.056294">
			<ele>0.00</ele>
			<time>2020-01-20T02:18:38.89Z</time>
		</trkpt>
		<trkpt lat="34.647247" lon="127.056134">
			<ele>0.00</ele>
			<time>2020-01-20T02:18:41.41Z</time>
		</trkpt>
		<trkpt lat="34.646994" lon="127.056009">
			<ele>0.00</ele>
			<time>2020-01-20T02:18:43.23Z</time>
		</trkpt>
		<trkpt lat="34.646560" lon="127.055830">
			<ele>0.00</ele>
			<time>2020-01-20T02:18:46.28Z</time>
		</trkpt>
		<trkpt lat="34.646496" lon="127.055747">
			<ele>0.00</ele>
			<time>2020-01-20T02:18:46.91Z</time>
		</trkpt>
		<trkpt lat="34.646448" lon="127.055673">
			<ele>0.00</ele>
			<time>2020-01-20T02:18:47.42Z</time>
		</trkpt>
		<trkpt lat="34.646423" lon="127.055607">
			<ele>0.00</ele>
			<time>2020-01-20T02:18:47.82Z</time>
		</trkpt>
		<trkpt lat="34.646416" lon="127.055530">
			<ele>0.00</ele>
			<time>2020-01-20T02:18:48.25Z</time>
		</trkpt>
		<trkpt lat="34.646414" lon="127.055528">
			<ele>0.00</ele>
			<time>2020-01-20T02:18:48.31Z</time>
		</trkpt>
		<trkpt lat="34.646289" lon="127.055518">
			<ele>0.00</ele>
			<time>2020-01-20T02:18:49.14Z</time>
		</trkpt>
		<trkpt lat="34.646061" lon="127.055504">
			<ele>0.00</ele>
			<time>2020-01-20T02:18:50.67Z</time>
		</trkpt>
		<trkpt lat="34.645935" lon="127.055518">
			<ele>0.00</ele>
			<time>2020-01-20T02:18:51.51Z</time>
		</trkpt>
		<trkpt lat="34.645737" lon="127.055521">
			<ele>0.00</ele>
			<time>2020-01-20T02:18:52.83Z</time>
		</trkpt>
		<trkpt lat="34.645576" lon="127.055520">
			<ele>0.00</ele>
			<time>2020-01-20T02:18:53.91Z</time>
		</trkpt>
		<trkpt lat="34.645464" lon="127.055494">
			<ele>0.00</ele>
			<time>2020-01-20T02:18:54.66Z</time>
		</trkpt>
		<trkpt lat="34.645379" lon="127.055460">
			<ele>0.00</ele>
			<time>2020-01-20T02:18:55.26Z</time>
		</trkpt>
		<trkpt lat="34.645306" lon="127.055414">
			<ele>0.00</ele>
			<time>2020-01-20T02:18:55.81Z</time>
		</trkpt>
		<trkpt lat="34.645239" lon="127.055323">
			<ele>0.00</ele>
			<time>2020-01-20T02:18:56.48Z</time>
		</trkpt>
		<trkpt lat="34.645186" lon="127.055190">
			<ele>0.00</ele>
			<time>2020-01-20T02:18:57.29Z</time>
		</trkpt>
		<trkpt lat="34.645150" lon="127.055082">
			<ele>0.00</ele>
			<time>2020-01-20T02:18:57.93Z</time>
		</trkpt>
		<trkpt lat="34.645107" lon="127.054882">
			<ele>0.00</ele>
			<time>2020-01-20T02:18:59.06Z</time>
		</trkpt>
		<trkpt lat="34.645072" lon="127.054688">
			<ele>0.00</ele>
			<time>2020-01-20T02:19:00.15Z</time>
		</trkpt>
		<trkpt lat="34.644986" lon="127.054273">
			<ele>0.00</ele>
			<time>2020-01-20T02:19:02.50Z</time>
		</trkpt>
		<trkpt lat="34.644927" lon="127.054090">
			<ele>0.00</ele>
			<time>2020-01-20T02:19:03.57Z</time>
		</trkpt>
		<trkpt lat="34.644859" lon="127.053980">
			<ele>0.00</ele>
			<time>2020-01-20T02:19:04.33Z</time>
		</trkpt>
		<trkpt lat="34.644771" lon="127.053859">
			<ele>0.00</ele>
			<time>2020-01-20T02:19:05.22Z</time>
		</trkpt>
		<trkpt lat="34.644628" lon="127.053723">
			<ele>0.00</ele>
			<time>2020-01-20T02:19:06.43Z</time>
		</trkpt>
		<trkpt lat="34.644530" lon="127.053654">
			<ele>0.00</ele>
			<time>2020-01-20T02:19:07.18Z</time>
		</trkpt>
		<trkpt lat="34.644397" lon="127.053594">
			<ele>0.00</ele>
			<time>2020-01-20T02:19:08.13Z</time>
		</trkpt>
		<trkpt lat="34.644235" lon="127.053526">
			<ele>0.00</ele>
			<time>2020-01-20T02:19:09.27Z</time>
		</trkpt>
		<trkpt lat="34.643943" lon="127.053417">
			<ele>0.00</ele>
			<time>2020-01-20T02:19:11.31Z</time>
		</trkpt>
		<trkpt lat="34.643515" lon="127.053321">
			<ele>0.00</ele>
			<time>2020-01-20T02:19:14.21Z</time>
		</trkpt>
		<trkpt lat="34.643198" lon="127.053245">
			<ele>0.00</ele>
			<time>2020-01-20T02:19:16.36Z</time>
		</trkpt>
		<trkpt lat="34.642822" lon="127.053167">
			<ele>0.00</ele>
			<time>2020-01-20T02:19:18.91Z</time>
		</trkpt>
		<trkpt lat="34.642611" lon="127.053133">
			<ele>0.00</ele>
			<time>2020-01-20T02:19:20.33Z</time>
		</trkpt>
		<trkpt lat="34.642466" lon="127.053080">
			<ele>0.00</ele>
			<time>2020-01-20T02:19:21.33Z</time>
		</trkpt>
		<trkpt lat="34.642366" lon="127.053016">
			<ele>0.00</ele>
			<time>2020-01-20T02:19:22.09Z</time>
		</trkpt>
		<trkpt lat="34.642271" lon="127.052944">
			<ele>0.00</ele>
			<time>2020-01-20T02:19:22.84Z</time>
		</trkpt>
		<trkpt lat="34.642181" lon="127.052866">
			<ele>0.00</ele>
			<time>2020-01-20T02:19:23.57Z</time>
		</trkpt>
		<trkpt lat="34.642116" lon="127.052796">
			<ele>0.00</ele>
			<time>2020-01-20T02:19:24.15Z</time>
		</trkpt>
		<trkpt lat="34.642041" lon="127.052686">
			<ele>0.00</ele>
			<time>2020-01-20T02:19:24.94Z</time>
		</trkpt>
		<trkpt lat="34.641945" lon="127.052538">
			<ele>0.00</ele>
			<time>2020-01-20T02:19:25.97Z</time>
		</trkpt>
		<trkpt lat="34.641864" lon="127.052336">
			<ele>0.00</ele>
			<time>2020-01-20T02:19:27.20Z</time>
		</trkpt>
		<trkpt lat="34.641734" lon="127.052006">
			<ele>0.00</ele>
			<time>2020-01-20T02:19:29.21Z</time>
		</trkpt>
		<trkpt lat="34.641625" lon="127.051743">
			<ele>0.00</ele>
			<time>2020-01-20T02:19:30.82Z</time>
		</trkpt>
		<trkpt lat="34.641587" lon="127.051667">
			<ele>0.00</ele>
			<time>2020-01-20T02:19:31.31Z</time>
		</trkpt>
		<trkpt lat="34.641500" lon="127.051525">
			<ele>0.00</ele>
			<time>2020-01-20T02:19:32.28Z</time>
		</trkpt>
		<trkpt lat="34.641419" lon="127.051444">
			<ele>0.00</ele>
			<time>2020-01-20T02:19:32.98Z</time>
		</trkpt>
		<trkpt lat="34.641319" lon="127.051359">
			<ele>0.00</ele>
			<time>2020-01-20T02:19:33.79Z</time>
		</trkpt>
		<trkpt lat="34.640986" lon="127.051083">
			<ele>0.00</ele>
			<time>2020-01-20T02:19:36.48Z</time>
		</trkpt>
		<trkpt lat="34.640760" lon="127.050893">
			<ele>0.00</ele>
			<time>2020-01-20T02:19:38.31Z</time>
		</trkpt>
		<trkpt lat="34.640658" lon="127.050800">
			<ele>0.00</ele>
			<time>2020-01-20T02:19:39.16Z</time>
		</trkpt>
		<trkpt lat="34.640598" lon="127.050739">
			<ele>0.00</ele>
			<time>2020-01-20T02:19:39.68Z</time>
		</trkpt>
		<trkpt lat="34.640516" lon="127.050612">
			<ele>0.00</ele>
			<time>2020-01-20T02:19:40.57Z</time>
		</trkpt>
		<trkpt lat="34.640430" lon="127.050449">
			<ele>0.00</ele>
			<time>2020-01-20T02:19:41.63Z</time>
		</trkpt>
		<trkpt lat="34.640322" lon="127.050213">
			<ele>0.00</ele>
			<time>2020-01-20T02:19:43.11Z</time>
		</trkpt>
		<trkpt lat="34.640239" lon="127.050033">
			<ele>0.00</ele>
			<time>2020-01-20T02:19:44.24Z</time>
		</trkpt>
		<trkpt lat="34.640156" lon="127.049888">
			<ele>0.00</ele>
			<time>2020-01-20T02:19:45.21Z</time>
		</trkpt>
		<trkpt lat="34.640078" lon="127.049773">
			<ele>0.00</ele>
			<time>2020-01-20T02:19:46.03Z</time>
		</trkpt>
		<trkpt lat="34.639987" lon="127.049653">
			<ele>0.00</ele>
			<time>2020-01-20T02:19:46.92Z</time>
		</trkpt>
		<trkpt lat="34.639445" lon="127.048921">
			<ele>0.00</ele>
			<time>2020-01-20T02:19:52.33Z</time>
		</trkpt>
		<trkpt lat="34.639256" lon="127.048689">
			<ele>0.00</ele>
			<time>2020-01-20T02:19:54.12Z</time>
		</trkpt>
		<trkpt lat="34.639054" lon="127.048479">
			<ele>0.00</ele>
			<time>2020-01-20T02:19:55.89Z</time>
		</trkpt>
		<trkpt lat="34.638896" lon="127.048335">
			<ele>0.00</ele>
			<time>2020-01-20T02:19:57.21Z</time>
		</trkpt>
		<trkpt lat="34.638602" lon="127.048092">
			<ele>0.00</ele>
			<time>2020-01-20T02:19:59.58Z</time>
		</trkpt>
		<trkpt lat="34.638253" lon="127.047808">
			<ele>0.00</ele>
			<time>2020-01-20T02:20:02.38Z</time>
		</trkpt>
		<trkpt lat="34.637903" lon="127.047525">
			<ele>0.00</ele>
			<time>2020-01-20T02:20:05.18Z</time>
		</trkpt>
		<trkpt lat="34.637565" lon="127.047290">
			<ele>0.00</ele>
			<time>2020-01-20T02:20:07.78Z</time>
		</trkpt>
		<trkpt lat="34.637406" lon="127.047183">
			<ele>0.00</ele>
			<time>2020-01-20T02:20:08.99Z</time>
		</trkpt>
		<trkpt lat="34.637318" lon="127.047080">
			<ele>0.00</ele>
			<time>2020-01-20T02:20:09.80Z</time>
		</trkpt>
		<trkpt lat="34.637247" lon="127.046970">
			<ele>0.00</ele>
			<time>2020-01-20T02:20:10.57Z</time>
		</trkpt>
		<trkpt lat="34.637186" lon="127.046852">
			<ele>0.00</ele>
			<time>2020-01-20T02:20:11.33Z</time>
		</trkpt>
		<trkpt lat="34.637081" lon="127.046646">
			<ele>0.00</ele>
			<time>2020-01-20T02:20:12.66Z</time>
		</trkpt>
		<trkpt lat="34.636954" lon="127.046361">
			<ele>0.00</ele>
			<time>2020-01-20T02:20:14.44Z</time>
		</trkpt>
		<trkpt lat="34.636902" lon="127.046188">
			<ele>0.00</ele>
			<time>2020-01-20T02:20:15.45Z</time>
		</trkpt>
		<trkpt lat="34.636868" lon="127.046048">
			<ele>0.00</ele>
			<time>2020-01-20T02:20:16.25Z</time>
		</trkpt>
		<trkpt lat="34.636857" lon="127.045907">
			<ele>0.00</ele>
			<time>2020-01-20T02:20:17.03Z</time>
		</trkpt>
		<trkpt lat="34.636861" lon="127.045752">
			<ele>0.00</ele>
			<time>2020-01-20T02:20:17.88Z</time>
		</trkpt>
		<trkpt lat="34.636883" lon="127.045594">
			<ele>0.00</ele>
			<time>2020-01-20T02:20:18.76Z</time>
		</trkpt>
		<trkpt lat="34.636886" lon="127.045588">
			<ele>0.00</ele>
			<time>2020-01-20T02:20:18.82Z</time>
		</trkpt>
		<trkpt lat="34.636920" lon="127.045405">
			<ele>0.00</ele>
			<time>2020-01-20T02:20:19.84Z</time>
		</trkpt>
		<trkpt lat="34.636990" lon="127.045125">
			<ele>0.00</ele>
			<time>2020-01-20T02:20:21.45Z</time>
		</trkpt>
		<trkpt lat="34.637056" lon="127.044921">
			<ele>0.00</ele>
			<time>2020-01-20T02:20:22.65Z</time>
		</trkpt>
		<trkpt lat="34.637159" lon="127.044730">
			<ele>0.00</ele>
			<time>2020-01-20T02:20:23.90Z</time>
		</trkpt>
		<trkpt lat="34.637242" lon="127.044655">
			<ele>0.00</ele>
			<time>2020-01-20T02:20:24.59Z</time>
		</trkpt>
		<trkpt lat="34.637347" lon="127.044578">
			<ele>0.00</ele>
			<time>2020-01-20T02:20:25.41Z</time>
		</trkpt>
		<trkpt lat="34.637697" lon="127.044300">
			<ele>0.00</ele>
			<time>2020-01-20T02:20:28.20Z</time>
		</trkpt>
		<trkpt lat="34.638113" lon="127.044006">
			<ele>0.00</ele>
			<time>2020-01-20T02:20:31.41Z</time>
		</trkpt>
		<trkpt lat="34.638290" lon="127.043847">
			<ele>0.00</ele>
			<time>2020-01-20T02:20:32.88Z</time>
		</trkpt>
		<trkpt lat="34.638448" lon="127.043657">
			<ele>0.00</ele>
			<time>2020-01-20T02:20:34.35Z</time>
		</trkpt>
		<trkpt lat="34.638597" lon="127.043388">
			<ele>0.00</ele>
			<time>2020-01-20T02:20:36.14Z</time>
		</trkpt>
		<trkpt lat="34.638706" lon="127.043113">
			<ele>0.00</ele>
			<time>2020-01-20T02:20:37.81Z</time>
		</trkpt>
		<trkpt lat="34.638808" lon="127.042808">
			<ele>0.00</ele>
			<time>2020-01-20T02:20:39.62Z</time>
		</trkpt>
		<trkpt lat="34.638869" lon="127.042577">
			<ele>0.00</ele>
			<time>2020-01-20T02:20:40.94Z</time>
		</trkpt>
		<trkpt lat="34.638905" lon="127.042408">
			<ele>0.00</ele>
			<time>2020-01-20T02:20:41.90Z</time>
		</trkpt>
		<trkpt lat="34.638902" lon="127.042316">
			<ele>0.00</ele>
			<time>2020-01-20T02:20:42.41Z</time>
		</trkpt>
		<trkpt lat="34.638883" lon="127.042250">
			<ele>0.00</ele>
			<time>2020-01-20T02:20:42.79Z</time>
		</trkpt>
		<trkpt lat="34.638831" lon="127.042176">
			<ele>0.00</ele>
			<time>2020-01-20T02:20:43.33Z</time>
		</trkpt>
		<trkpt lat="34.638556" lon="127.041814">
			<ele>0.00</ele>
			<time>2020-01-20T02:20:46.03Z</time>
		</trkpt>
		<trkpt lat="34.638506" lon="127.041765">
			<ele>0.00</ele>
			<time>2020-01-20T02:20:46.45Z</time>
		</trkpt>
		<trkpt lat="34.638437" lon="127.041736">
			<ele>0.00</ele>
			<time>2020-01-20T02:20:46.94Z</time>
		</trkpt>
		<trkpt lat="34.638435" lon="127.041736">
			<ele>0.00</ele>
			<time>2020-01-20T02:20:47Z</time>
		</trkpt>
		<trkpt lat="34.638392" lon="127.041724">
			<ele>0.00</ele>
			<time>2020-01-20T02:20:47.29Z</time>
		</trkpt>
		<trkpt lat="34.638324" lon="127.041712">
			<ele>0.00</ele>
			<time>2020-01-20T02:20:47.75Z</time>
		</trkpt>
		<trkpt lat="34.638259" lon="127.041718">
			<ele>0.00</ele>
			<time>2020-01-20T02:20:48.19Z</time>
		</trkpt>
		<trkpt lat="34.638160" lon="127.041760">
			<ele>0.00</ele>
			<time>2020-01-20T02:20:48.88Z</time>
		</trkpt>
		<trkpt lat="34.637918" lon="127.041849">
			<ele>0.00</ele>
			<time>2020-01-20T02:20:50.57Z</time>
		</trkpt>
		<trkpt lat="34.637828" lon="127.041895">
			<ele>0.00</ele>
			<time>2020-01-20T02:20:51.22Z</time>
		</trkpt>
		<trkpt lat="34.637763" lon="127.041940">
			<ele>0.00</ele>
			<time>2020-01-20T02:20:51.72Z</time>
		</trkpt>
		<trkpt lat="34.637721" lon="127.041976">
			<ele>0.00</ele>
			<time>2020-01-20T02:20:52.06Z</time>
		</trkpt>
		<trkpt lat="34.637709" lon="127.042033">
			<ele>0.00</ele>
			<time>2020-01-20T02:20:52.39Z</time>
		</trkpt>
		<trkpt lat="34.637705" lon="127.042087">
			<ele>0.00</ele>
			<time>2020-01-20T02:20:52.68Z</time>
		</trkpt>
		<trkpt lat="34.637719" lon="127.042128">
			<ele>0.00</ele>
			<time>2020-01-20T02:20:52.93Z</time>
		</trkpt>
		<trkpt lat="34.637728" lon="127.042208">
			<ele>0.00</ele>
			<time>2020-01-20T02:20:53.37Z</time>
		</trkpt>
		<trkpt lat="34.637722" lon="127.042250">
			<ele>0.00</ele>
			<time>2020-01-20T02:20:53.60Z</time>
		</trkpt>
		<trkpt lat="34.637678" lon="127.042345">
			<ele>0.00</ele>
			<time>2020-01-20T02:20:54.20Z</time>
		</trkpt>
		<trkpt lat="34.637588" lon="127.042488">
			<ele>0.00</ele>
			<time>2020-01-20T02:20:55.19Z</time>
		</trkpt>
		<trkpt lat="34.637502" lon="127.042577">
			<ele>0.00</ele>
			<time>2020-01-20T02:20:55.94Z</time>
		</trkpt>
		<trkpt lat="34.637408" lon="127.042670">
			<ele>0.00</ele>
			<time>2020-01-20T02:20:56.75Z</time>
		</trkpt>
		<trkpt lat="34.637313" lon="127.042711">
			<ele>0.00</ele>
			<time>2020-01-20T02:20:57.42Z</time>
		</trkpt>
		<trkpt lat="34.637203" lon="127.042740">
			<ele>0.00</ele>
			<time>2020-01-20T02:20:58.17Z</time>
		</trkpt>
		<trkpt lat="34.637178" lon="127.042731">
			<ele>0.00</ele>
			<time>2020-01-20T02:20:58.34Z</time>
		</trkpt>
		<trkpt lat="34.637145" lon="127.042635">
			<ele>0.00</ele>
			<time>2020-01-20T02:20:58.92Z</time>
		</trkpt>
		<trkpt lat="34.637056" lon="127.042257">
			<ele>0.00</ele>
			<time>2020-01-20T02:21:01.07Z</time>
		</trkpt>
		<trkpt lat="34.636987" lon="127.041821">
			<ele>0.00</ele>
			<time>2020-01-20T02:21:03.51Z</time>
		</trkpt>
		<trkpt lat="34.636944" lon="127.041515">
			<ele>0.00</ele>
			<time>2020-01-20T02:21:05.21Z</time>
		</trkpt>
		<trkpt lat="34.636876" lon="127.041005">
			<ele>0.00</ele>
			<time>2020-01-20T02:21:08.04Z</time>
		</trkpt>
		<trkpt lat="34.636797" lon="127.040461">
			<ele>0.00</ele>
			<time>2020-01-20T02:21:11.08Z</time>
		</trkpt>
		<trkpt lat="34.636786" lon="127.040099">
			<ele>0.00</ele>
			<time>2020-01-20T02:21:13.06Z</time>
		</trkpt>
		<trkpt lat="34.636758" lon="127.039951">
			<ele>0.00</ele>
			<time>2020-01-20T02:21:13.89Z</time>
		</trkpt>
		<trkpt lat="34.636741" lon="127.039822">
			<ele>0.00</ele>
			<time>2020-01-20T02:21:14.61Z</time>
		</trkpt>
		<trkpt lat="34.636688" lon="127.039542">
			<ele>0.00</ele>
			<time>2020-01-20T02:21:16.18Z</time>
		</trkpt>
		<trkpt lat="34.636651" lon="127.039380">
			<ele>0.00</ele>
			<time>2020-01-20T02:21:17.11Z</time>
		</trkpt>
		<trkpt lat="34.636540" lon="127.038985">
			<ele>0.00</ele>
			<time>2020-01-20T02:21:19.40Z</time>
		</trkpt>
		<trkpt lat="34.636455" lon="127.038717">
			<ele>0.00</ele>
			<time>2020-01-20T02:21:20.97Z</time>
		</trkpt>
		<trkpt lat="34.636433" lon="127.038569">
			<ele>0.00</ele>
			<time>2020-01-20T02:21:21.80Z</time>
		</trkpt>
		<trkpt lat="34.636399" lon="127.038358">
			<ele>0.00</ele>
			<time>2020-01-20T02:21:22.97Z</time>
		</trkpt>
		<trkpt lat="34.636376" lon="127.038188">
			<ele>0.00</ele>
			<time>2020-01-20T02:21:23.92Z</time>
		</trkpt>
		<trkpt lat="34.636320" lon="127.038125">
			<ele>0.00</ele>
			<time>2020-01-20T02:21:24.43Z</time>
		</trkpt>
		<trkpt lat="34.636250" lon="127.038048">
			<ele>0.00</ele>
			<time>2020-01-20T02:21:25.06Z</time>
		</trkpt>
		<trkpt lat="34.636207" lon="127.038028">
			<ele>0.00</ele>
			<time>2020-01-20T02:21:25.37Z</time>
		</trkpt>
		<trkpt lat="34.636147" lon="127.037994">
			<ele>0.00</ele>
			<time>2020-01-20T02:21:25.81Z</time>
		</trkpt>
		<trkpt lat="34.636085" lon="127.037934">
			<ele>0.00</ele>
			<time>2020-01-20T02:21:26.33Z</time>
		</trkpt>
		<trkpt lat="34.636029" lon="127.037853">
			<ele>0.00</ele>
			<time>2020-01-20T02:21:26.92Z</time>
		</trkpt>
		<trkpt lat="34.635962" lon="127.037699">
			<ele>0.00</ele>
			<time>2020-01-20T02:21:27.87Z</time>
		</trkpt>
		<trkpt lat="34.635928" lon="127.037519">
			<ele>0.00</ele>
			<time>2020-01-20T02:21:28.89Z</time>
		</trkpt>
		<trkpt lat="34.635903" lon="127.037302">
			<ele>0.00</ele>
			<time>2020-01-20T02:21:30.09Z</time>
		</trkpt>
		<trkpt lat="34.635889" lon="127.036962">
			<ele>0.00</ele>
			<time>2020-01-20T02:21:31.96Z</time>
		</trkpt>
		<trkpt lat="34.635886" lon="127.036808">
			<ele>0.00</ele>
			<time>2020-01-20T02:21:32.80Z</time>
		</trkpt>
		<trkpt lat="34.635875" lon="127.036712">
			<ele>0.00</ele>
			<time>2020-01-20T02:21:33.33Z</time>
		</trkpt>
		<trkpt lat="34.635862" lon="127.036663">
			<ele>0.00</ele>
			<time>2020-01-20T02:21:33.61Z</time>
		</trkpt>
		<trkpt lat="34.635846" lon="127.036515">
			<ele>0.00</ele>
			<time>2020-01-20T02:21:34.44Z</time>
		</trkpt>
		<trkpt lat="34.635820" lon="127.036351">
			<ele>0.00</ele>
			<time>2020-01-20T02:21:35.35Z</time>
		</trkpt>
		<trkpt lat="34.635802" lon="127.036302">
			<ele>0.00</ele>
			<time>2020-01-20T02:21:35.64Z</time>
		</trkpt>
		<trkpt lat="34.635764" lon="127.036273">
			<ele>0.00</ele>
			<time>2020-01-20T02:21:35.94Z</time>
		</trkpt>
		<trkpt lat="34.635722" lon="127.036196">
			<ele>0.00</ele>
			<time>2020-01-20T02:21:36.45Z</time>
		</trkpt>
		<trkpt lat="34.635691" lon="127.036072">
			<ele>0.00</ele>
			<time>2020-01-20T02:21:37.16Z</time>
		</trkpt>
		<trkpt lat="34.635590" lon="127.035745">
			<ele>0.00</ele>
			<time>2020-01-20T02:21:39.08Z</time>
		</trkpt>
		<trkpt lat="34.635556" lon="127.035608">
			<ele>0.00</ele>
			<time>2020-01-20T02:21:39.86Z</time>
		</trkpt>
		<trkpt lat="34.635492" lon="127.035415">
			<ele>0.00</ele>
			<time>2020-01-20T02:21:41Z</time>
		</trkpt>
		<trkpt lat="34.635399" lon="127.035103">
			<ele>0.00</ele>
			<time>2020-01-20T02:21:42.83Z</time>
		</trkpt>
		<trkpt lat="34.635354" lon="127.034973">
			<ele>0.00</ele>
			<time>2020-01-20T02:21:43.59Z</time>
		</trkpt>
		<trkpt lat="34.635284" lon="127.034806">
			<ele>0.00</ele>
			<time>2020-01-20T02:21:44.63Z</time>
		</trkpt>
		<trkpt lat="34.635228" lon="127.034699">
			<ele>0.00</ele>
			<time>2020-01-20T02:21:45.32Z</time>
		</trkpt>
		<trkpt lat="34.635185" lon="127.034645">
			<ele>0.00</ele>
			<time>2020-01-20T02:21:45.73Z</time>
		</trkpt>
		<trkpt lat="34.635164" lon="127.034619">
			<ele>0.00</ele>
			<time>2020-01-20T02:21:45.93Z</time>
		</trkpt>
		<trkpt lat="34.635154" lon="127.034564">
			<ele>0.00</ele>
			<time>2020-01-20T02:21:46.24Z</time>
		</trkpt>
		<trkpt lat="34.634994" lon="127.034319">
			<ele>0.00</ele>
			<time>2020-01-20T02:21:47.96Z</time>
		</trkpt>
		<trkpt lat="34.634912" lon="127.034181">
			<ele>0.00</ele>
			<time>2020-01-20T02:21:48.89Z</time>
		</trkpt>
		<trkpt lat="34.634656" lon="127.033755">
			<ele>0.00</ele>
			<time>2020-01-20T02:21:51.79Z</time>
		</trkpt>
		<trkpt lat="34.634437" lon="127.033369">
			<ele>0.00</ele>
			<time>2020-01-20T02:21:54.36Z</time>
		</trkpt>
		<trkpt lat="34.634393" lon="127.033274">
			<ele>0.00</ele>
			<time>2020-01-20T02:21:54.95Z</time>
		</trkpt>
		<trkpt lat="34.634366" lon="127.033209">
			<ele>0.00</ele>
			<time>2020-01-20T02:21:55.36Z</time>
		</trkpt>
		<trkpt lat="34.634321" lon="127.033103">
			<ele>0.00</ele>
			<time>2020-01-20T02:21:56.01Z</time>
		</trkpt>
		<trkpt lat="34.634301" lon="127.033036">
			<ele>0.00</ele>
			<time>2020-01-20T02:21:56.40Z</time>
		</trkpt>
		<trkpt lat="34.634300" lon="127.033010">
			<ele>0.00</ele>
			<time>2020-01-20T02:21:56.54Z</time>
		</trkpt>
		<trkpt lat="34.634316" lon="127.032966">
			<ele>0.00</ele>
			<time>2020-01-20T02:21:56.80Z</time>
		</trkpt>
		<trkpt lat="34.634358" lon="127.032919">
			<ele>0.00</ele>
			<time>2020-01-20T02:21:57.18Z</time>
		</trkpt>
		<trkpt lat="34.634397" lon="127.032862">
			<ele>0.00</ele>
			<time>2020-01-20T02:21:57.59Z</time>
		</trkpt>
		<trkpt lat="34.634405" lon="127.032834">
			<ele>0.00</ele>
			<time>2020-01-20T02:21:57.76Z</time>
		</trkpt>
		<trkpt lat="34.634406" lon="127.032790">
			<ele>0.00</ele>
			<time>2020-01-20T02:21:57.99Z</time>
		</trkpt>
		<trkpt lat="34.634390" lon="127.032772">
			<ele>0.00</ele>
			<time>2020-01-20T02:21:58.14Z</time>
		</trkpt>
		<trkpt lat="34.634335" lon="127.032707">
			<ele>0.00</ele>
			<time>2020-01-20T02:21:58.65Z</time>
		</trkpt>
		<trkpt lat="34.633995" lon="127.032453">
			<ele>0.00</ele>
			<time>2020-01-20T02:22:01.31Z</time>
		</trkpt>
		<trkpt lat="34.633797" lon="127.032316">
			<ele>0.00</ele>
			<time>2020-01-20T02:22:02.83Z</time>
		</trkpt>
		<trkpt lat="34.633563" lon="127.032122">
			<ele>0.00</ele>
			<time>2020-01-20T02:22:04.72Z</time>
		</trkpt>
		<trkpt lat="34.633384" lon="127.031961">
			<ele>0.00</ele>
			<time>2020-01-20T02:22:06.20Z</time>
		</trkpt>
		<trkpt lat="34.633255" lon="127.031838">
			<ele>0.00</ele>
			<time>2020-01-20T02:22:07.30Z</time>
		</trkpt>
		<trkpt lat="34.633159" lon="127.031796">
			<ele>0.00</ele>
			<time>2020-01-20T02:22:07.98Z</time>
		</trkpt>
		<trkpt lat="34.633045" lon="127.031755">
			<ele>0.00</ele>
			<time>2020-01-20T02:22:08.77Z</time>
		</trkpt>
		<trkpt lat="34.632790" lon="127.031672">
			<ele>0.00</ele>
			<time>2020-01-20T02:22:10.53Z</time>
		</trkpt>
		<trkpt lat="34.632611" lon="127.031603">
			<ele>0.00</ele>
			<time>2020-01-20T02:22:11.78Z</time>
		</trkpt>
		<trkpt lat="34.632341" lon="127.031514">
			<ele>0.00</ele>
			<time>2020-01-20T02:22:13.65Z</time>
		</trkpt>
		<trkpt lat="34.631990" lon="127.031410">
			<ele>0.00</ele>
			<time>2020-01-20T02:22:16.06Z</time>
		</trkpt>
		<trkpt lat="34.631855" lon="127.031381">
			<ele>0.00</ele>
			<time>2020-01-20T02:22:16.97Z</time>
		</trkpt>
		<trkpt lat="34.631713" lon="127.031307">
			<ele>0.00</ele>
			<time>2020-01-20T02:22:18Z</time>
		</trkpt>
		<trkpt lat="34.631536" lon="127.031154">
			<ele>0.00</ele>
			<time>2020-01-20T02:22:19.45Z</time>
		</trkpt>
		<trkpt lat="34.631316" lon="127.030898">
			<ele>0.00</ele>
			<time>2020-01-20T02:22:21.48Z</time>
		</trkpt>
		<trkpt lat="34.631125" lon="127.030723">
			<ele>0.00</ele>
			<time>2020-01-20T02:22:23.07Z</time>
		</trkpt>
		<trkpt lat="34.630907" lon="127.030535">
			<ele>0.00</ele>
			<time>2020-01-20T02:22:24.85Z</time>
		</trkpt>
		<trkpt lat="34.630763" lon="127.030445">
			<ele>0.00</ele>
			<time>2020-01-20T02:22:25.93Z</time>
		</trkpt>
		<trkpt lat="34.630617" lon="127.030396">
			<ele>0.00</ele>
			<time>2020-01-20T02:22:26.94Z</time>
		</trkpt>
		<trkpt lat="34.630460" lon="127.030380">
			<ele>0.00</ele>
			<time>2020-01-20T02:22:27.99Z</time>
		</trkpt>
		<trkpt lat="34.630183" lon="127.030332">
			<ele>0.00</ele>
			<time>2020-01-20T02:22:29.86Z</time>
		</trkpt>
		<trkpt lat="34.630001" lon="127.030288">
			<ele>0.00</ele>
			<time>2020-01-20T02:22:31.10Z</time>
		</trkpt>
		<trkpt lat="34.629818" lon="127.030224">
			<ele>0.00</ele>
			<time>2020-01-20T02:22:32.36Z</time>
		</trkpt>
		<trkpt lat="34.629648" lon="127.030070">
			<ele>0.00</ele>
			<time>2020-01-20T02:22:33.78Z</time>
		</trkpt>
		<trkpt lat="34.629554" lon="127.029952">
			<ele>0.00</ele>
			<time>2020-01-20T02:22:34.68Z</time>
		</trkpt>
		<trkpt lat="34.629459" lon="127.029802">
			<ele>0.00</ele>
			<time>2020-01-20T02:22:35.72Z</time>
		</trkpt>
		<trkpt lat="34.629351" lon="127.029700">
			<ele>0.00</ele>
			<time>2020-01-20T02:22:36.63Z</time>
		</trkpt>
		<trkpt lat="34.629226" lon="127.029562">
			<ele>0.00</ele>
			<time>2020-01-20T02:22:37.76Z</time>
		</trkpt>
		<trkpt lat="34.629136" lon="127.029404">
			<ele>0.00</ele>
			<time>2020-01-20T02:22:38.81Z</time>
		</trkpt>
		<trkpt lat="34.629058" lon="127.029197">
			<ele>0.00</ele>
			<time>2020-01-20T02:22:40.06Z</time>
		</trkpt>
		<trkpt lat="34.629002" lon="127.028920">
			<ele>0.00</ele>
			<time>2020-01-20T02:22:41.63Z</time>
		</trkpt>
		<trkpt lat="34.628971" lon="127.028660">
			<ele>0.00</ele>
			<time>2020-01-20T02:22:43.07Z</time>
		</trkpt>
		<trkpt lat="34.628932" lon="127.028381">
			<ele>0.00</ele>
			<time>2020-01-20T02:22:44.62Z</time>
		</trkpt>
		<trkpt lat="34.628940" lon="127.028127">
			<ele>0.00</ele>
			<time>2020-01-20T02:22:46.01Z</time>
		</trkpt>
		<trkpt lat="34.628989" lon="127.027892">
			<ele>0.00</ele>
			<time>2020-01-20T02:22:47.34Z</time>
		</trkpt>
		<trkpt lat="34.629039" lon="127.027709">
			<ele>0.00</ele>
			<time>2020-01-20T02:22:48.40Z</time>
		</trkpt>
		<trkpt lat="34.629152" lon="127.027265">
			<ele>0.00</ele>
			<time>2020-01-20T02:22:50.95Z</time>
		</trkpt>
		<trkpt lat="34.629184" lon="127.027167">
			<ele>0.00</ele>
			<time>2020-01-20T02:22:51.53Z</time>
		</trkpt>
		<trkpt lat="34.629152" lon="127.027104">
			<ele>0.00</ele>
			<time>2020-01-20T02:22:51.93Z</time>
		</trkpt>
		<trkpt lat="34.629076" lon="127.027060">
			<ele>0.00</ele>
			<time>2020-01-20T02:22:52.49Z</time>
		</trkpt>
		<trkpt lat="34.629002" lon="127.027015">
			<ele>0.00</ele>
			<time>2020-01-20T02:22:53.04Z</time>
		</trkpt>
		<trkpt lat="34.628941" lon="127.026960">
			<ele>0.00</ele>
			<time>2020-01-20T02:22:53.55Z</time>
		</trkpt>
		<trkpt lat="34.628880" lon="127.026861">
			<ele>0.00</ele>
			<time>2020-01-20T02:22:54.23Z</time>
		</trkpt>
		<trkpt lat="34.628840" lon="127.026764">
			<ele>0.00</ele>
			<time>2020-01-20T02:22:54.82Z</time>
		</trkpt>
		<trkpt lat="34.628809" lon="127.026695">
			<ele>0.00</ele>
			<time>2020-01-20T02:22:55.26Z</time>
		</trkpt>
		<trkpt lat="34.628805" lon="127.026705">
			<ele>0.00</ele>
			<time>2020-01-20T02:22:55.32Z</time>
		</trkpt>
		<trkpt lat="34.628760" lon="127.026582">
			<ele>0.00</ele>
			<time>2020-01-20T02:22:56.06Z</time>
		</trkpt>
		<trkpt lat="34.628733" lon="127.026461">
			<ele>0.00</ele>
			<time>2020-01-20T02:22:56.74Z</time>
		</trkpt>
		<trkpt lat="34.628720" lon="127.026374">
			<ele>0.00</ele>
			<time>2020-01-20T02:22:57.23Z</time>
		</trkpt>
		<trkpt lat="34.628720" lon="127.026207">
			<ele>0.00</ele>
			<time>2020-01-20T02:22:58.14Z</time>
		</trkpt>
		<trkpt lat="34.628733" lon="127.026034">
			<ele>0.00</ele>
			<time>2020-01-20T02:22:59.10Z</time>
		</trkpt>
		<trkpt lat="34.628756" lon="127.025920">
			<ele>0.00</ele>
			<time>2020-01-20T02:22:59.74Z</time>
		</trkpt>
		<trkpt lat="34.628797" lon="127.025727">
			<ele>0.00</ele>
			<time>2020-01-20T02:23:00.83Z</time>
		</trkpt>
		<trkpt lat="34.628865" lon="127.025472">
			<ele>0.00</ele>
			<time>2020-01-20T02:23:02.30Z</time>
		</trkpt>
		<trkpt lat="34.628906" lon="127.025311">
			<ele>0.00</ele>
			<time>2020-01-20T02:23:03.23Z</time>
		</trkpt>
		<trkpt lat="34.628928" lon="127.025074">
			<ele>0.00</ele>
			<time>2020-01-20T02:23:04.54Z</time>
		</trkpt>
		<trkpt lat="34.628943" lon="127.024698">
			<ele>0.00</ele>
			<time>2020-01-20T02:23:06.60Z</time>
		</trkpt>
		<trkpt lat="34.628943" lon="127.024511">
			<ele>0.00</ele>
			<time>2020-01-20T02:23:07.63Z</time>
		</trkpt>
		<trkpt lat="34.628945" lon="127.024307">
			<ele>0.00</ele>
			<time>2020-01-20T02:23:08.75Z</time>
		</trkpt>
		<trkpt lat="34.628921" lon="127.024198">
			<ele>0.00</ele>
			<time>2020-01-20T02:23:09.37Z</time>
		</trkpt>
		<trkpt lat="34.628911" lon="127.024069">
			<ele>0.00</ele>
			<time>2020-01-20T02:23:10.08Z</time>
		</trkpt>
		<trkpt lat="34.628887" lon="127.023652">
			<ele>0.00</ele>
			<time>2020-01-20T02:23:12.37Z</time>
		</trkpt>
		<trkpt lat="34.628852" lon="127.023406">
			<ele>0.00</ele>
			<time>2020-01-20T02:23:13.74Z</time>
		</trkpt>
		<trkpt lat="34.628813" lon="127.023169">
			<ele>0.00</ele>
			<time>2020-01-20T02:23:15.07Z</time>
		</trkpt>
		<trkpt lat="34.628782" lon="127.022950">
			<ele>0.00</ele>
			<time>2020-01-20T02:23:16.29Z</time>
		</trkpt>
		<trkpt lat="34.628754" lon="127.022863">
			<ele>0.00</ele>
			<time>2020-01-20T02:23:16.80Z</time>
		</trkpt>
		<trkpt lat="34.628713" lon="127.022820">
			<ele>0.00</ele>
			<time>2020-01-20T02:23:17.16Z</time>
		</trkpt>
		<trkpt lat="34.628709" lon="127.022811">
			<ele>0.00</ele>
			<time>2020-01-20T02:23:17.22Z</time>
		</trkpt>
		<trkpt lat="34.628697" lon="127.022786">
			<ele>0.00</ele>
			<time>2020-01-20T02:23:17.38Z</time>
		</trkpt>
		<trkpt lat="34.628693" lon="127.022778">
			<ele>0.00</ele>
			<time>2020-01-20T02:23:17.44Z</time>
		</trkpt>
		<trkpt lat="34.628686" lon="127.022764">
			<ele>0.00</ele>
			<time>2020-01-20T02:23:17.53Z</time>
		</trkpt>
		<trkpt lat="34.628665" lon="127.022722">
			<ele>0.00</ele>
			<time>2020-01-20T02:23:17.80Z</time>
		</trkpt>
		<trkpt lat="34.628663" lon="127.022708">
			<ele>0.00</ele>
			<time>2020-01-20T02:23:17.87Z</time>
		</trkpt>
		<trkpt lat="34.628660" lon="127.022697">
			<ele>0.00</ele>
			<time>2020-01-20T02:23:17.94Z</time>
		</trkpt>
		<trkpt lat="34.628660" lon="127.022688">
			<ele>0.00</ele>
			<time>2020-01-20T02:23:18Z</time>
		</trkpt>
		<trkpt lat="34.628656" lon="127.022681">
			<ele>0.00</ele>
			<time>2020-01-20T02:23:18.06Z</time>
		</trkpt>
		<trkpt lat="34.628656" lon="127.022668">
			<ele>0.00</ele>
			<time>2020-01-20T02:23:18.13Z</time>
		</trkpt>
		<trkpt lat="34.628641" lon="127.022603">
			<ele>0.00</ele>
			<time>2020-01-20T02:23:18.50Z</time>
		</trkpt>
		<trkpt lat="34.628610" lon="127.022516">
			<ele>0.00</ele>
			<time>2020-01-20T02:23:19.02Z</time>
		</trkpt>
		<trkpt lat="34.628573" lon="127.022434">
			<ele>0.00</ele>
			<time>2020-01-20T02:23:19.53Z</time>
		</trkpt>
		<trkpt lat="34.628565" lon="127.022414">
			<ele>0.00</ele>
			<time>2020-01-20T02:23:19.65Z</time>
		</trkpt>
		<trkpt lat="34.628554" lon="127.022389">
			<ele>0.00</ele>
			<time>2020-01-20T02:23:19.81Z</time>
		</trkpt>
		<trkpt lat="34.628551" lon="127.022380">
			<ele>0.00</ele>
			<time>2020-01-20T02:23:19.87Z</time>
		</trkpt>
		<trkpt lat="34.628545" lon="127.022364">
			<ele>0.00</ele>
			<time>2020-01-20T02:23:19.96Z</time>
		</trkpt>
		<trkpt lat="34.628538" lon="127.022348">
			<ele>0.00</ele>
			<time>2020-01-20T02:23:20.06Z</time>
		</trkpt>
		<trkpt lat="34.628530" lon="127.022330">
			<ele>0.00</ele>
			<time>2020-01-20T02:23:20.18Z</time>
		</trkpt>
		<trkpt lat="34.628527" lon="127.022319">
			<ele>0.00</ele>
			<time>2020-01-20T02:23:20.24Z</time>
		</trkpt>
		<trkpt lat="34.628527" lon="127.022310">
			<ele>0.00</ele>
			<time>2020-01-20T02:23:20.30Z</time>
		</trkpt>
		<trkpt lat="34.628525" lon="127.022301">
			<ele>0.00</ele>
			<time>2020-01-20T02:23:20.36Z</time>
		</trkpt>
		<trkpt lat="34.628527" lon="127.022292">
			<ele>0.00</ele>
			<time>2020-01-20T02:23:20.42Z</time>
		</trkpt>
		<trkpt lat="34.628528" lon="127.022280">
			<ele>0.00</ele>
			<time>2020-01-20T02:23:20.49Z</time>
		</trkpt>
		<trkpt lat="34.628527" lon="127.022271">
			<ele>0.00</ele>
			<time>2020-01-20T02:23:20.55Z</time>
		</trkpt>
		<trkpt lat="34.628523" lon="127.022262">
			<ele>0.00</ele>
			<time>2020-01-20T02:23:20.61Z</time>
		</trkpt>
		<trkpt lat="34.628519" lon="127.022256">
			<ele>0.00</ele>
			<time>2020-01-20T02:23:20.67Z</time>
		</trkpt>
		<trkpt lat="34.628517" lon="127.022247">
			<ele>0.00</ele>
			<time>2020-01-20T02:23:20.73Z</time>
		</trkpt>
		<trkpt lat="34.628512" lon="127.022240">
			<ele>0.00</ele>
			<time>2020-01-20T02:23:20.79Z</time>
		</trkpt>
		<trkpt lat="34.628506" lon="127.022228">
			<ele>0.00</ele>
			<time>2020-01-20T02:23:20.86Z</time>
		</trkpt>
		<trkpt lat="34.628501" lon="127.022219">
			<ele>0.00</ele>
			<time>2020-01-20T02:23:20.92Z</time>
		</trkpt>
		<trkpt lat="34.628493" lon="127.022210">
			<ele>0.00</ele>
			<time>2020-01-20T02:23:20.99Z</time>
		</trkpt>
		<trkpt lat="34.628487" lon="127.022204">
			<ele>0.00</ele>
			<time>2020-01-20T02:23:21.05Z</time>
		</trkpt>
		<trkpt lat="34.628484" lon="127.022199">
			<ele>0.00</ele>
			<time>2020-01-20T02:23:21.11Z</time>
		</trkpt>
		<trkpt lat="34.628475" lon="127.022188">
			<ele>0.00</ele>
			<time>2020-01-20T02:23:21.20Z</time>
		</trkpt>
		<trkpt lat="34.628471" lon="127.022181">
			<ele>0.00</ele>
			<time>2020-01-20T02:23:21.26Z</time>
		</trkpt>
		<trkpt lat="34.628465" lon="127.022174">
			<ele>0.00</ele>
			<time>2020-01-20T02:23:21.32Z</time>
		</trkpt>
		<trkpt lat="34.628400" lon="127.022029">
			<ele>0.00</ele>
			<time>2020-01-20T02:23:22.22Z</time>
		</trkpt>
		<trkpt lat="34.628380" lon="127.022015">
			<ele>0.00</ele>
			<time>2020-01-20T02:23:22.38Z</time>
		</trkpt>
		<trkpt lat="34.628371" lon="127.022015">
			<ele>0.00</ele>
			<time>2020-01-20T02:23:22.44Z</time>
		</trkpt>
		<trkpt lat="34.628363" lon="127.022015">
			<ele>0.00</ele>
			<time>2020-01-20T02:23:22.50Z</time>
		</trkpt>
		<trkpt lat="34.628332" lon="127.022022">
			<ele>0.00</ele>
			<time>2020-01-20T02:23:22.71Z</time>
		</trkpt>
		<trkpt lat="34.628317" lon="127.021992">
			<ele>0.00</ele>
			<time>2020-01-20T02:23:22.90Z</time>
		</trkpt>
		<trkpt lat="34.628239" lon="127.021837">
			<ele>0.00</ele>
			<time>2020-01-20T02:23:23.90Z</time>
		</trkpt>
		<trkpt lat="34.628128" lon="127.021620">
			<ele>0.00</ele>
			<time>2020-01-20T02:23:25.30Z</time>
		</trkpt>
		<trkpt lat="34.628143" lon="127.021578">
			<ele>0.00</ele>
			<time>2020-01-20T02:23:25.56Z</time>
		</trkpt>
		<trkpt lat="34.628149" lon="127.021573">
			<ele>0.00</ele>
			<time>2020-01-20T02:23:25.62Z</time>
		</trkpt>
		<trkpt lat="34.628160" lon="127.021560">
			<ele>0.00</ele>
			<time>2020-01-20T02:23:25.72Z</time>
		</trkpt>
		<trkpt lat="34.628167" lon="127.021526">
			<ele>0.00</ele>
			<time>2020-01-20T02:23:25.91Z</time>
		</trkpt>
		<trkpt lat="34.628154" lon="127.021472">
			<ele>0.00</ele>
			<time>2020-01-20T02:23:26.22Z</time>
		</trkpt>
		<trkpt lat="34.628045" lon="127.021270">
			<ele>0.00</ele>
			<time>2020-01-20T02:23:27.55Z</time>
		</trkpt>
		<trkpt lat="34.627984" lon="127.021173">
			<ele>0.00</ele>
			<time>2020-01-20T02:23:28.22Z</time>
		</trkpt>
		<trkpt lat="34.627899" lon="127.020988">
			<ele>0.00</ele>
			<time>2020-01-20T02:23:29.38Z</time>
		</trkpt>
		<trkpt lat="34.627761" lon="127.020780">
			<ele>0.00</ele>
			<time>2020-01-20T02:23:30.84Z</time>
		</trkpt>
		<trkpt lat="34.627504" lon="127.020359">
			<ele>0.00</ele>
			<time>2020-01-20T02:23:33.72Z</time>
		</trkpt>
		<trkpt lat="34.627331" lon="127.020073">
			<ele>0.00</ele>
			<time>2020-01-20T02:23:35.67Z</time>
		</trkpt>
		<trkpt lat="34.627233" lon="127.019892">
			<ele>0.00</ele>
			<time>2020-01-20T02:23:36.85Z</time>
		</trkpt>
		<trkpt lat="34.626982" lon="127.019675">
			<ele>0.00</ele>
			<time>2020-01-20T02:23:38.91Z</time>
		</trkpt>
		<trkpt lat="34.626889" lon="127.019540">
			<ele>0.00</ele>
			<time>2020-01-20T02:23:39.87Z</time>
		</trkpt>
		<trkpt lat="34.626664" lon="127.019376">
			<ele>0.00</ele>
			<time>2020-01-20T02:23:41.63Z</time>
		</trkpt>
		<trkpt lat="34.626512" lon="127.019243">
			<ele>0.00</ele>
			<time>2020-01-20T02:23:42.87Z</time>
		</trkpt>
		<trkpt lat="34.626513" lon="127.019243">
			<ele>0.00</ele>
			<time>2020-01-20T02:23:42.93Z</time>
		</trkpt>
		<trkpt lat="34.626442" lon="127.019209">
			<ele>0.00</ele>
			<time>2020-01-20T02:23:43.44Z</time>
		</trkpt>
		<trkpt lat="34.626311" lon="127.019172">
			<ele>0.00</ele>
			<time>2020-01-20T02:23:44.34Z</time>
		</trkpt>
		<trkpt lat="34.626114" lon="127.019126">
			<ele>0.00</ele>
			<time>2020-01-20T02:23:45.68Z</time>
		</trkpt>
		<trkpt lat="34.625916" lon="127.019089">
			<ele>0.00</ele>
			<time>2020-01-20T02:23:47.01Z</time>
		</trkpt>
		<trkpt lat="34.625738" lon="127.019039">
			<ele>0.00</ele>
			<time>2020-01-20T02:23:48.23Z</time>
		</trkpt>
		<trkpt lat="34.625607" lon="127.018985">
			<ele>0.00</ele>
			<time>2020-01-20T02:23:49.15Z</time>
		</trkpt>
		<trkpt lat="34.625438" lon="127.018886">
			<ele>0.00</ele>
			<time>2020-01-20T02:23:50.40Z</time>
		</trkpt>
		<trkpt lat="34.625318" lon="127.018791">
			<ele>0.00</ele>
			<time>2020-01-20T02:23:51.35Z</time>
		</trkpt>
		<trkpt lat="34.625208" lon="127.018644">
			<ele>0.00</ele>
			<time>2020-01-20T02:23:52.45Z</time>
		</trkpt>
		<trkpt lat="34.625120" lon="127.018499">
			<ele>0.00</ele>
			<time>2020-01-20T02:23:53.43Z</time>
		</trkpt>
		<trkpt lat="34.625074" lon="127.018324">
			<ele>0.00</ele>
			<time>2020-01-20T02:23:54.44Z</time>
		</trkpt>
		<trkpt lat="34.625014" lon="127.018112">
			<ele>0.00</ele>
			<time>2020-01-20T02:23:55.67Z</time>
		</trkpt>
		<trkpt lat="34.624985" lon="127.017964">
			<ele>0.00</ele>
			<time>2020-01-20T02:23:56.51Z</time>
		</trkpt>
		<trkpt lat="34.624966" lon="127.017832">
			<ele>0.00</ele>
			<time>2020-01-20T02:23:57.24Z</time>
		</trkpt>
		<trkpt lat="34.625032" lon="127.017661">
			<ele>0.00</ele>
			<time>2020-01-20T02:23:58.28Z</time>
		</trkpt>
		<trkpt lat="34.625108" lon="127.017511">
			<ele>0.00</ele>
			<time>2020-01-20T02:23:59.24Z</time>
		</trkpt>
		<trkpt lat="34.625175" lon="127.017399">
			<ele>0.00</ele>
			<time>2020-01-20T02:24:00Z</time>
		</trkpt>
		<trkpt lat="34.625311" lon="127.017251">
			<ele>0.00</ele>
			<time>2020-01-20T02:24:01.22Z</time>
		</trkpt>
		<trkpt lat="34.625313" lon="127.017253">
			<ele>0.00</ele>
			<time>2020-01-20T02:24:01.28Z</time>
		</trkpt>
		<trkpt lat="34.625421" lon="127.017098">
			<ele>0.00</ele>
			<time>2020-01-20T02:24:02.40Z</time>
		</trkpt>
		<trkpt lat="34.625517" lon="127.016933">
			<ele>0.00</ele>
			<time>2020-01-20T02:24:03.51Z</time>
		</trkpt>
		<trkpt lat="34.625579" lon="127.016774">
			<ele>0.00</ele>
			<time>2020-01-20T02:24:04.47Z</time>
		</trkpt>
		<trkpt lat="34.625667" lon="127.016569">
			<ele>0.00</ele>
			<time>2020-01-20T02:24:05.74Z</time>
		</trkpt>
		<trkpt lat="34.625696" lon="127.016392">
			<ele>0.00</ele>
			<time>2020-01-20T02:24:06.73Z</time>
		</trkpt>
		<trkpt lat="34.625700" lon="127.016181">
			<ele>0.00</ele>
			<time>2020-01-20T02:24:07.89Z</time>
		</trkpt>
		<trkpt lat="34.625684" lon="127.015995">
			<ele>0.00</ele>
			<time>2020-01-20T02:24:08.91Z</time>
		</trkpt>
		<trkpt lat="34.625628" lon="127.015620">
			<ele>0.00</ele>
			<time>2020-01-20T02:24:11Z</time>
		</trkpt>
		<trkpt lat="34.625584" lon="127.015418">
			<ele>0.00</ele>
			<time>2020-01-20T02:24:12.15Z</time>
		</trkpt>
		<trkpt lat="34.625532" lon="127.015243">
			<ele>0.00</ele>
			<time>2020-01-20T02:24:13.17Z</time>
		</trkpt>
		<trkpt lat="34.625460" lon="127.015022">
			<ele>0.00</ele>
			<time>2020-01-20T02:24:14.48Z</time>
		</trkpt>
		<trkpt lat="34.625355" lon="127.014755">
			<ele>0.00</ele>
			<time>2020-01-20T02:24:16.10Z</time>
		</trkpt>
		<trkpt lat="34.624995" lon="127.013862">
			<ele>0.00</ele>
			<time>2020-01-20T02:24:21.55Z</time>
		</trkpt>
		<trkpt lat="34.624947" lon="127.013737">
			<ele>0.00</ele>
			<time>2020-01-20T02:24:22.31Z</time>
		</trkpt>
		<trkpt lat="34.624882" lon="127.013659">
			<ele>0.00</ele>
			<time>2020-01-20T02:24:22.92Z</time>
		</trkpt>
		<trkpt lat="34.624807" lon="127.013569">
			<ele>0.00</ele>
			<time>2020-01-20T02:24:23.62Z</time>
		</trkpt>
		<trkpt lat="34.624740" lon="127.013456">
			<ele>0.00</ele>
			<time>2020-01-20T02:24:24.39Z</time>
		</trkpt>
		<trkpt lat="34.624696" lon="127.013379">
			<ele>0.00</ele>
			<time>2020-01-20T02:24:24.90Z</time>
		</trkpt>
		<trkpt lat="34.624680" lon="127.013243">
			<ele>0.00</ele>
			<time>2020-01-20T02:24:25.66Z</time>
		</trkpt>
		<trkpt lat="34.624785" lon="127.013140">
			<ele>0.00</ele>
			<time>2020-01-20T02:24:26.55Z</time>
		</trkpt>
		<trkpt lat="34.624685" lon="127.013006">
			<ele>0.00</ele>
			<time>2020-01-20T02:24:27.55Z</time>
		</trkpt>
		<trkpt lat="34.624550" lon="127.012870">
			<ele>0.00</ele>
			<time>2020-01-20T02:24:28.72Z</time>
		</trkpt>
		<trkpt lat="34.624510" lon="127.012816">
			<ele>0.00</ele>
			<time>2020-01-20T02:24:29.11Z</time>
		</trkpt>
		<trkpt lat="34.624539" lon="127.012636">
			<ele>0.00</ele>
			<time>2020-01-20T02:24:30.13Z</time>
		</trkpt>
		<trkpt lat="34.624738" lon="127.012619">
			<ele>0.00</ele>
			<time>2020-01-20T02:24:31.45Z</time>
		</trkpt>
		<trkpt lat="34.624865" lon="127.012444">
			<ele>0.00</ele>
			<time>2020-01-20T02:24:32.73Z</time>
		</trkpt>
		<trkpt lat="34.624943" lon="127.012257">
			<ele>0.00</ele>
			<time>2020-01-20T02:24:33.88Z</time>
		</trkpt>
		<trkpt lat="34.625031" lon="127.011995">
			<ele>0.00</ele>
			<time>2020-01-20T02:24:35.43Z</time>
		</trkpt>
		<trkpt lat="34.625061" lon="127.011775">
			<ele>0.00</ele>
			<time>2020-01-20T02:24:36.66Z</time>
		</trkpt>
		<trkpt lat="34.625132" lon="127.011244">
			<ele>0.00</ele>
			<time>2020-01-20T02:24:39.61Z</time>
		</trkpt>
		<trkpt lat="34.625203" lon="127.010710">
			<ele>0.00</ele>
			<time>2020-01-20T02:24:42.58Z</time>
		</trkpt>
		<trkpt lat="34.625312" lon="127.010098">
			<ele>0.00</ele>
			<time>2020-01-20T02:24:46.02Z</time>
		</trkpt>
		<trkpt lat="34.625242" lon="127.010044">
			<ele>0.00</ele>
			<time>2020-01-20T02:24:46.57Z</time>
		</trkpt>
		<trkpt lat="34.625253" lon="127.009917">
			<ele>0.00</ele>
			<time>2020-01-20T02:24:47.27Z</time>
		</trkpt>
		<trkpt lat="34.625293" lon="127.008851">
			<ele>0.00</ele>
			<time>2020-01-20T02:24:53.12Z</time>
		</trkpt>
		<trkpt lat="34.625386" lon="127.008803">
			<ele>0.00</ele>
			<time>2020-01-20T02:24:53.80Z</time>
		</trkpt>
		<trkpt lat="34.625385" lon="127.008795">
			<ele>0.00</ele>
			<time>2020-01-20T02:24:53.86Z</time>
		</trkpt>
		<trkpt lat="34.625284" lon="127.008409">
			<ele>0.00</ele>
			<time>2020-01-20T02:24:56.08Z</time>
		</trkpt>
		<trkpt lat="34.625253" lon="127.008222">
			<ele>0.00</ele>
			<time>2020-01-20T02:24:57.13Z</time>
		</trkpt>
		<trkpt lat="34.625244" lon="127.008031">
			<ele>0.00</ele>
			<time>2020-01-20T02:24:58.18Z</time>
		</trkpt>
		<trkpt lat="34.625223" lon="127.007695">
			<ele>0.00</ele>
			<time>2020-01-20T02:25:00.02Z</time>
		</trkpt>
		<trkpt lat="34.625206" lon="127.007384">
			<ele>0.00</ele>
			<time>2020-01-20T02:25:01.73Z</time>
		</trkpt>
		<trkpt lat="34.625188" lon="127.007071">
			<ele>0.00</ele>
			<time>2020-01-20T02:25:03.46Z</time>
		</trkpt>
		<trkpt lat="34.625185" lon="127.006814">
			<ele>0.00</ele>
			<time>2020-01-20T02:25:04.87Z</time>
		</trkpt>
		<trkpt lat="34.625211" lon="127.006539">
			<ele>0.00</ele>
			<time>2020-01-20T02:25:06.39Z</time>
		</trkpt>
		<trkpt lat="34.625275" lon="127.006174">
			<ele>0.00</ele>
			<time>2020-01-20T02:25:08.43Z</time>
		</trkpt>
		<trkpt lat="34.625392" lon="127.005363">
			<ele>0.00</ele>
			<time>2020-01-20T02:25:12.95Z</time>
		</trkpt>
		<trkpt lat="34.625551" lon="127.004345">
			<ele>0.00</ele>
			<time>2020-01-20T02:25:18.63Z</time>
		</trkpt>
		<trkpt lat="34.625736" lon="127.003062">
			<ele>0.00</ele>
			<time>2020-01-20T02:25:25.78Z</time>
		</trkpt>
		<trkpt lat="34.625895" lon="127.001952">
			<ele>0.00</ele>
			<time>2020-01-20T02:25:31.96Z</time>
		</trkpt>
		<trkpt lat="34.626095" lon="127.000703">
			<ele>0.00</ele>
			<time>2020-01-20T02:25:38.94Z</time>
		</trkpt>
		<trkpt lat="34.626282" lon="126.999431">
			<ele>0.00</ele>
			<time>2020-01-20T02:25:46.03Z</time>
		</trkpt>
		<trkpt lat="34.626474" lon="126.998163">
			<ele>0.00</ele>
			<time>2020-01-20T02:25:53.10Z</time>
		</trkpt>
		<trkpt lat="34.626617" lon="126.997164">
			<ele>0.00</ele>
			<time>2020-01-20T02:25:58.66Z</time>
		</trkpt>
		<trkpt lat="34.626797" lon="126.995920">
			<ele>0.00</ele>
			<time>2020-01-20T02:26:05.60Z</time>
		</trkpt>
		<trkpt lat="34.626959" lon="126.994914">
			<ele>0.00</ele>
			<time>2020-01-20T02:26:11.22Z</time>
		</trkpt>
		<trkpt lat="34.627023" lon="126.994438">
			<ele>0.00</ele>
			<time>2020-01-20T02:26:13.87Z</time>
		</trkpt>
		<trkpt lat="34.627139" lon="126.993680">
			<ele>0.00</ele>
			<time>2020-01-20T02:26:18.09Z</time>
		</trkpt>
		<trkpt lat="34.627154" lon="126.993543">
			<ele>0.00</ele>
			<time>2020-01-20T02:26:18.85Z</time>
		</trkpt>
		<trkpt lat="34.627171" lon="126.993468">
			<ele>0.00</ele>
			<time>2020-01-20T02:26:19.28Z</time>
		</trkpt>
		<trkpt lat="34.627199" lon="126.993443">
			<ele>0.00</ele>
			<time>2020-01-20T02:26:19.51Z</time>
		</trkpt>
		<trkpt lat="34.627249" lon="126.993430">
			<ele>0.00</ele>
			<time>2020-01-20T02:26:19.85Z</time>
		</trkpt>
		<trkpt lat="34.627305" lon="126.993422">
			<ele>0.00</ele>
			<time>2020-01-20T02:26:20.23Z</time>
		</trkpt>
		<trkpt lat="34.627386" lon="126.993430">
			<ele>0.00</ele>
			<time>2020-01-20T02:26:20.77Z</time>
		</trkpt>
		<trkpt lat="34.627421" lon="126.993449">
			<ele>0.00</ele>
			<time>2020-01-20T02:26:21.03Z</time>
		</trkpt>
		<trkpt lat="34.627458" lon="126.993469">
			<ele>0.00</ele>
			<time>2020-01-20T02:26:21.29Z</time>
		</trkpt>
		<trkpt lat="34.627691" lon="126.993412">
			<ele>0.00</ele>
			<time>2020-01-20T02:26:22.88Z</time>
		</trkpt>
		<trkpt lat="34.627749" lon="126.993611">
			<ele>0.00</ele>
			<time>2020-01-20T02:26:24.04Z</time>
		</trkpt>
		<trkpt lat="34.627760" lon="126.993614">
			<ele>0.00</ele>
			<time>2020-01-20T02:26:24.11Z</time>
		</trkpt>
		<trkpt lat="34.627921" lon="126.993551">
			<ele>0.00</ele>
			<time>2020-01-20T02:26:25.24Z</time>
		</trkpt>
		<trkpt lat="34.628589" lon="126.993318">
			<ele>0.00</ele>
			<time>2020-01-20T02:26:29.87Z</time>
		</trkpt>
		<trkpt lat="34.628793" lon="126.993193">
			<ele>0.00</ele>
			<time>2020-01-20T02:26:31.40Z</time>
		</trkpt>
		<trkpt lat="34.628902" lon="126.993117">
			<ele>0.00</ele>
			<time>2020-01-20T02:26:32.23Z</time>
		</trkpt>
		<trkpt lat="34.629013" lon="126.993068">
			<ele>0.00</ele>
			<time>2020-01-20T02:26:33.02Z</time>
		</trkpt>
		<trkpt lat="34.629156" lon="126.993016">
			<ele>0.00</ele>
			<time>2020-01-20T02:26:34.01Z</time>
		</trkpt>
		<trkpt lat="34.629260" lon="126.993013">
			<ele>0.00</ele>
			<time>2020-01-20T02:26:34.71Z</time>
		</trkpt>
		<trkpt lat="34.629356" lon="126.993007">
			<ele>0.00</ele>
			<time>2020-01-20T02:26:35.35Z</time>
		</trkpt>
		<trkpt lat="34.629412" lon="126.993004">
			<ele>0.00</ele>
			<time>2020-01-20T02:26:35.73Z</time>
		</trkpt>
		<trkpt lat="34.629458" lon="126.992988">
			<ele>0.00</ele>
			<time>2020-01-20T02:26:36.04Z</time>
		</trkpt>
		<trkpt lat="34.629474" lon="126.992932">
			<ele>0.00</ele>
			<time>2020-01-20T02:26:36.37Z</time>
		</trkpt>
		<trkpt lat="34.629486" lon="126.992868">
			<ele>0.00</ele>
			<time>2020-01-20T02:26:36.73Z</time>
		</trkpt>
		<trkpt lat="34.629484" lon="126.992805">
			<ele>0.00</ele>
			<time>2020-01-20T02:26:37.08Z</time>
		</trkpt>
		<trkpt lat="34.629475" lon="126.992786">
			<ele>0.00</ele>
			<time>2020-01-20T02:26:37.20Z</time>
		</trkpt>
		<trkpt lat="34.629470" lon="126.992776">
			<ele>0.00</ele>
			<time>2020-01-20T02:26:37.26Z</time>
		</trkpt>
		<trkpt lat="34.629461" lon="126.992770">
			<ele>0.00</ele>
			<time>2020-01-20T02:26:37.33Z</time>
		</trkpt>
		<trkpt lat="34.629456" lon="126.992768">
			<ele>0.00</ele>
			<time>2020-01-20T02:26:37.39Z</time>
		</trkpt>
		<trkpt lat="34.629386" lon="126.992750">
			<ele>0.00</ele>
			<time>2020-01-20T02:26:37.87Z</time>
		</trkpt>
		<trkpt lat="34.629266" lon="126.992746">
			<ele>0.00</ele>
			<time>2020-01-20T02:26:38.67Z</time>
		</trkpt>
		<trkpt lat="34.629141" lon="126.992720">
			<ele>0.00</ele>
			<time>2020-01-20T02:26:39.52Z</time>
		</trkpt>
		<trkpt lat="34.629059" lon="126.992681">
			<ele>0.00</ele>
			<time>2020-01-20T02:26:40.10Z</time>
		</trkpt>
		<trkpt lat="34.628971" lon="126.992623">
			<ele>0.00</ele>
			<time>2020-01-20T02:26:40.77Z</time>
		</trkpt>
		<trkpt lat="34.628878" lon="126.992573">
			<ele>0.00</ele>
			<time>2020-01-20T02:26:41.45Z</time>
		</trkpt>
		<trkpt lat="34.628824" lon="126.992530">
			<ele>0.00</ele>
			<time>2020-01-20T02:26:41.88Z</time>
		</trkpt>
		<trkpt lat="34.628777" lon="126.992455">
			<ele>0.00</ele>
			<time>2020-01-20T02:26:42.40Z</time>
		</trkpt>
		<trkpt lat="34.628741" lon="126.992368">
			<ele>0.00</ele>
			<time>2020-01-20T02:26:42.93Z</time>
		</trkpt>
		<trkpt lat="34.628678" lon="126.992284">
			<ele>0.00</ele>
			<time>2020-01-20T02:26:43.55Z</time>
		</trkpt>
		<trkpt lat="34.628600" lon="126.992197">
			<ele>0.00</ele>
			<time>2020-01-20T02:26:44.26Z</time>
		</trkpt>
		<trkpt lat="34.628524" lon="126.992120">
			<ele>0.00</ele>
			<time>2020-01-20T02:26:44.92Z</time>
		</trkpt>
		<trkpt lat="34.628468" lon="126.992049">
			<ele>0.00</ele>
			<time>2020-01-20T02:26:45.46Z</time>
		</trkpt>
		<trkpt lat="34.628384" lon="126.991915">
			<ele>0.00</ele>
			<time>2020-01-20T02:26:46.39Z</time>
		</trkpt>
		<trkpt lat="34.628311" lon="126.991794">
			<ele>0.00</ele>
			<time>2020-01-20T02:26:47.21Z</time>
		</trkpt>
		<trkpt lat="34.628254" lon="126.991724">
			<ele>0.00</ele>
			<time>2020-01-20T02:26:47.74Z</time>
		</trkpt>
		<trkpt lat="34.628135" lon="126.991571">
			<ele>0.00</ele>
			<time>2020-01-20T02:26:48.90Z</time>
		</trkpt>
		<trkpt lat="34.628081" lon="126.991471">
			<ele>0.00</ele>
			<time>2020-01-20T02:26:49.56Z</time>
		</trkpt>
		<trkpt lat="34.627994" lon="126.991425">
			<ele>0.00</ele>
			<time>2020-01-20T02:26:50.19Z</time>
		</trkpt>
		<trkpt lat="34.627876" lon="126.991328">
			<ele>0.00</ele>
			<time>2020-01-20T02:26:51.14Z</time>
		</trkpt>
		<trkpt lat="34.627759" lon="126.991201">
			<ele>0.00</ele>
			<time>2020-01-20T02:26:52.19Z</time>
		</trkpt>
		<trkpt lat="34.627654" lon="126.991089">
			<ele>0.00</ele>
			<time>2020-01-20T02:26:53.12Z</time>
		</trkpt>
		<trkpt lat="34.627581" lon="126.991009">
			<ele>0.00</ele>
			<time>2020-01-20T02:26:53.78Z</time>
		</trkpt>
		<trkpt lat="34.627415" lon="126.990906">
			<ele>0.00</ele>
			<time>2020-01-20T02:26:55.02Z</time>
		</trkpt>
		<trkpt lat="34.627278" lon="126.990813">
			<ele>0.00</ele>
			<time>2020-01-20T02:26:56.06Z</time>
		</trkpt>
		<trkpt lat="34.627277" lon="126.990810">
			<ele>0.00</ele>
			<time>2020-01-20T02:26:56.12Z</time>
		</trkpt>
		<trkpt lat="34.627146" lon="126.990730">
			<ele>0.00</ele>
			<time>2020-01-20T02:26:57.09Z</time>
		</trkpt>
		<trkpt lat="34.626980" lon="126.990586">
			<ele>0.00</ele>
			<time>2020-01-20T02:26:58.45Z</time>
		</trkpt>
		<trkpt lat="34.626896" lon="126.990517">
			<ele>0.00</ele>
			<time>2020-01-20T02:26:59.13Z</time>
		</trkpt>
		<trkpt lat="34.626918" lon="126.990441">
			<ele>0.00</ele>
			<time>2020-01-20T02:26:59.57Z</time>
		</trkpt>
		<trkpt lat="34.626937" lon="126.990357">
			<ele>0.00</ele>
			<time>2020-01-20T02:27:00.05Z</time>
		</trkpt>
		<trkpt lat="34.626933" lon="126.990239">
			<ele>0.00</ele>
			<time>2020-01-20T02:27:00.70Z</time>
		</trkpt>
		<trkpt lat="34.626938" lon="126.990121">
			<ele>0.00</ele>
			<time>2020-01-20T02:27:01.35Z</time>
		</trkpt>
		<trkpt lat="34.626939" lon="126.989957">
			<ele>0.00</ele>
			<time>2020-01-20T02:27:02.25Z</time>
		</trkpt>
		<trkpt lat="34.626946" lon="126.989691">
			<ele>0.00</ele>
			<time>2020-01-20T02:27:03.70Z</time>
		</trkpt>
		<trkpt lat="34.626956" lon="126.989519">
			<ele>0.00</ele>
			<time>2020-01-20T02:27:04.65Z</time>
		</trkpt>
		<trkpt lat="34.626984" lon="126.989364">
			<ele>0.00</ele>
			<time>2020-01-20T02:27:05.52Z</time>
		</trkpt>
		<trkpt lat="34.627013" lon="126.989312">
			<ele>0.00</ele>
			<time>2020-01-20T02:27:05.87Z</time>
		</trkpt>
		<trkpt lat="34.627071" lon="126.989260">
			<ele>0.00</ele>
			<time>2020-01-20T02:27:06.35Z</time>
		</trkpt>
		<trkpt lat="34.627207" lon="126.989105">
			<ele>0.00</ele>
			<time>2020-01-20T02:27:07.59Z</time>
		</trkpt>
		<trkpt lat="34.627401" lon="126.988928">
			<ele>0.00</ele>
			<time>2020-01-20T02:27:09.21Z</time>
		</trkpt>
		<trkpt lat="34.627791" lon="126.988555">
			<ele>0.00</ele>
			<time>2020-01-20T02:27:12.52Z</time>
		</trkpt>
		<trkpt lat="34.627848" lon="126.988483">
			<ele>0.00</ele>
			<time>2020-01-20T02:27:13.06Z</time>
		</trkpt>
		<trkpt lat="34.627831" lon="126.988430">
			<ele>0.00</ele>
			<time>2020-01-20T02:27:13.38Z</time>
		</trkpt>
		<trkpt lat="34.627794" lon="126.988297">
			<ele>0.00</ele>
			<time>2020-01-20T02:27:14.15Z</time>
		</trkpt>
		<trkpt lat="34.627681" lon="126.987833">
			<ele>0.00</ele>
			<time>2020-01-20T02:27:16.80Z</time>
		</trkpt>
		<trkpt lat="34.627577" lon="126.987458">
			<ele>0.00</ele>
			<time>2020-01-20T02:27:18.97Z</time>
		</trkpt>
		<trkpt lat="34.627481" lon="126.987131">
			<ele>0.00</ele>
			<time>2020-01-20T02:27:20.88Z</time>
		</trkpt>
		<trkpt lat="34.627443" lon="126.986994">
			<ele>0.00</ele>
			<time>2020-01-20T02:27:21.67Z</time>
		</trkpt>
		<trkpt lat="34.627420" lon="126.986831">
			<ele>0.00</ele>
			<time>2020-01-20T02:27:22.57Z</time>
		</trkpt>
		<trkpt lat="34.627418" lon="126.986683">
			<ele>0.00</ele>
			<time>2020-01-20T02:27:23.39Z</time>
		</trkpt>
		<trkpt lat="34.627417" lon="126.986538">
			<ele>0.00</ele>
			<time>2020-01-20T02:27:24.18Z</time>
		</trkpt>
		<trkpt lat="34.627439" lon="126.986408">
			<ele>0.00</ele>
			<time>2020-01-20T02:27:24.91Z</time>
		</trkpt>
		<trkpt lat="34.627466" lon="126.986325">
			<ele>0.00</ele>
			<time>2020-01-20T02:27:25.40Z</time>
		</trkpt>
		<trkpt lat="34.627476" lon="126.986196">
			<ele>0.00</ele>
			<time>2020-01-20T02:27:26.11Z</time>
		</trkpt>
		<trkpt lat="34.627448" lon="126.986046">
			<ele>0.00</ele>
			<time>2020-01-20T02:27:26.96Z</time>
		</trkpt>
		<trkpt lat="34.627391" lon="126.985873">
			<ele>0.00</ele>
			<time>2020-01-20T02:27:27.98Z</time>
		</trkpt>
		<trkpt lat="34.627359" lon="126.985714">
			<ele>0.00</ele>
			<time>2020-01-20T02:27:28.88Z</time>
		</trkpt>
		<trkpt lat="34.627352" lon="126.985606">
			<ele>0.00</ele>
			<time>2020-01-20T02:27:29.47Z</time>
		</trkpt>
		<trkpt lat="34.627368" lon="126.985555">
			<ele>0.00</ele>
			<time>2020-01-20T02:27:29.77Z</time>
		</trkpt>
		<trkpt lat="34.627411" lon="126.985454">
			<ele>0.00</ele>
			<time>2020-01-20T02:27:30.39Z</time>
		</trkpt>
		<trkpt lat="34.627523" lon="126.985252">
			<ele>0.00</ele>
			<time>2020-01-20T02:27:31.73Z</time>
		</trkpt>
		<trkpt lat="34.627603" lon="126.985113">
			<ele>0.00</ele>
			<time>2020-01-20T02:27:32.66Z</time>
		</trkpt>
		<trkpt lat="34.627641" lon="126.985007">
			<ele>0.00</ele>
			<time>2020-01-20T02:27:33.29Z</time>
		</trkpt>
		<trkpt lat="34.627693" lon="126.984880">
			<ele>0.00</ele>
			<time>2020-01-20T02:27:34.07Z</time>
		</trkpt>
		<trkpt lat="34.627732" lon="126.984808">
			<ele>0.00</ele>
			<time>2020-01-20T02:27:34.54Z</time>
		</trkpt>
		<trkpt lat="34.627805" lon="126.984692">
			<ele>0.00</ele>
			<time>2020-01-20T02:27:35.34Z</time>
		</trkpt>
		<trkpt lat="34.627877" lon="126.984618">
			<ele>0.00</ele>
			<time>2020-01-20T02:27:35.98Z</time>
		</trkpt>
		<trkpt lat="34.627975" lon="126.984504">
			<ele>0.00</ele>
			<time>2020-01-20T02:27:36.88Z</time>
		</trkpt>
		<trkpt lat="34.628022" lon="126.984432">
			<ele>0.00</ele>
			<time>2020-01-20T02:27:37.38Z</time>
		</trkpt>
		<trkpt lat="34.628033" lon="126.984392">
			<ele>0.00</ele>
			<time>2020-01-20T02:27:37.62Z</time>
		</trkpt>
		<trkpt lat="34.627992" lon="126.984002">
			<ele>0.00</ele>
			<time>2020-01-20T02:27:39.77Z</time>
		</trkpt>
		<trkpt lat="34.627990" lon="126.983909">
			<ele>0.00</ele>
			<time>2020-01-20T02:27:40.29Z</time>
		</trkpt>
		<trkpt lat="34.628029" lon="126.983841">
			<ele>0.00</ele>
			<time>2020-01-20T02:27:40.74Z</time>
		</trkpt>
		<trkpt lat="34.628050" lon="126.983784">
			<ele>0.00</ele>
			<time>2020-01-20T02:27:41.08Z</time>
		</trkpt>
		<trkpt lat="34.628048" lon="126.983758">
			<ele>0.00</ele>
			<time>2020-01-20T02:27:41.23Z</time>
		</trkpt>
		<trkpt lat="34.628041" lon="126.983721">
			<ele>0.00</ele>
			<time>2020-01-20T02:27:41.44Z</time>
		</trkpt>
		<trkpt lat="34.628034" lon="126.983686">
			<ele>0.00</ele>
			<time>2020-01-20T02:27:41.63Z</time>
		</trkpt>
		<trkpt lat="34.628029" lon="126.983663">
			<ele>0.00</ele>
			<time>2020-01-20T02:27:41.76Z</time>
		</trkpt>
		<trkpt lat="34.628027" lon="126.983646">
			<ele>0.00</ele>
			<time>2020-01-20T02:27:41.86Z</time>
		</trkpt>
		<trkpt lat="34.628027" lon="126.983634">
			<ele>0.00</ele>
			<time>2020-01-20T02:27:41.92Z</time>
		</trkpt>
		<trkpt lat="34.628027" lon="126.983617">
			<ele>0.00</ele>
			<time>2020-01-20T02:27:42.01Z</time>
		</trkpt>
		<trkpt lat="34.628027" lon="126.983606">
			<ele>0.00</ele>
			<time>2020-01-20T02:27:42.08Z</time>
		</trkpt>
		<trkpt lat="34.628027" lon="126.983600">
			<ele>0.00</ele>
			<time>2020-01-20T02:27:42.14Z</time>
		</trkpt>
		<trkpt lat="34.627989" lon="126.983473">
			<ele>0.00</ele>
			<time>2020-01-20T02:27:42.88Z</time>
		</trkpt>
		<trkpt lat="34.627973" lon="126.983217">
			<ele>0.00</ele>
			<time>2020-01-20T02:27:44.29Z</time>
		</trkpt>
		<trkpt lat="34.627952" lon="126.983036">
			<ele>0.00</ele>
			<time>2020-01-20T02:27:45.29Z</time>
		</trkpt>
		<trkpt lat="34.627888" lon="126.982571">
			<ele>0.00</ele>
			<time>2020-01-20T02:27:47.88Z</time>
		</trkpt>
		<trkpt lat="34.627722" lon="126.981088">
			<ele>0.00</ele>
			<time>2020-01-20T02:27:56.09Z</time>
		</trkpt>
		<trkpt lat="34.627659" lon="126.980428">
			<ele>0.00</ele>
			<time>2020-01-20T02:27:59.73Z</time>
		</trkpt>
		<trkpt lat="34.627610" lon="126.980059">
			<ele>0.00</ele>
			<time>2020-01-20T02:28:01.78Z</time>
		</trkpt>
		<trkpt lat="34.627539" lon="126.979425">
			<ele>0.00</ele>
			<time>2020-01-20T02:28:05.29Z</time>
		</trkpt>
		<trkpt lat="34.627486" lon="126.978942">
			<ele>0.00</ele>
			<time>2020-01-20T02:28:07.96Z</time>
		</trkpt>
		<trkpt lat="34.627429" lon="126.978683">
			<ele>0.00</ele>
			<time>2020-01-20T02:28:09.43Z</time>
		</trkpt>
		<trkpt lat="34.627420" lon="126.978210">
			<ele>0.00</ele>
			<time>2020-01-20T02:28:12.03Z</time>
		</trkpt>
		<trkpt lat="34.627298" lon="126.977396">
			<ele>0.00</ele>
			<time>2020-01-20T02:28:16.57Z</time>
		</trkpt>
		<trkpt lat="34.627218" lon="126.976872">
			<ele>0.00</ele>
			<time>2020-01-20T02:28:19.49Z</time>
		</trkpt>
		<trkpt lat="34.627152" lon="126.976280">
			<ele>0.00</ele>
			<time>2020-01-20T02:28:22.77Z</time>
		</trkpt>
		<trkpt lat="34.627102" lon="126.975809">
			<ele>0.00</ele>
			<time>2020-01-20T02:28:25.38Z</time>
		</trkpt>
		<trkpt lat="34.626995" lon="126.974828">
			<ele>0.00</ele>
			<time>2020-01-20T02:28:30.81Z</time>
		</trkpt>
		<trkpt lat="34.626929" lon="126.974103">
			<ele>0.00</ele>
			<time>2020-01-20T02:28:34.81Z</time>
		</trkpt>
		<trkpt lat="34.626798" lon="126.973325">
			<ele>0.00</ele>
			<time>2020-01-20T02:28:39.16Z</time>
		</trkpt>
		<trkpt lat="34.626657" lon="126.972344">
			<ele>0.00</ele>
			<time>2020-01-20T02:28:44.63Z</time>
		</trkpt>
		<trkpt lat="34.626617" lon="126.971900">
			<ele>0.00</ele>
			<time>2020-01-20T02:28:47.08Z</time>
		</trkpt>
		<trkpt lat="34.626572" lon="126.971285">
			<ele>0.00</ele>
			<time>2020-01-20T02:28:50.46Z</time>
		</trkpt>
		<trkpt lat="34.626550" lon="126.970901">
			<ele>0.00</ele>
			<time>2020-01-20T02:28:52.58Z</time>
		</trkpt>
		<trkpt lat="34.626548" lon="126.970604">
			<ele>0.00</ele>
			<time>2020-01-20T02:28:54.20Z</time>
		</trkpt>
		<trkpt lat="34.626571" lon="126.970288">
			<ele>0.00</ele>
			<time>2020-01-20T02:28:55.95Z</time>
		</trkpt>
		<trkpt lat="34.626614" lon="126.969983">
			<ele>0.00</ele>
			<time>2020-01-20T02:28:57.64Z</time>
		</trkpt>
		<trkpt lat="34.626676" lon="126.969686">
			<ele>0.00</ele>
			<time>2020-01-20T02:28:59.32Z</time>
		</trkpt>
		<trkpt lat="34.626748" lon="126.969331">
			<ele>0.00</ele>
			<time>2020-01-20T02:29:01.33Z</time>
		</trkpt>
		<trkpt lat="34.626880" lon="126.968848">
			<ele>0.00</ele>
			<time>2020-01-20T02:29:04.12Z</time>
		</trkpt>
		<trkpt lat="34.626875" lon="126.968837">
			<ele>0.00</ele>
			<time>2020-01-20T02:29:04.19Z</time>
		</trkpt>
		<trkpt lat="34.626820" lon="126.968847">
			<ele>0.00</ele>
			<time>2020-01-20T02:29:04.56Z</time>
		</trkpt>
		<trkpt lat="34.626727" lon="126.968807">
			<ele>0.00</ele>
			<time>2020-01-20T02:29:05.22Z</time>
		</trkpt>
		<trkpt lat="34.626579" lon="126.968700">
			<ele>0.00</ele>
			<time>2020-01-20T02:29:06.36Z</time>
		</trkpt>
		<trkpt lat="34.626407" lon="126.968555">
			<ele>0.00</ele>
			<time>2020-01-20T02:29:07.76Z</time>
		</trkpt>
		<trkpt lat="34.626194" lon="126.968369">
			<ele>0.00</ele>
			<time>2020-01-20T02:29:09.51Z</time>
		</trkpt>
		<trkpt lat="34.625921" lon="126.968126">
			<ele>0.00</ele>
			<time>2020-01-20T02:29:11.76Z</time>
		</trkpt>
		<trkpt lat="34.625678" lon="126.967885">
			<ele>0.00</ele>
			<time>2020-01-20T02:29:13.86Z</time>
		</trkpt>
		<trkpt lat="34.625496" lon="126.967707">
			<ele>0.00</ele>
			<time>2020-01-20T02:29:15.42Z</time>
		</trkpt>
		<trkpt lat="34.625364" lon="126.967569">
			<ele>0.00</ele>
			<time>2020-01-20T02:29:16.58Z</time>
		</trkpt>
		<trkpt lat="34.625309" lon="126.967480">
			<ele>0.00</ele>
			<time>2020-01-20T02:29:17.18Z</time>
		</trkpt>
		<trkpt lat="34.625284" lon="126.967364">
			<ele>0.00</ele>
			<time>2020-01-20T02:29:17.84Z</time>
		</trkpt>
		<trkpt lat="34.625290" lon="126.967267">
			<ele>0.00</ele>
			<time>2020-01-20T02:29:18.38Z</time>
		</trkpt>
		<trkpt lat="34.625315" lon="126.967165">
			<ele>0.00</ele>
			<time>2020-01-20T02:29:18.96Z</time>
		</trkpt>
		<trkpt lat="34.625389" lon="126.966829">
			<ele>0.00</ele>
			<time>2020-01-20T02:29:20.87Z</time>
		</trkpt>
		<trkpt lat="34.625501" lon="126.966352">
			<ele>0.00</ele>
			<time>2020-01-20T02:29:23.60Z</time>
		</trkpt>
		<trkpt lat="34.625695" lon="126.965421">
			<ele>0.00</ele>
			<time>2020-01-20T02:29:28.86Z</time>
		</trkpt>
		<trkpt lat="34.625912" lon="126.964542">
			<ele>0.00</ele>
			<time>2020-01-20T02:29:33.90Z</time>
		</trkpt>
		<trkpt lat="34.626024" lon="126.964188">
			<ele>0.00</ele>
			<time>2020-01-20T02:29:35.98Z</time>
		</trkpt>
		<trkpt lat="34.626121" lon="126.963951">
			<ele>0.00</ele>
			<time>2020-01-20T02:29:37.43Z</time>
		</trkpt>
		<trkpt lat="34.626233" lon="126.963736">
			<ele>0.00</ele>
			<time>2020-01-20T02:29:38.82Z</time>
		</trkpt>
		<trkpt lat="34.626364" lon="126.963525">
			<ele>0.00</ele>
			<time>2020-01-20T02:29:40.27Z</time>
		</trkpt>
		<trkpt lat="34.626580" lon="126.963210">
			<ele>0.00</ele>
			<time>2020-01-20T02:29:42.53Z</time>
		</trkpt>
		<trkpt lat="34.626741" lon="126.962981">
			<ele>0.00</ele>
			<time>2020-01-20T02:29:44.18Z</time>
		</trkpt>
		<trkpt lat="34.627076" lon="126.962494">
			<ele>0.00</ele>
			<time>2020-01-20T02:29:47.66Z</time>
		</trkpt>
		<trkpt lat="34.627139" lon="126.962432">
			<ele>0.00</ele>
			<time>2020-01-20T02:29:48.20Z</time>
		</trkpt>
		<trkpt lat="34.627237" lon="126.962342">
			<ele>0.00</ele>
			<time>2020-01-20T02:29:49.02Z</time>
		</trkpt>
		<trkpt lat="34.627366" lon="126.962245">
			<ele>0.00</ele>
			<time>2020-01-20T02:29:50.03Z</time>
		</trkpt>
		<trkpt lat="34.627740" lon="126.961981">
			<ele>0.00</ele>
			<time>2020-01-20T02:29:52.91Z</time>
		</trkpt>
		<trkpt lat="34.628297" lon="126.961588">
			<ele>0.00</ele>
			<time>2020-01-20T02:29:57.21Z</time>
		</trkpt>
		<trkpt lat="34.628823" lon="126.961207">
			<ele>0.00</ele>
			<time>2020-01-20T02:30:01.29Z</time>
		</trkpt>
		<trkpt lat="34.629188" lon="126.960956">
			<ele>0.00</ele>
			<time>2020-01-20T02:30:04.08Z</time>
		</trkpt>
		<trkpt lat="34.629252" lon="126.960915">
			<ele>0.00</ele>
			<time>2020-01-20T02:30:04.57Z</time>
		</trkpt>
		<trkpt lat="34.629312" lon="126.960911">
			<ele>0.00</ele>
			<time>2020-01-20T02:30:04.97Z</time>
		</trkpt>
		<trkpt lat="34.629367" lon="126.960868">
			<ele>0.00</ele>
			<time>2020-01-20T02:30:05.40Z</time>
		</trkpt>
		<trkpt lat="34.629412" lon="126.960799">
			<ele>0.00</ele>
			<time>2020-01-20T02:30:05.88Z</time>
		</trkpt>
		<trkpt lat="34.629427" lon="126.960754">
			<ele>0.00</ele>
			<time>2020-01-20T02:30:06.15Z</time>
		</trkpt>
		<trkpt lat="34.629439" lon="126.960733">
			<ele>0.00</ele>
			<time>2020-01-20T02:30:06.29Z</time>
		</trkpt>
		<trkpt lat="34.629439" lon="126.960717">
			<ele>0.00</ele>
			<time>2020-01-20T02:30:06.38Z</time>
		</trkpt>
		<trkpt lat="34.629443" lon="126.960519">
			<ele>0.00</ele>
			<time>2020-01-20T02:30:07.46Z</time>
		</trkpt>
		<trkpt lat="34.629446" lon="126.960377">
			<ele>0.00</ele>
			<time>2020-01-20T02:30:08.24Z</time>
		</trkpt>
		<trkpt lat="34.629474" lon="126.960309">
			<ele>0.00</ele>
			<time>2020-01-20T02:30:08.67Z</time>
		</trkpt>
		<trkpt lat="34.629541" lon="126.960226">
			<ele>0.00</ele>
			<time>2020-01-20T02:30:09.30Z</time>
		</trkpt>
		<trkpt lat="34.629583" lon="126.960186">
			<ele>0.00</ele>
			<time>2020-01-20T02:30:09.66Z</time>
		</trkpt>
		<trkpt lat="34.629881" lon="126.959694">
			<ele>0.00</ele>
			<time>2020-01-20T02:30:13.01Z</time>
		</trkpt>
		<trkpt lat="34.630570" lon="126.958585">
			<ele>0.00</ele>
			<time>2020-01-20T02:30:20.63Z</time>
		</trkpt>
		<trkpt lat="34.631150" lon="126.957686">
			<ele>0.00</ele>
			<time>2020-01-20T02:30:26.90Z</time>
		</trkpt>
		<trkpt lat="34.631493" lon="126.957119">
			<ele>0.00</ele>
			<time>2020-01-20T02:30:30.76Z</time>
		</trkpt>
		<trkpt lat="34.632021" lon="126.956264">
			<ele>0.00</ele>
			<time>2020-01-20T02:30:36.62Z</time>
		</trkpt>
		<trkpt lat="34.632228" lon="126.955939">
			<ele>0.00</ele>
			<time>2020-01-20T02:30:38.88Z</time>
		</trkpt>
		<trkpt lat="34.632266" lon="126.955906">
			<ele>0.00</ele>
			<time>2020-01-20T02:30:39.19Z</time>
		</trkpt>
		<trkpt lat="34.632311" lon="126.955876">
			<ele>0.00</ele>
			<time>2020-01-20T02:30:39.53Z</time>
		</trkpt>
		<trkpt lat="34.632353" lon="126.955868">
			<ele>0.00</ele>
			<time>2020-01-20T02:30:39.81Z</time>
		</trkpt>
		<trkpt lat="34.632367" lon="126.955853">
			<ele>0.00</ele>
			<time>2020-01-20T02:30:39.93Z</time>
		</trkpt>
		<trkpt lat="34.632376" lon="126.955848">
			<ele>0.00</ele>
			<time>2020-01-20T02:30:40Z</time>
		</trkpt>
		<trkpt lat="34.632706" lon="126.955764">
			<ele>0.00</ele>
			<time>2020-01-20T02:30:42.25Z</time>
		</trkpt>
		<trkpt lat="34.632950" lon="126.955707">
			<ele>0.00</ele>
			<time>2020-01-20T02:30:43.91Z</time>
		</trkpt>
		<trkpt lat="34.633279" lon="126.955356">
			<ele>0.00</ele>
			<time>2020-01-20T02:30:46.82Z</time>
		</trkpt>
		<trkpt lat="34.633103" lon="126.954704">
			<ele>0.00</ele>
			<time>2020-01-20T02:30:50.59Z</time>
		</trkpt>
		<trkpt lat="34.632984" lon="126.954041">
			<ele>0.00</ele>
			<time>2020-01-20T02:30:54.31Z</time>
		</trkpt>
		<trkpt lat="34.632981" lon="126.954035">
			<ele>0.00</ele>
			<time>2020-01-20T02:30:54.37Z</time>
		</trkpt>
		<trkpt lat="34.632864" lon="126.953949">
			<ele>0.00</ele>
			<time>2020-01-20T02:30:55.28Z</time>
		</trkpt>
		<trkpt lat="34.632647" lon="126.953787">
			<ele>0.00</ele>
			<time>2020-01-20T02:30:56.98Z</time>
		</trkpt>
		<trkpt lat="34.632432" lon="126.953620">
			<ele>0.00</ele>
			<time>2020-01-20T02:30:58.68Z</time>
		</trkpt>
		<trkpt lat="34.632215" lon="126.953430">
			<ele>0.00</ele>
			<time>2020-01-20T02:31:00.46Z</time>
		</trkpt>
		<trkpt lat="34.632114" lon="126.953321">
			<ele>0.00</ele>
			<time>2020-01-20T02:31:01.37Z</time>
		</trkpt>
		<trkpt lat="34.632046" lon="126.953239">
			<ele>0.00</ele>
			<time>2020-01-20T02:31:02Z</time>
		</trkpt>
		<trkpt lat="34.632015" lon="126.953133">
			<ele>0.00</ele>
			<time>2020-01-20T02:31:02.62Z</time>
		</trkpt>
		<trkpt lat="34.631985" lon="126.952978">
			<ele>0.00</ele>
			<time>2020-01-20T02:31:03.49Z</time>
		</trkpt>
		<trkpt lat="34.631959" lon="126.952706">
			<ele>0.00</ele>
			<time>2020-01-20T02:31:05Z</time>
		</trkpt>
		<extensions>
			<gte:name>#451</gte:name>
			<gte:color>#ffdde2</gte:color>
		</extensions>
	</trkseg>
</trk>
</gpx>