<?xml version="1.0" encoding="UTF-8"?>
<gpx version="1.1" creator="GPS Visualizer Sandbox https://www.gpsvisualizer.com/draw/" xmlns="http://www.topografix.com/GPX/1/1" xmlns:xsi="http://www.w3.org/2001/XMLSchema-instance" xsi:schemaLocation="http://www.topografix.com/GPX/1/1 http://www.topografix.com/GPX/1/1/gpx.xsd">
	<trk>
		<name>12코스 임진성길(44) (20201208) wp 간격조정</name>
		<desc>Length: 13.53 km (8.404 mi)</desc>
		<extensions>
			<line xmlns="http://www.topografix.com/GPX/gpx_style/0/2"><color>00ff00</color></line>
		</extensions>
		<trkseg>
			<trkpt lat="34.7675165" lon="127.847654"></trkpt>
			<trkpt lat="34.7674907" lon="127.8476274"></trkpt>
			<trkpt lat="34.7673103" lon="127.8477645"></trkpt>
			<trkpt lat="34.7671543" lon="127.8478506"></trkpt>
			<trkpt lat="34.7671003" lon="127.8479123"></trkpt>
			<trkpt lat="34.7670543" lon="127.8480903"></trkpt>
			<trkpt lat="34.7670588" lon="127.8481749"></trkpt>
			<trkpt lat="34.7669313" lon="127.8483514"></trkpt>
			<trkpt lat="34.7668146" lon="127.8484075"></trkpt>
			<trkpt lat="34.7667146" lon="127.8484049"></trkpt>
			<trkpt lat="34.7666605" lon="127.8484289"></trkpt>
			<trkpt lat="34.7665799" lon="127.8485378"></trkpt>
			<trkpt lat="34.7663771" lon="127.8486039"></trkpt>
			<trkpt lat="34.7661341" lon="127.8488416"></trkpt>
			<trkpt lat="34.7657817" lon="127.8490485"></trkpt>
			<trkpt lat="34.765231" lon="127.8492107"></trkpt>
			<trkpt lat="34.7648957" lon="127.8493668"></trkpt>
			<trkpt lat="34.7648857" lon="127.8494419"></trkpt>
			<trkpt lat="34.7649938" lon="127.8495214"></trkpt>
			<trkpt lat="34.7651236" lon="127.8496812"></trkpt>
			<trkpt lat="34.7651793" lon="127.8498524"></trkpt>
			<trkpt lat="34.7653085" lon="127.8501447"></trkpt>
			<trkpt lat="34.7653539" lon="127.8501984"></trkpt>
			<trkpt lat="34.7655375" lon="127.8502991"></trkpt>
			<trkpt lat="34.7656584" lon="127.8503399"></trkpt>
			<trkpt lat="34.7659375" lon="127.850353"></trkpt>
			<trkpt lat="34.7659358" lon="127.8504303"></trkpt>
			<trkpt lat="34.766039" lon="127.8504207"></trkpt>
			<trkpt lat="34.7661417" lon="127.8504518"></trkpt>
			<trkpt lat="34.7664917" lon="127.850632"></trkpt>
			<trkpt lat="34.7665653" lon="127.8507005"></trkpt>
			<trkpt lat="34.7666011" lon="127.8507894"></trkpt>
			<trkpt lat="34.7666066" lon="127.850856"></trkpt>
			<trkpt lat="34.7665499" lon="127.8513123"></trkpt>
			<trkpt lat="34.7667681" lon="127.8517468"></trkpt>
			<trkpt lat="34.7667808" lon="127.8518401"></trkpt>
			<trkpt lat="34.7667758" lon="127.8522403"></trkpt>
			<trkpt lat="34.7668555" lon="127.8524242"></trkpt>
			<trkpt lat="34.767062" lon="127.8527872"></trkpt>
			<trkpt lat="34.7672633" lon="127.8530758"></trkpt>
			<trkpt lat="34.7674192" lon="127.8532443"></trkpt>
			<trkpt lat="34.7676667" lon="127.8533932"></trkpt>
			<trkpt lat="34.7677115" lon="127.8534749"></trkpt>
			<trkpt lat="34.7677782" lon="127.8536676"></trkpt>
			<trkpt lat="34.767815" lon="127.8539749"></trkpt>
			<trkpt lat="34.767784" lon="127.8541769"></trkpt>
			<trkpt lat="34.7676925" lon="127.8543572"></trkpt>
			<trkpt lat="34.7676851" lon="127.8544826"></trkpt>
			<trkpt lat="34.7677192" lon="127.8547775"></trkpt>
			<trkpt lat="34.7677873" lon="127.8550876"></trkpt>
			<trkpt lat="34.7677577" lon="127.8552053"></trkpt>
			<trkpt lat="34.7676643" lon="127.8553205"></trkpt>
			<trkpt lat="34.7674872" lon="127.8554327"></trkpt>
			<trkpt lat="34.7673011" lon="127.8557289"></trkpt>
			<trkpt lat="34.7672569" lon="127.8558451"></trkpt>
			<trkpt lat="34.7672422" lon="127.8559468"></trkpt>
			<trkpt lat="34.7672546" lon="127.8562986"></trkpt>
			<trkpt lat="34.7673979" lon="127.8566446"></trkpt>
			<trkpt lat="34.7674216" lon="127.8568034"></trkpt>
			<trkpt lat="34.7675069" lon="127.8569546"></trkpt>
			<trkpt lat="34.7677737" lon="127.8571858"></trkpt>
			<trkpt lat="34.7679457" lon="127.85744"></trkpt>
			<trkpt lat="34.7679445" lon="127.8575237"></trkpt>
			<trkpt lat="34.7679072" lon="127.8576379"></trkpt>
			<trkpt lat="34.7677436" lon="127.8579122"></trkpt>
			<trkpt lat="34.7675768" lon="127.8581477"></trkpt>
			<trkpt lat="34.7673243" lon="127.8583933"></trkpt>
			<trkpt lat="34.7671879" lon="127.85843"></trkpt>
			<trkpt lat="34.7669885" lon="127.8586688"></trkpt>
			<trkpt lat="34.7668639" lon="127.8587217"></trkpt>
			<trkpt lat="34.7665019" lon="127.8587095"></trkpt>
			<trkpt lat="34.7662664" lon="127.8587422"></trkpt>
			<trkpt lat="34.7661494" lon="127.8587332"></trkpt>
			<trkpt lat="34.7659627" lon="127.8586327"></trkpt>
			<trkpt lat="34.7658049" lon="127.8585192"></trkpt>
			<trkpt lat="34.765537" lon="127.8585899"></trkpt>
			<trkpt lat="34.7654366" lon="127.8586353"></trkpt>
			<trkpt lat="34.7652487" lon="127.8587892"></trkpt>
			<trkpt lat="34.7651955" lon="127.8588668"></trkpt>
			<trkpt lat="34.765171" lon="127.8590067"></trkpt>
			<trkpt lat="34.765173" lon="127.8592675"></trkpt>
			<trkpt lat="34.7651992" lon="127.8594126"></trkpt>
			<trkpt lat="34.7653397" lon="127.859663"></trkpt>
			<trkpt lat="34.7655312" lon="127.8598012"></trkpt>
			<trkpt lat="34.7656986" lon="127.8598852"></trkpt>
			<trkpt lat="34.7659026" lon="127.8599205"></trkpt>
			<trkpt lat="34.7661152" lon="127.8598862"></trkpt>
			<trkpt lat="34.7662887" lon="127.8599255"></trkpt>
			<trkpt lat="34.7664386" lon="127.8599286"></trkpt>
			<trkpt lat="34.7665971" lon="127.8598235"></trkpt>
			<trkpt lat="34.7670253" lon="127.8596768"></trkpt>
			<trkpt lat="34.7671562" lon="127.8596948"></trkpt>
			<trkpt lat="34.7672742" lon="127.8596412"></trkpt>
			<trkpt lat="34.7677968" lon="127.8597279"></trkpt>
			<trkpt lat="34.7678938" lon="127.8597823"></trkpt>
			<trkpt lat="34.7682166" lon="127.8601356"></trkpt>
			<trkpt lat="34.7683231" lon="127.860497"></trkpt>
			<trkpt lat="34.7683844" lon="127.8606095"></trkpt>
			<trkpt lat="34.7684728" lon="127.8608367"></trkpt>
			<trkpt lat="34.7684957" lon="127.8609455"></trkpt>
			<trkpt lat="34.7685509" lon="127.8610526"></trkpt>
			<trkpt lat="34.7687091" lon="127.8612004"></trkpt>
			<trkpt lat="34.768764" lon="127.8612841"></trkpt>
			<trkpt lat="34.7688328" lon="127.8613169"></trkpt>
			<trkpt lat="34.7689819" lon="127.8612862"></trkpt>
			<trkpt lat="34.769084" lon="127.8612882"></trkpt>
			<trkpt lat="34.7691855" lon="127.8612373"></trkpt>
			<trkpt lat="34.7698916" lon="127.8611001"></trkpt>
			<trkpt lat="34.7699982" lon="127.8610322"></trkpt>
			<trkpt lat="34.7702284" lon="127.860772"></trkpt>
			<trkpt lat="34.7703553" lon="127.8606641"></trkpt>
			<trkpt lat="34.770524" lon="127.8605797"></trkpt>
			<trkpt lat="34.770776" lon="127.8604938"></trkpt>
			<trkpt lat="34.7709079" lon="127.8604919"></trkpt>
			<trkpt lat="34.7710132" lon="127.8605217"></trkpt>
			<trkpt lat="34.771729" lon="127.8610024"></trkpt>
			<trkpt lat="34.7719424" lon="127.8610877"></trkpt>
			<trkpt lat="34.7719802" lon="127.8608058"></trkpt>
			<trkpt lat="34.7720857" lon="127.860497"></trkpt>
			<trkpt lat="34.7721689" lon="127.8604886"></trkpt>
			<trkpt lat="34.7722424" lon="127.8605419"></trkpt>
			<trkpt lat="34.77251" lon="127.8604569"></trkpt>
			<trkpt lat="34.7726526" lon="127.860377"></trkpt>
			<trkpt lat="34.7728745" lon="127.8602881"></trkpt>
			<trkpt lat="34.7729261" lon="127.8600974"></trkpt>
			<trkpt lat="34.772975" lon="127.8598154"></trkpt>
			<trkpt lat="34.7730624" lon="127.8597263"></trkpt>
			<trkpt lat="34.7730496" lon="127.8595853"></trkpt>
			<trkpt lat="34.7730183" lon="127.8594975"></trkpt>
			<trkpt lat="34.7730992" lon="127.8593766"></trkpt>
			<trkpt lat="34.7732195" lon="127.8592827"></trkpt>
			<trkpt lat="34.7734548" lon="127.8590373"></trkpt>
			<trkpt lat="34.7734976" lon="127.8589657"></trkpt>
			<trkpt lat="34.7736596" lon="127.8589246"></trkpt>
			<trkpt lat="34.7737356" lon="127.8589516"></trkpt>
			<trkpt lat="34.7739999" lon="127.8591848"></trkpt>
			<trkpt lat="34.7741173" lon="127.8591553"></trkpt>
			<trkpt lat="34.7755921" lon="127.8582597"></trkpt>
			<trkpt lat="34.7758967" lon="127.858092"></trkpt>
			<trkpt lat="34.7760435" lon="127.8580331"></trkpt>
			<trkpt lat="34.7764419" lon="127.8579252"></trkpt>
			<trkpt lat="34.7769501" lon="127.8576167"></trkpt>
			<trkpt lat="34.7775381" lon="127.8576173"></trkpt>
			<trkpt lat="34.7778003" lon="127.857597"></trkpt>
			<trkpt lat="34.778824" lon="127.8576096"></trkpt>
			<trkpt lat="34.7788276" lon="127.857647"></trkpt>
			<trkpt lat="34.7786456" lon="127.8577569"></trkpt>
			<trkpt lat="34.7781871" lon="127.8583612"></trkpt>
			<trkpt lat="34.7780365" lon="127.8586688"></trkpt>
			<trkpt lat="34.7778464" lon="127.8589808"></trkpt>
			<trkpt lat="34.7777953" lon="127.8591165"></trkpt>
			<trkpt lat="34.7777817" lon="127.8592342"></trkpt>
			<trkpt lat="34.7777996" lon="127.8593291"></trkpt>
			<trkpt lat="34.777887" lon="127.8595419"></trkpt>
			<trkpt lat="34.7779877" lon="127.859695"></trkpt>
			<trkpt lat="34.7781172" lon="127.8599992"></trkpt>
			<trkpt lat="34.7781781" lon="127.8602687"></trkpt>
			<trkpt lat="34.7781896" lon="127.8604385"></trkpt>
			<trkpt lat="34.7781429" lon="127.8606215"></trkpt>
			<trkpt lat="34.778126" lon="127.860824"></trkpt>
			<trkpt lat="34.7781346" lon="127.860919"></trkpt>
			<trkpt lat="34.778166" lon="127.8610053"></trkpt>
			<trkpt lat="34.7782852" lon="127.8611747"></trkpt>
			<trkpt lat="34.7783242" lon="127.8612679"></trkpt>
			<trkpt lat="34.778323" lon="127.8616177"></trkpt>
			<trkpt lat="34.7783654" lon="127.8619112"></trkpt>
			<trkpt lat="34.7784641" lon="127.8621522"></trkpt>
			<trkpt lat="34.7785121" lon="127.8622151"></trkpt>
			<trkpt lat="34.7785865" lon="127.8624581"></trkpt>
			<trkpt lat="34.7786299" lon="127.8625453"></trkpt>
			<trkpt lat="34.7786403" lon="127.8626461"></trkpt>
			<trkpt lat="34.7786853" lon="127.862766"></trkpt>
			<trkpt lat="34.7788203" lon="127.8633897"></trkpt>
			<trkpt lat="34.7789993" lon="127.8632792"></trkpt>
			<trkpt lat="34.7790677" lon="127.8635033"></trkpt>
			<trkpt lat="34.7791338" lon="127.8639251"></trkpt>
			<trkpt lat="34.7792638" lon="127.8645187"></trkpt>
			<trkpt lat="34.7792746" lon="127.8646573"></trkpt>
			<trkpt lat="34.7793066" lon="127.8647188"></trkpt>
			<trkpt lat="34.7793257" lon="127.8649396"></trkpt>
			<trkpt lat="34.7793636" lon="127.8650607"></trkpt>
			<trkpt lat="34.7793983" lon="127.8653637"></trkpt>
			<trkpt lat="34.7793538" lon="127.8655131"></trkpt>
			<trkpt lat="34.7793753" lon="127.8655756"></trkpt>
			<trkpt lat="34.7793795" lon="127.865685"></trkpt>
			<trkpt lat="34.7794337" lon="127.8658924"></trkpt>
			<trkpt lat="34.7794133" lon="127.8660654"></trkpt>
			<trkpt lat="34.7793295" lon="127.8662217"></trkpt>
			<trkpt lat="34.7793199" lon="127.8663597"></trkpt>
			<trkpt lat="34.7794264" lon="127.8665203"></trkpt>
			<trkpt lat="34.7794248" lon="127.8666503"></trkpt>
			<trkpt lat="34.7794684" lon="127.8667257"></trkpt>
			<trkpt lat="34.7795583" lon="127.8668138"></trkpt>
			<trkpt lat="34.7796796" lon="127.8668593"></trkpt>
			<trkpt lat="34.7798739" lon="127.8668253"></trkpt>
			<trkpt lat="34.7799136" lon="127.8668426"></trkpt>
			<trkpt lat="34.7799876" lon="127.8669914"></trkpt>
			<trkpt lat="34.7800225" lon="127.8671106"></trkpt>
			<trkpt lat="34.780024" lon="127.8677817"></trkpt>
			<trkpt lat="34.7799585" lon="127.8679787"></trkpt>
			<trkpt lat="34.7799826" lon="127.8682418"></trkpt>
			<trkpt lat="34.7799598" lon="127.8691285"></trkpt>
			<trkpt lat="34.7799854" lon="127.8693877"></trkpt>
			<trkpt lat="34.7799642" lon="127.8695508"></trkpt>
			<trkpt lat="34.7800126" lon="127.8696532"></trkpt>
			<trkpt lat="34.7803047" lon="127.8699107"></trkpt>
			<trkpt lat="34.7804205" lon="127.8699715"></trkpt>
			<trkpt lat="34.7806514" lon="127.869988"></trkpt>
			<trkpt lat="34.7807333" lon="127.8699617"></trkpt>
			<trkpt lat="34.7808765" lon="127.8698296"></trkpt>
			<trkpt lat="34.7809146" lon="127.8697564"></trkpt>
			<trkpt lat="34.7809344" lon="127.8694253"></trkpt>
			<trkpt lat="34.7809935" lon="127.8693078"></trkpt>
			<trkpt lat="34.7810153" lon="127.8693059"></trkpt>
			<trkpt lat="34.781114" lon="127.8691005"></trkpt>
			<trkpt lat="34.7819044" lon="127.8690454"></trkpt>
			<trkpt lat="34.7822069" lon="127.8689874"></trkpt>
			<trkpt lat="34.7823894" lon="127.8690003"></trkpt>
			<trkpt lat="34.782703" lon="127.8690715"></trkpt>
			<trkpt lat="34.7831995" lon="127.8692208"></trkpt>
			<trkpt lat="34.7835858" lon="127.8692471"></trkpt>
			<trkpt lat="34.7839785" lon="127.869201"></trkpt>
			<trkpt lat="34.7843765" lon="127.8693079"></trkpt>
			<trkpt lat="34.784472" lon="127.8693016"></trkpt>
			<trkpt lat="34.7847894" lon="127.8691884"></trkpt>
			<trkpt lat="34.7848939" lon="127.8691776"></trkpt>
			<trkpt lat="34.7854716" lon="127.8693163"></trkpt>
			<trkpt lat="34.7857195" lon="127.8693477"></trkpt>
			<trkpt lat="34.7875154" lon="127.8696794"></trkpt>
			<trkpt lat="34.7875507" lon="127.8696495"></trkpt>
			<trkpt lat="34.7877899" lon="127.8696169"></trkpt>
			<trkpt lat="34.7889072" lon="127.8695855"></trkpt>
			<trkpt lat="34.7892058" lon="127.8695419"></trkpt>
			<trkpt lat="34.7897761" lon="127.8693555"></trkpt>
			<trkpt lat="34.7898557" lon="127.8693587"></trkpt>
			<trkpt lat="34.7905401" lon="127.8696209"></trkpt>
			<trkpt lat="34.7908498" lon="127.8696182"></trkpt>
			<trkpt lat="34.7912506" lon="127.8695508"></trkpt>
			<trkpt lat="34.7918844" lon="127.8693228"></trkpt>
			<trkpt lat="34.7920507" lon="127.869302"></trkpt>
			<trkpt lat="34.7921799" lon="127.869261"></trkpt>
			<trkpt lat="34.7923753" lon="127.869065"></trkpt>
			<trkpt lat="34.792467" lon="127.8690364"></trkpt>
			<trkpt lat="34.7927451" lon="127.869101"></trkpt>
			<trkpt lat="34.7929659" lon="127.86921"></trkpt>
			<trkpt lat="34.7931372" lon="127.8692031"></trkpt>
			<trkpt lat="34.7931952" lon="127.8691716"></trkpt>
			<trkpt lat="34.7932793" lon="127.8690578"></trkpt>
			<trkpt lat="34.7933316" lon="127.8689391"></trkpt>
			<trkpt lat="34.79353" lon="127.8687176"></trkpt>
			<trkpt lat="34.7937788" lon="127.8683161"></trkpt>
			<trkpt lat="34.7938977" lon="127.8681537"></trkpt>
			<trkpt lat="34.7939992" lon="127.8679726"></trkpt>
			<trkpt lat="34.7941451" lon="127.867827"></trkpt>
			<trkpt lat="34.794478" lon="127.8674379"></trkpt>
			<trkpt lat="34.7946077" lon="127.8674081"></trkpt>
			<trkpt lat="34.7952476" lon="127.8671742"></trkpt>
			<trkpt lat="34.7961449" lon="127.8670506"></trkpt>
			<trkpt lat="34.7962655" lon="127.8670714"></trkpt>
			<trkpt lat="34.7964578" lon="127.8671426"></trkpt>
			<trkpt lat="34.7971127" lon="127.8668077"></trkpt>
			<trkpt lat="34.7972381" lon="127.8665558"></trkpt>
			<trkpt lat="34.7972802" lon="127.8663455"></trkpt>
			<trkpt lat="34.7973549" lon="127.8661624"></trkpt>
			<trkpt lat="34.7973841" lon="127.8660189"></trkpt>
			<trkpt lat="34.7973623" lon="127.8658464"></trkpt>
			<trkpt lat="34.7974108" lon="127.8652862"></trkpt>
			<trkpt lat="34.7973777" lon="127.8649833"></trkpt>
			<trkpt lat="34.797439" lon="127.8646926"></trkpt>
			<trkpt lat="34.7974225" lon="127.864289"></trkpt>
			<trkpt lat="34.797307" lon="127.8642654"></trkpt>
			<trkpt lat="34.7972455" lon="127.8643298"></trkpt>
			<trkpt lat="34.7970472" lon="127.8647168"></trkpt>
			<trkpt lat="34.7969807" lon="127.8648111"></trkpt>
			<trkpt lat="34.7968594" lon="127.8649199"></trkpt>
			<trkpt lat="34.7968072" lon="127.8649415"></trkpt>
			<trkpt lat="34.7967768" lon="127.8648466"></trkpt>
			<trkpt lat="34.7967912" lon="127.8647283"></trkpt>
			<trkpt lat="34.7968797" lon="127.8644551"></trkpt>
			<trkpt lat="34.7968734" lon="127.8642064"></trkpt>
			<trkpt lat="34.7969121" lon="127.8638019"></trkpt>
			<trkpt lat="34.797084" lon="127.8632884"></trkpt>
			<trkpt lat="34.7972398" lon="127.8627178"></trkpt>
			<trkpt lat="34.7973665" lon="127.8624061"></trkpt>
			<trkpt lat="34.7973741" lon="127.8622342"></trkpt>
			<trkpt lat="34.7974437" lon="127.8619254"></trkpt>
			<trkpt lat="34.7974611" lon="127.8614284"></trkpt>
			<trkpt lat="34.7974927" lon="127.8612352"></trkpt>
			<trkpt lat="34.7976214" lon="127.8609449"></trkpt>
			<trkpt lat="34.7976428" lon="127.8607889"></trkpt>
			<trkpt lat="34.7975963" lon="127.8606409"></trkpt>
			<trkpt lat="34.7974606" lon="127.8604551"></trkpt>
			<trkpt lat="34.797258" lon="127.8603539"></trkpt>
			<trkpt lat="34.7970972" lon="127.8603625"></trkpt>
			<trkpt lat="34.7968318" lon="127.8604666"></trkpt>
			<trkpt lat="34.7965872" lon="127.8605106"></trkpt>
			<trkpt lat="34.7961273" lon="127.8605111"></trkpt>
			<trkpt lat="34.7958679" lon="127.8605572"></trkpt>
			<trkpt lat="34.7957437" lon="127.8606401"></trkpt>
			<trkpt lat="34.7957158" lon="127.8607059"></trkpt>
			<trkpt lat="34.7957079" lon="127.8608549"></trkpt>
			<trkpt lat="34.7957594" lon="127.8611069"></trkpt>
			<trkpt lat="34.7957601" lon="127.8612051"></trkpt>
			<trkpt lat="34.7956908" lon="127.8615332"></trkpt>
			<trkpt lat="34.7956469" lon="127.861617"></trkpt>
			<trkpt lat="34.7955405" lon="127.8616912"></trkpt>
			<trkpt lat="34.7949868" lon="127.8615558"></trkpt>
			<trkpt lat="34.7947241" lon="127.8614362"></trkpt>
			<trkpt lat="34.7945843" lon="127.8613263"></trkpt>
			<trkpt lat="34.7939134" lon="127.8605431"></trkpt>
			<trkpt lat="34.7936573" lon="127.8604101"></trkpt>
			<trkpt lat="34.7935636" lon="127.8604081"></trkpt>
			<trkpt lat="34.7934658" lon="127.8604433"></trkpt>
			<trkpt lat="34.7933788" lon="127.8605192"></trkpt>
			<trkpt lat="34.7933197" lon="127.8606526"></trkpt>
			<trkpt lat="34.7930916" lon="127.8610158"></trkpt>
			<trkpt lat="34.7929762" lon="127.8611151"></trkpt>
			<trkpt lat="34.7928231" lon="127.861193"></trkpt>
			<trkpt lat="34.7926622" lon="127.8611949"></trkpt>
			<trkpt lat="34.7925597" lon="127.8612487"></trkpt>
			<trkpt lat="34.792386" lon="127.8612894"></trkpt>
			<trkpt lat="34.7918657" lon="127.8616521"></trkpt>
			<trkpt lat="34.791657" lon="127.8618744"></trkpt>
			<trkpt lat="34.7914931" lon="127.8621315"></trkpt>
			<trkpt lat="34.7914403" lon="127.8621878"></trkpt>
			<trkpt lat="34.7913495" lon="127.8622109"></trkpt>
			<trkpt lat="34.7910776" lon="127.8622211"></trkpt>
			<trkpt lat="34.7910054" lon="127.8622464"></trkpt>
			<trkpt lat="34.7908536" lon="127.862347"></trkpt>
			<trkpt lat="34.7907608" lon="127.8623864"></trkpt>
			<trkpt lat="34.7905887" lon="127.8623871"></trkpt>
			<trkpt lat="34.7904998" lon="127.8623463"></trkpt>
			<trkpt lat="34.7902522" lon="127.8620386"></trkpt>
			<trkpt lat="34.7900688" lon="127.8618694"></trkpt>
			<trkpt lat="34.7898924" lon="127.8616295"></trkpt>
			<trkpt lat="34.7898669" lon="127.861514"></trkpt>
			<trkpt lat="34.7898355" lon="127.8614581"></trkpt>
			<trkpt lat="34.7897905" lon="127.8613034"></trkpt>
			<trkpt lat="34.789724" lon="127.8611961"></trkpt>
			<trkpt lat="34.789662" lon="127.8609834"></trkpt>
			<trkpt lat="34.789589" lon="127.8608402"></trkpt>
			<trkpt lat="34.7895712" lon="127.8607487"></trkpt>
			<trkpt lat="34.7895081" lon="127.8606357"></trkpt>
			<trkpt lat="34.7893082" lon="127.8603644"></trkpt>
			<trkpt lat="34.7891737" lon="127.8602495"></trkpt>
			<trkpt lat="34.7891162" lon="127.8601775"></trkpt>
			<trkpt lat="34.7890856" lon="127.8600939"></trkpt>
			<trkpt lat="34.7890938" lon="127.8599582"></trkpt>
			<trkpt lat="34.7891544" lon="127.8598929"></trkpt>
			<trkpt lat="34.7896043" lon="127.8596589"></trkpt>
			<trkpt lat="34.7897169" lon="127.859624"></trkpt>
			<trkpt lat="34.7901104" lon="127.8590994"></trkpt>
			<trkpt lat="34.7902743" lon="127.8588511"></trkpt>
			<trkpt lat="34.7903459" lon="127.8586377"></trkpt>
			<trkpt lat="34.7905075" lon="127.8583233"></trkpt>
			<trkpt lat="34.790669" lon="127.8581111"></trkpt>
			<trkpt lat="34.7907125" lon="127.8579588"></trkpt>
			<trkpt lat="34.7907309" lon="127.8577408"></trkpt>
			<trkpt lat="34.7906946" lon="127.8575947"></trkpt>
			<trkpt lat="34.790615" lon="127.8574302"></trkpt>
			<trkpt lat="34.7905151" lon="127.8571536"></trkpt>
			<trkpt lat="34.7904991" lon="127.8570324"></trkpt>
			<trkpt lat="34.790506" lon="127.856904"></trkpt>
			<trkpt lat="34.7905644" lon="127.8567757"></trkpt>
			<trkpt lat="34.7907832" lon="127.8565097"></trkpt>
			<trkpt lat="34.7908455" lon="127.8563739"></trkpt>
			<trkpt lat="34.7908541" lon="127.8562315"></trkpt>
			<trkpt lat="34.790831" lon="127.8559217"></trkpt>
			<trkpt lat="34.7908377" lon="127.8557392"></trkpt>
			<trkpt lat="34.7908954" lon="127.8556274"></trkpt>
			<trkpt lat="34.791072" lon="127.8554213"></trkpt>
			<trkpt lat="34.791184" lon="127.8553567"></trkpt>
			<trkpt lat="34.7916341" lon="127.8551777"></trkpt>
			<trkpt lat="34.7918411" lon="127.8550552"></trkpt>
			<trkpt lat="34.7918987" lon="127.8549842"></trkpt>
			<trkpt lat="34.7919214" lon="127.8546868"></trkpt>
			<trkpt lat="34.7918943" lon="127.8538356"></trkpt>
			<trkpt lat="34.7918413" lon="127.8535396"></trkpt>
			<trkpt lat="34.7918484" lon="127.8534624"></trkpt>
			<trkpt lat="34.791817" lon="127.8533446"></trkpt>
			<trkpt lat="34.7916468" lon="127.8530915"></trkpt>
			<trkpt lat="34.7915969" lon="127.8530497"></trkpt>
			<trkpt lat="34.7915854" lon="127.8528599"></trkpt>
			<trkpt lat="34.7916164" lon="127.8527269"></trkpt>
			<trkpt lat="34.7916949" lon="127.852583"></trkpt>
			<trkpt lat="34.7918074" lon="127.8524588"></trkpt>
			<trkpt lat="34.7919605" lon="127.852359"></trkpt>
			<trkpt lat="34.792211" lon="127.8522558"></trkpt>
			<trkpt lat="34.7923836" lon="127.8521282"></trkpt>
			<trkpt lat="34.7924723" lon="127.8519869"></trkpt>
			<trkpt lat="34.7925157" lon="127.851834"></trkpt>
			<trkpt lat="34.7925138" lon="127.8515302"></trkpt>
			<trkpt lat="34.7924744" lon="127.8508453"></trkpt>
			<trkpt lat="34.7924808" lon="127.8506576"></trkpt>
			<trkpt lat="34.7925266" lon="127.8505113"></trkpt>
			<trkpt lat="34.7927487" lon="127.850266"></trkpt>
			<trkpt lat="34.7929785" lon="127.8501496"></trkpt>
			<trkpt lat="34.7930306" lon="127.8499951"></trkpt>
			<trkpt lat="34.7930336" lon="127.8493098"></trkpt>
			<trkpt lat="34.7930721" lon="127.8489581"></trkpt>
			<trkpt lat="34.7931723" lon="127.8484282"></trkpt>
			<trkpt lat="34.7933084" lon="127.8480353"></trkpt>
			<trkpt lat="34.7933537" lon="127.8478495"></trkpt>
			<trkpt lat="34.793364" lon="127.8473746"></trkpt>
			<trkpt lat="34.7933415" lon="127.8470285"></trkpt>
			<trkpt lat="34.7934381" lon="127.8466904"></trkpt>
			<trkpt lat="34.793516" lon="127.846158"></trkpt>
			<trkpt lat="34.7933899" lon="127.8451724"></trkpt>
			<trkpt lat="34.7933526" lon="127.8450154"></trkpt>
			<trkpt lat="34.7933103" lon="127.8444291"></trkpt>
			<trkpt lat="34.7933425" lon="127.8437421"></trkpt>
			<trkpt lat="34.7933656" lon="127.843619"></trkpt>
			<trkpt lat="34.7934244" lon="127.8434576"></trkpt>
			<trkpt lat="34.7934563" lon="127.8434204"></trkpt>
			<trkpt lat="34.7934834" lon="127.8434162"></trkpt>
			<trkpt lat="34.7935047" lon="127.8435019"></trkpt>
			<trkpt lat="34.793493" lon="127.8439324"></trkpt>
			<trkpt lat="34.793506" lon="127.8440939"></trkpt>
			<trkpt lat="34.7937553" lon="127.8448861"></trkpt>
			<trkpt lat="34.7937657" lon="127.8450843"></trkpt>
			<trkpt lat="34.7940087" lon="127.845673"></trkpt>
			<trkpt lat="34.7941653" lon="127.8458644"></trkpt>
			<trkpt lat="34.794228" lon="127.8458604"></trkpt>
			<trkpt lat="34.7942578" lon="127.8458291"></trkpt>
			<trkpt lat="34.794332" lon="127.8456351"></trkpt>
			<trkpt lat="34.7943696" lon="127.8454084"></trkpt>
			<trkpt lat="34.7944786" lon="127.8452089"></trkpt>
			<trkpt lat="34.7945059" lon="127.8451106"></trkpt>
			<trkpt lat="34.7948304" lon="127.8445643"></trkpt>
			<trkpt lat="34.7950491" lon="127.8442578"></trkpt>
			<trkpt lat="34.7951456" lon="127.8439331"></trkpt>
			<trkpt lat="34.7952798" lon="127.843675"></trkpt>
			<trkpt lat="34.7953719" lon="127.8433461"></trkpt>
			<trkpt lat="34.7954869" lon="127.8432543"></trkpt>
			<trkpt lat="34.7957466" lon="127.8430942"></trkpt>
			<trkpt lat="34.796133" lon="127.8427751"></trkpt>
			<trkpt lat="34.7962772" lon="127.8426323"></trkpt>
			<trkpt lat="34.7964216" lon="127.8425529"></trkpt>
			<trkpt lat="34.7969682" lon="127.8423514"></trkpt>
			<trkpt lat="34.797424" lon="127.8422255"></trkpt>
			<trkpt lat="34.7976848" lon="127.8420587"></trkpt>
			<trkpt lat="34.7977722" lon="127.8419775"></trkpt>
			<trkpt lat="34.7978227" lon="127.8418413"></trkpt>
			<trkpt lat="34.7978412" lon="127.8416877"></trkpt>
			<trkpt lat="34.7979465" lon="127.8413475"></trkpt>
			<trkpt lat="34.7981738" lon="127.8404486"></trkpt>
			<trkpt lat="34.7981742" lon="127.8402192"></trkpt>
			<trkpt lat="34.7982122" lon="127.8399058"></trkpt>
			<trkpt lat="34.7982193" lon="127.8394569"></trkpt>
			<trkpt lat="34.7981923" lon="127.8392046"></trkpt>
			<trkpt lat="34.7981016" lon="127.8389637"></trkpt>
			<trkpt lat="34.7980354" lon="127.8386875"></trkpt>
			<trkpt lat="34.7982139" lon="127.8385162"></trkpt>
			<trkpt lat="34.7984356" lon="127.8387709"></trkpt>
			<trkpt lat="34.7987924" lon="127.8389348"></trkpt>
			<trkpt lat="34.7992382" lon="127.8389968"></trkpt>
			<trkpt lat="34.7992352" lon="127.8389011"></trkpt>
			<trkpt lat="34.7991997" lon="127.838811"></trkpt>
			<trkpt lat="34.7991575" lon="127.8385958"></trkpt>
			<trkpt lat="34.7991516" lon="127.8379793"></trkpt>
			<trkpt lat="34.7992314" lon="127.8376189"></trkpt>
			<trkpt lat="34.7992785" lon="127.8375096"></trkpt>
			<trkpt lat="34.7994434" lon="127.837451"></trkpt>
			<trkpt lat="34.7999862" lon="127.8371301"></trkpt>
			<trkpt lat="34.8002517" lon="127.8367425"></trkpt>
			<trkpt lat="34.8003192" lon="127.8365622"></trkpt>
			<trkpt lat="34.8003309" lon="127.8364278"></trkpt>
			<trkpt lat="34.8008377" lon="127.8361982"></trkpt>
			<trkpt lat="34.8014269" lon="127.8360648"></trkpt>
			<trkpt lat="34.8023832" lon="127.8357571"></trkpt>
			<trkpt lat="34.8027483" lon="127.8355787"></trkpt>
			<trkpt lat="34.8029059" lon="127.8354462"></trkpt>
			<trkpt lat="34.8030172" lon="127.8353252"></trkpt>
			<trkpt lat="34.8031221" lon="127.8351176"></trkpt>
			<trkpt lat="34.803289" lon="127.8349212"></trkpt>
			<trkpt lat="34.8035166" lon="127.83494"></trkpt>
			<trkpt lat="34.8036383" lon="127.8349747"></trkpt>
			<trkpt lat="34.8038495" lon="127.8349605"></trkpt>
			<trkpt lat="34.8039694" lon="127.8350832"></trkpt>
			<trkpt lat="34.8044186" lon="127.8350818"></trkpt>
			<trkpt lat="34.804968" lon="127.8349636"></trkpt>
			<trkpt lat="34.8055049" lon="127.8348801"></trkpt>
			<trkpt lat="34.8060742" lon="127.8347337"></trkpt>
			<trkpt lat="34.8063768" lon="127.8346878"></trkpt>
			<trkpt lat="34.8066287" lon="127.8347791"></trkpt>
			<trkpt lat="34.8067523" lon="127.8351252"></trkpt>
			<trkpt lat="34.8068133" lon="127.835551"></trkpt>
			<trkpt lat="34.8070421" lon="127.8364867"></trkpt>
			<trkpt lat="34.807102" lon="127.8365778"></trkpt>
			<trkpt lat="34.8072632" lon="127.8363399"></trkpt>
			<trkpt lat="34.8074576" lon="127.8361692"></trkpt>
			<trkpt lat="34.8077928" lon="127.8359241"></trkpt>
			<trkpt lat="34.8079907" lon="127.8357142"></trkpt>
			<trkpt lat="34.8080564" lon="127.8356188"></trkpt>
			<trkpt lat="34.8081087" lon="127.835466"></trkpt>
			<trkpt lat="34.8080607" lon="127.8351564"></trkpt>
			<trkpt lat="34.8079808" lon="127.8348106"></trkpt>
			<trkpt lat="34.8084826" lon="127.8346779"></trkpt>
			<trkpt lat="34.8085256" lon="127.8346494"></trkpt>
			<trkpt lat="34.8084788" lon="127.8344439"></trkpt>
		</trkseg>
	</trk>
</gpx>
