<?xml version="1.0" encoding="UTF-8"?>
<gpx version="1.1" creator="GPS Track Editor" xmlns="http://www.topografix.com/GPX/1/1" xmlns:xsi="http://www.w3.org/2001/XMLSchema-instance" xmlns:gte="http://www.gpstrackeditor.com/xmlschemas/General/1" xmlns:gpxtpx="http://www.garmin.com/xmlschemas/TrackPointExtension/v1" xmlns:gpxx="http://www.garmin.com/xmlschemas/GpxExtensions/v3" targetNamespace="http://www.topografix.com/GPX/1/1" elementFormDefault="qualified" xsi:schemaLocation="http://www.topografix.com/GPX/1/1 http://www.topografix.com/GPX/1/1/gpx.xsd">
<metadata>
	<name>GPS_2020-01-19_200436</name>
</metadata>
<trk>
	<name>059-여수시 소라면 관기리 창무신성교회 정류장~여수시 소라면 사곡리 궁항정류장</name>
	<trkseg>
		<trkpt lat="34.736317" lon="127.621004">
			<ele>0.00</ele>
			<time>2020-01-19T20:04:36.51Z</time>
		</trkpt>
		<trkpt lat="34.736410" lon="127.620771">
			<ele>0.00</ele>
			<time>2020-01-19T20:04:37.93Z</time>
		</trkpt>
		<trkpt lat="34.736521" lon="127.620526">
			<ele>0.00</ele>
			<time>2020-01-19T20:04:39.46Z</time>
		</trkpt>
		<trkpt lat="34.736684" lon="127.620191">
			<ele>0.00</ele>
			<time>2020-01-19T20:04:41.59Z</time>
		</trkpt>
		<trkpt lat="34.736874" lon="127.619964">
			<ele>0.00</ele>
			<time>2020-01-19T20:04:43.37Z</time>
		</trkpt>
		<trkpt lat="34.737050" lon="127.619834">
			<ele>0.00</ele>
			<time>2020-01-19T20:04:44.75Z</time>
		</trkpt>
		<trkpt lat="34.737348" lon="127.619828">
			<ele>0.00</ele>
			<time>2020-01-19T20:04:46.73Z</time>
		</trkpt>
		<trkpt lat="34.737645" lon="127.619670">
			<ele>0.00</ele>
			<time>2020-01-19T20:04:48.89Z</time>
		</trkpt>
		<trkpt lat="34.737938" lon="127.619540">
			<ele>0.00</ele>
			<time>2020-01-19T20:04:50.97Z</time>
		</trkpt>
		<trkpt lat="34.738108" lon="127.619460">
			<ele>0.00</ele>
			<time>2020-01-19T20:04:52.18Z</time>
		</trkpt>
		<trkpt lat="34.738259" lon="127.619420">
			<ele>0.00</ele>
			<time>2020-01-19T20:04:53.22Z</time>
		</trkpt>
		<trkpt lat="34.738332" lon="127.619435">
			<ele>0.00</ele>
			<time>2020-01-19T20:04:53.71Z</time>
		</trkpt>
		<trkpt lat="34.738317" lon="127.619568">
			<ele>0.00</ele>
			<time>2020-01-19T20:04:54.45Z</time>
		</trkpt>
		<trkpt lat="34.738303" lon="127.619676">
			<ele>0.00</ele>
			<time>2020-01-19T20:04:55.04Z</time>
		</trkpt>
		<trkpt lat="34.738590" lon="127.619699">
			<ele>0.00</ele>
			<time>2020-01-19T20:04:56.96Z</time>
		</trkpt>
		<trkpt lat="34.738879" lon="127.619719">
			<ele>0.00</ele>
			<time>2020-01-19T20:04:58.89Z</time>
		</trkpt>
		<trkpt lat="34.739221" lon="127.619716">
			<ele>0.00</ele>
			<time>2020-01-19T20:05:01.17Z</time>
		</trkpt>
		<trkpt lat="34.739553" lon="127.619677">
			<ele>0.00</ele>
			<time>2020-01-19T20:05:03.39Z</time>
		</trkpt>
		<trkpt lat="34.739844" lon="127.619673">
			<ele>0.00</ele>
			<time>2020-01-19T20:05:05.33Z</time>
		</trkpt>
		<trkpt lat="34.740037" lon="127.619665">
			<ele>0.00</ele>
			<time>2020-01-19T20:05:06.62Z</time>
		</trkpt>
		<trkpt lat="34.740254" lon="127.619680">
			<ele>0.00</ele>
			<time>2020-01-19T20:05:08.07Z</time>
		</trkpt>
		<trkpt lat="34.740328" lon="127.619229">
			<ele>0.00</ele>
			<time>2020-01-19T20:05:10.59Z</time>
		</trkpt>
		<trkpt lat="34.740454" lon="127.618721">
			<ele>0.00</ele>
			<time>2020-01-19T20:05:13.50Z</time>
		</trkpt>
		<trkpt lat="34.740534" lon="127.618275">
			<ele>0.00</ele>
			<time>2020-01-19T20:05:16Z</time>
		</trkpt>
		<trkpt lat="34.740738" lon="127.618522">
			<ele>0.00</ele>
			<time>2020-01-19T20:05:17.93Z</time>
		</trkpt>
		<trkpt lat="34.740897" lon="127.618701">
			<ele>0.00</ele>
			<time>2020-01-19T20:05:19.37Z</time>
		</trkpt>
		<trkpt lat="34.740984" lon="127.618099">
			<ele>0.00</ele>
			<time>2020-01-19T20:05:22.72Z</time>
		</trkpt>
		<trkpt lat="34.741014" lon="127.617642">
			<ele>0.00</ele>
			<time>2020-01-19T20:05:25.23Z</time>
		</trkpt>
		<trkpt lat="34.741020" lon="127.617264">
			<ele>0.00</ele>
			<time>2020-01-19T20:05:27.30Z</time>
		</trkpt>
		<trkpt lat="34.741069" lon="127.616931">
			<ele>0.00</ele>
			<time>2020-01-19T20:05:29.16Z</time>
		</trkpt>
		<trkpt lat="34.741096" lon="127.616560">
			<ele>0.00</ele>
			<time>2020-01-19T20:05:31.19Z</time>
		</trkpt>
		<trkpt lat="34.741124" lon="127.616186">
			<ele>0.00</ele>
			<time>2020-01-19T20:05:33.25Z</time>
		</trkpt>
		<trkpt lat="34.741172" lon="127.615844">
			<ele>0.00</ele>
			<time>2020-01-19T20:05:35.16Z</time>
		</trkpt>
		<trkpt lat="34.741214" lon="127.615530">
			<ele>0.00</ele>
			<time>2020-01-19T20:05:36.89Z</time>
		</trkpt>
		<trkpt lat="34.741319" lon="127.614933">
			<ele>0.00</ele>
			<time>2020-01-19T20:05:40.24Z</time>
		</trkpt>
		<trkpt lat="34.742183" lon="127.615132">
			<ele>0.00</ele>
			<time>2020-01-19T20:05:46.10Z</time>
		</trkpt>
		<trkpt lat="34.743135" lon="127.615294">
			<ele>0.00</ele>
			<time>2020-01-19T20:05:52.51Z</time>
		</trkpt>
		<trkpt lat="34.743500" lon="127.612657">
			<ele>0.00</ele>
			<time>2020-01-19T20:06:07.16Z</time>
		</trkpt>
		<trkpt lat="34.743616" lon="127.611198">
			<ele>0.00</ele>
			<time>2020-01-19T20:06:15.19Z</time>
		</trkpt>
		<trkpt lat="34.743703" lon="127.609893">
			<ele>0.00</ele>
			<time>2020-01-19T20:06:22.36Z</time>
		</trkpt>
		<trkpt lat="34.743820" lon="127.608858">
			<ele>0.00</ele>
			<time>2020-01-19T20:06:28.08Z</time>
		</trkpt>
		<trkpt lat="34.744538" lon="127.608909">
			<ele>0.00</ele>
			<time>2020-01-19T20:06:32.88Z</time>
		</trkpt>
		<trkpt lat="34.745095" lon="127.608997">
			<ele>0.00</ele>
			<time>2020-01-19T20:06:36.62Z</time>
		</trkpt>
		<trkpt lat="34.745754" lon="127.609106">
			<ele>0.00</ele>
			<time>2020-01-19T20:06:41.06Z</time>
		</trkpt>
		<trkpt lat="34.745431" lon="127.607268">
			<ele>0.00</ele>
			<time>2020-01-19T20:06:51.36Z</time>
		</trkpt>
		<trkpt lat="34.745064" lon="127.606003">
			<ele>0.00</ele>
			<time>2020-01-19T20:06:58.70Z</time>
		</trkpt>
		<trkpt lat="34.744858" lon="127.604808">
			<ele>0.00</ele>
			<time>2020-01-19T20:07:05.39Z</time>
		</trkpt>
		<trkpt lat="34.744755" lon="127.604166">
			<ele>0.00</ele>
			<time>2020-01-19T20:07:08.97Z</time>
		</trkpt>
		<trkpt lat="34.744711" lon="127.603650">
			<ele>0.00</ele>
			<time>2020-01-19T20:07:11.82Z</time>
		</trkpt>
		<trkpt lat="34.745033" lon="127.602883">
			<ele>0.00</ele>
			<time>2020-01-19T20:07:16.54Z</time>
		</trkpt>
		<trkpt lat="34.745399" lon="127.602008">
			<ele>0.00</ele>
			<time>2020-01-19T20:07:21.91Z</time>
		</trkpt>
		<trkpt lat="34.745808" lon="127.600884">
			<ele>0.00</ele>
			<time>2020-01-19T20:07:28.65Z</time>
		</trkpt>
		<trkpt lat="34.746291" lon="127.599814">
			<ele>0.00</ele>
			<time>2020-01-19T20:07:35.33Z</time>
		</trkpt>
		<trkpt lat="34.746788" lon="127.598744">
			<ele>0.00</ele>
			<time>2020-01-19T20:07:42.07Z</time>
		</trkpt>
		<trkpt lat="34.746938" lon="127.598369">
			<ele>0.00</ele>
			<time>2020-01-19T20:07:44.35Z</time>
		</trkpt>
		<trkpt lat="34.747114" lon="127.597934">
			<ele>0.00</ele>
			<time>2020-01-19T20:07:47.01Z</time>
		</trkpt>
		<trkpt lat="34.747248" lon="127.597723">
			<ele>0.00</ele>
			<time>2020-01-19T20:07:48.47Z</time>
		</trkpt>
		<trkpt lat="34.747102" lon="127.597520">
			<ele>0.00</ele>
			<time>2020-01-19T20:07:49.95Z</time>
		</trkpt>
		<trkpt lat="34.747102" lon="127.597265">
			<ele>0.00</ele>
			<time>2020-01-19T20:07:51.35Z</time>
		</trkpt>
		<trkpt lat="34.747074" lon="127.597058">
			<ele>0.00</ele>
			<time>2020-01-19T20:07:52.50Z</time>
		</trkpt>
		<trkpt lat="34.747108" lon="127.596919">
			<ele>0.00</ele>
			<time>2020-01-19T20:07:53.29Z</time>
		</trkpt>
		<trkpt lat="34.747254" lon="127.596759">
			<ele>0.00</ele>
			<time>2020-01-19T20:07:54.60Z</time>
		</trkpt>
		<trkpt lat="34.747338" lon="127.596627">
			<ele>0.00</ele>
			<time>2020-01-19T20:07:55.52Z</time>
		</trkpt>
		<trkpt lat="34.747389" lon="127.596454">
			<ele>0.00</ele>
			<time>2020-01-19T20:07:56.52Z</time>
		</trkpt>
		<trkpt lat="34.747355" lon="127.596269">
			<ele>0.00</ele>
			<time>2020-01-19T20:07:57.56Z</time>
		</trkpt>
		<trkpt lat="34.747306" lon="127.596104">
			<ele>0.00</ele>
			<time>2020-01-19T20:07:58.52Z</time>
		</trkpt>
		<trkpt lat="34.747464" lon="127.595856">
			<ele>0.00</ele>
			<time>2020-01-19T20:08:00.25Z</time>
		</trkpt>
		<trkpt lat="34.747572" lon="127.595724">
			<ele>0.00</ele>
			<time>2020-01-19T20:08:01.26Z</time>
		</trkpt>
		<trkpt lat="34.747612" lon="127.595497">
			<ele>0.00</ele>
			<time>2020-01-19T20:08:02.54Z</time>
		</trkpt>
		<trkpt lat="34.747719" lon="127.595351">
			<ele>0.00</ele>
			<time>2020-01-19T20:08:03.61Z</time>
		</trkpt>
		<trkpt lat="34.747808" lon="127.595116">
			<ele>0.00</ele>
			<time>2020-01-19T20:08:05.03Z</time>
		</trkpt>
		<trkpt lat="34.747972" lon="127.595009">
			<ele>0.00</ele>
			<time>2020-01-19T20:08:06.27Z</time>
		</trkpt>
		<trkpt lat="34.748203" lon="127.594992">
			<ele>0.00</ele>
			<time>2020-01-19T20:08:07.81Z</time>
		</trkpt>
		<trkpt lat="34.748425" lon="127.594464">
			<ele>0.00</ele>
			<time>2020-01-19T20:08:11.06Z</time>
		</trkpt>
		<trkpt lat="34.748721" lon="127.594138">
			<ele>0.00</ele>
			<time>2020-01-19T20:08:13.72Z</time>
		</trkpt>
		<trkpt lat="34.749100" lon="127.593774">
			<ele>0.00</ele>
			<time>2020-01-19T20:08:16.94Z</time>
		</trkpt>
		<trkpt lat="34.749486" lon="127.593383">
			<ele>0.00</ele>
			<time>2020-01-19T20:08:20.29Z</time>
		</trkpt>
		<trkpt lat="34.749866" lon="127.593143">
			<ele>0.00</ele>
			<time>2020-01-19T20:08:23.14Z</time>
		</trkpt>
		<trkpt lat="34.750179" lon="127.592905">
			<ele>0.00</ele>
			<time>2020-01-19T20:08:25.60Z</time>
		</trkpt>
		<trkpt lat="34.750340" lon="127.592718">
			<ele>0.00</ele>
			<time>2020-01-19T20:08:27.08Z</time>
		</trkpt>
		<trkpt lat="34.750508" lon="127.592479">
			<ele>0.00</ele>
			<time>2020-01-19T20:08:28.81Z</time>
		</trkpt>
		<trkpt lat="34.750597" lon="127.592171">
			<ele>0.00</ele>
			<time>2020-01-19T20:08:30.60Z</time>
		</trkpt>
		<trkpt lat="34.750597" lon="127.591885">
			<ele>0.00</ele>
			<time>2020-01-19T20:08:32.16Z</time>
		</trkpt>
		<trkpt lat="34.750653" lon="127.591592">
			<ele>0.00</ele>
			<time>2020-01-19T20:08:33.81Z</time>
		</trkpt>
		<trkpt lat="34.750856" lon="127.591264">
			<ele>0.00</ele>
			<time>2020-01-19T20:08:36.06Z</time>
		</trkpt>
		<trkpt lat="34.751059" lon="127.590996">
			<ele>0.00</ele>
			<time>2020-01-19T20:08:38.06Z</time>
		</trkpt>
		<trkpt lat="34.751316" lon="127.590867">
			<ele>0.00</ele>
			<time>2020-01-19T20:08:39.91Z</time>
		</trkpt>
		<trkpt lat="34.751666" lon="127.590902">
			<ele>0.00</ele>
			<time>2020-01-19T20:08:42.25Z</time>
		</trkpt>
		<trkpt lat="34.752087" lon="127.590956">
			<ele>0.00</ele>
			<time>2020-01-19T20:08:45.07Z</time>
		</trkpt>
		<trkpt lat="34.752395" lon="127.591016">
			<ele>0.00</ele>
			<time>2020-01-19T20:08:47.15Z</time>
		</trkpt>
		<trkpt lat="34.752675" lon="127.591057">
			<ele>0.00</ele>
			<time>2020-01-19T20:08:49.03Z</time>
		</trkpt>
		<trkpt lat="34.753020" lon="127.590986">
			<ele>0.00</ele>
			<time>2020-01-19T20:08:51.36Z</time>
		</trkpt>
		<trkpt lat="34.753356" lon="127.590772">
			<ele>0.00</ele>
			<time>2020-01-19T20:08:53.89Z</time>
		</trkpt>
		<trkpt lat="34.753696" lon="127.590438">
			<ele>0.00</ele>
			<time>2020-01-19T20:08:56.81Z</time>
		</trkpt>
		<trkpt lat="34.753992" lon="127.590166">
			<ele>0.00</ele>
			<time>2020-01-19T20:08:59.28Z</time>
		</trkpt>
		<trkpt lat="34.754235" lon="127.589923">
			<ele>0.00</ele>
			<time>2020-01-19T20:09:01.37Z</time>
		</trkpt>
		<trkpt lat="34.754467" lon="127.589754">
			<ele>0.00</ele>
			<time>2020-01-19T20:09:03.18Z</time>
		</trkpt>
		<trkpt lat="34.754724" lon="127.589612">
			<ele>0.00</ele>
			<time>2020-01-19T20:09:05.06Z</time>
		</trkpt>
		<trkpt lat="34.755067" lon="127.589796">
			<ele>0.00</ele>
			<time>2020-01-19T20:09:07.56Z</time>
		</trkpt>
		<trkpt lat="34.755237" lon="127.589865">
			<ele>0.00</ele>
			<time>2020-01-19T20:09:08.75Z</time>
		</trkpt>
		<trkpt lat="34.755512" lon="127.590038">
			<ele>0.00</ele>
			<time>2020-01-19T20:09:10.82Z</time>
		</trkpt>
		<trkpt lat="34.755880" lon="127.590288">
			<ele>0.00</ele>
			<time>2020-01-19T20:09:13.63Z</time>
		</trkpt>
		<trkpt lat="34.756038" lon="127.590402">
			<ele>0.00</ele>
			<time>2020-01-19T20:09:14.85Z</time>
		</trkpt>
		<trkpt lat="34.756188" lon="127.590436">
			<ele>0.00</ele>
			<time>2020-01-19T20:09:15.86Z</time>
		</trkpt>
		<trkpt lat="34.756286" lon="127.590605">
			<ele>0.00</ele>
			<time>2020-01-19T20:09:17Z</time>
		</trkpt>
		<trkpt lat="34.756360" lon="127.590850">
			<ele>0.00</ele>
			<time>2020-01-19T20:09:18.43Z</time>
		</trkpt>
		<trkpt lat="34.756470" lon="127.590979">
			<ele>0.00</ele>
			<time>2020-01-19T20:09:19.45Z</time>
		</trkpt>
		<trkpt lat="34.756680" lon="127.591072">
			<ele>0.00</ele>
			<time>2020-01-19T20:09:20.94Z</time>
		</trkpt>
		<trkpt lat="34.756765" lon="127.591354">
			<ele>0.00</ele>
			<time>2020-01-19T20:09:22.58Z</time>
		</trkpt>
		<trkpt lat="34.756866" lon="127.591496">
			<ele>0.00</ele>
			<time>2020-01-19T20:09:23.61Z</time>
		</trkpt>
		<trkpt lat="34.757101" lon="127.591503">
			<ele>0.00</ele>
			<time>2020-01-19T20:09:25.18Z</time>
		</trkpt>
		<trkpt lat="34.757177" lon="127.591422">
			<ele>0.00</ele>
			<time>2020-01-19T20:09:25.85Z</time>
		</trkpt>
		<trkpt lat="34.757252" lon="127.591227">
			<ele>0.00</ele>
			<time>2020-01-19T20:09:27.03Z</time>
		</trkpt>
		<trkpt lat="34.757459" lon="127.591064">
			<ele>0.00</ele>
			<time>2020-01-19T20:09:28.67Z</time>
		</trkpt>
		<trkpt lat="34.757544" lon="127.590912">
			<ele>0.00</ele>
			<time>2020-01-19T20:09:29.68Z</time>
		</trkpt>
		<trkpt lat="34.757697" lon="127.590796">
			<ele>0.00</ele>
			<time>2020-01-19T20:09:30.88Z</time>
		</trkpt>
		<trkpt lat="34.757878" lon="127.590634">
			<ele>0.00</ele>
			<time>2020-01-19T20:09:32.38Z</time>
		</trkpt>
		<trkpt lat="34.758171" lon="127.590264">
			<ele>0.00</ele>
			<time>2020-01-19T20:09:35.19Z</time>
		</trkpt>
		<trkpt lat="34.758459" lon="127.590056">
			<ele>0.00</ele>
			<time>2020-01-19T20:09:37.43Z</time>
		</trkpt>
		<trkpt lat="34.758804" lon="127.589874">
			<ele>0.00</ele>
			<time>2020-01-19T20:09:39.93Z</time>
		</trkpt>
		<trkpt lat="34.759094" lon="127.589742">
			<ele>0.00</ele>
			<time>2020-01-19T20:09:42Z</time>
		</trkpt>
		<trkpt lat="34.759332" lon="127.589864">
			<ele>0.00</ele>
			<time>2020-01-19T20:09:43.72Z</time>
		</trkpt>
		<trkpt lat="34.759453" lon="127.590128">
			<ele>0.00</ele>
			<time>2020-01-19T20:09:45.37Z</time>
		</trkpt>
		<trkpt lat="34.759619" lon="127.590216">
			<ele>0.00</ele>
			<time>2020-01-19T20:09:46.58Z</time>
		</trkpt>
		<trkpt lat="34.759927" lon="127.589953">
			<ele>0.00</ele>
			<time>2020-01-19T20:09:49.09Z</time>
		</trkpt>
		<trkpt lat="34.760090" lon="127.589791">
			<ele>0.00</ele>
			<time>2020-01-19T20:09:50.49Z</time>
		</trkpt>
		<trkpt lat="34.760363" lon="127.589812">
			<ele>0.00</ele>
			<time>2020-01-19T20:09:52.32Z</time>
		</trkpt>
		<trkpt lat="34.760554" lon="127.589734">
			<ele>0.00</ele>
			<time>2020-01-19T20:09:53.66Z</time>
		</trkpt>
		<trkpt lat="34.760769" lon="127.589686">
			<ele>0.00</ele>
			<time>2020-01-19T20:09:55.12Z</time>
		</trkpt>
		<trkpt lat="34.760906" lon="127.589800">
			<ele>0.00</ele>
			<time>2020-01-19T20:09:56.22Z</time>
		</trkpt>
		<trkpt lat="34.760997" lon="127.589944">
			<ele>0.00</ele>
			<time>2020-01-19T20:09:57.22Z</time>
		</trkpt>
		<trkpt lat="34.761043" lon="127.590061">
			<ele>0.00</ele>
			<time>2020-01-19T20:09:57.93Z</time>
		</trkpt>
		<trkpt lat="34.761043" lon="127.590215">
			<ele>0.00</ele>
			<time>2020-01-19T20:09:58.77Z</time>
		</trkpt>
		<trkpt lat="34.760972" lon="127.590424">
			<ele>0.00</ele>
			<time>2020-01-19T20:10:00.01Z</time>
		</trkpt>
		<trkpt lat="34.760838" lon="127.590605">
			<ele>0.00</ele>
			<time>2020-01-19T20:10:01.35Z</time>
		</trkpt>
		<trkpt lat="34.760779" lon="127.590762">
			<ele>0.00</ele>
			<time>2020-01-19T20:10:02.29Z</time>
		</trkpt>
		<trkpt lat="34.760838" lon="127.590870">
			<ele>0.00</ele>
			<time>2020-01-19T20:10:03Z</time>
		</trkpt>
		<trkpt lat="34.760867" lon="127.590964">
			<ele>0.00</ele>
			<time>2020-01-19T20:10:03.55Z</time>
		</trkpt>
		<trkpt lat="34.761045" lon="127.591002">
			<ele>0.00</ele>
			<time>2020-01-19T20:10:04.75Z</time>
		</trkpt>
		<trkpt lat="34.761248" lon="127.591057">
			<ele>0.00</ele>
			<time>2020-01-19T20:10:06.14Z</time>
		</trkpt>
		<trkpt lat="34.761394" lon="127.591113">
			<ele>0.00</ele>
			<time>2020-01-19T20:10:07.16Z</time>
		</trkpt>
		<trkpt lat="34.761518" lon="127.591160">
			<ele>0.00</ele>
			<time>2020-01-19T20:10:08.02Z</time>
		</trkpt>
		<trkpt lat="34.761621" lon="127.591146">
			<ele>0.00</ele>
			<time>2020-01-19T20:10:08.72Z</time>
		</trkpt>
		<trkpt lat="34.761679" lon="127.591091">
			<ele>0.00</ele>
			<time>2020-01-19T20:10:09.21Z</time>
		</trkpt>
		<trkpt lat="34.761686" lon="127.590946">
			<ele>0.00</ele>
			<time>2020-01-19T20:10:10Z</time>
		</trkpt>
		<trkpt lat="34.761640" lon="127.590840">
			<ele>0.00</ele>
			<time>2020-01-19T20:10:10.66Z</time>
		</trkpt>
		<trkpt lat="34.761482" lon="127.590758">
			<ele>0.00</ele>
			<time>2020-01-19T20:10:11.81Z</time>
		</trkpt>
		<trkpt lat="34.761376" lon="127.590740">
			<ele>0.00</ele>
			<time>2020-01-19T20:10:12.52Z</time>
		</trkpt>
		<trkpt lat="34.761223" lon="127.590702">
			<ele>0.00</ele>
			<time>2020-01-19T20:10:13.57Z</time>
		</trkpt>
		<trkpt lat="34.761142" lon="127.590659">
			<ele>0.00</ele>
			<time>2020-01-19T20:10:14.16Z</time>
		</trkpt>
		<trkpt lat="34.761150" lon="127.590549">
			<ele>0.00</ele>
			<time>2020-01-19T20:10:14.76Z</time>
		</trkpt>
		<trkpt lat="34.761224" lon="127.590473">
			<ele>0.00</ele>
			<time>2020-01-19T20:10:15.41Z</time>
		</trkpt>
		<trkpt lat="34.761353" lon="127.590415">
			<ele>0.00</ele>
			<time>2020-01-19T20:10:16.32Z</time>
		</trkpt>
		<trkpt lat="34.761475" lon="127.590393">
			<ele>0.00</ele>
			<time>2020-01-19T20:10:17.14Z</time>
		</trkpt>
		<trkpt lat="34.761644" lon="127.590320">
			<ele>0.00</ele>
			<time>2020-01-19T20:10:18.34Z</time>
		</trkpt>
		<trkpt lat="34.761753" lon="127.590203">
			<ele>0.00</ele>
			<time>2020-01-19T20:10:19.31Z</time>
		</trkpt>
		<trkpt lat="34.761779" lon="127.590111">
			<ele>0.00</ele>
			<time>2020-01-19T20:10:19.84Z</time>
		</trkpt>
		<trkpt lat="34.761914" lon="127.590035">
			<ele>0.00</ele>
			<time>2020-01-19T20:10:20.83Z</time>
		</trkpt>
		<trkpt lat="34.761982" lon="127.590061">
			<ele>0.00</ele>
			<time>2020-01-19T20:10:21.31Z</time>
		</trkpt>
		<trkpt lat="34.761995" lon="127.590130">
			<ele>0.00</ele>
			<time>2020-01-19T20:10:21.69Z</time>
		</trkpt>
		<trkpt lat="34.761990" lon="127.590220">
			<ele>0.00</ele>
			<time>2020-01-19T20:10:22.19Z</time>
		</trkpt>
		<trkpt lat="34.762050" lon="127.590240">
			<ele>0.00</ele>
			<time>2020-01-19T20:10:22.60Z</time>
		</trkpt>
		<trkpt lat="34.762145" lon="127.590225">
			<ele>0.00</ele>
			<time>2020-01-19T20:10:23.24Z</time>
		</trkpt>
		<trkpt lat="34.762229" lon="127.590101">
			<ele>0.00</ele>
			<time>2020-01-19T20:10:24.13Z</time>
		</trkpt>
		<trkpt lat="34.762341" lon="127.590041">
			<ele>0.00</ele>
			<time>2020-01-19T20:10:24.94Z</time>
		</trkpt>
		<trkpt lat="34.762409" lon="127.590038">
			<ele>0.00</ele>
			<time>2020-01-19T20:10:25.39Z</time>
		</trkpt>
		<trkpt lat="34.762536" lon="127.590063">
			<ele>0.00</ele>
			<time>2020-01-19T20:10:26.25Z</time>
		</trkpt>
		<trkpt lat="34.762656" lon="127.589999">
			<ele>0.00</ele>
			<time>2020-01-19T20:10:27.12Z</time>
		</trkpt>
		<trkpt lat="34.762780" lon="127.589992">
			<ele>0.00</ele>
			<time>2020-01-19T20:10:27.95Z</time>
		</trkpt>
		<trkpt lat="34.762889" lon="127.589875">
			<ele>0.00</ele>
			<time>2020-01-19T20:10:28.92Z</time>
		</trkpt>
		<trkpt lat="34.762926" lon="127.589735">
			<ele>0.00</ele>
			<time>2020-01-19T20:10:29.72Z</time>
		</trkpt>
		<trkpt lat="34.762926" lon="127.589558">
			<ele>0.00</ele>
			<time>2020-01-19T20:10:30.69Z</time>
		</trkpt>
		<trkpt lat="34.762970" lon="127.589443">
			<ele>0.00</ele>
			<time>2020-01-19T20:10:31.39Z</time>
		</trkpt>
		<trkpt lat="34.763122" lon="127.589314">
			<ele>0.00</ele>
			<time>2020-01-19T20:10:32.62Z</time>
		</trkpt>
		<trkpt lat="34.763281" lon="127.589265">
			<ele>0.00</ele>
			<time>2020-01-19T20:10:33.72Z</time>
		</trkpt>
		<trkpt lat="34.763439" lon="127.589249">
			<ele>0.00</ele>
			<time>2020-01-19T20:10:34.77Z</time>
		</trkpt>
		<trkpt lat="34.763606" lon="127.589231">
			<ele>0.00</ele>
			<time>2020-01-19T20:10:35.89Z</time>
		</trkpt>
		<trkpt lat="34.763788" lon="127.589228">
			<ele>0.00</ele>
			<time>2020-01-19T20:10:37.11Z</time>
		</trkpt>
		<trkpt lat="34.763884" lon="127.589254">
			<ele>0.00</ele>
			<time>2020-01-19T20:10:37.76Z</time>
		</trkpt>
		<trkpt lat="34.763973" lon="127.589235">
			<ele>0.00</ele>
			<time>2020-01-19T20:10:38.36Z</time>
		</trkpt>
		<trkpt lat="34.764018" lon="127.589092">
			<ele>0.00</ele>
			<time>2020-01-19T20:10:39.20Z</time>
		</trkpt>
		<trkpt lat="34.764265" lon="127.588961">
			<ele>0.00</ele>
			<time>2020-01-19T20:10:40.99Z</time>
		</trkpt>
		<trkpt lat="34.764524" lon="127.588798">
			<ele>0.00</ele>
			<time>2020-01-19T20:10:42.94Z</time>
		</trkpt>
		<trkpt lat="34.764715" lon="127.588680">
			<ele>0.00</ele>
			<time>2020-01-19T20:10:44.36Z</time>
		</trkpt>
		<trkpt lat="34.764870" lon="127.588584">
			<ele>0.00</ele>
			<time>2020-01-19T20:10:45.53Z</time>
		</trkpt>
		<trkpt lat="34.765092" lon="127.588440">
			<ele>0.00</ele>
			<time>2020-01-19T20:10:47.20Z</time>
		</trkpt>
		<trkpt lat="34.765296" lon="127.588302">
			<ele>0.00</ele>
			<time>2020-01-19T20:10:48.76Z</time>
		</trkpt>
		<trkpt lat="34.765543" lon="127.588127">
			<ele>0.00</ele>
			<time>2020-01-19T20:10:50.67Z</time>
		</trkpt>
		<trkpt lat="34.765844" lon="127.587939">
			<ele>0.00</ele>
			<time>2020-01-19T20:10:52.92Z</time>
		</trkpt>
		<trkpt lat="34.766126" lon="127.587731">
			<ele>0.00</ele>
			<time>2020-01-19T20:10:55.12Z</time>
		</trkpt>
		<trkpt lat="34.766383" lon="127.587578">
			<ele>0.00</ele>
			<time>2020-01-19T20:10:57.03Z</time>
		</trkpt>
		<trkpt lat="34.766641" lon="127.587388">
			<ele>0.00</ele>
			<time>2020-01-19T20:10:59.04Z</time>
		</trkpt>
		<trkpt lat="34.766866" lon="127.587237">
			<ele>0.00</ele>
			<time>2020-01-19T20:11:00.75Z</time>
		</trkpt>
		<trkpt lat="34.767086" lon="127.587080">
			<ele>0.00</ele>
			<time>2020-01-19T20:11:02.45Z</time>
		</trkpt>
		<trkpt lat="34.767209" lon="127.586988">
			<ele>0.00</ele>
			<time>2020-01-19T20:11:03.41Z</time>
		</trkpt>
		<trkpt lat="34.766818" lon="127.586499">
			<ele>0.00</ele>
			<time>2020-01-19T20:11:07.15Z</time>
		</trkpt>
		<trkpt lat="34.766502" lon="127.586161">
			<ele>0.00</ele>
			<time>2020-01-19T20:11:09.95Z</time>
		</trkpt>
		<trkpt lat="34.766295" lon="127.585920">
			<ele>0.00</ele>
			<time>2020-01-19T20:11:11.86Z</time>
		</trkpt>
		<trkpt lat="34.766728" lon="127.585678">
			<ele>0.00</ele>
			<time>2020-01-19T20:11:15.04Z</time>
		</trkpt>
		<trkpt lat="34.767075" lon="127.585510">
			<ele>0.00</ele>
			<time>2020-01-19T20:11:17.53Z</time>
		</trkpt>
		<trkpt lat="34.767340" lon="127.585325">
			<ele>0.00</ele>
			<time>2020-01-19T20:11:19.57Z</time>
		</trkpt>
		<trkpt lat="34.767455" lon="127.585233">
			<ele>0.00</ele>
			<time>2020-01-19T20:11:20.48Z</time>
		</trkpt>
		<trkpt lat="34.767361" lon="127.584989">
			<ele>0.00</ele>
			<time>2020-01-19T20:11:21.96Z</time>
		</trkpt>
		<trkpt lat="34.767421" lon="127.584734">
			<ele>0.00</ele>
			<time>2020-01-19T20:11:23.41Z</time>
		</trkpt>
		<trkpt lat="34.767558" lon="127.584463">
			<ele>0.00</ele>
			<time>2020-01-19T20:11:25.15Z</time>
		</trkpt>
		<trkpt lat="34.767659" lon="127.584164">
			<ele>0.00</ele>
			<time>2020-01-19T20:11:26.93Z</time>
		</trkpt>
		<trkpt lat="34.767696" lon="127.583971">
			<ele>0.00</ele>
			<time>2020-01-19T20:11:28.01Z</time>
		</trkpt>
		<trkpt lat="34.767760" lon="127.583652">
			<ele>0.00</ele>
			<time>2020-01-19T20:11:29.81Z</time>
		</trkpt>
		<trkpt lat="34.767884" lon="127.583322">
			<ele>0.00</ele>
			<time>2020-01-19T20:11:31.80Z</time>
		</trkpt>
		<trkpt lat="34.768092" lon="127.583282">
			<ele>0.00</ele>
			<time>2020-01-19T20:11:33.20Z</time>
		</trkpt>
		<trkpt lat="34.768275" lon="127.583447">
			<ele>0.00</ele>
			<time>2020-01-19T20:11:34.72Z</time>
		</trkpt>
		<trkpt lat="34.768450" lon="127.583649">
			<ele>0.00</ele>
			<time>2020-01-19T20:11:36.33Z</time>
		</trkpt>
		<trkpt lat="34.768663" lon="127.583520">
			<ele>0.00</ele>
			<time>2020-01-19T20:11:37.91Z</time>
		</trkpt>
		<trkpt lat="34.768872" lon="127.583253">
			<ele>0.00</ele>
			<time>2020-01-19T20:11:39.93Z</time>
		</trkpt>
		<trkpt lat="34.768963" lon="127.582803">
			<ele>0.00</ele>
			<time>2020-01-19T20:11:42.47Z</time>
		</trkpt>
		<trkpt lat="34.769025" lon="127.582468">
			<ele>0.00</ele>
			<time>2020-01-19T20:11:44.35Z</time>
		</trkpt>
		<trkpt lat="34.769058" lon="127.582112">
			<ele>0.00</ele>
			<time>2020-01-19T20:11:46.31Z</time>
		</trkpt>
		<trkpt lat="34.769063" lon="127.581712">
			<ele>0.00</ele>
			<time>2020-01-19T20:11:48.50Z</time>
		</trkpt>
		<trkpt lat="34.769027" lon="127.581543">
			<ele>0.00</ele>
			<time>2020-01-19T20:11:49.46Z</time>
		</trkpt>
		<trkpt lat="34.768774" lon="127.581448">
			<ele>0.00</ele>
			<time>2020-01-19T20:11:51.23Z</time>
		</trkpt>
		<trkpt lat="34.768394" lon="127.581315">
			<ele>0.00</ele>
			<time>2020-01-19T20:11:53.86Z</time>
		</trkpt>
		<trkpt lat="34.767831" lon="127.581132">
			<ele>0.00</ele>
			<time>2020-01-19T20:11:57.74Z</time>
		</trkpt>
		<trkpt lat="34.767546" lon="127.581077">
			<ele>0.00</ele>
			<time>2020-01-19T20:11:59.67Z</time>
		</trkpt>
		<trkpt lat="34.767340" lon="127.581105">
			<ele>0.00</ele>
			<time>2020-01-19T20:12:01.05Z</time>
		</trkpt>
		<trkpt lat="34.767051" lon="127.581199">
			<ele>0.00</ele>
			<time>2020-01-19T20:12:03.04Z</time>
		</trkpt>
		<trkpt lat="34.766472" lon="127.581167">
			<ele>0.00</ele>
			<time>2020-01-19T20:12:06.91Z</time>
		</trkpt>
		<trkpt lat="34.766018" lon="127.581112">
			<ele>0.00</ele>
			<time>2020-01-19T20:12:09.95Z</time>
		</trkpt>
		<trkpt lat="34.765581" lon="127.581050">
			<ele>0.00</ele>
			<time>2020-01-19T20:12:12.88Z</time>
		</trkpt>
		<trkpt lat="34.765340" lon="127.580977">
			<ele>0.00</ele>
			<time>2020-01-19T20:12:14.54Z</time>
		</trkpt>
		<trkpt lat="34.765030" lon="127.580797">
			<ele>0.00</ele>
			<time>2020-01-19T20:12:16.83Z</time>
		</trkpt>
		<trkpt lat="34.764755" lon="127.580461">
			<ele>0.00</ele>
			<time>2020-01-19T20:12:19.42Z</time>
		</trkpt>
		<trkpt lat="34.764479" lon="127.580187">
			<ele>0.00</ele>
			<time>2020-01-19T20:12:21.80Z</time>
		</trkpt>
		<trkpt lat="34.764296" lon="127.580074">
			<ele>0.00</ele>
			<time>2020-01-19T20:12:23.17Z</time>
		</trkpt>
		<trkpt lat="34.763965" lon="127.580017">
			<ele>0.00</ele>
			<time>2020-01-19T20:12:25.40Z</time>
		</trkpt>
		<trkpt lat="34.763569" lon="127.579921">
			<ele>0.00</ele>
			<time>2020-01-19T20:12:28.09Z</time>
		</trkpt>
		<trkpt lat="34.763217" lon="127.579849">
			<ele>0.00</ele>
			<time>2020-01-19T20:12:30.47Z</time>
		</trkpt>
		<trkpt lat="34.762928" lon="127.579727">
			<ele>0.00</ele>
			<time>2020-01-19T20:12:32.51Z</time>
		</trkpt>
		<trkpt lat="34.762497" lon="127.579553">
			<ele>0.00</ele>
			<time>2020-01-19T20:12:35.54Z</time>
		</trkpt>
		<trkpt lat="34.762246" lon="127.579523">
			<ele>0.00</ele>
			<time>2020-01-19T20:12:37.22Z</time>
		</trkpt>
		<trkpt lat="34.761892" lon="127.579444">
			<ele>0.00</ele>
			<time>2020-01-19T20:12:39.62Z</time>
		</trkpt>
		<trkpt lat="34.761587" lon="127.579298">
			<ele>0.00</ele>
			<time>2020-01-19T20:12:41.80Z</time>
		</trkpt>
		<trkpt lat="34.761388" lon="127.579093">
			<ele>0.00</ele>
			<time>2020-01-19T20:12:43.54Z</time>
		</trkpt>
		<trkpt lat="34.761211" lon="127.579059">
			<ele>0.00</ele>
			<time>2020-01-19T20:12:44.74Z</time>
		</trkpt>
		<trkpt lat="34.761071" lon="127.578990">
			<ele>0.00</ele>
			<time>2020-01-19T20:12:45.75Z</time>
		</trkpt>
		<trkpt lat="34.761109" lon="127.578679">
			<ele>0.00</ele>
			<time>2020-01-19T20:12:47.47Z</time>
		</trkpt>
		<trkpt lat="34.761328" lon="127.578424">
			<ele>0.00</ele>
			<time>2020-01-19T20:12:49.49Z</time>
		</trkpt>
		<trkpt lat="34.761505" lon="127.578119">
			<ele>0.00</ele>
			<time>2020-01-19T20:12:51.53Z</time>
		</trkpt>
		<trkpt lat="34.761449" lon="127.577678">
			<ele>0.00</ele>
			<time>2020-01-19T20:12:53.97Z</time>
		</trkpt>
		<trkpt lat="34.761416" lon="127.577092">
			<ele>0.00</ele>
			<time>2020-01-19T20:12:57.19Z</time>
		</trkpt>
		<trkpt lat="34.761416" lon="127.576818">
			<ele>0.00</ele>
			<time>2020-01-19T20:12:58.69Z</time>
		</trkpt>
		<trkpt lat="34.761466" lon="127.576382">
			<ele>0.00</ele>
			<time>2020-01-19T20:13:01.10Z</time>
		</trkpt>
		<trkpt lat="34.761489" lon="127.576147">
			<ele>0.00</ele>
			<time>2020-01-19T20:13:02.40Z</time>
		</trkpt>
		<trkpt lat="34.761429" lon="127.575842">
			<ele>0.00</ele>
			<time>2020-01-19T20:13:04.12Z</time>
		</trkpt>
		<trkpt lat="34.761323" lon="127.575461">
			<ele>0.00</ele>
			<time>2020-01-19T20:13:06.32Z</time>
		</trkpt>
		<trkpt lat="34.761157" lon="127.575216">
			<ele>0.00</ele>
			<time>2020-01-19T20:13:08.06Z</time>
		</trkpt>
		<trkpt lat="34.760865" lon="127.575097">
			<ele>0.00</ele>
			<time>2020-01-19T20:13:10.11Z</time>
		</trkpt>
		<trkpt lat="34.760580" lon="127.575152">
			<ele>0.00</ele>
			<time>2020-01-19T20:13:12.03Z</time>
		</trkpt>
		<trkpt lat="34.760293" lon="127.575204">
			<ele>0.00</ele>
			<time>2020-01-19T20:13:13.97Z</time>
		</trkpt>
		<trkpt lat="34.760143" lon="127.574982">
			<ele>0.00</ele>
			<time>2020-01-19T20:13:15.54Z</time>
		</trkpt>
		<trkpt lat="34.760071" lon="127.574694">
			<ele>0.00</ele>
			<time>2020-01-19T20:13:17.19Z</time>
		</trkpt>
		<trkpt lat="34.760206" lon="127.574440">
			<ele>0.00</ele>
			<time>2020-01-19T20:13:18.85Z</time>
		</trkpt>
		<trkpt lat="34.760294" lon="127.574153">
			<ele>0.00</ele>
			<time>2020-01-19T20:13:20.52Z</time>
		</trkpt>
		<trkpt lat="34.760331" lon="127.573861">
			<ele>0.00</ele>
			<time>2020-01-19T20:13:22.14Z</time>
		</trkpt>
		<trkpt lat="34.760340" lon="127.573610">
			<ele>0.00</ele>
			<time>2020-01-19T20:13:23.52Z</time>
		</trkpt>
		<trkpt lat="34.760281" lon="127.573325">
			<ele>0.00</ele>
			<time>2020-01-19T20:13:25.13Z</time>
		</trkpt>
		<trkpt lat="34.760172" lon="127.572978">
			<ele>0.00</ele>
			<time>2020-01-19T20:13:27.17Z</time>
		</trkpt>
		<trkpt lat="34.760224" lon="127.572638">
			<ele>0.00</ele>
			<time>2020-01-19T20:13:29.06Z</time>
		</trkpt>
		<trkpt lat="34.760307" lon="127.572443">
			<ele>0.00</ele>
			<time>2020-01-19T20:13:30.26Z</time>
		</trkpt>
		<trkpt lat="34.760497" lon="127.572267">
			<ele>0.00</ele>
			<time>2020-01-19T20:13:31.86Z</time>
		</trkpt>
		<trkpt lat="34.760838" lon="127.572154">
			<ele>0.00</ele>
			<time>2020-01-19T20:13:34.21Z</time>
		</trkpt>
		<trkpt lat="34.761185" lon="127.572049">
			<ele>0.00</ele>
			<time>2020-01-19T20:13:36.59Z</time>
		</trkpt>
		<trkpt lat="34.761548" lon="127.572030">
			<ele>0.00</ele>
			<time>2020-01-19T20:13:39.02Z</time>
		</trkpt>
		<trkpt lat="34.761706" lon="127.572092">
			<ele>0.00</ele>
			<time>2020-01-19T20:13:40.12Z</time>
		</trkpt>
		<trkpt lat="34.761835" lon="127.572314">
			<ele>0.00</ele>
			<time>2020-01-19T20:13:41.61Z</time>
		</trkpt>
		<trkpt lat="34.762015" lon="127.572601">
			<ele>0.00</ele>
			<time>2020-01-19T20:13:43.59Z</time>
		</trkpt>
		<trkpt lat="34.762219" lon="127.572835">
			<ele>0.00</ele>
			<time>2020-01-19T20:13:45.46Z</time>
		</trkpt>
		<trkpt lat="34.762643" lon="127.573120">
			<ele>0.00</ele>
			<time>2020-01-19T20:13:48.68Z</time>
		</trkpt>
		<trkpt lat="34.763054" lon="127.573354">
			<ele>0.00</ele>
			<time>2020-01-19T20:13:51.71Z</time>
		</trkpt>
		<trkpt lat="34.763393" lon="127.573509">
			<ele>0.00</ele>
			<time>2020-01-19T20:13:54.12Z</time>
		</trkpt>
		<trkpt lat="34.763647" lon="127.573665">
			<ele>0.00</ele>
			<time>2020-01-19T20:13:56.02Z</time>
		</trkpt>
		<trkpt lat="34.764010" lon="127.573842">
			<ele>0.00</ele>
			<time>2020-01-19T20:13:58.63Z</time>
		</trkpt>
		<trkpt lat="34.764318" lon="127.573925">
			<ele>0.00</ele>
			<time>2020-01-19T20:14:00.73Z</time>
		</trkpt>
		<trkpt lat="34.764645" lon="127.574093">
			<ele>0.00</ele>
			<time>2020-01-19T20:14:03.10Z</time>
		</trkpt>
		<trkpt lat="34.765070" lon="127.573800">
			<ele>0.00</ele>
			<time>2020-01-19T20:14:06.35Z</time>
		</trkpt>
		<trkpt lat="34.765495" lon="127.573636">
			<ele>0.00</ele>
			<time>2020-01-19T20:14:09.32Z</time>
		</trkpt>
		<trkpt lat="34.765939" lon="127.573410">
			<ele>0.00</ele>
			<time>2020-01-19T20:14:12.54Z</time>
		</trkpt>
		<trkpt lat="34.766215" lon="127.573329">
			<ele>0.00</ele>
			<time>2020-01-19T20:14:14.43Z</time>
		</trkpt>
		<trkpt lat="34.766362" lon="127.573420">
			<ele>0.00</ele>
			<time>2020-01-19T20:14:15.52Z</time>
		</trkpt>
		<trkpt lat="34.766521" lon="127.573550">
			<ele>0.00</ele>
			<time>2020-01-19T20:14:16.80Z</time>
		</trkpt>
		<trkpt lat="34.766788" lon="127.573796">
			<ele>0.00</ele>
			<time>2020-01-19T20:14:19.04Z</time>
		</trkpt>
		<trkpt lat="34.767048" lon="127.574014">
			<ele>0.00</ele>
			<time>2020-01-19T20:14:21.14Z</time>
		</trkpt>
		<trkpt lat="34.767379" lon="127.574197">
			<ele>0.00</ele>
			<time>2020-01-19T20:14:23.56Z</time>
		</trkpt>
		<trkpt lat="34.767613" lon="127.574379">
			<ele>0.00</ele>
			<time>2020-01-19T20:14:25.42Z</time>
		</trkpt>
		<trkpt lat="34.767732" lon="127.574568">
			<ele>0.00</ele>
			<time>2020-01-19T20:14:26.72Z</time>
		</trkpt>
		<trkpt lat="34.768190" lon="127.574793">
			<ele>0.00</ele>
			<time>2020-01-19T20:14:30.01Z</time>
		</trkpt>
		<trkpt lat="34.768413" lon="127.574952">
			<ele>0.00</ele>
			<time>2020-01-19T20:14:31.73Z</time>
		</trkpt>
		<trkpt lat="34.768386" lon="127.575304">
			<ele>0.00</ele>
			<time>2020-01-19T20:14:33.66Z</time>
		</trkpt>
		<trkpt lat="34.768291" lon="127.575624">
			<ele>0.00</ele>
			<time>2020-01-19T20:14:35.53Z</time>
		</trkpt>
		<trkpt lat="34.768068" lon="127.575875">
			<ele>0.00</ele>
			<time>2020-01-19T20:14:37.55Z</time>
		</trkpt>
		<trkpt lat="34.767822" lon="127.576087">
			<ele>0.00</ele>
			<time>2020-01-19T20:14:39.56Z</time>
		</trkpt>
		<trkpt lat="34.767614" lon="127.576315">
			<ele>0.00</ele>
			<time>2020-01-19T20:14:41.43Z</time>
		</trkpt>
		<trkpt lat="34.767619" lon="127.576469">
			<ele>0.00</ele>
			<time>2020-01-19T20:14:42.27Z</time>
		</trkpt>
		<trkpt lat="34.767688" lon="127.576496">
			<ele>0.00</ele>
			<time>2020-01-19T20:14:42.75Z</time>
		</trkpt>
		<trkpt lat="34.767798" lon="127.576496">
			<ele>0.00</ele>
			<time>2020-01-19T20:14:43.49Z</time>
		</trkpt>
		<trkpt lat="34.767963" lon="127.576471">
			<ele>0.00</ele>
			<time>2020-01-19T20:14:44.59Z</time>
		</trkpt>
		<trkpt lat="34.768171" lon="127.576456">
			<ele>0.00</ele>
			<time>2020-01-19T20:14:45.99Z</time>
		</trkpt>
		<trkpt lat="34.768309" lon="127.576423">
			<ele>0.00</ele>
			<time>2020-01-19T20:14:46.92Z</time>
		</trkpt>
		<trkpt lat="34.768464" lon="127.576352">
			<ele>0.00</ele>
			<time>2020-01-19T20:14:48.03Z</time>
		</trkpt>
		<trkpt lat="34.768614" lon="127.576306">
			<ele>0.00</ele>
			<time>2020-01-19T20:14:49.06Z</time>
		</trkpt>
		<trkpt lat="34.768774" lon="127.576294">
			<ele>0.00</ele>
			<time>2020-01-19T20:14:50.12Z</time>
		</trkpt>
		<trkpt lat="34.768969" lon="127.576321">
			<ele>0.00</ele>
			<time>2020-01-19T20:14:51.43Z</time>
		</trkpt>
		<trkpt lat="34.769105" lon="127.576321">
			<ele>0.00</ele>
			<time>2020-01-19T20:14:52.34Z</time>
		</trkpt>
		<trkpt lat="34.769243" lon="127.576326">
			<ele>0.00</ele>
			<time>2020-01-19T20:14:53.26Z</time>
		</trkpt>
		<trkpt lat="34.769405" lon="127.576346">
			<ele>0.00</ele>
			<time>2020-01-19T20:14:54.34Z</time>
		</trkpt>
		<trkpt lat="34.769543" lon="127.576341">
			<ele>0.00</ele>
			<time>2020-01-19T20:14:55.26Z</time>
		</trkpt>
		<trkpt lat="34.769698" lon="127.576332">
			<ele>0.00</ele>
			<time>2020-01-19T20:14:56.30Z</time>
		</trkpt>
		<trkpt lat="34.769831" lon="127.576321">
			<ele>0.00</ele>
			<time>2020-01-19T20:14:57.19Z</time>
		</trkpt>
		<trkpt lat="34.769965" lon="127.576313">
			<ele>0.00</ele>
			<time>2020-01-19T20:14:58.08Z</time>
		</trkpt>
		<trkpt lat="34.770055" lon="127.576331">
			<ele>0.00</ele>
			<time>2020-01-19T20:14:58.69Z</time>
		</trkpt>
		<trkpt lat="34.770158" lon="127.576382">
			<ele>0.00</ele>
			<time>2020-01-19T20:14:59.43Z</time>
		</trkpt>
		<trkpt lat="34.770316" lon="127.576476">
			<ele>0.00</ele>
			<time>2020-01-19T20:15:00.61Z</time>
		</trkpt>
		<trkpt lat="34.770409" lon="127.576527">
			<ele>0.00</ele>
			<time>2020-01-19T20:15:01.29Z</time>
		</trkpt>
		<trkpt lat="34.770488" lon="127.576621">
			<ele>0.00</ele>
			<time>2020-01-19T20:15:02.03Z</time>
		</trkpt>
		<trkpt lat="34.770593" lon="127.576679">
			<ele>0.00</ele>
			<time>2020-01-19T20:15:02.79Z</time>
		</trkpt>
		<trkpt lat="34.770673" lon="127.576678">
			<ele>0.00</ele>
			<time>2020-01-19T20:15:03.32Z</time>
		</trkpt>
		<trkpt lat="34.770754" lon="127.576606">
			<ele>0.00</ele>
			<time>2020-01-19T20:15:04Z</time>
		</trkpt>
		<trkpt lat="34.770835" lon="127.576469">
			<ele>0.00</ele>
			<time>2020-01-19T20:15:04.92Z</time>
		</trkpt>
		<trkpt lat="34.770919" lon="127.576253">
			<ele>0.00</ele>
			<time>2020-01-19T20:15:06.23Z</time>
		</trkpt>
		<trkpt lat="34.770957" lon="127.576114">
			<ele>0.00</ele>
			<time>2020-01-19T20:15:07.03Z</time>
		</trkpt>
		<trkpt lat="34.771021" lon="127.576020">
			<ele>0.00</ele>
			<time>2020-01-19T20:15:07.70Z</time>
		</trkpt>
		<trkpt lat="34.771148" lon="127.575969">
			<ele>0.00</ele>
			<time>2020-01-19T20:15:08.59Z</time>
		</trkpt>
		<trkpt lat="34.771270" lon="127.575961">
			<ele>0.00</ele>
			<time>2020-01-19T20:15:09.40Z</time>
		</trkpt>
		<trkpt lat="34.771436" lon="127.575934">
			<ele>0.00</ele>
			<time>2020-01-19T20:15:10.52Z</time>
		</trkpt>
		<trkpt lat="34.771553" lon="127.575932">
			<ele>0.00</ele>
			<time>2020-01-19T20:15:11.30Z</time>
		</trkpt>
		<trkpt lat="34.771641" lon="127.575919">
			<ele>0.00</ele>
			<time>2020-01-19T20:15:11.89Z</time>
		</trkpt>
		<trkpt lat="34.771736" lon="127.575866">
			<ele>0.00</ele>
			<time>2020-01-19T20:15:12.59Z</time>
		</trkpt>
		<trkpt lat="34.771840" lon="127.575769">
			<ele>0.00</ele>
			<time>2020-01-19T20:15:13.46Z</time>
		</trkpt>
		<trkpt lat="34.771902" lon="127.575684">
			<ele>0.00</ele>
			<time>2020-01-19T20:15:14.08Z</time>
		</trkpt>
		<trkpt lat="34.771976" lon="127.575587">
			<ele>0.00</ele>
			<time>2020-01-19T20:15:14.81Z</time>
		</trkpt>
		<trkpt lat="34.772063" lon="127.575488">
			<ele>0.00</ele>
			<time>2020-01-19T20:15:15.60Z</time>
		</trkpt>
		<trkpt lat="34.772129" lon="127.575472">
			<ele>0.00</ele>
			<time>2020-01-19T20:15:16.05Z</time>
		</trkpt>
		<trkpt lat="34.772205" lon="127.575454">
			<ele>0.00</ele>
			<time>2020-01-19T20:15:16.57Z</time>
		</trkpt>
		<trkpt lat="34.772353" lon="127.575480">
			<ele>0.00</ele>
			<time>2020-01-19T20:15:17.57Z</time>
		</trkpt>
		<trkpt lat="34.772513" lon="127.575556">
			<ele>0.00</ele>
			<time>2020-01-19T20:15:18.71Z</time>
		</trkpt>
		<trkpt lat="34.772641" lon="127.575609">
			<ele>0.00</ele>
			<time>2020-01-19T20:15:19.61Z</time>
		</trkpt>
		<trkpt lat="34.772788" lon="127.575686">
			<ele>0.00</ele>
			<time>2020-01-19T20:15:20.68Z</time>
		</trkpt>
		<trkpt lat="34.772893" lon="127.575720">
			<ele>0.00</ele>
			<time>2020-01-19T20:15:21.40Z</time>
		</trkpt>
		<trkpt lat="34.773147" lon="127.575748">
			<ele>0.00</ele>
			<time>2020-01-19T20:15:23.10Z</time>
		</trkpt>
		<trkpt lat="34.773347" lon="127.575809">
			<ele>0.00</ele>
			<time>2020-01-19T20:15:24.48Z</time>
		</trkpt>
		<trkpt lat="34.773607" lon="127.575815">
			<ele>0.00</ele>
			<time>2020-01-19T20:15:26.21Z</time>
		</trkpt>
		<trkpt lat="34.773766" lon="127.575808">
			<ele>0.00</ele>
			<time>2020-01-19T20:15:27.27Z</time>
		</trkpt>
		<trkpt lat="34.773840" lon="127.575728">
			<ele>0.00</ele>
			<time>2020-01-19T20:15:27.93Z</time>
		</trkpt>
		<trkpt lat="34.773863" lon="127.575633">
			<ele>0.00</ele>
			<time>2020-01-19T20:15:28.48Z</time>
		</trkpt>
		<trkpt lat="34.773871" lon="127.575501">
			<ele>0.00</ele>
			<time>2020-01-19T20:15:29.20Z</time>
		</trkpt>
		<trkpt lat="34.773870" lon="127.575338">
			<ele>0.00</ele>
			<time>2020-01-19T20:15:30.09Z</time>
		</trkpt>
		<trkpt lat="34.773939" lon="127.575201">
			<ele>0.00</ele>
			<time>2020-01-19T20:15:30.97Z</time>
		</trkpt>
		<trkpt lat="34.774060" lon="127.575093">
			<ele>0.00</ele>
			<time>2020-01-19T20:15:31.97Z</time>
		</trkpt>
		<trkpt lat="34.774185" lon="127.575061">
			<ele>0.00</ele>
			<time>2020-01-19T20:15:32.82Z</time>
		</trkpt>
		<trkpt lat="34.774347" lon="127.575053">
			<ele>0.00</ele>
			<time>2020-01-19T20:15:33.90Z</time>
		</trkpt>
		<trkpt lat="34.774565" lon="127.574871">
			<ele>0.00</ele>
			<time>2020-01-19T20:15:35.67Z</time>
		</trkpt>
		<trkpt lat="34.774762" lon="127.574702">
			<ele>0.00</ele>
			<time>2020-01-19T20:15:37.28Z</time>
		</trkpt>
		<trkpt lat="34.774984" lon="127.574584">
			<ele>0.00</ele>
			<time>2020-01-19T20:15:38.89Z</time>
		</trkpt>
		<trkpt lat="34.775190" lon="127.574492">
			<ele>0.00</ele>
			<time>2020-01-19T20:15:40.35Z</time>
		</trkpt>
		<trkpt lat="34.775355" lon="127.574460">
			<ele>0.00</ele>
			<time>2020-01-19T20:15:41.46Z</time>
		</trkpt>
		<trkpt lat="34.775529" lon="127.574302">
			<ele>0.00</ele>
			<time>2020-01-19T20:15:42.91Z</time>
		</trkpt>
		<trkpt lat="34.775456" lon="127.574066">
			<ele>0.00</ele>
			<time>2020-01-19T20:15:44.29Z</time>
		</trkpt>
		<trkpt lat="34.775402" lon="127.573959">
			<ele>0.00</ele>
			<time>2020-01-19T20:15:44.98Z</time>
		</trkpt>
		<trkpt lat="34.775197" lon="127.573820">
			<ele>0.00</ele>
			<time>2020-01-19T20:15:46.54Z</time>
		</trkpt>
		<trkpt lat="34.774998" lon="127.573761">
			<ele>0.00</ele>
			<time>2020-01-19T20:15:47.91Z</time>
		</trkpt>
		<trkpt lat="34.774751" lon="127.573709">
			<ele>0.00</ele>
			<time>2020-01-19T20:15:49.58Z</time>
		</trkpt>
		<trkpt lat="34.774555" lon="127.573647">
			<ele>0.00</ele>
			<time>2020-01-19T20:15:50.93Z</time>
		</trkpt>
		<trkpt lat="34.774294" lon="127.573516">
			<ele>0.00</ele>
			<time>2020-01-19T20:15:52.82Z</time>
		</trkpt>
		<trkpt lat="34.774091" lon="127.573327">
			<ele>0.00</ele>
			<time>2020-01-19T20:15:54.52Z</time>
		</trkpt>
		<trkpt lat="34.773891" lon="127.573232">
			<ele>0.00</ele>
			<time>2020-01-19T20:15:55.95Z</time>
		</trkpt>
		<trkpt lat="34.773681" lon="127.573363">
			<ele>0.00</ele>
			<time>2020-01-19T20:15:57.52Z</time>
		</trkpt>
		<trkpt lat="34.773572" lon="127.573295">
			<ele>0.00</ele>
			<time>2020-01-19T20:15:58.34Z</time>
		</trkpt>
		<trkpt lat="34.773597" lon="127.573156">
			<ele>0.00</ele>
			<time>2020-01-19T20:15:59.12Z</time>
		</trkpt>
		<trkpt lat="34.773677" lon="127.572910">
			<ele>0.00</ele>
			<time>2020-01-19T20:16:00.57Z</time>
		</trkpt>
		<trkpt lat="34.773767" lon="127.572778">
			<ele>0.00</ele>
			<time>2020-01-19T20:16:01.51Z</time>
		</trkpt>
		<trkpt lat="34.773984" lon="127.572555">
			<ele>0.00</ele>
			<time>2020-01-19T20:16:03.41Z</time>
		</trkpt>
		<trkpt lat="34.774159" lon="127.572463">
			<ele>0.00</ele>
			<time>2020-01-19T20:16:04.67Z</time>
		</trkpt>
		<trkpt lat="34.774388" lon="127.572264">
			<ele>0.00</ele>
			<time>2020-01-19T20:16:06.55Z</time>
		</trkpt>
		<trkpt lat="34.774534" lon="127.572162">
			<ele>0.00</ele>
			<time>2020-01-19T20:16:07.67Z</time>
		</trkpt>
		<trkpt lat="34.774779" lon="127.571920">
			<ele>0.00</ele>
			<time>2020-01-19T20:16:09.78Z</time>
		</trkpt>
		<trkpt lat="34.775018" lon="127.571727">
			<ele>0.00</ele>
			<time>2020-01-19T20:16:11.69Z</time>
		</trkpt>
		<trkpt lat="34.775188" lon="127.571615">
			<ele>0.00</ele>
			<time>2020-01-19T20:16:12.98Z</time>
		</trkpt>
		<trkpt lat="34.775452" lon="127.571386">
			<ele>0.00</ele>
			<time>2020-01-19T20:16:15.14Z</time>
		</trkpt>
		<trkpt lat="34.775680" lon="127.571215">
			<ele>0.00</ele>
			<time>2020-01-19T20:16:16.92Z</time>
		</trkpt>
		<trkpt lat="34.776001" lon="127.570863">
			<ele>0.00</ele>
			<time>2020-01-19T20:16:19.81Z</time>
		</trkpt>
		<trkpt lat="34.776148" lon="127.570579">
			<ele>0.00</ele>
			<time>2020-01-19T20:16:21.64Z</time>
		</trkpt>
		<trkpt lat="34.776187" lon="127.570451">
			<ele>0.00</ele>
			<time>2020-01-19T20:16:22.39Z</time>
		</trkpt>
		<trkpt lat="34.776421" lon="127.570281">
			<ele>0.00</ele>
			<time>2020-01-19T20:16:24.20Z</time>
		</trkpt>
		<trkpt lat="34.776630" lon="127.570223">
			<ele>0.00</ele>
			<time>2020-01-19T20:16:25.64Z</time>
		</trkpt>
		<trkpt lat="34.776903" lon="127.570132">
			<ele>0.00</ele>
			<time>2020-01-19T20:16:27.53Z</time>
		</trkpt>
		<trkpt lat="34.777079" lon="127.569993">
			<ele>0.00</ele>
			<time>2020-01-19T20:16:28.92Z</time>
		</trkpt>
		<trkpt lat="34.777191" lon="127.569879">
			<ele>0.00</ele>
			<time>2020-01-19T20:16:29.89Z</time>
		</trkpt>
		<trkpt lat="34.777348" lon="127.569834">
			<ele>0.00</ele>
			<time>2020-01-19T20:16:30.97Z</time>
		</trkpt>
		<trkpt lat="34.777494" lon="127.569798">
			<ele>0.00</ele>
			<time>2020-01-19T20:16:31.97Z</time>
		</trkpt>
		<trkpt lat="34.777569" lon="127.569766">
			<ele>0.00</ele>
			<time>2020-01-19T20:16:32.49Z</time>
		</trkpt>
		<trkpt lat="34.777631" lon="127.569680">
			<ele>0.00</ele>
			<time>2020-01-19T20:16:33.12Z</time>
		</trkpt>
		<trkpt lat="34.777703" lon="127.569635">
			<ele>0.00</ele>
			<time>2020-01-19T20:16:33.66Z</time>
		</trkpt>
		<trkpt lat="34.777836" lon="127.569620">
			<ele>0.00</ele>
			<time>2020-01-19T20:16:34.55Z</time>
		</trkpt>
		<extensions>
			<gte:name>#430</gte:name>
			<gte:color>#6666ff</gte:color>
		</extensions>
	</trkseg>
</trk>
</gpx>