<?xml version="1.0" encoding="utf-8" standalone="yes"?>
<gpx version="1.1" creator="GPS Visualizer https://www.gpsvisualizer.com/" xmlns="http://www.topografix.com/GPX/1/1" xmlns:xsi="http://www.w3.org/2001/XMLSchema-instance" xsi:schemaLocation="http://www.topografix.com/GPX/1/1 http://www.topografix.com/GPX/1/1/gpx.xsd">
<trk>
  <name>남파랑길-002코스-부산 14.5km_우회노선활용</name>
  <trkseg>
    <trkpt lat="35.115175899" lon="129.040010964"></trkpt>
    <trkpt lat="35.115045914" lon="129.040182143"></trkpt>
    <trkpt lat="35.114704251" lon="129.040043955"></trkpt>
    <trkpt lat="35.114513945" lon="129.040693928"></trkpt>
    <trkpt lat="35.114390309" lon="129.040963613"></trkpt>
    <trkpt lat="35.114206401" lon="129.041053649"></trkpt>
    <trkpt lat="35.114115841" lon="129.041094794"></trkpt>
    <trkpt lat="35.112522067" lon="129.04045323"></trkpt>
    <trkpt lat="35.111112691" lon="129.039897516"></trkpt>
    <trkpt lat="35.109955655" lon="129.039366607"></trkpt>
    <trkpt lat="35.108674843" lon="129.038822674"></trkpt>
    <trkpt lat="35.107703818" lon="129.03834275"></trkpt>
    <trkpt lat="35.107431614" lon="129.038245435"></trkpt>
    <trkpt lat="35.106615881" lon="129.038187966"></trkpt>
    <trkpt lat="35.106015989" lon="129.038064922"></trkpt>
    <trkpt lat="35.105485807" lon="129.037889139"></trkpt>
    <trkpt lat="35.105375957" lon="129.037759265"></trkpt>
    <trkpt lat="35.105064482" lon="129.037728646"></trkpt>
    <trkpt lat="35.104951481" lon="129.03780496"></trkpt>
    <trkpt lat="35.104687654" lon="129.03773845"></trkpt>
    <trkpt lat="35.103759362" lon="129.037750918"></trkpt>
    <trkpt lat="35.102778481" lon="129.037831331"></trkpt>
    <trkpt lat="35.100519988" lon="129.037951092"></trkpt>
    <trkpt lat="35.10014751" lon="129.037984762"></trkpt>
    <trkpt lat="35.099894674" lon="129.038025972"></trkpt>
    <trkpt lat="35.099469607" lon="129.038085539"></trkpt>
    <trkpt lat="35.098376028" lon="129.038173241"></trkpt>
    <trkpt lat="35.098353866" lon="129.038164212"></trkpt>
    <trkpt lat="35.098313236" lon="129.038150667"></trkpt>
    <trkpt lat="35.098275376" lon="129.038138252"></trkpt>
    <trkpt lat="35.098242133" lon="129.038131479"></trkpt>
    <trkpt lat="35.098199656" lon="129.038128093"></trkpt>
    <trkpt lat="35.098182111" lon="129.038124706"></trkpt>
    <trkpt lat="35.098175649" lon="129.038016357"></trkpt>
    <trkpt lat="35.098169185" lon="129.037976854"></trkpt>
    <trkpt lat="35.098080861" lon="129.037988105"></trkpt>
    <trkpt lat="35.097989399" lon="129.037997229"></trkpt>
    <trkpt lat="35.09789047" lon="129.038010915"></trkpt>
    <trkpt lat="35.097767276" lon="129.038047415"></trkpt>
    <trkpt lat="35.097658703" lon="129.038079353"></trkpt>
    <trkpt lat="35.097537376" lon="129.038122697"></trkpt>
    <trkpt lat="35.09744218" lon="129.038163761"></trkpt>
    <trkpt lat="35.097328319" lon="129.038225356"></trkpt>
    <trkpt lat="35.097253655" lon="129.038275544"></trkpt>
    <trkpt lat="35.097143527" lon="129.038348546"></trkpt>
    <trkpt lat="35.097010999" lon="129.038428391"></trkpt>
    <trkpt lat="35.096869138" lon="129.038503673"></trkpt>
    <trkpt lat="35.096737229" lon="129.038571613"></trkpt>
    <trkpt lat="35.096617768" lon="129.038630926"></trkpt>
    <trkpt lat="35.096457241" lon="129.03871077"></trkpt>
    <trkpt lat="35.096309781" lon="129.038788332"></trkpt>
    <trkpt lat="35.09616792" lon="129.038875019"></trkpt>
    <trkpt lat="35.096016726" lon="129.038966269"></trkpt>
    <trkpt lat="35.095895397" lon="129.039046112"></trkpt>
    <trkpt lat="35.095766463" lon="129.039132365"></trkpt>
    <trkpt lat="35.095645134" lon="129.039207646"></trkpt>
    <trkpt lat="35.095531272" lon="129.039278363"></trkpt>
    <trkpt lat="35.095402477" lon="129.039360487"></trkpt>
    <trkpt lat="35.095232617" lon="129.039442609"></trkpt>
    <trkpt lat="35.095090756" lon="129.039520169"></trkpt>
    <trkpt lat="35.09497316" lon="129.039604573"></trkpt>
    <trkpt lat="35.094868629" lon="129.039718635"></trkpt>
    <trkpt lat="35.094792097" lon="129.039821291"></trkpt>
    <trkpt lat="35.094737963" lon="129.039919386"></trkpt>
    <trkpt lat="35.09472488" lon="129.040032385"></trkpt>
    <trkpt lat="35.094710163" lon="129.040133095"></trkpt>
    <trkpt lat="35.094683674" lon="129.040221096"></trkpt>
    <trkpt lat="35.094639526" lon="129.04035058"></trkpt>
    <trkpt lat="35.094585078" lon="129.040489054"></trkpt>
    <trkpt lat="35.094521799" lon="129.040658102"></trkpt>
    <trkpt lat="35.094479123" lon="129.040762407"></trkpt>
    <trkpt lat="35.094417315" lon="129.040922462"></trkpt>
    <trkpt lat="35.094346678" lon="129.041105897"></trkpt>
    <trkpt lat="35.094290183" lon="129.041270001"></trkpt>
    <trkpt lat="35.094231318" lon="129.041437249"></trkpt>
    <trkpt lat="35.094166567" lon="129.041613488"></trkpt>
    <trkpt lat="35.09410623" lon="129.041780735"></trkpt>
    <trkpt lat="35.094044421" lon="129.041956975"></trkpt>
    <trkpt lat="35.093994384" lon="129.042108037"></trkpt>
    <trkpt lat="35.093959063" lon="129.042230327"></trkpt>
    <trkpt lat="35.093904147" lon="129.042408272"></trkpt>
    <trkpt lat="35.093839466" lon="129.042563803"></trkpt>
    <trkpt lat="35.093789388" lon="129.042711685"></trkpt>
    <trkpt lat="35.093718448" lon="129.042874865"></trkpt>
    <trkpt lat="35.093660025" lon="129.043040594"></trkpt>
    <trkpt lat="35.093586995" lon="129.043247119"></trkpt>
    <trkpt lat="35.093516051" lon="129.043458743"></trkpt>
    <trkpt lat="35.0934305" lon="129.043703513"></trkpt>
    <trkpt lat="35.093378331" lon="129.04391004"></trkpt>
    <trkpt lat="35.093315736" lon="129.044064484"></trkpt>
    <trkpt lat="35.093261486" lon="129.044186866"></trkpt>
    <trkpt lat="35.093221839" lon="129.04431435"></trkpt>
    <trkpt lat="35.093194711" lon="129.044423986"></trkpt>
    <trkpt lat="35.093209301" lon="129.044620318"></trkpt>
    <trkpt lat="35.093246844" lon="129.044763108"></trkpt>
    <trkpt lat="35.093309422" lon="129.044900801"></trkpt>
    <trkpt lat="35.093372002" lon="129.045018096"></trkpt>
    <trkpt lat="35.093474214" lon="129.045216988"></trkpt>
    <trkpt lat="35.093570168" lon="129.045403132"></trkpt>
    <trkpt lat="35.093676551" lon="129.045621952"></trkpt>
    <trkpt lat="35.093751646" lon="129.045751998"></trkpt>
    <trkpt lat="35.09381422" lon="129.045935588"></trkpt>
    <trkpt lat="35.093860107" lon="129.046065631"></trkpt>
    <trkpt lat="35.093749531" lon="129.046129362"></trkpt>
    <trkpt lat="35.093622264" lon="129.046213489"></trkpt>
    <trkpt lat="35.093707786" lon="129.046392065"></trkpt>
    <trkpt lat="35.09377662" lon="129.04653996"></trkpt>
    <trkpt lat="35.093843369" lon="129.046670006"></trkpt>
    <trkpt lat="35.093905945" lon="129.046807701"></trkpt>
    <trkpt lat="35.093966434" lon="129.046953045"></trkpt>
    <trkpt lat="35.093976849" lon="129.047141728"></trkpt>
    <trkpt lat="35.093970575" lon="129.047312562"></trkpt>
    <trkpt lat="35.094049304" lon="129.047345626"></trkpt>
    <trkpt lat="35.094012016" lon="129.047505067"></trkpt>
    <trkpt lat="35.094000823" lon="129.047618955"></trkpt>
    <trkpt lat="35.093991492" lon="129.0477579"></trkpt>
    <trkpt lat="35.093993344" lon="129.047890012"></trkpt>
    <trkpt lat="35.094004513" lon="129.048026681"></trkpt>
    <trkpt lat="35.094024998" lon="129.048199797"></trkpt>
    <trkpt lat="35.094026847" lon="129.048361522"></trkpt>
    <trkpt lat="35.094002602" lon="129.048539187"></trkpt>
    <trkpt lat="35.093967178" lon="129.048675851"></trkpt>
    <trkpt lat="35.093899318" lon="129.048871894"></trkpt>
    <trkpt lat="35.093819163" lon="129.049029049"></trkpt>
    <trkpt lat="35.093720374" lon="129.049147479"></trkpt>
    <trkpt lat="35.093643951" lon="129.04924769"></trkpt>
    <trkpt lat="35.093558209" lon="129.049359288"></trkpt>
    <trkpt lat="35.093465012" lon="129.049468607"></trkpt>
    <trkpt lat="35.093394182" lon="129.049550596"></trkpt>
    <trkpt lat="35.093328942" lon="129.049639419"></trkpt>
    <trkpt lat="35.093274885" lon="129.049728243"></trkpt>
    <trkpt lat="35.093179821" lon="129.049864895"></trkpt>
    <trkpt lat="35.093079166" lon="129.049990156"></trkpt>
    <trkpt lat="35.09296161" lon="129.050126227"></trkpt>
    <trkpt lat="35.092907025" lon="129.050186717"></trkpt>
    <trkpt lat="35.09294636" lon="129.05029376"></trkpt>
    <trkpt lat="35.092862582" lon="129.050355795"></trkpt>
    <trkpt lat="35.092823244" lon="129.050275124"></trkpt>
    <trkpt lat="35.092792782" lon="129.050273568"></trkpt>
    <trkpt lat="35.092749622" lon="129.050313893"></trkpt>
    <trkpt lat="35.092663301" lon="129.050411607"></trkpt>
    <trkpt lat="35.092556672" lon="129.050515522"></trkpt>
    <trkpt lat="35.092504627" lon="129.050558947"></trkpt>
    <trkpt lat="35.092447505" lon="129.050602372"></trkpt>
    <trkpt lat="35.09237515" lon="129.05066441"></trkpt>
    <trkpt lat="35.092324173" lon="129.050716668"></trkpt>
    <trkpt lat="35.092263241" lon="129.050775605"></trkpt>
    <trkpt lat="35.092185807" lon="129.050857807"></trkpt>
    <trkpt lat="35.09213243" lon="129.050891187"></trkpt>
    <trkpt lat="35.092081539" lon="129.050891178"></trkpt>
    <trkpt lat="35.092059679" lon="129.050934726"></trkpt>
    <trkpt lat="35.092018595" lon="129.051012615"></trkpt>
    <trkpt lat="35.09195203" lon="129.050964134"></trkpt>
    <trkpt lat="35.091932189" lon="129.051059338"></trkpt>
    <trkpt lat="35.091885438" lon="129.051144151"></trkpt>
    <trkpt lat="35.091837274" lon="129.051201267"></trkpt>
    <trkpt lat="35.091823102" lon="129.051268775"></trkpt>
    <trkpt lat="35.091818839" lon="129.051381292"></trkpt>
    <trkpt lat="35.091820242" lon="129.05149208"></trkpt>
    <trkpt lat="35.091818817" lon="129.051564784"></trkpt>
    <trkpt lat="35.091808897" lon="129.051604596"></trkpt>
    <trkpt lat="35.091784818" lon="129.051613247"></trkpt>
    <trkpt lat="35.091747991" lon="129.051611509"></trkpt>
    <trkpt lat="35.091703138" lon="129.051626783"></trkpt>
    <trkpt lat="35.0916756" lon="129.051666941"></trkpt>
    <trkpt lat="35.091620529" lon="129.051707093"></trkpt>
    <trkpt lat="35.091584104" lon="129.051780898"></trkpt>
    <trkpt lat="35.091532588" lon="129.051803684"></trkpt>
    <trkpt lat="35.091472248" lon="129.051821167"></trkpt>
    <trkpt lat="35.091426063" lon="129.051820073"></trkpt>
    <trkpt lat="35.09137455" lon="129.051818978"></trkpt>
    <trkpt lat="35.091311489" lon="129.051826564"></trkpt>
    <trkpt lat="35.091248431" lon="129.051815698"></trkpt>
    <trkpt lat="35.091189811" lon="129.051823286"></trkpt>
    <trkpt lat="35.091132587" lon="129.051850803"></trkpt>
    <trkpt lat="35.091063308" lon="129.051873584"></trkpt>
    <trkpt lat="35.091015342" lon="129.05190831"></trkpt>
    <trkpt lat="35.090977149" lon="129.051924585"></trkpt>
    <trkpt lat="35.090942509" lon="129.051941946"></trkpt>
    <trkpt lat="35.090918529" lon="129.051937599"></trkpt>
    <trkpt lat="35.090892776" lon="129.051901774"></trkpt>
    <trkpt lat="35.090867029" lon="129.051822531"></trkpt>
    <trkpt lat="35.09085993" lon="129.051775855"></trkpt>
    <trkpt lat="35.090853717" lon="129.051740034"></trkpt>
    <trkpt lat="35.090848391" lon="129.05171941"></trkpt>
    <trkpt lat="35.090811089" lon="129.051710719"></trkpt>
    <trkpt lat="35.090774117" lon="129.051719396"></trkpt>
    <trkpt lat="35.090745694" lon="129.051730245"></trkpt>
    <trkpt lat="35.090727039" lon="129.051758463"></trkpt>
    <trkpt lat="35.090710161" lon="129.051781255"></trkpt>
    <trkpt lat="35.090695059" lon="129.051809474"></trkpt>
    <trkpt lat="35.090683508" lon="129.051848548"></trkpt>
    <trkpt lat="35.090679948" lon="129.051904991"></trkpt>
    <trkpt lat="35.090695928" lon="129.051966865"></trkpt>
    <trkpt lat="35.090714569" lon="129.05204285"></trkpt>
    <trkpt lat="35.090735875" lon="129.052124263"></trkpt>
    <trkpt lat="35.090751853" lon="129.052194821"></trkpt>
    <trkpt lat="35.090768718" lon="129.052270806"></trkpt>
    <trkpt lat="35.090790022" lon="129.052367139"></trkpt>
    <trkpt lat="35.090802444" lon="129.052463747"></trkpt>
    <trkpt lat="35.090805097" lon="129.052548413"></trkpt>
    <trkpt lat="35.090804199" lon="129.052624395"></trkpt>
    <trkpt lat="35.090804187" lon="129.052717744"></trkpt>
    <trkpt lat="35.090801514" lon="129.05278287"></trkpt>
    <trkpt lat="35.090794401" lon="129.052837142"></trkpt>
    <trkpt lat="35.090786403" lon="129.05287296"></trkpt>
    <trkpt lat="35.09078018" lon="129.052913121"></trkpt>
    <trkpt lat="35.090774465" lon="129.052945898"></trkpt>
    <trkpt lat="35.090766968" lon="129.052989175"></trkpt>
    <trkpt lat="35.090754702" lon="129.053047432"></trkpt>
    <trkpt lat="35.090746525" lon="129.053084883"></trkpt>
    <trkpt lat="35.090740389" lon="129.053137315"></trkpt>
    <trkpt lat="35.090732208" lon="129.053204725"></trkpt>
    <trkpt lat="35.090727434" lon="129.053252996"></trkpt>
    <trkpt lat="35.090722658" lon="129.053318744"></trkpt>
    <trkpt lat="35.090709029" lon="129.053385324"></trkpt>
    <trkpt lat="35.09070017" lon="129.053431097"></trkpt>
    <trkpt lat="35.090677687" lon="129.053499339"></trkpt>
    <trkpt lat="35.090634773" lon="129.053576341"></trkpt>
    <trkpt lat="35.090607529" lon="129.053604633"></trkpt>
    <trkpt lat="35.090580968" lon="129.053617112"></trkpt>
    <trkpt lat="35.090546235" lon="129.053632085"></trkpt>
    <trkpt lat="35.090512862" lon="129.053661208"></trkpt>
    <trkpt lat="35.090494598" lon="129.053718467"></trkpt>
    <trkpt lat="35.090475523" lon="129.053769232"></trkpt>
    <trkpt lat="35.090456448" lon="129.053815003"></trkpt>
    <trkpt lat="35.090442137" lon="129.053883246"></trkpt>
    <trkpt lat="35.090438042" lon="129.053949827"></trkpt>
    <trkpt lat="35.090447564" lon="129.054030559"></trkpt>
    <trkpt lat="35.090456406" lon="129.054107963"></trkpt>
    <trkpt lat="35.090467974" lon="129.054171416"></trkpt>
    <trkpt lat="35.090478181" lon="129.054226348"></trkpt>
    <trkpt lat="35.09047477" lon="129.05427129"></trkpt>
    <trkpt lat="35.090457739" lon="129.054314564"></trkpt>
    <trkpt lat="35.090437303" lon="129.054355341"></trkpt>
    <trkpt lat="35.090395748" lon="129.054445966"></trkpt>
    <trkpt lat="35.090367137" lon="129.054506716"></trkpt>
    <trkpt lat="35.090343977" lon="129.054548324"></trkpt>
    <trkpt lat="35.090316732" lon="129.054584106"></trkpt>
    <trkpt lat="35.090292893" lon="129.054606572"></trkpt>
    <trkpt lat="35.090273142" lon="129.054623213"></trkpt>
    <trkpt lat="35.09024045" lon="129.054649006"></trkpt>
    <trkpt lat="35.090211844" lon="129.054669807"></trkpt>
    <trkpt lat="35.090167548" lon="129.054687952"></trkpt>
    <trkpt lat="35.090134858" lon="129.054701261"></trkpt>
    <trkpt lat="35.09008991" lon="129.054716231"></trkpt>
    <trkpt lat="35.090037468" lon="129.054750343"></trkpt>
    <trkpt lat="35.089991836" lon="129.054780294"></trkpt>
    <trkpt lat="35.089914241" lon="129.054817964"></trkpt>
    <trkpt lat="35.089847813" lon="129.054857741"></trkpt>
    <trkpt lat="35.089793107" lon="129.054900703"></trkpt>
    <trkpt lat="35.089742309" lon="129.054934117"></trkpt>
    <trkpt lat="35.089691508" lon="129.054983447"></trkpt>
    <trkpt lat="35.089625611" lon="129.055081698"></trkpt>
    <trkpt lat="35.089589135" lon="129.055143764"></trkpt>
    <trkpt lat="35.089544843" lon="129.055215379"></trkpt>
    <trkpt lat="35.089496644" lon="129.055286993"></trkpt>
    <trkpt lat="35.089449746" lon="129.055363382"></trkpt>
    <trkpt lat="35.089388522" lon="129.055438177"></trkpt>
    <trkpt lat="35.0893273" lon="129.055500237"></trkpt>
    <trkpt lat="35.08923482" lon="129.055570249"></trkpt>
    <trkpt lat="35.089171126" lon="129.05564942"></trkpt>
    <trkpt lat="35.089121624" lon="129.05571785"></trkpt>
    <trkpt lat="35.089057796" lon="129.055791051"></trkpt>
    <trkpt lat="35.089008292" lon="129.055873806"></trkpt>
    <trkpt lat="35.08895749" lon="129.05592791"></trkpt>
    <trkpt lat="35.088878031" lon="129.05601384"></trkpt>
    <trkpt lat="35.08880899" lon="129.056104548"></trkpt>
    <trkpt lat="35.08875167" lon="129.056198442"></trkpt>
    <trkpt lat="35.088685232" lon="129.056297108"></trkpt>
    <trkpt lat="35.08861749" lon="129.056408507"></trkpt>
    <trkpt lat="35.08855496" lon="129.056496033"></trkpt>
    <trkpt lat="35.088509522" lon="129.056565763"></trkpt>
    <trkpt lat="35.088476959" lon="129.056588038"></trkpt>
    <trkpt lat="35.088433976" lon="129.056613494"></trkpt>
    <trkpt lat="35.088396206" lon="129.056618259"></trkpt>
    <trkpt lat="35.08840012" lon="129.056575286"></trkpt>
    <trkpt lat="35.08841445" lon="129.056548232"></trkpt>
    <trkpt lat="35.088415763" lon="129.056487749"></trkpt>
    <trkpt lat="35.088410561" lon="129.056436815"></trkpt>
    <trkpt lat="35.088391029" lon="129.056414528"></trkpt>
    <trkpt lat="35.088354568" lon="129.056376319"></trkpt>
    <trkpt lat="35.08830769" lon="129.056325375"></trkpt>
    <trkpt lat="35.088232158" lon="129.056283974"></trkpt>
    <trkpt lat="35.088142296" lon="129.056269627"></trkpt>
    <trkpt lat="35.088074407" lon="129.056258703"></trkpt>
    <trkpt lat="35.088019706" lon="129.056260282"></trkpt>
    <trkpt lat="35.087931142" lon="129.056271402"></trkpt>
    <trkpt lat="35.087856899" lon="129.05631595"></trkpt>
    <trkpt lat="35.087793075" lon="129.056355725"></trkpt>
    <trkpt lat="35.087714927" lon="129.056385947"></trkpt>
    <trkpt lat="35.087615937" lon="129.05644163"></trkpt>
    <trkpt lat="35.087544299" lon="129.056479812"></trkpt>
    <trkpt lat="35.087489595" lon="129.056503673"></trkpt>
    <trkpt lat="35.087460928" lon="129.05658643"></trkpt>
    <trkpt lat="35.087420539" lon="129.056680326"></trkpt>
    <trkpt lat="35.087394472" lon="129.056791734"></trkpt>
    <trkpt lat="35.087367108" lon="129.056876083"></trkpt>
    <trkpt lat="35.087333933" lon="129.056975525"></trkpt>
    <trkpt lat="35.087271623" lon="129.057065481"></trkpt>
    <trkpt lat="35.08719232" lon="129.057176195"></trkpt>
    <trkpt lat="35.087110184" lon="129.057290368"></trkpt>
    <trkpt lat="35.086996906" lon="129.057373389"></trkpt>
    <trkpt lat="35.086886463" lon="129.057439109"></trkpt>
    <trkpt lat="35.086736386" lon="129.057449452"></trkpt>
    <trkpt lat="35.086620294" lon="129.0574252"></trkpt>
    <trkpt lat="35.086501369" lon="129.057411328"></trkpt>
    <trkpt lat="35.08633527" lon="129.057400965"></trkpt>
    <trkpt lat="35.086219177" lon="129.057390554"></trkpt>
    <trkpt lat="35.086077603" lon="129.057355914"></trkpt>
    <trkpt lat="35.08591903" lon="129.057376636"></trkpt>
    <trkpt lat="35.085771789" lon="129.057366217"></trkpt>
    <trkpt lat="35.085684019" lon="129.057310829"></trkpt>
    <trkpt lat="35.0855906" lon="129.05716893"></trkpt>
    <trkpt lat="35.085522678" lon="129.056943988"></trkpt>
    <trkpt lat="35.085508549" lon="129.056767505"></trkpt>
    <trkpt lat="35.085502911" lon="129.056611786"></trkpt>
    <trkpt lat="35.085508083" lon="129.056560816"></trkpt>
    <trkpt lat="35.085539649" lon="129.056452389"></trkpt>
    <trkpt lat="35.08557121" lon="129.056380107"></trkpt>
    <trkpt lat="35.085592917" lon="129.056278906"></trkpt>
    <trkpt lat="35.085592929" lon="129.056201796"></trkpt>
    <trkpt lat="35.085565338" lon="129.056117451"></trkpt>
    <trkpt lat="35.085498304" lon="129.056069242"></trkpt>
    <trkpt lat="35.085441125" lon="129.056047541"></trkpt>
    <trkpt lat="35.08536028" lon="129.056052342"></trkpt>
    <trkpt lat="35.085251829" lon="129.056066774"></trkpt>
    <trkpt lat="35.0851552" lon="129.056131812"></trkpt>
    <trkpt lat="35.085064482" lon="129.056223357"></trkpt>
    <trkpt lat="35.085001364" lon="129.056348643"></trkpt>
    <trkpt lat="35.084999392" lon="129.056351053"></trkpt>
    <trkpt lat="35.084952044" lon="129.056507668"></trkpt>
    <trkpt lat="35.084815939" lon="129.0567992"></trkpt>
    <trkpt lat="35.084754792" lon="129.056929304"></trkpt>
    <trkpt lat="35.084705481" lon="129.057023267"></trkpt>
    <trkpt lat="35.084650256" lon="129.05711"></trkpt>
    <trkpt lat="35.084573338" lon="129.057216003"></trkpt>
    <trkpt lat="35.084492478" lon="129.057314777"></trkpt>
    <trkpt lat="35.084397814" lon="129.057415956"></trkpt>
    <trkpt lat="35.084309043" lon="129.057654485"></trkpt>
    <trkpt lat="35.084238042" lon="129.057746031"></trkpt>
    <trkpt lat="35.084157195" lon="129.057767697"></trkpt>
    <trkpt lat="35.084129569" lon="129.05788576"></trkpt>
    <trkpt lat="35.084147288" lon="129.05803998"></trkpt>
    <trkpt lat="35.084172903" lon="129.0581436"></trkpt>
    <trkpt lat="35.084206392" lon="129.05832192"></trkpt>
    <trkpt lat="35.084218198" lon="129.058459272"></trkpt>
    <trkpt lat="35.084188607" lon="129.058536372"></trkpt>
    <trkpt lat="35.084105786" lon="129.058562856"></trkpt>
    <trkpt lat="35.084044657" lon="129.058577297"></trkpt>
    <trkpt lat="35.084019464" lon="129.05862347"></trkpt>
    <trkpt lat="35.08404311" lon="129.058705403"></trkpt>
    <trkpt lat="35.084100276" lon="129.058796983"></trkpt>
    <trkpt lat="35.084183071" lon="129.058905438"></trkpt>
    <trkpt lat="35.084275722" lon="129.059035582"></trkpt>
    <trkpt lat="35.084350626" lon="129.059165721"></trkpt>
    <trkpt lat="35.084401864" lon="129.059322361"></trkpt>
    <trkpt lat="35.084425491" lon="129.059512728"></trkpt>
    <trkpt lat="35.084415603" lon="129.059666942"></trkpt>
    <trkpt lat="35.084354977" lon="129.05984467"></trkpt>
    <trkpt lat="35.084301716" lon="129.059962726"></trkpt>
    <trkpt lat="35.084240561" lon="129.060114513"></trkpt>
    <trkpt lat="35.084159691" lon="129.060249428"></trkpt>
    <trkpt lat="35.084072902" lon="129.060401207"></trkpt>
    <trkpt lat="35.083992029" lon="129.060555398"></trkpt>
    <trkpt lat="35.083946656" lon="129.060663817"></trkpt>
    <trkpt lat="35.083883534" lon="129.060784279"></trkpt>
    <trkpt lat="35.083816493" lon="129.060936043"></trkpt>
    <trkpt lat="35.08372971" lon="129.061054088"></trkpt>
    <trkpt lat="35.083617298" lon="129.061145619"></trkpt>
    <trkpt lat="35.083520662" lon="129.061234745"></trkpt>
    <trkpt lat="35.083447669" lon="129.061415441"></trkpt>
    <trkpt lat="35.083366795" lon="129.061564811"></trkpt>
    <trkpt lat="35.083246503" lon="129.061622604"></trkpt>
    <trkpt lat="35.08315383" lon="129.061617756"></trkpt>
    <trkpt lat="35.083037506" lon="129.061557481"></trkpt>
    <trkpt lat="35.082927107" lon="129.061451427"></trkpt>
    <trkpt lat="35.082860079" lon="129.061386348"></trkpt>
    <trkpt lat="35.082742684" lon="129.061301978"></trkpt>
    <trkpt lat="35.082675653" lon="129.061253766"></trkpt>
    <trkpt lat="35.082594817" lon="129.061215189"></trkpt>
    <trkpt lat="35.082490314" lon="129.0612007"></trkpt>
    <trkpt lat="35.08239567" lon="129.061193443"></trkpt>
    <trkpt lat="35.082289203" lon="129.061140401"></trkpt>
    <trkpt lat="35.08218669" lon="129.061039169"></trkpt>
    <trkpt lat="35.082074319" lon="129.060928296"></trkpt>
    <trkpt lat="35.081969821" lon="129.060889712"></trkpt>
    <trkpt lat="35.081877136" lon="129.060942694"></trkpt>
    <trkpt lat="35.081800939" lon="129.061032613"></trkpt>
    <trkpt lat="35.081733882" lon="129.061112108"></trkpt>
    <trkpt lat="35.081662882" lon="129.061189192"></trkpt>
    <trkpt lat="35.081558344" lon="129.06134819"></trkpt>
    <trkpt lat="35.08150508" lon="129.061475878"></trkpt>
    <trkpt lat="35.08144984" lon="129.061618024"></trkpt>
    <trkpt lat="35.081351235" lon="129.061695098"></trkpt>
    <trkpt lat="35.08125658" lon="129.061733621"></trkpt>
    <trkpt lat="35.081165884" lon="129.06169986"></trkpt>
    <trkpt lat="35.081037731" lon="129.061632354"></trkpt>
    <trkpt lat="35.080945869" lon="129.061604452"></trkpt>
    <trkpt lat="35.080825597" lon="129.061563454"></trkpt>
    <trkpt lat="35.080717145" lon="129.061580287"></trkpt>
    <trkpt lat="35.080606726" lon="129.061568206"></trkpt>
    <trkpt lat="35.080521945" lon="129.061536857"></trkpt>
    <trkpt lat="35.080403652" lon="129.061464536"></trkpt>
    <trkpt lat="35.08022226" lon="129.061397014"></trkpt>
    <trkpt lat="35.080100007" lon="129.061399386"></trkpt>
    <trkpt lat="35.079940277" lon="129.061471623"></trkpt>
    <trkpt lat="35.079821961" lon="129.061505319"></trkpt>
    <trkpt lat="35.079674065" lon="129.061555872"></trkpt>
    <trkpt lat="35.079508337" lon="129.061551005"></trkpt>
    <trkpt lat="35.079388058" lon="129.061550968"></trkpt>
    <trkpt lat="35.079265799" lon="129.061587072"></trkpt>
    <trkpt lat="35.079145512" lon="129.061620768"></trkpt>
    <trkpt lat="35.07901142" lon="129.061664097"></trkpt>
    <trkpt lat="35.078924655" lon="129.061692984"></trkpt>
    <trkpt lat="35.078837881" lon="129.06176524"></trkpt>
    <trkpt lat="35.078802368" lon="129.061861607"></trkpt>
    <trkpt lat="35.078745168" lon="129.06194833"></trkpt>
    <trkpt lat="35.078686268" lon="129.061971436"></trkpt>
    <trkpt lat="35.078617243" lon="129.062026832"></trkpt>
    <trkpt lat="35.078524559" lon="129.062072582"></trkpt>
    <trkpt lat="35.078445677" lon="129.062120746"></trkpt>
    <trkpt lat="35.078347079" lon="129.062156857"></trkpt>
    <trkpt lat="35.078226793" lon="129.062185732"></trkpt>
    <trkpt lat="35.078132141" lon="129.062212206"></trkpt>
    <trkpt lat="35.07801383" lon="129.062224216"></trkpt>
    <trkpt lat="35.077931605" lon="129.062223659"></trkpt>
    <trkpt lat="35.07782907" lon="129.062228446"></trkpt>
    <trkpt lat="35.077760055" lon="129.062238062"></trkpt>
    <trkpt lat="35.077702871" lon="129.062245272"></trkpt>
    <trkpt lat="35.077623996" lon="129.062259704"></trkpt>
    <trkpt lat="35.077568784" lon="129.062266915"></trkpt>
    <trkpt lat="35.077511597" lon="129.062290991"></trkpt>
    <trkpt lat="35.077480039" lon="129.062334351"></trkpt>
    <trkpt lat="35.077458337" lon="129.06239217"></trkpt>
    <trkpt lat="35.07742479" lon="129.062515039"></trkpt>
    <trkpt lat="35.077373496" lon="129.062642721"></trkpt>
    <trkpt lat="35.077318247" lon="129.062823408"></trkpt>
    <trkpt lat="35.077264983" lon="129.062943861"></trkpt>
    <trkpt lat="35.077238912" lon="129.06305633"></trkpt>
    <trkpt lat="35.077204236" lon="129.063163501"></trkpt>
    <trkpt lat="35.077172806" lon="129.063279936"></trkpt>
    <trkpt lat="35.077145714" lon="129.063367261"></trkpt>
    <trkpt lat="35.077109229" lon="129.063479517"></trkpt>
    <trkpt lat="35.077076724" lon="129.063564193"></trkpt>
    <trkpt lat="35.077038805" lon="129.063640928"></trkpt>
    <trkpt lat="35.077001967" lon="129.063726925"></trkpt>
    <trkpt lat="35.076953219" lon="129.063806303"></trkpt>
    <trkpt lat="35.076901226" lon="129.063864508"></trkpt>
    <trkpt lat="35.076850312" lon="129.063942561"></trkpt>
    <trkpt lat="35.076797234" lon="129.064011352"></trkpt>
    <trkpt lat="35.076766897" lon="129.064078826"></trkpt>
    <trkpt lat="35.07675064" lon="129.064141013"></trkpt>
    <trkpt lat="35.076736543" lon="129.064224372"></trkpt>
    <trkpt lat="35.076723428" lon="129.064322368"></trkpt>
    <trkpt lat="35.076715827" lon="129.064414991"></trkpt>
    <trkpt lat="35.076699557" lon="129.064531429"></trkpt>
    <trkpt lat="35.076704949" lon="129.06462538"></trkpt>
    <trkpt lat="35.076704917" lon="129.064764318"></trkpt>
    <trkpt lat="35.076685399" lon="129.064879432"></trkpt>
    <trkpt lat="35.076644224" lon="129.064982629"></trkpt>
    <trkpt lat="35.076618213" lon="129.065075246"></trkpt>
    <trkpt lat="35.076590041" lon="129.065148013"></trkpt>
    <trkpt lat="35.076539134" lon="129.065189015"></trkpt>
    <trkpt lat="35.07645791" lon="129.065216775"></trkpt>
    <trkpt lat="35.076397263" lon="129.065236602"></trkpt>
    <trkpt lat="35.076350696" lon="129.065244525"></trkpt>
    <trkpt lat="35.076299797" lon="129.065256416"></trkpt>
    <trkpt lat="35.076261892" lon="129.065268312"></trkpt>
    <trkpt lat="35.076177823" lon="129.065264909"></trkpt>
    <trkpt lat="35.076140747" lon="129.065292074"></trkpt>
    <trkpt lat="35.076137004" lon="129.065443813"></trkpt>
    <trkpt lat="35.076142511" lon="129.06566803"></trkpt>
    <trkpt lat="35.076153547" lon="129.066023608"></trkpt>
    <trkpt lat="35.076149773" lon="129.066297649"></trkpt>
    <trkpt lat="35.076147862" lon="129.066535317"></trkpt>
    <trkpt lat="35.076142274" lon="129.066646289"></trkpt>
    <trkpt lat="35.076097763" lon="129.066759512"></trkpt>
    <trkpt lat="35.076036576" lon="129.066845552"></trkpt>
    <trkpt lat="35.075975392" lon="129.066924797"></trkpt>
    <trkpt lat="35.07590679" lon="129.067017628"></trkpt>
    <trkpt lat="35.075814086" lon="129.067135362"></trkpt>
    <trkpt lat="35.075713959" lon="129.067287066"></trkpt>
    <trkpt lat="35.075611967" lon="129.067481801"></trkpt>
    <trkpt lat="35.075502453" lon="129.067681675"></trkpt>
    <trkpt lat="35.075482034" lon="129.0678017"></trkpt>
    <trkpt lat="35.075456051" lon="129.067933047"></trkpt>
    <trkpt lat="35.075413392" lon="129.068046269"></trkpt>
    <trkpt lat="35.075392971" lon="129.068173089"></trkpt>
    <trkpt lat="35.075404049" lon="129.068338421"></trkpt>
    <trkpt lat="35.075426251" lon="129.06849017"></trkpt>
    <trkpt lat="35.075459557" lon="129.068705337"></trkpt>
    <trkpt lat="35.075479899" lon="129.068879733"></trkpt>
    <trkpt lat="35.075509496" lon="129.069101695"></trkpt>
    <trkpt lat="35.075531696" lon="129.06925571"></trkpt>
    <trkpt lat="35.075558368" lon="129.069442237"></trkpt>
    <trkpt lat="35.075575007" lon="129.069598513"></trkpt>
    <trkpt lat="35.075580523" lon="129.069763845"></trkpt>
    <trkpt lat="35.075593453" lon="129.069924649"></trkpt>
    <trkpt lat="35.075571173" lon="129.070067322"></trkpt>
    <trkpt lat="35.075534062" lon="129.070219047"></trkpt>
    <trkpt lat="35.075506233" lon="129.070314157"></trkpt>
    <trkpt lat="35.07546173" lon="129.070386612"></trkpt>
    <trkpt lat="35.075389415" lon="129.070488497"></trkpt>
    <trkpt lat="35.075324505" lon="129.070622086"></trkpt>
    <trkpt lat="35.075246635" lon="129.07071038"></trkpt>
    <trkpt lat="35.075124278" lon="129.070805449"></trkpt>
    <trkpt lat="35.074938901" lon="129.07090955"></trkpt>
    <trkpt lat="35.074836942" lon="129.07097292"></trkpt>
    <trkpt lat="35.074722005" lon="129.071047609"></trkpt>
    <trkpt lat="35.074625694" lon="129.071097393"></trkpt>
    <trkpt lat="35.074527442" lon="129.0711585"></trkpt>
    <trkpt lat="35.074434752" lon="129.071217344"></trkpt>
    <trkpt lat="35.074340204" lon="129.071287511"></trkpt>
    <trkpt lat="35.074203027" lon="129.07135766"></trkpt>
    <trkpt lat="35.074089946" lon="129.071421024"></trkpt>
    <trkpt lat="35.073969451" lon="129.071484386"></trkpt>
    <trkpt lat="35.073828562" lon="129.071568122"></trkpt>
    <trkpt lat="35.073647192" lon="129.071660768"></trkpt>
    <trkpt lat="35.073556357" lon="129.071712818"></trkpt>
    <trkpt lat="35.073408055" lon="129.071792019"></trkpt>
    <trkpt lat="35.073278288" lon="129.071875757"></trkpt>
    <trkpt lat="35.073187454" lon="129.071921012"></trkpt>
    <trkpt lat="35.073089204" lon="129.071975323"></trkpt>
    <trkpt lat="35.07298909" lon="129.072063603"></trkpt>
    <trkpt lat="35.072937182" lon="129.072097551"></trkpt>
    <trkpt lat="35.07288256" lon="129.072127267"></trkpt>
    <trkpt lat="35.072815438" lon="129.072171963"></trkpt>
    <trkpt lat="35.072749839" lon="129.072225979"></trkpt>
    <trkpt lat="35.072719325" lon="129.07225951"></trkpt>
    <trkpt lat="35.072659479" lon="129.072242255"></trkpt>
    <trkpt lat="35.072506642" lon="129.0719599"></trkpt>
    <trkpt lat="35.071921504" lon="129.070987592"></trkpt>
    <trkpt lat="35.071528286" lon="129.070323033"></trkpt>
    <trkpt lat="35.071288536" lon="129.069922704"></trkpt>
    <trkpt lat="35.071158271" lon="129.069687331"></trkpt>
    <trkpt lat="35.070679282" lon="129.06881389"></trkpt>
    <trkpt lat="35.07040425" lon="129.068335072"></trkpt>
    <trkpt lat="35.070090884" lon="129.067811778"></trkpt>
    <trkpt lat="35.069648736" lon="129.067090235"></trkpt>
    <trkpt lat="35.069249975" lon="129.066440512"></trkpt>
    <trkpt lat="35.069034122" lon="129.06604221"></trkpt>
    <trkpt lat="35.068949338" lon="129.065897812"></trkpt>
    <trkpt lat="35.068921626" lon="129.065795027"></trkpt>
    <trkpt lat="35.068903462" lon="129.06574967"></trkpt>
    <trkpt lat="35.068883986" lon="129.065688664"></trkpt>
    <trkpt lat="35.068871435" lon="129.065653788"></trkpt>
    <trkpt lat="35.068831823" lon="129.065625577"></trkpt>
    <trkpt lat="35.068756485" lon="129.065623048"></trkpt>
    <trkpt lat="35.068674112" lon="129.065610022"></trkpt>
    <trkpt lat="35.068655764" lon="129.06559072"></trkpt>
    <trkpt lat="35.068668987" lon="129.065530058"></trkpt>
    <trkpt lat="35.068667896" lon="129.065483143"></trkpt>
    <trkpt lat="35.068706734" lon="129.065419276"></trkpt>
    <trkpt lat="35.068738342" lon="129.065372704"></trkpt>
    <trkpt lat="35.068761163" lon="129.065311891"></trkpt>
    <trkpt lat="35.068788615" lon="129.065249641"></trkpt>
    <trkpt lat="35.068821742" lon="129.065189188"></trkpt>
    <trkpt lat="35.068838053" lon="129.065093815"></trkpt>
    <trkpt lat="35.068848751" lon="129.064987959"></trkpt>
    <trkpt lat="35.068872465" lon="129.064890454"></trkpt>
    <trkpt lat="35.068874335" lon="129.06479116"></trkpt>
    <trkpt lat="35.06888359" lon="129.064705409"></trkpt>
    <trkpt lat="35.068946413" lon="129.064601623"></trkpt>
    <trkpt lat="35.069029567" lon="129.064434655"></trkpt>
    <trkpt lat="35.0690924" lon="129.06428122"></trkpt>
    <trkpt lat="35.069157075" lon="129.064154866"></trkpt>
    <trkpt lat="35.069208815" lon="129.064051074"></trkpt>
    <trkpt lat="35.069249317" lon="129.063957461"></trkpt>
    <trkpt lat="35.069312144" lon="129.063826594"></trkpt>
    <trkpt lat="35.069376821" lon="129.063688956"></trkpt>
    <trkpt lat="35.069443342" lon="129.06355809"></trkpt>
    <trkpt lat="35.06952464" lon="129.063422714"></trkpt>
    <trkpt lat="35.069600384" lon="129.063350524"></trkpt>
    <trkpt lat="35.069663201" lon="129.063267046"></trkpt>
    <trkpt lat="35.069696465" lon="129.063183559"></trkpt>
    <trkpt lat="35.069689118" lon="129.062996249"></trkpt>
    <trkpt lat="35.069681761" lon="129.062854073"></trkpt>
    <trkpt lat="35.069678093" lon="129.062732209"></trkpt>
    <trkpt lat="35.069691047" lon="129.062617119"></trkpt>
    <trkpt lat="35.069705846" lon="129.062508801"></trkpt>
    <trkpt lat="35.069728083" lon="129.062432348"></trkpt>
    <trkpt lat="35.069759205" lon="129.062318366"></trkpt>
    <trkpt lat="35.069790321" lon="129.062238381"></trkpt>
    <trkpt lat="35.069813253" lon="129.062156395"></trkpt>
    <trkpt lat="35.069821454" lon="129.062076403"></trkpt>
    <trkpt lat="35.069806738" lon="129.062004404"></trkpt>
    <trkpt lat="35.069819844" lon="129.061946412"></trkpt>
    <trkpt lat="35.06984113" lon="129.061910422"></trkpt>
    <trkpt lat="35.069893517" lon="129.061860441"></trkpt>
    <trkpt lat="35.069931179" lon="129.061786458"></trkpt>
    <trkpt lat="35.069926287" lon="129.061696463"></trkpt>
    <trkpt lat="35.069906666" lon="129.061596465"></trkpt>
    <trkpt lat="35.069875585" lon="129.061508461"></trkpt>
    <trkpt lat="35.0698756" lon="129.061438466"></trkpt>
    <trkpt lat="35.069895254" lon="129.061376477"></trkpt>
    <trkpt lat="35.069929634" lon="129.061340489"></trkpt>
    <trkpt lat="35.069973833" lon="129.061312505"></trkpt>
    <trkpt lat="35.070013122" lon="129.061282518"></trkpt>
    <trkpt lat="35.070037687" lon="129.06122053"></trkpt>
    <trkpt lat="35.070045895" lon="129.06109854"></trkpt>
    <trkpt lat="35.070037733" lon="129.060994544"></trkpt>
    <trkpt lat="35.070024655" lon="129.060912545"></trkpt>
    <trkpt lat="35.070014862" lon="129.060763149"></trkpt>
    <trkpt lat="35.070000147" lon="129.06068115"></trkpt>
    <trkpt lat="35.069995264" lon="129.060543158"></trkpt>
    <trkpt lat="35.069998555" lon="129.060457165"></trkpt>
    <trkpt lat="35.070008397" lon="129.060347176"></trkpt>
    <trkpt lat="35.070031332" lon="129.06024319"></trkpt>
    <trkpt lat="35.070059179" lon="129.060133206"></trkpt>
    <trkpt lat="35.070101755" lon="129.060035224"></trkpt>
    <trkpt lat="35.070167247" lon="129.05992725"></trkpt>
    <trkpt lat="35.070240925" lon="129.059813278"></trkpt>
    <trkpt lat="35.070281978" lon="129.059738267"></trkpt>
    <trkpt lat="35.070317998" lon="129.059684281"></trkpt>
    <trkpt lat="35.070363845" lon="129.0595923"></trkpt>
    <trkpt lat="35.070396595" lon="129.059516315"></trkpt>
    <trkpt lat="35.070416256" lon="129.059410327"></trkpt>
    <trkpt lat="35.070427735" lon="129.059296338"></trkpt>
    <trkpt lat="35.070434299" lon="129.059206346"></trkpt>
    <trkpt lat="35.070445783" lon="129.059062359"></trkpt>
    <trkpt lat="35.070457255" lon="129.058982367"></trkpt>
    <trkpt lat="35.070468731" lon="129.058882376"></trkpt>
    <trkpt lat="35.070472014" lon="129.05883238"></trkpt>
    <trkpt lat="35.070498211" lon="129.058782391"></trkpt>
    <trkpt lat="35.070530959" lon="129.058718403"></trkpt>
    <trkpt lat="35.070545695" lon="129.058688409"></trkpt>
    <trkpt lat="35.070547338" lon="129.058654412"></trkpt>
    <trkpt lat="35.070524429" lon="129.058620408"></trkpt>
    <trkpt lat="35.070491697" lon="129.0586004"></trkpt>
    <trkpt lat="35.070419682" lon="129.058580382"></trkpt>
    <trkpt lat="35.070354217" lon="129.058544366"></trkpt>
    <trkpt lat="35.070274024" lon="129.058490348"></trkpt>
    <trkpt lat="35.0702102" lon="129.058434334"></trkpt>
    <trkpt lat="35.070152924" lon="129.058368323"></trkpt>
    <trkpt lat="35.070121833" lon="129.058328896"></trkpt>
    <trkpt lat="35.070077647" lon="129.058284887"></trkpt>
    <trkpt lat="35.070038375" lon="129.058222881"></trkpt>
    <trkpt lat="35.070028562" lon="129.058182881"></trkpt>
    <trkpt lat="35.070046573" lon="129.058142889"></trkpt>
    <trkpt lat="35.070071131" lon="129.058108898"></trkpt>
    <trkpt lat="35.070095686" lon="129.058092905"></trkpt>
    <trkpt lat="35.070100605" lon="129.05804091"></trkpt>
    <trkpt lat="35.070097341" lon="129.057986913"></trkpt>
    <trkpt lat="35.070076073" lon="129.057928911"></trkpt>
    <trkpt lat="35.07002371" lon="129.057846903"></trkpt>
    <trkpt lat="35.069972979" lon="129.057792894"></trkpt>
    <trkpt lat="35.069945158" lon="129.057766888"></trkpt>
    <trkpt lat="35.069904252" lon="129.057684883"></trkpt>
    <trkpt lat="35.069886261" lon="129.057608884"></trkpt>
    <trkpt lat="35.069874815" lon="129.057540885"></trkpt>
    <trkpt lat="35.069868279" lon="129.057470888"></trkpt>
    <trkpt lat="35.069884665" lon="129.057366899"></trkpt>
    <trkpt lat="35.069910861" lon="129.057318909"></trkpt>
    <trkpt lat="35.069956692" lon="129.057314921"></trkpt>
    <trkpt lat="35.070022166" lon="129.057302939"></trkpt>
    <trkpt lat="35.070082726" lon="129.057308954"></trkpt>
    <trkpt lat="35.070149834" lon="129.057310971"></trkpt>
    <trkpt lat="35.070221852" lon="129.057314989"></trkpt>
    <trkpt lat="35.070280778" lon="129.057309004"></trkpt>
    <trkpt lat="35.070328247" lon="129.057295017"></trkpt>
    <trkpt lat="35.070364266" lon="129.05723503"></trkpt>
    <trkpt lat="35.070413384" lon="129.057154493"></trkpt>
    <trkpt lat="35.070433036" lon="129.057088502"></trkpt>
    <trkpt lat="35.070469062" lon="129.056988518"></trkpt>
    <trkpt lat="35.070514908" lon="129.056894535"></trkpt>
    <trkpt lat="35.070575485" lon="129.056798557"></trkpt>
    <trkpt lat="35.070577134" lon="129.056722562"></trkpt>
    <trkpt lat="35.070570601" lon="129.056638566"></trkpt>
    <trkpt lat="35.070595172" lon="129.056520579"></trkpt>
    <trkpt lat="35.070647568" lon="129.0564026"></trkpt>
    <trkpt lat="35.070691774" lon="129.056324615"></trkpt>
    <trkpt lat="35.07074089" lon="129.056248631"></trkpt>
    <trkpt lat="35.070806373" lon="129.056178651"></trkpt>
    <trkpt lat="35.070863667" lon="129.056136667"></trkpt>
    <trkpt lat="35.070924237" lon="129.056084684"></trkpt>
    <trkpt lat="35.070979893" lon="129.056054699"></trkpt>
    <trkpt lat="35.071065017" lon="129.055986722"></trkpt>
    <trkpt lat="35.071128957" lon="129.055931666"></trkpt>
    <trkpt lat="35.07117274" lon="129.055880248"></trkpt>
    <trkpt lat="35.071241786" lon="129.055769179"></trkpt>
    <trkpt lat="35.071260321" lon="129.055676612"></trkpt>
    <trkpt lat="35.071260342" lon="129.055542899"></trkpt>
    <trkpt lat="35.071270462" lon="129.055423587"></trkpt>
    <trkpt lat="35.0712789" lon="129.055298103"></trkpt>
    <trkpt lat="35.07128734" lon="129.055152048"></trkpt>
    <trkpt lat="35.071300829" lon="129.055022451"></trkpt>
    <trkpt lat="35.071327793" lon="129.054855828"></trkpt>
    <trkpt lat="35.071357644" lon="129.054741285"></trkpt>
    <trkpt lat="35.071380703" lon="129.054623044"></trkpt>
    <trkpt lat="35.071409904" lon="129.054527328"></trkpt>
    <trkpt lat="35.071452926" lon="129.054461645"></trkpt>
    <trkpt lat="35.071499017" lon="129.054414732"></trkpt>
    <trkpt lat="35.07155125" lon="129.054380959"></trkpt>
    <trkpt lat="35.071601952" lon="129.054320908"></trkpt>
    <trkpt lat="35.071648053" lon="129.054206425"></trkpt>
    <trkpt lat="35.071689548" lon="129.054075048"></trkpt>
    <trkpt lat="35.07171406" lon="129.053971493"></trkpt>
    <trkpt lat="35.071756501" lon="129.053822772"></trkpt>
    <trkpt lat="35.071802625" lon="129.05371236"></trkpt>
    <trkpt lat="35.071835842" lon="129.053577157"></trkpt>
    <trkpt lat="35.071918866" lon="129.053365345"></trkpt>
    <trkpt lat="35.071970525" lon="129.053234653"></trkpt>
    <trkpt lat="35.072020333" lon="129.053158043"></trkpt>
    <trkpt lat="35.072086743" lon="129.053058902"></trkpt>
    <trkpt lat="35.072162376" lon="129.052941734"></trkpt>
    <trkpt lat="35.07227685" lon="129.052796344"></trkpt>
    <trkpt lat="35.072409125" lon="129.052637943"></trkpt>
    <trkpt lat="35.072515468" lon="129.052482706"></trkpt>
    <trkpt lat="35.072626998" lon="129.052314795"></trkpt>
    <trkpt lat="35.072709994" lon="129.05220708"></trkpt>
    <trkpt lat="35.072857827" lon="129.052051849"></trkpt>
    <trkpt lat="35.073003064" lon="129.05191246"></trkpt>
    <trkpt lat="35.073124966" lon="129.051744549"></trkpt>
    <trkpt lat="35.073223523" lon="129.05162733"></trkpt>
    <trkpt lat="35.07333967" lon="129.051497608"></trkpt>
    <trkpt lat="35.073417424" lon="129.051328769"></trkpt>
    <trkpt lat="35.073483662" lon="129.051159928"></trkpt>
    <trkpt lat="35.07355566" lon="129.050959428"></trkpt>
    <trkpt lat="35.073558557" lon="129.050808165"></trkpt>
    <trkpt lat="35.073561453" lon="129.050663938"></trkpt>
    <trkpt lat="35.073633432" lon="129.050628772"></trkpt>
    <trkpt lat="35.073745719" lon="129.050565472"></trkpt>
    <trkpt lat="35.073846494" lon="129.050474027"></trkpt>
    <trkpt lat="35.073996216" lon="129.050340377"></trkpt>
    <trkpt lat="35.074082599" lon="129.050220788"></trkpt>
    <trkpt lat="35.074203535" lon="129.050051954"></trkpt>
    <trkpt lat="35.074310079" lon="129.049854976"></trkpt>
    <trkpt lat="35.074448286" lon="129.049703733"></trkpt>
    <trkpt lat="35.074540425" lon="129.049601732"></trkpt>
    <trkpt lat="35.074664236" lon="129.049464556"></trkpt>
    <trkpt lat="35.074796679" lon="129.049383667"></trkpt>
    <trkpt lat="35.07491761" lon="129.049253525"></trkpt>
    <trkpt lat="35.074995361" lon="129.049091716"></trkpt>
    <trkpt lat="35.075038562" lon="129.048943973"></trkpt>
    <trkpt lat="35.075093281" lon="129.048775123"></trkpt>
    <trkpt lat="35.075093297" lon="129.048623854"></trkpt>
    <trkpt lat="35.07509619" lon="129.048486657"></trkpt>
    <trkpt lat="35.075156655" lon="129.048437414"></trkpt>
    <trkpt lat="35.075248073" lon="129.048274133"></trkpt>
    <trkpt lat="35.075542377" lon="129.04748212"></trkpt>
    <trkpt lat="35.075735679" lon="129.047227762"></trkpt>
    <trkpt lat="35.07586166" lon="129.047035868"></trkpt>
    <trkpt lat="35.076036719" lon="129.046781319"></trkpt>
    <trkpt lat="35.076308734" lon="129.046576062"></trkpt>
    <trkpt lat="35.076415502" lon="129.046525146"></trkpt>
    <trkpt lat="35.076529622" lon="129.046509173"></trkpt>
    <trkpt lat="35.076582392" lon="129.046427349"></trkpt>
    <trkpt lat="35.076655454" lon="129.046355446"></trkpt>
    <trkpt lat="35.076756929" lon="129.046271148"></trkpt>
    <trkpt lat="35.076846227" lon="129.046189328"></trkpt>
    <trkpt lat="35.076929436" lon="129.046124865"></trkpt>
    <trkpt lat="35.077016703" lon="129.046062882"></trkpt>
    <trkpt lat="35.077146589" lon="129.045981066"></trkpt>
    <trkpt lat="35.077248063" lon="129.045891807"></trkpt>
    <trkpt lat="35.077333303" lon="129.045812465"></trkpt>
    <trkpt lat="35.077412455" lon="129.045725683"></trkpt>
    <trkpt lat="35.077507841" lon="129.045651301"></trkpt>
    <trkpt lat="35.077582931" lon="129.045604194"></trkpt>
    <trkpt lat="35.077653963" lon="129.045547167"></trkpt>
    <trkpt lat="35.077724999" lon="129.045440545"></trkpt>
    <trkpt lat="35.077775741" lon="129.045351278"></trkpt>
    <trkpt lat="35.077848879" lon="129.045228153"></trkpt>
    <trkpt lat="35.077909767" lon="129.045131448"></trkpt>
    <trkpt lat="35.077988919" lon="129.045034745"></trkpt>
    <trkpt lat="35.078059953" lon="129.044950441"></trkpt>
    <trkpt lat="35.078141135" lon="129.044848779"></trkpt>
    <trkpt lat="35.07820405" lon="129.044779351"></trkpt>
    <trkpt lat="35.078273054" lon="129.044692567"></trkpt>
    <trkpt lat="35.078350173" lon="129.04463554"></trkpt>
    <trkpt lat="35.078389691" lon="129.044615971"></trkpt>
    <trkpt lat="35.078430617" lon="129.044591834"></trkpt>
    <trkpt lat="35.078474364" lon="129.044569421"></trkpt>
    <trkpt lat="35.078535047" lon="129.044529767"></trkpt>
    <trkpt lat="35.078574562" lon="129.044486661"></trkpt>
    <trkpt lat="35.078632424" lon="129.044428038"></trkpt>
    <trkpt lat="35.078683229" lon="129.044378036"></trkpt>
    <trkpt lat="35.078742502" lon="129.044309067"></trkpt>
    <trkpt lat="35.078793307" lon="129.044253892"></trkpt>
    <trkpt lat="35.078856814" lon="129.044193544"></trkpt>
    <trkpt lat="35.07889633" lon="129.044143541"></trkpt>
    <trkpt lat="35.078934435" lon="129.044083191"></trkpt>
    <trkpt lat="35.078988065" lon="129.043995252"></trkpt>
    <trkpt lat="35.079014881" lon="129.043941798"></trkpt>
    <trkpt lat="35.07905256" lon="129.043880153"></trkpt>
    <trkpt lat="35.079083679" lon="129.04383833"></trkpt>
    <trkpt lat="35.079124133" lon="129.043785101"></trkpt>
    <trkpt lat="35.079191039" lon="129.043714764"></trkpt>
    <trkpt lat="35.079248608" lon="129.043663437"></trkpt>
    <trkpt lat="35.079305658" lon="129.043599482"></trkpt>
    <trkpt lat="35.079377231" lon="129.043508233"></trkpt>
    <trkpt lat="35.079437912" lon="129.0434474"></trkpt>
    <trkpt lat="35.079489258" lon="129.043382765"></trkpt>
    <trkpt lat="35.079537492" lon="129.043327636"></trkpt>
    <trkpt lat="35.079581058" lon="129.043270604"></trkpt>
    <trkpt lat="35.079629294" lon="129.043169847"></trkpt>
    <trkpt lat="35.079680643" lon="129.043042473"></trkpt>
    <trkpt lat="35.079711764" lon="129.042960725"></trkpt>
    <trkpt lat="35.079739772" lon="129.042896088"></trkpt>
    <trkpt lat="35.079764669" lon="129.042823845"></trkpt>
    <trkpt lat="35.079800455" lon="129.042782022"></trkpt>
    <trkpt lat="35.079864248" lon="129.042698375"></trkpt>
    <trkpt lat="35.079929597" lon="129.042610926"></trkpt>
    <trkpt lat="35.080024872" lon="129.042505587"></trkpt>
    <trkpt lat="35.080157357" lon="129.042337365"></trkpt>
    <trkpt lat="35.080284645" lon="129.042194535"></trkpt>
    <trkpt lat="35.080409337" lon="129.042039007"></trkpt>
    <trkpt lat="35.080554807" lon="129.041937441"></trkpt>
    <trkpt lat="35.080679496" lon="129.041829525"></trkpt>
    <trkpt lat="35.080801587" lon="129.041747002"></trkpt>
    <trkpt lat="35.080872879" lon="129.041673723"></trkpt>
    <trkpt lat="35.080950964" lon="129.04161084"></trkpt>
    <trkpt lat="35.08102195" lon="129.041567474"></trkpt>
    <trkpt lat="35.081080514" lon="129.041502421"></trkpt>
    <trkpt lat="35.081163923" lon="129.041448212"></trkpt>
    <trkpt lat="35.081257981" lon="129.04135497"></trkpt>
    <trkpt lat="35.081344939" lon="129.041276907"></trkpt>
    <trkpt lat="35.081392856" lon="129.04123137"></trkpt>
    <trkpt lat="35.081431899" lon="129.041179327"></trkpt>
    <trkpt lat="35.081391322" lon="129.041093122"></trkpt>
    <trkpt lat="35.081346749" lon="129.041011413"></trkpt>
    <trkpt lat="35.081308367" lon="129.040940296"></trkpt>
    <trkpt lat="35.081255127" lon="129.040849508"></trkpt>
    <trkpt lat="35.081200649" lon="129.040757207"></trkpt>
    <trkpt lat="35.081135028" lon="129.040630105"></trkpt>
    <trkpt lat="35.081069406" lon="129.040518134"></trkpt>
    <trkpt lat="35.081003784" lon="129.040407676"></trkpt>
    <trkpt lat="35.080943114" lon="129.040310835"></trkpt>
    <trkpt lat="35.080891046" lon="129.040219949"></trkpt>
    <trkpt lat="35.080866283" lon="129.040180608"></trkpt>
    <trkpt lat="35.080839044" lon="129.040117058"></trkpt>
    <trkpt lat="35.080800662" lon="129.040042915"></trkpt>
    <trkpt lat="35.08074846" lon="129.039939099"></trkpt>
    <trkpt lat="35.080703486" lon="129.039862155"></trkpt>
    <trkpt lat="35.08073347" lon="129.039796204"></trkpt>
    <trkpt lat="35.080814427" lon="129.039689951"></trkpt>
    <trkpt lat="35.08092237" lon="129.039539731"></trkpt>
    <trkpt lat="35.0810543" lon="129.039382183"></trkpt>
    <trkpt lat="35.081201221" lon="129.039195324"></trkpt>
    <trkpt lat="35.081357138" lon="129.039026783"></trkpt>
    <trkpt lat="35.081495064" lon="129.038858241"></trkpt>
    <trkpt lat="35.081620997" lon="129.038664051"></trkpt>
    <trkpt lat="35.081863867" lon="129.038418563"></trkpt>
    <trkpt lat="35.082019784" lon="129.038250017"></trkpt>
    <trkpt lat="35.082172704" lon="129.038041166"></trkpt>
    <trkpt lat="35.08231838" lon="129.037850177"></trkpt>
    <trkpt lat="35.082522268" lon="129.037615679"></trkpt>
    <trkpt lat="35.082690175" lon="129.037410492"></trkpt>
    <trkpt lat="35.082846088" lon="129.037216296"></trkpt>
    <trkpt lat="35.08304098" lon="129.036981794"></trkpt>
    <trkpt lat="35.08320289" lon="129.036794924"></trkpt>
    <trkpt lat="35.083412775" lon="129.036567746"></trkpt>
    <trkpt lat="35.083604669" lon="129.036336901"></trkpt>
    <trkpt lat="35.083856531" lon="129.036021777"></trkpt>
    <trkpt lat="35.084014509" lon="129.035848627"></trkpt>
    <trkpt lat="35.084155428" lon="129.035672746"></trkpt>
    <trkpt lat="35.084347319" lon="129.035456558"></trkpt>
    <trkpt lat="35.084509226" lon="129.035251362"></trkpt>
    <trkpt lat="35.084737095" lon="129.034983872"></trkpt>
    <trkpt lat="35.084931984" lon="129.034767678"></trkpt>
    <trkpt lat="35.085105885" lon="129.034558812"></trkpt>
    <trkpt lat="35.085279787" lon="129.034360936"></trkpt>
    <trkpt lat="35.085483673" lon="129.034115421"></trkpt>
    <trkpt lat="35.08552468" lon="129.034082447"></trkpt>
    <trkpt lat="35.08556366" lon="129.034111759"></trkpt>
    <trkpt lat="35.085633223" lon="129.034207026"></trkpt>
    <trkpt lat="35.08571718" lon="129.03430962"></trkpt>
    <trkpt lat="35.085789143" lon="129.034375573"></trkpt>
    <trkpt lat="35.085924073" lon="129.034463507"></trkpt>
    <trkpt lat="35.086047008" lon="129.034533121"></trkpt>
    <trkpt lat="35.086142957" lon="129.034533117"></trkpt>
    <trkpt lat="35.086259895" lon="129.034591738"></trkpt>
    <trkpt lat="35.086421811" lon="129.034690665"></trkpt>
    <trkpt lat="35.086589724" lon="129.034778598"></trkpt>
    <trkpt lat="35.086777563" lon="129.034873865"></trkpt>
    <trkpt lat="35.086942476" lon="129.034976458"></trkpt>
    <trkpt lat="35.087134375" lon="129.035097371"></trkpt>
    <trkpt lat="35.087323274" lon="129.03518897"></trkpt>
    <trkpt lat="35.087485188" lon="129.035276906"></trkpt>
    <trkpt lat="35.087644103" lon="129.03535385"></trkpt>
    <trkpt lat="35.087818011" lon="129.0354711"></trkpt>
    <trkpt lat="35.088009909" lon="129.035566365"></trkpt>
    <trkpt lat="35.088219798" lon="129.035672622"></trkpt>
    <trkpt lat="35.088402701" lon="129.035771552"></trkpt>
    <trkpt lat="35.088555621" lon="129.035848498"></trkpt>
    <trkpt lat="35.088730042" lon="129.035936437"></trkpt>
    <trkpt lat="35.08886497" lon="129.036028041"></trkpt>
    <trkpt lat="35.089065862" lon="129.036137965"></trkpt>
    <trkpt lat="35.089227775" lon="129.036214912"></trkpt>
    <trkpt lat="35.089428668" lon="129.036332167"></trkpt>
    <trkpt lat="35.089602575" lon="129.036416443"></trkpt>
    <trkpt lat="35.089743501" lon="129.036508049"></trkpt>
    <trkpt lat="35.089832373" lon="129.036553328"></trkpt>
    <trkpt lat="35.089939575" lon="129.036609076"></trkpt>
    <trkpt lat="35.090033092" lon="129.036648099"></trkpt>
    <trkpt lat="35.090117485" lon="129.036689911"></trkpt>
    <trkpt lat="35.090153979" lon="129.03668991"></trkpt>
    <trkpt lat="35.090197315" lon="129.036631371"></trkpt>
    <trkpt lat="35.090256615" lon="129.036425094"></trkpt>
    <trkpt lat="35.090311353" lon="129.036260629"></trkpt>
    <trkpt lat="35.090384338" lon="129.036048776"></trkpt>
    <trkpt lat="35.090455042" lon="129.035864798"></trkpt>
    <trkpt lat="35.090530308" lon="129.035641793"></trkpt>
    <trkpt lat="35.090601013" lon="129.035496838"></trkpt>
    <trkpt lat="35.090668005" lon="129.035414794"></trkpt>
    <trkpt lat="35.090779764" lon="129.035239176"></trkpt>
    <trkpt lat="35.090893804" lon="129.035074707"></trkpt>
    <trkpt lat="35.091028372" lon="129.034907449"></trkpt>
    <trkpt lat="35.09116294" lon="129.03474019"></trkpt>
    <trkpt lat="35.091292946" lon="129.034558992"></trkpt>
    <trkpt lat="35.091418391" lon="129.034411244"></trkpt>
    <trkpt lat="35.09155524" lon="129.034221681"></trkpt>
    <trkpt lat="35.091642116" lon="129.034106393"></trkpt>
    <trkpt lat="35.091765278" lon="129.033967009"></trkpt>
    <trkpt lat="35.091865633" lon="129.033847138"></trkpt>
    <trkpt lat="35.091972248" lon="129.033699697"></trkpt>
    <trkpt lat="35.092072766" lon="129.033578729"></trkpt>
    <trkpt lat="35.09217019" lon="129.033435079"></trkpt>
    <trkpt lat="35.092259882" lon="129.033319779"></trkpt>
    <trkpt lat="35.092361947" lon="129.033204479"></trkpt>
    <trkpt lat="35.09247329" lon="129.033066496"></trkpt>
    <trkpt lat="35.092537289" lon="129.033001449"></trkpt>
    <trkpt lat="35.092574074" lon="129.032955036"></trkpt>
    <trkpt lat="35.092606113" lon="129.032924577"></trkpt>
    <trkpt lat="35.092640526" lon="129.032894118"></trkpt>
    <trkpt lat="35.092646458" lon="129.032866562"></trkpt>
    <trkpt lat="35.09264527" lon="129.032824502"></trkpt>
    <trkpt lat="35.092622721" lon="129.032779544"></trkpt>
    <trkpt lat="35.092578808" lon="129.032667872"></trkpt>
    <trkpt lat="35.092545577" lon="129.032583756"></trkpt>
    <trkpt lat="35.092505225" lon="129.032485136"></trkpt>
    <trkpt lat="35.092458938" lon="129.032347359"></trkpt>
    <trkpt lat="35.092437575" lon="129.032290798"></trkpt>
    <trkpt lat="35.09244588" lon="129.032263241"></trkpt>
    <trkpt lat="35.092500466" lon="129.032224079"></trkpt>
    <trkpt lat="35.092563359" lon="129.032195067"></trkpt>
    <trkpt lat="35.09263456" lon="129.032170406"></trkpt>
    <trkpt lat="35.092722374" lon="129.032148645"></trkpt>
    <trkpt lat="35.092831549" lon="129.032141385"></trkpt>
    <trkpt lat="35.092905493" lon="129.032125426"></trkpt>
    <trkpt lat="35.092979067" lon="129.032109467"></trkpt>
    <trkpt lat="35.093063321" lon="129.03210366"></trkpt>
    <trkpt lat="35.093119097" lon="129.032118159"></trkpt>
    <trkpt lat="35.093168173" lon="129.032308422"></trkpt>
    <trkpt lat="35.093216126" lon="129.032522114"></trkpt>
    <trkpt lat="35.093249978" lon="129.032749594"></trkpt>
    <trkpt lat="35.093297931" lon="129.0330012"></trkpt>
    <trkpt lat="35.093317682" lon="129.033245915"></trkpt>
    <trkpt lat="35.093337431" lon="129.033442375"></trkpt>
    <trkpt lat="35.093340257" lon="129.03359403"></trkpt>
    <trkpt lat="35.093340263" lon="129.033745685"></trkpt>
    <trkpt lat="35.093340268" lon="129.033897341"></trkpt>
    <trkpt lat="35.093320531" lon="129.03399385"></trkpt>
    <trkpt lat="35.093283816" lon="129.034053594"></trkpt>
    <trkpt lat="35.093231408" lon="129.034108754"></trkpt>
    <trkpt lat="35.093151341" lon="129.034201279"></trkpt>
    <trkpt lat="35.093055261" lon="129.034320494"></trkpt>
    <trkpt lat="35.092985384" lon="129.03440768"></trkpt>
    <trkpt lat="35.092912597" lon="129.034498425"></trkpt>
    <trkpt lat="35.092844176" lon="129.034594507"></trkpt>
    <trkpt lat="35.092793225" lon="129.034676354"></trkpt>
    <trkpt lat="35.092745185" lon="129.034749305"></trkpt>
    <trkpt lat="35.092704425" lon="129.034841826"></trkpt>
    <trkpt lat="35.092647652" lon="129.034989505"></trkpt>
    <trkpt lat="35.092576322" lon="129.035179886"></trkpt>
    <trkpt lat="35.092531195" lon="129.035316889"></trkpt>
    <trkpt lat="35.092468599" lon="129.035475244"></trkpt>
    <trkpt lat="35.092396552" lon="129.03565449"></trkpt>
    <trkpt lat="35.092348513" lon="129.035791492"></trkpt>
    <trkpt lat="35.092309208" lon="129.035901805"></trkpt>
    <trkpt lat="35.092272815" lon="129.035999664"></trkpt>
    <trkpt lat="35.092229142" lon="129.036129548"></trkpt>
    <trkpt lat="35.092176736" lon="129.036277226"></trkpt>
    <trkpt lat="35.09212724" lon="129.036423123"></trkpt>
    <trkpt lat="35.092074833" lon="129.036565463"></trkpt>
    <trkpt lat="35.092028248" lon="129.036706023"></trkpt>
    <trkpt lat="35.091994765" lon="129.036800323"></trkpt>
    <trkpt lat="35.09194527" lon="129.036933361"></trkpt>
    <trkpt lat="35.091911787" lon="129.037031219"></trkpt>
    <trkpt lat="35.09187976" lon="129.037130856"></trkpt>
    <trkpt lat="35.091913244" lon="129.037161102"></trkpt>
    <trkpt lat="35.091996226" lon="129.037202023"></trkpt>
    <trkpt lat="35.092099589" lon="129.037260736"></trkpt>
    <trkpt lat="35.092185482" lon="129.037314112"></trkpt>
    <trkpt lat="35.092258273" lon="129.037356813"></trkpt>
    <trkpt lat="35.092329608" lon="129.037392397"></trkpt>
    <trkpt lat="35.092376194" lon="129.037415526"></trkpt>
    <trkpt lat="35.092431515" lon="129.037438656"></trkpt>
    <trkpt lat="35.092448985" lon="129.037419084"></trkpt>
    <trkpt lat="35.092482468" lon="129.037317667"></trkpt>
    <trkpt lat="35.092530508" lon="129.037177108"></trkpt>
    <trkpt lat="35.092564342" lon="129.03709091"></trkpt>
    <trkpt lat="35.092598853" lon="129.036999279"></trkpt>
    <trkpt lat="35.092628604" lon="129.036904739"></trkpt>
    <trkpt lat="35.092654785" lon="129.036832016"></trkpt>
    <trkpt lat="35.092686916" lon="129.036770929"></trkpt>
    <trkpt lat="35.092770422" lon="129.036739303"></trkpt>
    <trkpt lat="35.092837246" lon="129.036717683"></trkpt>
    <trkpt lat="35.0928468" lon="129.036769086"></trkpt>
    <trkpt lat="35.092974324" lon="129.036720714"></trkpt>
    <trkpt lat="35.093097452" lon="129.036688466"></trkpt>
    <trkpt lat="35.093257956" lon="129.036621283"></trkpt>
    <trkpt lat="35.09342066" lon="129.036562162"></trkpt>
    <trkpt lat="35.093574793" lon="129.036499812"></trkpt>
    <trkpt lat="35.093706549" lon="129.036452908"></trkpt>
    <trkpt lat="35.093937353" lon="129.036382109"></trkpt>
    <trkpt lat="35.09415968" lon="129.036296559"></trkpt>
    <trkpt lat="35.094260735" lon="129.036260599"></trkpt>
    <trkpt lat="35.094366906" lon="129.036224638"></trkpt>
    <trkpt lat="35.094468708" lon="129.036183964"></trkpt>
    <trkpt lat="35.094510109" lon="129.036167096"></trkpt>
    <trkpt lat="35.094530811" lon="129.036233358"></trkpt>
    <trkpt lat="35.094552499" lon="129.036345401"></trkpt>
    <trkpt lat="35.094581088" lon="129.036458649"></trkpt>
    <trkpt lat="35.094607705" lon="129.036571897"></trkpt>
    <trkpt lat="35.094624517" lon="129.036653791"></trkpt>
    <trkpt lat="35.094642494" lon="129.036649273"></trkpt>
    <trkpt lat="35.094659415" lon="129.036642169"></trkpt>
    <trkpt lat="35.094675354" lon="129.036634839"></trkpt>
    <trkpt lat="35.094754508" lon="129.036608282"></trkpt>
    <trkpt lat="35.094878777" lon="129.036554279"></trkpt>
    <trkpt lat="35.095523953" lon="129.036297805"></trkpt>
    <trkpt lat="35.096035612" lon="129.036131268"></trkpt>
    <trkpt lat="35.096124312" lon="129.03611029"></trkpt>
    <trkpt lat="35.096342458" lon="129.036044758"></trkpt>
    <trkpt lat="35.096488149" lon="129.035985015"></trkpt>
    <trkpt lat="35.096557463" lon="129.035969207"></trkpt>
    <trkpt lat="35.096572046" lon="129.035961562"></trkpt>
    <trkpt lat="35.096588916" lon="129.035950133"></trkpt>
    <trkpt lat="35.096680861" lon="129.035925081"></trkpt>
    <trkpt lat="35.096841549" lon="129.035865731"></trkpt>
    <trkpt lat="35.096986654" lon="129.035843828"></trkpt>
    <trkpt lat="35.097128998" lon="129.035778461"></trkpt>
    <trkpt lat="35.097261071" lon="129.035741117"></trkpt>
    <trkpt lat="35.097342366" lon="129.035716227"></trkpt>
    <trkpt lat="35.097423654" lon="129.0356696"></trkpt>
  </trkseg>
</trk>
</gpx>
