<?xml version="1.0" encoding="UTF-8"?>
<gpx version="1.1" creator="GPS Track Editor" xmlns="http://www.topografix.com/GPX/1/1" xmlns:xsi="http://www.w3.org/2001/XMLSchema-instance" xmlns:gte="http://www.gpstrackeditor.com/xmlschemas/General/1" xmlns:gpxtpx="http://www.garmin.com/xmlschemas/TrackPointExtension/v1" xmlns:gpxx="http://www.garmin.com/xmlschemas/GpxExtensions/v3" targetNamespace="http://www.topografix.com/GPX/1/1" elementFormDefault="qualified" xsi:schemaLocation="http://www.topografix.com/GPX/1/1 http://www.topografix.com/GPX/1/1/gpx.xsd">
<metadata>
	<name>GPS_2020-01-17_050221</name>
</metadata>
<trk>
	<name>026-거제시 거제면 거제파출소~거제시 둔덕면 방하리 청마기념관</name>
	<trkseg>
		<trkpt lat="34.847557" lon="128.588852">
			<ele>5.71</ele>
			<time>2020-01-17T05:02:21.10Z</time>
		</trkpt>
		<trkpt lat="34.847807" lon="128.588359">
			<ele>5.71</ele>
			<time>2020-01-17T05:02:24.27Z</time>
		</trkpt>
		<trkpt lat="34.848155" lon="128.587776">
			<ele>5.71</ele>
			<time>2020-01-17T05:02:28.22Z</time>
		</trkpt>
		<trkpt lat="34.848424" lon="128.587466">
			<ele>5.71</ele>
			<time>2020-01-17T05:02:30.68Z</time>
		</trkpt>
		<trkpt lat="34.848771" lon="128.586986">
			<ele>5.71</ele>
			<time>2020-01-17T05:02:34.19Z</time>
		</trkpt>
		<trkpt lat="34.849236" lon="128.586340">
			<ele>5.71</ele>
			<time>2020-01-17T05:02:38.89Z</time>
		</trkpt>
		<trkpt lat="34.849325" lon="128.586199">
			<ele>5.71</ele>
			<time>2020-01-17T05:02:39.86Z</time>
		</trkpt>
		<trkpt lat="34.849337" lon="128.585827">
			<ele>7.87</ele>
			<time>2020-01-17T05:02:41.90Z</time>
		</trkpt>
		<trkpt lat="34.849298" lon="128.585778">
			<ele>7.49</ele>
			<time>2020-01-17T05:02:42.27Z</time>
		</trkpt>
		<trkpt lat="34.849253" lon="128.585729">
			<ele>7.32</ele>
			<time>2020-01-17T05:02:42.67Z</time>
		</trkpt>
		<trkpt lat="34.849207" lon="128.585683">
			<ele>7.41</ele>
			<time>2020-01-17T05:02:43.07Z</time>
		</trkpt>
		<trkpt lat="34.849010" lon="128.585513">
			<ele>6.97</ele>
			<time>2020-01-17T05:02:44.68Z</time>
		</trkpt>
		<trkpt lat="34.848977" lon="128.585463">
			<ele>7.10</ele>
			<time>2020-01-17T05:02:45.03Z</time>
		</trkpt>
		<trkpt lat="34.848952" lon="128.585407">
			<ele>7.38</ele>
			<time>2020-01-17T05:02:45.38Z</time>
		</trkpt>
		<trkpt lat="34.848934" lon="128.585345">
			<ele>7.17</ele>
			<time>2020-01-17T05:02:45.74Z</time>
		</trkpt>
		<trkpt lat="34.848928" lon="128.585289">
			<ele>6.68</ele>
			<time>2020-01-17T05:02:46.05Z</time>
		</trkpt>
		<trkpt lat="34.848935" lon="128.585239">
			<ele>6.62</ele>
			<time>2020-01-17T05:02:46.32Z</time>
		</trkpt>
		<trkpt lat="34.848942" lon="128.585184">
			<ele>6.44</ele>
			<time>2020-01-17T05:02:46.63Z</time>
		</trkpt>
		<trkpt lat="34.849046" lon="128.584459">
			<ele>7.31</ele>
			<time>2020-01-17T05:02:50.66Z</time>
		</trkpt>
		<trkpt lat="34.849178" lon="128.583904">
			<ele>6.61</ele>
			<time>2020-01-17T05:02:53.82Z</time>
		</trkpt>
		<trkpt lat="34.849262" lon="128.583671">
			<ele>6.27</ele>
			<time>2020-01-17T05:02:55.21Z</time>
		</trkpt>
		<trkpt lat="34.849292" lon="128.583624">
			<ele>6.89</ele>
			<time>2020-01-17T05:02:55.53Z</time>
		</trkpt>
		<trkpt lat="34.849400" lon="128.583490">
			<ele>6.89</ele>
			<time>2020-01-17T05:02:56.56Z</time>
		</trkpt>
		<trkpt lat="34.849450" lon="128.583433">
			<ele>6.89</ele>
			<time>2020-01-17T05:02:57.02Z</time>
		</trkpt>
		<trkpt lat="34.849482" lon="128.583310">
			<ele>6.89</ele>
			<time>2020-01-17T05:02:57.72Z</time>
		</trkpt>
		<trkpt lat="34.849582" lon="128.583472">
			<ele>6.89</ele>
			<time>2020-01-17T05:02:58.83Z</time>
		</trkpt>
		<trkpt lat="34.850005" lon="128.583975">
			<ele>6.06</ele>
			<time>2020-01-17T05:03:02.77Z</time>
		</trkpt>
		<trkpt lat="34.850145" lon="128.583820">
			<ele>6.06</ele>
			<time>2020-01-17T05:03:04.03Z</time>
		</trkpt>
		<trkpt lat="34.850210" lon="128.583608">
			<ele>6.06</ele>
			<time>2020-01-17T05:03:05.27Z</time>
		</trkpt>
		<trkpt lat="34.850227" lon="128.583407">
			<ele>6.06</ele>
			<time>2020-01-17T05:03:06.38Z</time>
		</trkpt>
		<trkpt lat="34.850221" lon="128.583223">
			<ele>6.06</ele>
			<time>2020-01-17T05:03:07.38Z</time>
		</trkpt>
		<trkpt lat="34.850127" lon="128.582964">
			<ele>6.06</ele>
			<time>2020-01-17T05:03:08.93Z</time>
		</trkpt>
		<trkpt lat="34.850073" lon="128.582781">
			<ele>6.06</ele>
			<time>2020-01-17T05:03:10Z</time>
		</trkpt>
		<trkpt lat="34.850673" lon="128.582043">
			<ele>7.21</ele>
			<time>2020-01-17T05:03:15.68Z</time>
		</trkpt>
		<trkpt lat="34.851215" lon="128.581336">
			<ele>6.96</ele>
			<time>2020-01-17T05:03:20.97Z</time>
		</trkpt>
		<trkpt lat="34.851505" lon="128.580975">
			<ele>7.57</ele>
			<time>2020-01-17T05:03:23.73Z</time>
		</trkpt>
		<trkpt lat="34.852461" lon="128.579796">
			<ele>7.35</ele>
			<time>2020-01-17T05:03:32.80Z</time>
		</trkpt>
		<trkpt lat="34.852653" lon="128.579557">
			<ele>7.35</ele>
			<time>2020-01-17T05:03:34.63Z</time>
		</trkpt>
		<trkpt lat="34.853053" lon="128.579114">
			<ele>7.35</ele>
			<time>2020-01-17T05:03:38.24Z</time>
		</trkpt>
		<trkpt lat="34.853501" lon="128.578566">
			<ele>8.86</ele>
			<time>2020-01-17T05:03:42.46Z</time>
		</trkpt>
		<trkpt lat="34.853735" lon="128.578295">
			<ele>9.63</ele>
			<time>2020-01-17T05:03:44.62Z</time>
		</trkpt>
		<trkpt lat="34.853860" lon="128.578238">
			<ele>9.63</ele>
			<time>2020-01-17T05:03:45.51Z</time>
		</trkpt>
		<trkpt lat="34.853919" lon="128.577825">
			<ele>9.63</ele>
			<time>2020-01-17T05:03:47.80Z</time>
		</trkpt>
		<trkpt lat="34.853961" lon="128.577702">
			<ele>9.63</ele>
			<time>2020-01-17T05:03:48.53Z</time>
		</trkpt>
		<trkpt lat="34.854133" lon="128.577738">
			<ele>9.63</ele>
			<time>2020-01-17T05:03:49.69Z</time>
		</trkpt>
		<trkpt lat="34.854329" lon="128.577738">
			<ele>9.63</ele>
			<time>2020-01-17T05:03:51Z</time>
		</trkpt>
		<trkpt lat="34.854572" lon="128.577615">
			<ele>9.63</ele>
			<time>2020-01-17T05:03:52.76Z</time>
		</trkpt>
		<trkpt lat="34.854810" lon="128.577506">
			<ele>9.63</ele>
			<time>2020-01-17T05:03:54.45Z</time>
		</trkpt>
		<trkpt lat="34.855119" lon="128.577318">
			<ele>9.63</ele>
			<time>2020-01-17T05:03:56.75Z</time>
		</trkpt>
		<trkpt lat="34.855416" lon="128.577173">
			<ele>9.63</ele>
			<time>2020-01-17T05:03:58.88Z</time>
		</trkpt>
		<trkpt lat="34.855606" lon="128.577108">
			<ele>9.63</ele>
			<time>2020-01-17T05:04:00.20Z</time>
		</trkpt>
		<trkpt lat="34.855814" lon="128.577014">
			<ele>9.63</ele>
			<time>2020-01-17T05:04:01.68Z</time>
		</trkpt>
		<trkpt lat="34.856004" lon="128.576985">
			<ele>9.63</ele>
			<time>2020-01-17T05:04:02.95Z</time>
		</trkpt>
		<trkpt lat="34.856714" lon="128.576912">
			<ele>9.63</ele>
			<time>2020-01-17T05:04:07.70Z</time>
		</trkpt>
		<trkpt lat="34.857383" lon="128.576897">
			<ele>7.31</ele>
			<time>2020-01-17T05:04:12.17Z</time>
		</trkpt>
		<trkpt lat="34.857756" lon="128.576879">
			<ele>8.00</ele>
			<time>2020-01-17T05:04:14.65Z</time>
		</trkpt>
		<trkpt lat="34.857899" lon="128.576872">
			<ele>8.00</ele>
			<time>2020-01-17T05:04:15.61Z</time>
		</trkpt>
		<trkpt lat="34.858068" lon="128.576877">
			<ele>8.00</ele>
			<time>2020-01-17T05:04:16.74Z</time>
		</trkpt>
		<trkpt lat="34.858237" lon="128.576915">
			<ele>8.00</ele>
			<time>2020-01-17T05:04:17.88Z</time>
		</trkpt>
		<trkpt lat="34.858344" lon="128.576955">
			<ele>8.14</ele>
			<time>2020-01-17T05:04:18.63Z</time>
		</trkpt>
		<trkpt lat="34.858488" lon="128.577058">
			<ele>8.34</ele>
			<time>2020-01-17T05:04:19.74Z</time>
		</trkpt>
		<trkpt lat="34.858499" lon="128.577066">
			<ele>8.31</ele>
			<time>2020-01-17T05:04:19.83Z</time>
		</trkpt>
		<trkpt lat="34.858529" lon="128.577088">
			<ele>8.29</ele>
			<time>2020-01-17T05:04:20.06Z</time>
		</trkpt>
		<trkpt lat="34.858789" lon="128.577320">
			<ele>9.13</ele>
			<time>2020-01-17T05:04:22.21Z</time>
		</trkpt>
		<trkpt lat="34.858817" lon="128.577360">
			<ele>9.13</ele>
			<time>2020-01-17T05:04:22.49Z</time>
		</trkpt>
		<trkpt lat="34.858880" lon="128.577410">
			<ele>9.13</ele>
			<time>2020-01-17T05:04:22.99Z</time>
		</trkpt>
		<trkpt lat="34.858935" lon="128.577349">
			<ele>9.13</ele>
			<time>2020-01-17T05:04:23.49Z</time>
		</trkpt>
		<trkpt lat="34.858947" lon="128.577307">
			<ele>9.13</ele>
			<time>2020-01-17T05:04:23.73Z</time>
		</trkpt>
		<trkpt lat="34.858986" lon="128.577302">
			<ele>7.65</ele>
			<time>2020-01-17T05:04:23.99Z</time>
		</trkpt>
		<trkpt lat="34.859017" lon="128.577288">
			<ele>7.71</ele>
			<time>2020-01-17T05:04:24.21Z</time>
		</trkpt>
		<trkpt lat="34.859045" lon="128.577276">
			<ele>7.09</ele>
			<time>2020-01-17T05:04:24.41Z</time>
		</trkpt>
		<trkpt lat="34.859073" lon="128.577266">
			<ele>7.05</ele>
			<time>2020-01-17T05:04:24.61Z</time>
		</trkpt>
		<trkpt lat="34.859831" lon="128.576955">
			<ele>9.44</ele>
			<time>2020-01-17T05:04:29.94Z</time>
		</trkpt>
		<trkpt lat="34.859973" lon="128.576920">
			<ele>9.31</ele>
			<time>2020-01-17T05:04:30.90Z</time>
		</trkpt>
		<trkpt lat="34.860028" lon="128.576897">
			<ele>9.04</ele>
			<time>2020-01-17T05:04:31.29Z</time>
		</trkpt>
		<trkpt lat="34.860510" lon="128.576713">
			<ele>9.80</ele>
			<time>2020-01-17T05:04:34.66Z</time>
		</trkpt>
		<trkpt lat="34.860839" lon="128.576563">
			<ele>9.90</ele>
			<time>2020-01-17T05:04:37Z</time>
		</trkpt>
		<trkpt lat="34.860831" lon="128.576567">
			<ele>9.94</ele>
			<time>2020-01-17T05:04:37.06Z</time>
		</trkpt>
		<trkpt lat="34.860869" lon="128.576553">
			<ele>10.07</ele>
			<time>2020-01-17T05:04:37.32Z</time>
		</trkpt>
		<trkpt lat="34.861018" lon="128.576497">
			<ele>10.07</ele>
			<time>2020-01-17T05:04:38.37Z</time>
		</trkpt>
		<trkpt lat="34.860884" lon="128.575720">
			<ele>14.21</ele>
			<time>2020-01-17T05:04:42.71Z</time>
		</trkpt>
		<trkpt lat="34.860754" lon="128.574933">
			<ele>16.81</ele>
			<time>2020-01-17T05:04:47.10Z</time>
		</trkpt>
		<trkpt lat="34.860675" lon="128.574407">
			<ele>19.27</ele>
			<time>2020-01-17T05:04:50.03Z</time>
		</trkpt>
		<trkpt lat="34.860725" lon="128.574359">
			<ele>19.11</ele>
			<time>2020-01-17T05:04:50.45Z</time>
		</trkpt>
		<trkpt lat="34.861030" lon="128.574420">
			<ele>19.11</ele>
			<time>2020-01-17T05:04:52.51Z</time>
		</trkpt>
		<trkpt lat="34.861055" lon="128.574390">
			<ele>19.11</ele>
			<time>2020-01-17T05:04:52.75Z</time>
		</trkpt>
		<trkpt lat="34.861179" lon="128.574130">
			<ele>19.11</ele>
			<time>2020-01-17T05:04:54.39Z</time>
		</trkpt>
		<trkpt lat="34.861305" lon="128.573943">
			<ele>19.11</ele>
			<time>2020-01-17T05:04:55.71Z</time>
		</trkpt>
		<trkpt lat="34.861371" lon="128.573831">
			<ele>21.02</ele>
			<time>2020-01-17T05:04:56.47Z</time>
		</trkpt>
		<trkpt lat="34.861454" lon="128.573799">
			<ele>22.12</ele>
			<time>2020-01-17T05:04:57.05Z</time>
		</trkpt>
		<trkpt lat="34.861526" lon="128.573775">
			<ele>22.45</ele>
			<time>2020-01-17T05:04:57.55Z</time>
		</trkpt>
		<trkpt lat="34.861609" lon="128.573742">
			<ele>23.97</ele>
			<time>2020-01-17T05:04:58.13Z</time>
		</trkpt>
		<trkpt lat="34.861755" lon="128.573682">
			<ele>23.97</ele>
			<time>2020-01-17T05:04:59.16Z</time>
		</trkpt>
		<trkpt lat="34.861824" lon="128.573585">
			<ele>23.97</ele>
			<time>2020-01-17T05:04:59.86Z</time>
		</trkpt>
		<trkpt lat="34.861899" lon="128.573452">
			<ele>27.07</ele>
			<time>2020-01-17T05:05:00.74Z</time>
		</trkpt>
		<trkpt lat="34.862172" lon="128.572971">
			<ele>30.57</ele>
			<time>2020-01-17T05:05:03.94Z</time>
		</trkpt>
		<trkpt lat="34.862343" lon="128.572525">
			<ele>33.64</ele>
			<time>2020-01-17T05:05:06.63Z</time>
		</trkpt>
		<trkpt lat="34.862480" lon="128.572116">
			<ele>36.79</ele>
			<time>2020-01-17T05:05:09.05Z</time>
		</trkpt>
		<trkpt lat="34.862589" lon="128.571849">
			<ele>40.70</ele>
			<time>2020-01-17T05:05:10.68Z</time>
		</trkpt>
		<trkpt lat="34.862678" lon="128.571307">
			<ele>44.03</ele>
			<time>2020-01-17T05:05:13.70Z</time>
		</trkpt>
		<trkpt lat="34.862676" lon="128.570943">
			<ele>47.19</ele>
			<time>2020-01-17T05:05:15.70Z</time>
		</trkpt>
		<trkpt lat="34.862692" lon="128.570869">
			<ele>47.93</ele>
			<time>2020-01-17T05:05:16.11Z</time>
		</trkpt>
		<trkpt lat="34.862692" lon="128.570869">
			<ele>47.98</ele>
			<time>2020-01-17T05:05:16.17Z</time>
		</trkpt>
		<trkpt lat="34.862702" lon="128.570407">
			<ele>55.96</ele>
			<time>2020-01-17T05:05:18.70Z</time>
		</trkpt>
		<trkpt lat="34.862705" lon="128.570362">
			<ele>55.51</ele>
			<time>2020-01-17T05:05:18.95Z</time>
		</trkpt>
		<trkpt lat="34.862708" lon="128.570132">
			<ele>59.03</ele>
			<time>2020-01-17T05:05:20.21Z</time>
		</trkpt>
		<trkpt lat="34.862794" lon="128.569884">
			<ele>61.68</ele>
			<time>2020-01-17T05:05:21.68Z</time>
		</trkpt>
		<trkpt lat="34.862765" lon="128.569632">
			<ele>64.82</ele>
			<time>2020-01-17T05:05:23.07Z</time>
		</trkpt>
		<trkpt lat="34.862729" lon="128.569542">
			<ele>65.94</ele>
			<time>2020-01-17T05:05:23.62Z</time>
		</trkpt>
		<trkpt lat="34.862729" lon="128.569542">
			<ele>65.79</ele>
			<time>2020-01-17T05:05:23.68Z</time>
		</trkpt>
		<trkpt lat="34.862729" lon="128.569543">
			<ele>65.36</ele>
			<time>2020-01-17T05:05:23.74Z</time>
		</trkpt>
		<trkpt lat="34.862729" lon="128.569543">
			<ele>65.33</ele>
			<time>2020-01-17T05:05:23.80Z</time>
		</trkpt>
		<trkpt lat="34.862726" lon="128.569543">
			<ele>66.20</ele>
			<time>2020-01-17T05:05:23.86Z</time>
		</trkpt>
		<trkpt lat="34.862681" lon="128.569360">
			<ele>66.20</ele>
			<time>2020-01-17T05:05:24.90Z</time>
		</trkpt>
		<trkpt lat="34.862648" lon="128.569224">
			<ele>66.20</ele>
			<time>2020-01-17T05:05:25.68Z</time>
		</trkpt>
		<trkpt lat="34.862607" lon="128.569137">
			<ele>66.20</ele>
			<time>2020-01-17T05:05:26.23Z</time>
		</trkpt>
		<trkpt lat="34.862651" lon="128.569036">
			<ele>66.20</ele>
			<time>2020-01-17T05:05:26.85Z</time>
		</trkpt>
		<trkpt lat="34.862660" lon="128.568907">
			<ele>66.20</ele>
			<time>2020-01-17T05:05:27.57Z</time>
		</trkpt>
		<trkpt lat="34.862675" lon="128.568788">
			<ele>66.20</ele>
			<time>2020-01-17T05:05:28.22Z</time>
		</trkpt>
		<trkpt lat="34.862675" lon="128.568770">
			<ele>66.20</ele>
			<time>2020-01-17T05:05:28.32Z</time>
		</trkpt>
		<trkpt lat="34.862728" lon="128.568695">
			<ele>66.20</ele>
			<time>2020-01-17T05:05:28.87Z</time>
		</trkpt>
		<trkpt lat="34.862790" lon="128.568651">
			<ele>66.20</ele>
			<time>2020-01-17T05:05:29.34Z</time>
		</trkpt>
		<trkpt lat="34.862951" lon="128.568755">
			<ele>66.20</ele>
			<time>2020-01-17T05:05:30.56Z</time>
		</trkpt>
		<trkpt lat="34.863116" lon="128.568849">
			<ele>66.20</ele>
			<time>2020-01-17T05:05:31.77Z</time>
		</trkpt>
		<trkpt lat="34.863329" lon="128.568863">
			<ele>66.20</ele>
			<time>2020-01-17T05:05:33.19Z</time>
		</trkpt>
		<trkpt lat="34.863520" lon="128.568812">
			<ele>66.20</ele>
			<time>2020-01-17T05:05:34.50Z</time>
		</trkpt>
		<trkpt lat="34.863709" lon="128.568754">
			<ele>66.20</ele>
			<time>2020-01-17T05:05:35.80Z</time>
		</trkpt>
		<trkpt lat="34.863842" lon="128.568754">
			<ele>66.20</ele>
			<time>2020-01-17T05:05:36.68Z</time>
		</trkpt>
		<trkpt lat="34.864025" lon="128.568873">
			<ele>66.20</ele>
			<time>2020-01-17T05:05:38.07Z</time>
		</trkpt>
		<trkpt lat="34.864153" lon="128.568978">
			<ele>88.26</ele>
			<time>2020-01-17T05:05:39.09Z</time>
		</trkpt>
		<trkpt lat="34.864340" lon="128.569041">
			<ele>88.26</ele>
			<time>2020-01-17T05:05:40.39Z</time>
		</trkpt>
		<trkpt lat="34.864541" lon="128.569063">
			<ele>88.26</ele>
			<time>2020-01-17T05:05:41.73Z</time>
		</trkpt>
		<trkpt lat="34.864693" lon="128.569111">
			<ele>94.25</ele>
			<time>2020-01-17T05:05:42.78Z</time>
		</trkpt>
		<trkpt lat="34.864750" lon="128.569114">
			<ele>94.80</ele>
			<time>2020-01-17T05:05:43.16Z</time>
		</trkpt>
		<trkpt lat="34.864847" lon="128.569113">
			<ele>95.63</ele>
			<time>2020-01-17T05:05:43.81Z</time>
		</trkpt>
		<trkpt lat="34.865085" lon="128.569094">
			<ele>97.75</ele>
			<time>2020-01-17T05:05:45.40Z</time>
		</trkpt>
		<trkpt lat="34.865127" lon="128.569080">
			<ele>98.11</ele>
			<time>2020-01-17T05:05:45.69Z</time>
		</trkpt>
		<trkpt lat="34.865161" lon="128.569065">
			<ele>98.33</ele>
			<time>2020-01-17T05:05:45.93Z</time>
		</trkpt>
		<trkpt lat="34.865397" lon="128.569002">
			<ele>100.46</ele>
			<time>2020-01-17T05:05:47.54Z</time>
		</trkpt>
		<trkpt lat="34.865588" lon="128.568970">
			<ele>103.82</ele>
			<time>2020-01-17T05:05:48.82Z</time>
		</trkpt>
		<trkpt lat="34.865626" lon="128.568960">
			<ele>104.09</ele>
			<time>2020-01-17T05:05:49.08Z</time>
		</trkpt>
		<trkpt lat="34.865918" lon="128.568826">
			<ele>107.38</ele>
			<time>2020-01-17T05:05:51.16Z</time>
		</trkpt>
		<trkpt lat="34.866168" lon="128.568623">
			<ele>110.57</ele>
			<time>2020-01-17T05:05:53.17Z</time>
		</trkpt>
		<trkpt lat="34.866313" lon="128.568475">
			<ele>113.20</ele>
			<time>2020-01-17T05:05:54.43Z</time>
		</trkpt>
		<trkpt lat="34.866357" lon="128.568418">
			<ele>114.54</ele>
			<time>2020-01-17T05:05:54.86Z</time>
		</trkpt>
		<trkpt lat="34.866393" lon="128.568358">
			<ele>115.36</ele>
			<time>2020-01-17T05:05:55.26Z</time>
		</trkpt>
		<trkpt lat="34.866422" lon="128.568300">
			<ele>115.55</ele>
			<time>2020-01-17T05:05:55.63Z</time>
		</trkpt>
		<trkpt lat="34.866516" lon="128.568084">
			<ele>117.06</ele>
			<time>2020-01-17T05:05:56.97Z</time>
		</trkpt>
		<trkpt lat="34.866544" lon="128.568046">
			<ele>117.45</ele>
			<time>2020-01-17T05:05:57.25Z</time>
		</trkpt>
		<trkpt lat="34.866574" lon="128.568018">
			<ele>118.01</ele>
			<time>2020-01-17T05:05:57.50Z</time>
		</trkpt>
		<trkpt lat="34.866606" lon="128.567998">
			<ele>118.38</ele>
			<time>2020-01-17T05:05:57.74Z</time>
		</trkpt>
		<trkpt lat="34.866635" lon="128.567982">
			<ele>118.71</ele>
			<time>2020-01-17T05:05:57.95Z</time>
		</trkpt>
		<trkpt lat="34.866711" lon="128.567927">
			<ele>118.71</ele>
			<time>2020-01-17T05:05:58.54Z</time>
		</trkpt>
		<trkpt lat="34.866752" lon="128.567826">
			<ele>118.71</ele>
			<time>2020-01-17T05:05:59.16Z</time>
		</trkpt>
		<trkpt lat="34.866622" lon="128.567758">
			<ele>118.71</ele>
			<time>2020-01-17T05:06:00.10Z</time>
		</trkpt>
		<trkpt lat="34.866457" lon="128.567711">
			<ele>118.71</ele>
			<time>2020-01-17T05:06:01.23Z</time>
		</trkpt>
		<trkpt lat="34.866333" lon="128.567783">
			<ele>118.71</ele>
			<time>2020-01-17T05:06:02.15Z</time>
		</trkpt>
		<trkpt lat="34.866327" lon="128.567790">
			<ele>118.71</ele>
			<time>2020-01-17T05:06:02.21Z</time>
		</trkpt>
		<trkpt lat="34.866212" lon="128.568032">
			<ele>118.71</ele>
			<time>2020-01-17T05:06:03.73Z</time>
		</trkpt>
		<trkpt lat="34.866050" lon="128.568115">
			<ele>118.71</ele>
			<time>2020-01-17T05:06:04.91Z</time>
		</trkpt>
		<trkpt lat="34.865896" lon="128.568158">
			<ele>118.71</ele>
			<time>2020-01-17T05:06:05.96Z</time>
		</trkpt>
		<trkpt lat="34.865648" lon="128.568090">
			<ele>118.71</ele>
			<time>2020-01-17T05:06:07.65Z</time>
		</trkpt>
		<trkpt lat="34.865430" lon="128.567957">
			<ele>118.71</ele>
			<time>2020-01-17T05:06:09.28Z</time>
		</trkpt>
		<trkpt lat="34.865424" lon="128.567957">
			<ele>118.71</ele>
			<time>2020-01-17T05:06:09.34Z</time>
		</trkpt>
		<trkpt lat="34.865223" lon="128.567792">
			<ele>118.71</ele>
			<time>2020-01-17T05:06:10.96Z</time>
		</trkpt>
		<trkpt lat="34.865095" lon="128.567669">
			<ele>140.07</ele>
			<time>2020-01-17T05:06:12.04Z</time>
		</trkpt>
		<trkpt lat="34.864629" lon="128.567142">
			<ele>140.03</ele>
			<time>2020-01-17T05:06:16.28Z</time>
		</trkpt>
		<trkpt lat="34.864425" lon="128.566852">
			<ele>142.64</ele>
			<time>2020-01-17T05:06:18.37Z</time>
		</trkpt>
		<trkpt lat="34.864257" lon="128.566724">
			<ele>145.82</ele>
			<time>2020-01-17T05:06:19.69Z</time>
		</trkpt>
		<trkpt lat="34.864117" lon="128.566778">
			<ele>147.99</ele>
			<time>2020-01-17T05:06:20.67Z</time>
		</trkpt>
		<trkpt lat="34.863695" lon="128.566661">
			<ele>148.91</ele>
			<time>2020-01-17T05:06:23.55Z</time>
		</trkpt>
		<trkpt lat="34.863443" lon="128.566514">
			<ele>146.68</ele>
			<time>2020-01-17T05:06:25.42Z</time>
		</trkpt>
		<trkpt lat="34.863429" lon="128.566508">
			<ele>146.55</ele>
			<time>2020-01-17T05:06:25.52Z</time>
		</trkpt>
		<trkpt lat="34.863253" lon="128.566419">
			<ele>146.55</ele>
			<time>2020-01-17T05:06:26.79Z</time>
		</trkpt>
		<trkpt lat="34.863109" lon="128.566220">
			<ele>146.55</ele>
			<time>2020-01-17T05:06:28.24Z</time>
		</trkpt>
		<trkpt lat="34.862966" lon="128.565937">
			<ele>146.55</ele>
			<time>2020-01-17T05:06:30.06Z</time>
		</trkpt>
		<trkpt lat="34.862672" lon="128.565771">
			<ele>146.55</ele>
			<time>2020-01-17T05:06:32.21Z</time>
		</trkpt>
		<trkpt lat="34.862406" lon="128.565772">
			<ele>146.55</ele>
			<time>2020-01-17T05:06:33.99Z</time>
		</trkpt>
		<trkpt lat="34.862126" lon="128.565930">
			<ele>146.55</ele>
			<time>2020-01-17T05:06:36.04Z</time>
		</trkpt>
		<trkpt lat="34.862113" lon="128.565930">
			<ele>146.55</ele>
			<time>2020-01-17T05:06:36.13Z</time>
		</trkpt>
		<trkpt lat="34.862092" lon="128.565955">
			<ele>146.55</ele>
			<time>2020-01-17T05:06:36.33Z</time>
		</trkpt>
		<trkpt lat="34.861874" lon="128.566155">
			<ele>146.55</ele>
			<time>2020-01-17T05:06:38.15Z</time>
		</trkpt>
		<trkpt lat="34.861636" lon="128.566313">
			<ele>146.55</ele>
			<time>2020-01-17T05:06:39.96Z</time>
		</trkpt>
		<trkpt lat="34.861602" lon="128.566313">
			<ele>146.55</ele>
			<time>2020-01-17T05:06:40.18Z</time>
		</trkpt>
		<trkpt lat="34.861438" lon="128.566380">
			<ele>146.55</ele>
			<time>2020-01-17T05:06:41.34Z</time>
		</trkpt>
		<trkpt lat="34.861397" lon="128.566430">
			<ele>146.55</ele>
			<time>2020-01-17T05:06:41.72Z</time>
		</trkpt>
		<trkpt lat="34.861383" lon="128.566430">
			<ele>146.55</ele>
			<time>2020-01-17T05:06:41.81Z</time>
		</trkpt>
		<trkpt lat="34.861172" lon="128.566522">
			<ele>146.55</ele>
			<time>2020-01-17T05:06:43.31Z</time>
		</trkpt>
		<trkpt lat="34.861036" lon="128.566522">
			<ele>146.55</ele>
			<time>2020-01-17T05:06:44.22Z</time>
		</trkpt>
		<trkpt lat="34.860872" lon="128.566497">
			<ele>146.55</ele>
			<time>2020-01-17T05:06:45.32Z</time>
		</trkpt>
		<trkpt lat="34.860728" lon="128.566497">
			<ele>146.55</ele>
			<time>2020-01-17T05:06:46.27Z</time>
		</trkpt>
		<trkpt lat="34.860633" lon="128.566472">
			<ele>146.55</ele>
			<time>2020-01-17T05:06:46.92Z</time>
		</trkpt>
		<trkpt lat="34.860496" lon="128.566356">
			<ele>146.55</ele>
			<time>2020-01-17T05:06:48.03Z</time>
		</trkpt>
		<trkpt lat="34.860455" lon="128.566306">
			<ele>146.55</ele>
			<time>2020-01-17T05:06:48.42Z</time>
		</trkpt>
		<trkpt lat="34.860401" lon="128.566140">
			<ele>146.55</ele>
			<time>2020-01-17T05:06:49.40Z</time>
		</trkpt>
		<trkpt lat="34.860421" lon="128.566032">
			<ele>146.55</ele>
			<time>2020-01-17T05:06:50.01Z</time>
		</trkpt>
		<trkpt lat="34.860564" lon="128.565816">
			<ele>146.55</ele>
			<time>2020-01-17T05:06:51.53Z</time>
		</trkpt>
		<trkpt lat="34.860652" lon="128.565570">
			<ele>168.75</ele>
			<time>2020-01-17T05:06:52.99Z</time>
		</trkpt>
		<trkpt lat="34.860729" lon="128.565110">
			<ele>169.44</ele>
			<time>2020-01-17T05:06:55.56Z</time>
		</trkpt>
		<trkpt lat="34.860686" lon="128.564697">
			<ele>172.50</ele>
			<time>2020-01-17T05:06:57.84Z</time>
		</trkpt>
		<trkpt lat="34.860468" lon="128.564391">
			<ele>174.83</ele>
			<time>2020-01-17T05:07:00.06Z</time>
		</trkpt>
		<trkpt lat="34.860466" lon="128.564389">
			<ele>174.83</ele>
			<time>2020-01-17T05:07:00.12Z</time>
		</trkpt>
		<trkpt lat="34.860404" lon="128.564303">
			<ele>176.33</ele>
			<time>2020-01-17T05:07:00.74Z</time>
		</trkpt>
		<trkpt lat="34.860366" lon="128.564224">
			<ele>177.09</ele>
			<time>2020-01-17T05:07:01.24Z</time>
		</trkpt>
		<trkpt lat="34.860351" lon="128.564145">
			<ele>177.81</ele>
			<time>2020-01-17T05:07:01.69Z</time>
		</trkpt>
		<trkpt lat="34.860388" lon="128.563609">
			<ele>179.49</ele>
			<time>2020-01-17T05:07:04.63Z</time>
		</trkpt>
		<trkpt lat="34.860459" lon="128.563371">
			<ele>180.64</ele>
			<time>2020-01-17T05:07:06.01Z</time>
		</trkpt>
		<trkpt lat="34.860459" lon="128.563374">
			<ele>180.69</ele>
			<time>2020-01-17T05:07:06.07Z</time>
		</trkpt>
		<trkpt lat="34.860460" lon="128.563368">
			<ele>180.72</ele>
			<time>2020-01-17T05:07:06.13Z</time>
		</trkpt>
		<trkpt lat="34.860477" lon="128.563322">
			<ele>181.24</ele>
			<time>2020-01-17T05:07:06.41Z</time>
		</trkpt>
		<trkpt lat="34.860584" lon="128.562967">
			<ele>184.03</ele>
			<time>2020-01-17T05:07:08.48Z</time>
		</trkpt>
		<trkpt lat="34.860615" lon="128.562587">
			<ele>187.06</ele>
			<time>2020-01-17T05:07:10.57Z</time>
		</trkpt>
		<trkpt lat="34.860639" lon="128.562410">
			<ele>187.33</ele>
			<time>2020-01-17T05:07:11.55Z</time>
		</trkpt>
		<trkpt lat="34.860637" lon="128.562400">
			<ele>187.34</ele>
			<time>2020-01-17T05:07:11.61Z</time>
		</trkpt>
		<trkpt lat="34.860637" lon="128.562361">
			<ele>187.44</ele>
			<time>2020-01-17T05:07:11.82Z</time>
		</trkpt>
		<trkpt lat="34.860595" lon="128.561825">
			<ele>187.29</ele>
			<time>2020-01-17T05:07:14.77Z</time>
		</trkpt>
		<trkpt lat="34.860505" lon="128.561096">
			<ele>190.08</ele>
			<time>2020-01-17T05:07:18.80Z</time>
		</trkpt>
		<trkpt lat="34.860489" lon="128.560466">
			<ele>190.42</ele>
			<time>2020-01-17T05:07:22.25Z</time>
		</trkpt>
		<trkpt lat="34.860491" lon="128.560105">
			<ele>192.01</ele>
			<time>2020-01-17T05:07:24.22Z</time>
		</trkpt>
		<trkpt lat="34.860491" lon="128.560105">
			<ele>191.89</ele>
			<time>2020-01-17T05:07:24.28Z</time>
		</trkpt>
		<trkpt lat="34.860491" lon="128.560109">
			<ele>192.11</ele>
			<time>2020-01-17T05:07:24.34Z</time>
		</trkpt>
		<trkpt lat="34.860485" lon="128.560107">
			<ele>192.14</ele>
			<time>2020-01-17T05:07:24.40Z</time>
		</trkpt>
		<trkpt lat="34.860488" lon="128.560077">
			<ele>192.22</ele>
			<time>2020-01-17T05:07:24.57Z</time>
		</trkpt>
		<trkpt lat="34.860624" lon="128.559807">
			<ele>194.88</ele>
			<time>2020-01-17T05:07:26.30Z</time>
		</trkpt>
		<trkpt lat="34.860687" lon="128.559701">
			<ele>194.13</ele>
			<time>2020-01-17T05:07:27.02Z</time>
		</trkpt>
		<trkpt lat="34.860767" lon="128.559316">
			<ele>191.04</ele>
			<time>2020-01-17T05:07:29.19Z</time>
		</trkpt>
		<trkpt lat="34.860873" lon="128.559053">
			<ele>189.08</ele>
			<time>2020-01-17T05:07:30.79Z</time>
		</trkpt>
		<trkpt lat="34.860880" lon="128.559046">
			<ele>189.13</ele>
			<time>2020-01-17T05:07:30.85Z</time>
		</trkpt>
		<trkpt lat="34.860962" lon="128.558337">
			<ele>190.94</ele>
			<time>2020-01-17T05:07:34.77Z</time>
		</trkpt>
		<trkpt lat="34.860807" lon="128.558048">
			<ele>192.32</ele>
			<time>2020-01-17T05:07:36.66Z</time>
		</trkpt>
		<trkpt lat="34.860548" lon="128.557796">
			<ele>195.68</ele>
			<time>2020-01-17T05:07:38.87Z</time>
		</trkpt>
		<trkpt lat="34.860348" lon="128.557683">
			<ele>199.10</ele>
			<time>2020-01-17T05:07:40.34Z</time>
		</trkpt>
		<trkpt lat="34.860241" lon="128.557501">
			<ele>199.10</ele>
			<time>2020-01-17T05:07:41.56Z</time>
		</trkpt>
		<trkpt lat="34.860236" lon="128.557348">
			<ele>202.15</ele>
			<time>2020-01-17T05:07:42.40Z</time>
		</trkpt>
		<trkpt lat="34.860240" lon="128.557317">
			<ele>202.59</ele>
			<time>2020-01-17T05:07:42.57Z</time>
		</trkpt>
		<trkpt lat="34.860256" lon="128.557246">
			<ele>202.01</ele>
			<time>2020-01-17T05:07:42.97Z</time>
		</trkpt>
		<trkpt lat="34.860276" lon="128.557069">
			<ele>202.01</ele>
			<time>2020-01-17T05:07:43.95Z</time>
		</trkpt>
		<trkpt lat="34.860295" lon="128.556966">
			<ele>205.56</ele>
			<time>2020-01-17T05:07:44.53Z</time>
		</trkpt>
		<trkpt lat="34.860177" lon="128.556765">
			<ele>208.12</ele>
			<time>2020-01-17T05:07:45.88Z</time>
		</trkpt>
		<trkpt lat="34.860111" lon="128.556696">
			<ele>209.39</ele>
			<time>2020-01-17T05:07:46.46Z</time>
		</trkpt>
		<trkpt lat="34.860067" lon="128.556597">
			<ele>210.38</ele>
			<time>2020-01-17T05:07:47.07Z</time>
		</trkpt>
		<trkpt lat="34.860192" lon="128.556064">
			<ele>211.73</ele>
			<time>2020-01-17T05:07:50.10Z</time>
		</trkpt>
		<trkpt lat="34.860193" lon="128.555945">
			<ele>211.73</ele>
			<time>2020-01-17T05:07:50.76Z</time>
		</trkpt>
		<trkpt lat="34.860082" lon="128.555792">
			<ele>211.54</ele>
			<time>2020-01-17T05:07:51.87Z</time>
		</trkpt>
		<trkpt lat="34.859900" lon="128.555390">
			<ele>211.04</ele>
			<time>2020-01-17T05:07:54.39Z</time>
		</trkpt>
		<trkpt lat="34.859897" lon="128.554967">
			<ele>211.92</ele>
			<time>2020-01-17T05:07:56.70Z</time>
		</trkpt>
		<trkpt lat="34.859874" lon="128.554576">
			<ele>213.58</ele>
			<time>2020-01-17T05:07:58.84Z</time>
		</trkpt>
		<trkpt lat="34.859882" lon="128.554428">
			<ele>216.31</ele>
			<time>2020-01-17T05:07:59.66Z</time>
		</trkpt>
		<trkpt lat="34.859998" lon="128.554170">
			<ele>216.31</ele>
			<time>2020-01-17T05:08:01.27Z</time>
		</trkpt>
		<trkpt lat="34.860080" lon="128.553932">
			<ele>216.31</ele>
			<time>2020-01-17T05:08:02.68Z</time>
		</trkpt>
		<trkpt lat="34.860166" lon="128.553823">
			<ele>215.55</ele>
			<time>2020-01-17T05:08:03.51Z</time>
		</trkpt>
		<trkpt lat="34.860176" lon="128.553625">
			<ele>215.55</ele>
			<time>2020-01-17T05:08:04.59Z</time>
		</trkpt>
		<trkpt lat="34.860156" lon="128.553549">
			<ele>215.55</ele>
			<time>2020-01-17T05:08:05.03Z</time>
		</trkpt>
		<trkpt lat="34.860118" lon="128.553469">
			<ele>214.62</ele>
			<time>2020-01-17T05:08:05.53Z</time>
		</trkpt>
		<trkpt lat="34.859652" lon="128.553229">
			<ele>211.50</ele>
			<time>2020-01-17T05:08:08.91Z</time>
		</trkpt>
		<trkpt lat="34.859353" lon="128.553170">
			<ele>209.01</ele>
			<time>2020-01-17T05:08:10.93Z</time>
		</trkpt>
		<trkpt lat="34.858937" lon="128.553043">
			<ele>205.94</ele>
			<time>2020-01-17T05:08:13.79Z</time>
		</trkpt>
		<trkpt lat="34.858770" lon="128.552718">
			<ele>202.73</ele>
			<time>2020-01-17T05:08:15.88Z</time>
		</trkpt>
		<trkpt lat="34.858384" lon="128.552602">
			<ele>200.50</ele>
			<time>2020-01-17T05:08:18.53Z</time>
		</trkpt>
		<trkpt lat="34.857938" lon="128.552884">
			<ele>197.48</ele>
			<time>2020-01-17T05:08:21.88Z</time>
		</trkpt>
		<trkpt lat="34.857821" lon="128.552970">
			<ele>197.66</ele>
			<time>2020-01-17T05:08:22.79Z</time>
		</trkpt>
		<trkpt lat="34.857819" lon="128.552975">
			<ele>197.59</ele>
			<time>2020-01-17T05:08:22.85Z</time>
		</trkpt>
		<trkpt lat="34.857807" lon="128.553016">
			<ele>197.63</ele>
			<time>2020-01-17T05:08:23.09Z</time>
		</trkpt>
		<trkpt lat="34.857698" lon="128.553439">
			<ele>196.08</ele>
			<time>2020-01-17T05:08:25.52Z</time>
		</trkpt>
		<trkpt lat="34.857636" lon="128.553517">
			<ele>195.99</ele>
			<time>2020-01-17T05:08:26.11Z</time>
		</trkpt>
		<trkpt lat="34.857582" lon="128.553537">
			<ele>195.83</ele>
			<time>2020-01-17T05:08:26.49Z</time>
		</trkpt>
		<trkpt lat="34.857511" lon="128.553564">
			<ele>195.08</ele>
			<time>2020-01-17T05:08:26.98Z</time>
		</trkpt>
		<trkpt lat="34.857127" lon="128.553670">
			<ele>192.58</ele>
			<time>2020-01-17T05:08:29.61Z</time>
		</trkpt>
		<trkpt lat="34.856805" lon="128.553483">
			<ele>189.52</ele>
			<time>2020-01-17T05:08:31.99Z</time>
		</trkpt>
		<trkpt lat="34.856525" lon="128.553669">
			<ele>187.20</ele>
			<time>2020-01-17T05:08:34.11Z</time>
		</trkpt>
		<trkpt lat="34.856456" lon="128.553847">
			<ele>187.03</ele>
			<time>2020-01-17T05:08:35.19Z</time>
		</trkpt>
		<trkpt lat="34.856456" lon="128.553847">
			<ele>187.34</ele>
			<time>2020-01-17T05:08:35.25Z</time>
		</trkpt>
		<trkpt lat="34.856456" lon="128.553847">
			<ele>187.36</ele>
			<time>2020-01-17T05:08:35.31Z</time>
		</trkpt>
		<trkpt lat="34.856273" lon="128.554264">
			<ele>186.47</ele>
			<time>2020-01-17T05:08:37.90Z</time>
		</trkpt>
		<trkpt lat="34.856295" lon="128.554267">
			<ele>186.57</ele>
			<time>2020-01-17T05:08:38.04Z</time>
		</trkpt>
		<trkpt lat="34.856308" lon="128.554235">
			<ele>186.38</ele>
			<time>2020-01-17T05:08:38.24Z</time>
		</trkpt>
		<trkpt lat="34.856317" lon="128.554230">
			<ele>186.13</ele>
			<time>2020-01-17T05:08:38.30Z</time>
		</trkpt>
		<trkpt lat="34.856314" lon="128.554238">
			<ele>185.74</ele>
			<time>2020-01-17T05:08:38.36Z</time>
		</trkpt>
		<trkpt lat="34.856296" lon="128.554264">
			<ele>185.85</ele>
			<time>2020-01-17T05:08:38.55Z</time>
		</trkpt>
		<trkpt lat="34.856164" lon="128.554306">
			<ele>185.22</ele>
			<time>2020-01-17T05:08:39.46Z</time>
		</trkpt>
		<trkpt lat="34.855859" lon="128.554275">
			<ele>183.41</ele>
			<time>2020-01-17T05:08:41.50Z</time>
		</trkpt>
		<trkpt lat="34.855672" lon="128.554114">
			<ele>180.33</ele>
			<time>2020-01-17T05:08:43.03Z</time>
		</trkpt>
		<trkpt lat="34.855616" lon="128.554047">
			<ele>179.33</ele>
			<time>2020-01-17T05:08:43.55Z</time>
		</trkpt>
		<trkpt lat="34.855487" lon="128.553936">
			<ele>178.09</ele>
			<time>2020-01-17T05:08:44.60Z</time>
		</trkpt>
		<trkpt lat="34.855401" lon="128.553819">
			<ele>176.63</ele>
			<time>2020-01-17T05:08:45.46Z</time>
		</trkpt>
		<trkpt lat="34.855315" lon="128.553679">
			<ele>175.64</ele>
			<time>2020-01-17T05:08:46.42Z</time>
		</trkpt>
		<trkpt lat="34.855119" lon="128.553549">
			<ele>175.01</ele>
			<time>2020-01-17T05:08:47.91Z</time>
		</trkpt>
		<trkpt lat="34.854770" lon="128.553611">
			<ele>175.49</ele>
			<time>2020-01-17T05:08:50.26Z</time>
		</trkpt>
		<trkpt lat="34.854466" lon="128.553716">
			<ele>176.40</ele>
			<time>2020-01-17T05:08:52.36Z</time>
		</trkpt>
		<trkpt lat="34.854230" lon="128.553941">
			<ele>177.87</ele>
			<time>2020-01-17T05:08:54.36Z</time>
		</trkpt>
		<trkpt lat="34.854017" lon="128.554018">
			<ele>179.22</ele>
			<time>2020-01-17T05:08:55.84Z</time>
		</trkpt>
		<trkpt lat="34.853981" lon="128.554034">
			<ele>180.24</ele>
			<time>2020-01-17T05:08:56.10Z</time>
		</trkpt>
		<trkpt lat="34.853783" lon="128.553561">
			<ele>182.56</ele>
			<time>2020-01-17T05:08:59Z</time>
		</trkpt>
		<trkpt lat="34.853581" lon="128.553309">
			<ele>185.17</ele>
			<time>2020-01-17T05:09:00.93Z</time>
		</trkpt>
		<trkpt lat="34.853371" lon="128.553203">
			<ele>188.19</ele>
			<time>2020-01-17T05:09:02.45Z</time>
		</trkpt>
		<trkpt lat="34.853095" lon="128.553083">
			<ele>191.40</ele>
			<time>2020-01-17T05:09:04.40Z</time>
		</trkpt>
		<trkpt lat="34.852838" lon="128.552857">
			<ele>194.54</ele>
			<time>2020-01-17T05:09:06.51Z</time>
		</trkpt>
		<trkpt lat="34.852760" lon="128.552780">
			<ele>195.56</ele>
			<time>2020-01-17T05:09:07.18Z</time>
		</trkpt>
		<trkpt lat="34.852760" lon="128.552780">
			<ele>195.61</ele>
			<time>2020-01-17T05:09:07.24Z</time>
		</trkpt>
		<trkpt lat="34.852728" lon="128.552597">
			<ele>196.59</ele>
			<time>2020-01-17T05:09:08.27Z</time>
		</trkpt>
		<trkpt lat="34.852955" lon="128.552267">
			<ele>199.22</ele>
			<time>2020-01-17T05:09:10.62Z</time>
		</trkpt>
		<trkpt lat="34.853259" lon="128.552034">
			<ele>202.26</ele>
			<time>2020-01-17T05:09:13.02Z</time>
		</trkpt>
		<trkpt lat="34.853449" lon="128.551877">
			<ele>205.37</ele>
			<time>2020-01-17T05:09:14.55Z</time>
		</trkpt>
		<trkpt lat="34.853480" lon="128.551852">
			<ele>205.66</ele>
			<time>2020-01-17T05:09:14.79Z</time>
		</trkpt>
		<trkpt lat="34.853633" lon="128.551757">
			<ele>209.23</ele>
			<time>2020-01-17T05:09:15.94Z</time>
		</trkpt>
		<trkpt lat="34.853694" lon="128.551747">
			<ele>209.89</ele>
			<time>2020-01-17T05:09:16.35Z</time>
		</trkpt>
		<trkpt lat="34.853946" lon="128.551724">
			<ele>213.12</ele>
			<time>2020-01-17T05:09:18.03Z</time>
		</trkpt>
		<trkpt lat="34.854009" lon="128.551707">
			<ele>213.77</ele>
			<time>2020-01-17T05:09:18.46Z</time>
		</trkpt>
		<trkpt lat="34.854011" lon="128.551704">
			<ele>213.73</ele>
			<time>2020-01-17T05:09:18.52Z</time>
		</trkpt>
		<trkpt lat="34.854036" lon="128.551699">
			<ele>214.14</ele>
			<time>2020-01-17T05:09:18.69Z</time>
		</trkpt>
		<trkpt lat="34.854337" lon="128.551533">
			<ele>217.11</ele>
			<time>2020-01-17T05:09:20.90Z</time>
		</trkpt>
		<trkpt lat="34.854494" lon="128.551338">
			<ele>220.12</ele>
			<time>2020-01-17T05:09:22.39Z</time>
		</trkpt>
		<trkpt lat="34.854804" lon="128.551082">
			<ele>222.06</ele>
			<time>2020-01-17T05:09:24.89Z</time>
		</trkpt>
		<trkpt lat="34.855111" lon="128.550935">
			<ele>225.26</ele>
			<time>2020-01-17T05:09:27.09Z</time>
		</trkpt>
		<trkpt lat="34.855279" lon="128.550717">
			<ele>227.95</ele>
			<time>2020-01-17T05:09:28.72Z</time>
		</trkpt>
		<trkpt lat="34.855279" lon="128.550717">
			<ele>228.21</ele>
			<time>2020-01-17T05:09:28.78Z</time>
		</trkpt>
		<trkpt lat="34.855297" lon="128.550680">
			<ele>228.62</ele>
			<time>2020-01-17T05:09:29.02Z</time>
		</trkpt>
		<trkpt lat="34.855375" lon="128.550391">
			<ele>231.89</ele>
			<time>2020-01-17T05:09:30.68Z</time>
		</trkpt>
		<trkpt lat="34.855576" lon="128.550183">
			<ele>231.89</ele>
			<time>2020-01-17T05:09:32.44Z</time>
		</trkpt>
		<trkpt lat="34.855903" lon="128.549960">
			<ele>231.89</ele>
			<time>2020-01-17T05:09:34.94Z</time>
		</trkpt>
		<trkpt lat="34.856129" lon="128.549849">
			<ele>231.89</ele>
			<time>2020-01-17T05:09:36.56Z</time>
		</trkpt>
		<trkpt lat="34.856311" lon="128.549681">
			<ele>231.89</ele>
			<time>2020-01-17T05:09:38.08Z</time>
		</trkpt>
		<trkpt lat="34.856392" lon="128.549451">
			<ele>244.18</ele>
			<time>2020-01-17T05:09:39.45Z</time>
		</trkpt>
		<trkpt lat="34.856722" lon="128.549031">
			<ele>240.70</ele>
			<time>2020-01-17T05:09:42.63Z</time>
		</trkpt>
		<trkpt lat="34.856932" lon="128.548488">
			<ele>241.06</ele>
			<time>2020-01-17T05:09:45.92Z</time>
		</trkpt>
		<trkpt lat="34.857163" lon="128.548065">
			<ele>244.56</ele>
			<time>2020-01-17T05:09:48.70Z</time>
		</trkpt>
		<trkpt lat="34.857372" lon="128.547891">
			<ele>247.63</ele>
			<time>2020-01-17T05:09:50.39Z</time>
		</trkpt>
		<trkpt lat="34.857730" lon="128.547580">
			<ele>250.92</ele>
			<time>2020-01-17T05:09:53.32Z</time>
		</trkpt>
		<trkpt lat="34.857791" lon="128.547141">
			<ele>252.02</ele>
			<time>2020-01-17T05:09:55.75Z</time>
		</trkpt>
		<trkpt lat="34.857573" lon="128.546907">
			<ele>253.05</ele>
			<time>2020-01-17T05:09:57.69Z</time>
		</trkpt>
		<trkpt lat="34.857213" lon="128.546819">
			<ele>256.04</ele>
			<time>2020-01-17T05:10:00.14Z</time>
		</trkpt>
		<trkpt lat="34.857197" lon="128.546810">
			<ele>256.18</ele>
			<time>2020-01-17T05:10:00.25Z</time>
		</trkpt>
		<trkpt lat="34.857105" lon="128.546777">
			<ele>257.24</ele>
			<time>2020-01-17T05:10:00.89Z</time>
		</trkpt>
		<trkpt lat="34.857034" lon="128.546728">
			<ele>257.91</ele>
			<time>2020-01-17T05:10:01.44Z</time>
		</trkpt>
		<trkpt lat="34.856534" lon="128.546627">
			<ele>262.09</ele>
			<time>2020-01-17T05:10:04.82Z</time>
		</trkpt>
		<trkpt lat="34.856241" lon="128.546412">
			<ele>263.71</ele>
			<time>2020-01-17T05:10:07.10Z</time>
		</trkpt>
		<trkpt lat="34.856012" lon="128.546218">
			<ele>264.83</ele>
			<time>2020-01-17T05:10:08.96Z</time>
		</trkpt>
		<trkpt lat="34.855962" lon="128.546116">
			<ele>264.83</ele>
			<time>2020-01-17T05:10:09.61Z</time>
		</trkpt>
		<trkpt lat="34.855996" lon="128.545932">
			<ele>264.83</ele>
			<time>2020-01-17T05:10:10.64Z</time>
		</trkpt>
		<trkpt lat="34.856117" lon="128.545713">
			<ele>264.83</ele>
			<time>2020-01-17T05:10:12.08Z</time>
		</trkpt>
		<trkpt lat="34.856225" lon="128.545392">
			<ele>259.05</ele>
			<time>2020-01-17T05:10:13.98Z</time>
		</trkpt>
		<trkpt lat="34.856388" lon="128.544999">
			<ele>255.67</ele>
			<time>2020-01-17T05:10:16.39Z</time>
		</trkpt>
		<trkpt lat="34.856438" lon="128.544836">
			<ele>252.36</ele>
			<time>2020-01-17T05:10:17.34Z</time>
		</trkpt>
		<trkpt lat="34.856463" lon="128.544713">
			<ele>252.36</ele>
			<time>2020-01-17T05:10:18.03Z</time>
		</trkpt>
		<trkpt lat="34.856453" lon="128.544642">
			<ele>252.36</ele>
			<time>2020-01-17T05:10:18.43Z</time>
		</trkpt>
		<trkpt lat="34.856414" lon="128.544540">
			<ele>252.36</ele>
			<time>2020-01-17T05:10:19.04Z</time>
		</trkpt>
		<trkpt lat="34.856364" lon="128.544446">
			<ele>252.36</ele>
			<time>2020-01-17T05:10:19.66Z</time>
		</trkpt>
		<trkpt lat="34.856326" lon="128.544385">
			<ele>252.36</ele>
			<time>2020-01-17T05:10:20.08Z</time>
		</trkpt>
		<trkpt lat="34.856281" lon="128.544241">
			<ele>248.93</ele>
			<time>2020-01-17T05:10:20.92Z</time>
		</trkpt>
		<trkpt lat="34.856264" lon="128.544169">
			<ele>245.91</ele>
			<time>2020-01-17T05:10:21.33Z</time>
		</trkpt>
		<trkpt lat="34.856285" lon="128.544035">
			<ele>242.88</ele>
			<time>2020-01-17T05:10:22.08Z</time>
		</trkpt>
		<trkpt lat="34.856328" lon="128.543888">
			<ele>242.88</ele>
			<time>2020-01-17T05:10:22.93Z</time>
		</trkpt>
		<trkpt lat="34.856392" lon="128.543775">
			<ele>242.88</ele>
			<time>2020-01-17T05:10:23.68Z</time>
		</trkpt>
		<trkpt lat="34.856515" lon="128.543684">
			<ele>242.88</ele>
			<time>2020-01-17T05:10:24.64Z</time>
		</trkpt>
		<trkpt lat="34.856653" lon="128.543655">
			<ele>242.88</ele>
			<time>2020-01-17T05:10:25.57Z</time>
		</trkpt>
		<trkpt lat="34.856874" lon="128.543631">
			<ele>242.88</ele>
			<time>2020-01-17T05:10:27.05Z</time>
		</trkpt>
		<trkpt lat="34.857113" lon="128.543574">
			<ele>242.88</ele>
			<time>2020-01-17T05:10:28.68Z</time>
		</trkpt>
		<trkpt lat="34.857261" lon="128.543487">
			<ele>242.88</ele>
			<time>2020-01-17T05:10:29.77Z</time>
		</trkpt>
		<trkpt lat="34.857356" lon="128.543361">
			<ele>242.88</ele>
			<time>2020-01-17T05:10:30.71Z</time>
		</trkpt>
		<trkpt lat="34.857384" lon="128.543173">
			<ele>242.88</ele>
			<time>2020-01-17T05:10:31.76Z</time>
		</trkpt>
		<trkpt lat="34.857390" lon="128.542937">
			<ele>242.88</ele>
			<time>2020-01-17T05:10:33.05Z</time>
		</trkpt>
		<trkpt lat="34.857377" lon="128.542554">
			<ele>242.88</ele>
			<time>2020-01-17T05:10:35.14Z</time>
		</trkpt>
		<trkpt lat="34.857364" lon="128.542198">
			<ele>242.88</ele>
			<time>2020-01-17T05:10:37.09Z</time>
		</trkpt>
		<trkpt lat="34.857360" lon="128.542193">
			<ele>242.88</ele>
			<time>2020-01-17T05:10:37.15Z</time>
		</trkpt>
		<trkpt lat="34.857317" lon="128.542085">
			<ele>242.88</ele>
			<time>2020-01-17T05:10:37.81Z</time>
		</trkpt>
		<trkpt lat="34.857145" lon="128.541923">
			<ele>242.88</ele>
			<time>2020-01-17T05:10:39.26Z</time>
		</trkpt>
		<trkpt lat="34.856894" lon="128.541759">
			<ele>211.91</ele>
			<time>2020-01-17T05:10:41.16Z</time>
		</trkpt>
		<trkpt lat="34.856737" lon="128.541675">
			<ele>211.91</ele>
			<time>2020-01-17T05:10:42.30Z</time>
		</trkpt>
		<trkpt lat="34.856481" lon="128.541565">
			<ele>211.91</ele>
			<time>2020-01-17T05:10:44.11Z</time>
		</trkpt>
		<trkpt lat="34.856280" lon="128.541473">
			<ele>211.91</ele>
			<time>2020-01-17T05:10:45.54Z</time>
		</trkpt>
		<trkpt lat="34.856033" lon="128.541395">
			<ele>211.91</ele>
			<time>2020-01-17T05:10:47.24Z</time>
		</trkpt>
		<trkpt lat="34.855831" lon="128.541274">
			<ele>211.91</ele>
			<time>2020-01-17T05:10:48.74Z</time>
		</trkpt>
		<trkpt lat="34.855629" lon="128.541078">
			<ele>211.91</ele>
			<time>2020-01-17T05:10:50.46Z</time>
		</trkpt>
		<trkpt lat="34.855540" lon="128.540846">
			<ele>211.91</ele>
			<time>2020-01-17T05:10:51.86Z</time>
		</trkpt>
		<trkpt lat="34.855535" lon="128.540587">
			<ele>211.91</ele>
			<time>2020-01-17T05:10:53.28Z</time>
		</trkpt>
		<trkpt lat="34.855647" lon="128.540417">
			<ele>211.91</ele>
			<time>2020-01-17T05:10:54.48Z</time>
		</trkpt>
		<trkpt lat="34.855792" lon="128.540263">
			<ele>211.91</ele>
			<time>2020-01-17T05:10:55.76Z</time>
		</trkpt>
		<trkpt lat="34.855797" lon="128.540253">
			<ele>211.91</ele>
			<time>2020-01-17T05:10:55.82Z</time>
		</trkpt>
		<trkpt lat="34.855854" lon="128.540122">
			<ele>211.91</ele>
			<time>2020-01-17T05:10:56.63Z</time>
		</trkpt>
		<trkpt lat="34.855813" lon="128.539991">
			<ele>211.91</ele>
			<time>2020-01-17T05:10:57.40Z</time>
		</trkpt>
		<trkpt lat="34.855692" lon="128.539857">
			<ele>211.91</ele>
			<time>2020-01-17T05:10:58.49Z</time>
		</trkpt>
		<trkpt lat="34.855692" lon="128.539844">
			<ele>211.91</ele>
			<time>2020-01-17T05:10:58.56Z</time>
		</trkpt>
		<trkpt lat="34.855507" lon="128.539678">
			<ele>211.91</ele>
			<time>2020-01-17T05:11:00.09Z</time>
		</trkpt>
		<trkpt lat="34.855404" lon="128.539494">
			<ele>211.91</ele>
			<time>2020-01-17T05:11:01.31Z</time>
		</trkpt>
		<trkpt lat="34.855291" lon="128.539344">
			<ele>211.91</ele>
			<time>2020-01-17T05:11:02.42Z</time>
		</trkpt>
		<trkpt lat="34.855248" lon="128.539277">
			<ele>211.91</ele>
			<time>2020-01-17T05:11:02.89Z</time>
		</trkpt>
		<trkpt lat="34.855207" lon="128.539298">
			<ele>211.91</ele>
			<time>2020-01-17T05:11:03.19Z</time>
		</trkpt>
		<trkpt lat="34.855151" lon="128.539298">
			<ele>211.91</ele>
			<time>2020-01-17T05:11:03.56Z</time>
		</trkpt>
		<trkpt lat="34.855091" lon="128.539366">
			<ele>211.91</ele>
			<time>2020-01-17T05:11:04.11Z</time>
		</trkpt>
		<trkpt lat="34.855028" lon="128.539458">
			<ele>211.91</ele>
			<time>2020-01-17T05:11:04.76Z</time>
		</trkpt>
		<trkpt lat="34.854967" lon="128.539564">
			<ele>211.91</ele>
			<time>2020-01-17T05:11:05.47Z</time>
		</trkpt>
		<trkpt lat="34.854870" lon="128.539734">
			<ele>211.91</ele>
			<time>2020-01-17T05:11:06.60Z</time>
		</trkpt>
		<trkpt lat="34.854770" lon="128.539802">
			<ele>171.30</ele>
			<time>2020-01-17T05:11:07.36Z</time>
		</trkpt>
		<trkpt lat="34.854713" lon="128.539860">
			<ele>171.46</ele>
			<time>2020-01-17T05:11:07.86Z</time>
		</trkpt>
		<trkpt lat="34.854090" lon="128.540090">
			<ele>168.65</ele>
			<time>2020-01-17T05:11:12.20Z</time>
		</trkpt>
		<trkpt lat="34.853512" lon="128.540362">
			<ele>171.98</ele>
			<time>2020-01-17T05:11:16.33Z</time>
		</trkpt>
		<trkpt lat="34.853479" lon="128.540351">
			<ele>170.72</ele>
			<time>2020-01-17T05:11:16.56Z</time>
		</trkpt>
		<trkpt lat="34.853307" lon="128.540191">
			<ele>169.71</ele>
			<time>2020-01-17T05:11:18Z</time>
		</trkpt>
		<trkpt lat="34.853160" lon="128.539865">
			<ele>165.93</ele>
			<time>2020-01-17T05:11:20.04Z</time>
		</trkpt>
		<trkpt lat="34.853149" lon="128.539833">
			<ele>165.63</ele>
			<time>2020-01-17T05:11:20.23Z</time>
		</trkpt>
		<trkpt lat="34.852990" lon="128.539510">
			<ele>162.52</ele>
			<time>2020-01-17T05:11:22.29Z</time>
		</trkpt>
		<trkpt lat="34.852886" lon="128.539203">
			<ele>159.52</ele>
			<time>2020-01-17T05:11:24.10Z</time>
		</trkpt>
		<trkpt lat="34.852741" lon="128.538920">
			<ele>156.52</ele>
			<time>2020-01-17T05:11:25.93Z</time>
		</trkpt>
		<trkpt lat="34.852515" lon="128.538643">
			<ele>153.21</ele>
			<time>2020-01-17T05:11:28.07Z</time>
		</trkpt>
		<trkpt lat="34.852285" lon="128.538732">
			<ele>149.77</ele>
			<time>2020-01-17T05:11:29.67Z</time>
		</trkpt>
		<trkpt lat="34.852020" lon="128.539021">
			<ele>146.66</ele>
			<time>2020-01-17T05:11:32.05Z</time>
		</trkpt>
		<trkpt lat="34.851656" lon="128.539084">
			<ele>143.38</ele>
			<time>2020-01-17T05:11:34.50Z</time>
		</trkpt>
		<trkpt lat="34.851366" lon="128.538995">
			<ele>139.95</ele>
			<time>2020-01-17T05:11:36.49Z</time>
		</trkpt>
		<trkpt lat="34.851170" lon="128.538789">
			<ele>136.66</ele>
			<time>2020-01-17T05:11:38.22Z</time>
		</trkpt>
		<trkpt lat="34.850498" lon="128.538403">
			<ele>129.21</ele>
			<time>2020-01-17T05:11:43.17Z</time>
		</trkpt>
		<trkpt lat="34.850290" lon="128.537924">
			<ele>121.06</ele>
			<time>2020-01-17T05:11:46.13Z</time>
		</trkpt>
		<trkpt lat="34.850254" lon="128.537719">
			<ele>117.86</ele>
			<time>2020-01-17T05:11:47.28Z</time>
		</trkpt>
		<trkpt lat="34.850171" lon="128.537145">
			<ele>115.17</ele>
			<time>2020-01-17T05:11:50.47Z</time>
		</trkpt>
		<trkpt lat="34.850270" lon="128.536895">
			<ele>112.77</ele>
			<time>2020-01-17T05:11:51.99Z</time>
		</trkpt>
		<trkpt lat="34.850376" lon="128.536478">
			<ele>109.69</ele>
			<time>2020-01-17T05:11:54.38Z</time>
		</trkpt>
		<trkpt lat="34.850319" lon="128.536413">
			<ele>109.69</ele>
			<time>2020-01-17T05:11:54.89Z</time>
		</trkpt>
		<trkpt lat="34.850268" lon="128.536332">
			<ele>109.69</ele>
			<time>2020-01-17T05:11:55.46Z</time>
		</trkpt>
		<trkpt lat="34.850212" lon="128.536253">
			<ele>109.69</ele>
			<time>2020-01-17T05:11:56.03Z</time>
		</trkpt>
		<trkpt lat="34.850198" lon="128.536312">
			<ele>109.69</ele>
			<time>2020-01-17T05:11:56.36Z</time>
		</trkpt>
		<trkpt lat="34.850201" lon="128.536443">
			<ele>109.69</ele>
			<time>2020-01-17T05:11:57.08Z</time>
		</trkpt>
		<trkpt lat="34.850231" lon="128.536567">
			<ele>100.50</ele>
			<time>2020-01-17T05:11:57.79Z</time>
		</trkpt>
		<trkpt lat="34.850226" lon="128.536721">
			<ele>100.50</ele>
			<time>2020-01-17T05:11:58.63Z</time>
		</trkpt>
		<trkpt lat="34.850199" lon="128.536793">
			<ele>100.50</ele>
			<time>2020-01-17T05:11:59.06Z</time>
		</trkpt>
		<trkpt lat="34.850132" lon="128.536852">
			<ele>100.50</ele>
			<time>2020-01-17T05:11:59.61Z</time>
		</trkpt>
		<trkpt lat="34.849963" lon="128.536954">
			<ele>100.50</ele>
			<time>2020-01-17T05:12:00.87Z</time>
		</trkpt>
		<trkpt lat="34.849899" lon="128.537045">
			<ele>96.97</ele>
			<time>2020-01-17T05:12:01.52Z</time>
		</trkpt>
		<trkpt lat="34.849875" lon="128.537070">
			<ele>96.31</ele>
			<time>2020-01-17T05:12:01.73Z</time>
		</trkpt>
		<trkpt lat="34.849854" lon="128.537186">
			<ele>96.17</ele>
			<time>2020-01-17T05:12:02.38Z</time>
		</trkpt>
		<trkpt lat="34.849798" lon="128.537312">
			<ele>93.63</ele>
			<time>2020-01-17T05:12:03.17Z</time>
		</trkpt>
		<trkpt lat="34.849718" lon="128.537664">
			<ele>90.40</ele>
			<time>2020-01-17T05:12:05.17Z</time>
		</trkpt>
		<trkpt lat="34.849606" lon="128.538133">
			<ele>87.38</ele>
			<time>2020-01-17T05:12:07.84Z</time>
		</trkpt>
		<trkpt lat="34.849671" lon="128.538708">
			<ele>85.42</ele>
			<time>2020-01-17T05:12:11.01Z</time>
		</trkpt>
		<trkpt lat="34.849729" lon="128.538897">
			<ele>85.42</ele>
			<time>2020-01-17T05:12:12.12Z</time>
		</trkpt>
		<trkpt lat="34.849753" lon="128.539077">
			<ele>85.42</ele>
			<time>2020-01-17T05:12:13.11Z</time>
		</trkpt>
		<trkpt lat="34.849767" lon="128.539211">
			<ele>85.42</ele>
			<time>2020-01-17T05:12:13.85Z</time>
		</trkpt>
		<trkpt lat="34.849780" lon="128.539381">
			<ele>85.42</ele>
			<time>2020-01-17T05:12:14.79Z</time>
		</trkpt>
		<trkpt lat="34.849756" lon="128.539473">
			<ele>85.42</ele>
			<time>2020-01-17T05:12:15.32Z</time>
		</trkpt>
		<trkpt lat="34.849751" lon="128.539473">
			<ele>85.42</ele>
			<time>2020-01-17T05:12:15.38Z</time>
		</trkpt>
		<trkpt lat="34.849700" lon="128.539479">
			<ele>85.42</ele>
			<time>2020-01-17T05:12:15.72Z</time>
		</trkpt>
		<trkpt lat="34.849608" lon="128.539450">
			<ele>85.42</ele>
			<time>2020-01-17T05:12:16.35Z</time>
		</trkpt>
		<trkpt lat="34.849487" lon="128.539290">
			<ele>85.42</ele>
			<time>2020-01-17T05:12:17.54Z</time>
		</trkpt>
		<trkpt lat="34.849401" lon="128.539149">
			<ele>85.42</ele>
			<time>2020-01-17T05:12:18.50Z</time>
		</trkpt>
		<trkpt lat="34.849342" lon="128.538979">
			<ele>85.42</ele>
			<time>2020-01-17T05:12:19.51Z</time>
		</trkpt>
		<trkpt lat="34.849337" lon="128.538973">
			<ele>85.42</ele>
			<time>2020-01-17T05:12:19.57Z</time>
		</trkpt>
		<trkpt lat="34.849256" lon="128.538596">
			<ele>85.42</ele>
			<time>2020-01-17T05:12:21.70Z</time>
		</trkpt>
		<trkpt lat="34.849180" lon="128.538413">
			<ele>85.42</ele>
			<time>2020-01-17T05:12:22.82Z</time>
		</trkpt>
		<trkpt lat="34.849099" lon="128.538220">
			<ele>85.42</ele>
			<time>2020-01-17T05:12:24.01Z</time>
		</trkpt>
		<trkpt lat="34.849118" lon="128.537800">
			<ele>67.73</ele>
			<time>2020-01-17T05:12:26.31Z</time>
		</trkpt>
		<trkpt lat="34.849066" lon="128.537483">
			<ele>67.73</ele>
			<time>2020-01-17T05:12:28.08Z</time>
		</trkpt>
		<trkpt lat="34.849085" lon="128.537152">
			<ele>67.73</ele>
			<time>2020-01-17T05:12:29.89Z</time>
		</trkpt>
		<trkpt lat="34.849115" lon="128.536995">
			<ele>64.62</ele>
			<time>2020-01-17T05:12:30.77Z</time>
		</trkpt>
		<trkpt lat="34.849114" lon="128.536945">
			<ele>64.43</ele>
			<time>2020-01-17T05:12:31.05Z</time>
		</trkpt>
		<trkpt lat="34.849103" lon="128.536884">
			<ele>64.25</ele>
			<time>2020-01-17T05:12:31.39Z</time>
		</trkpt>
		<trkpt lat="34.849057" lon="128.536704">
			<ele>64.25</ele>
			<time>2020-01-17T05:12:32.42Z</time>
		</trkpt>
		<trkpt lat="34.849057" lon="128.536495">
			<ele>64.25</ele>
			<time>2020-01-17T05:12:33.56Z</time>
		</trkpt>
		<trkpt lat="34.849092" lon="128.536256">
			<ele>61.11</ele>
			<time>2020-01-17T05:12:34.89Z</time>
		</trkpt>
		<trkpt lat="34.849244" lon="128.535322">
			<ele>58.28</ele>
			<time>2020-01-17T05:12:40.10Z</time>
		</trkpt>
		<trkpt lat="34.849187" lon="128.534922">
			<ele>58.28</ele>
			<time>2020-01-17T05:12:42.32Z</time>
		</trkpt>
		<trkpt lat="34.849160" lon="128.534762">
			<ele>58.28</ele>
			<time>2020-01-17T05:12:43.21Z</time>
		</trkpt>
		<trkpt lat="34.849175" lon="128.534465">
			<ele>56.59</ele>
			<time>2020-01-17T05:12:44.85Z</time>
		</trkpt>
		<trkpt lat="34.849175" lon="128.534164">
			<ele>56.59</ele>
			<time>2020-01-17T05:12:46.49Z</time>
		</trkpt>
		<trkpt lat="34.849235" lon="128.533792">
			<ele>55.59</ele>
			<time>2020-01-17T05:12:48.56Z</time>
		</trkpt>
		<trkpt lat="34.849258" lon="128.533710">
			<ele>55.53</ele>
			<time>2020-01-17T05:12:49.04Z</time>
		</trkpt>
		<trkpt lat="34.849344" lon="128.533387">
			<ele>54.80</ele>
			<time>2020-01-17T05:12:50.90Z</time>
		</trkpt>
		<trkpt lat="34.849352" lon="128.533305">
			<ele>54.39</ele>
			<time>2020-01-17T05:12:51.35Z</time>
		</trkpt>
		<trkpt lat="34.849345" lon="128.533224">
			<ele>54.22</ele>
			<time>2020-01-17T05:12:51.79Z</time>
		</trkpt>
		<trkpt lat="34.849327" lon="128.533149">
			<ele>54.22</ele>
			<time>2020-01-17T05:12:52.22Z</time>
		</trkpt>
		<trkpt lat="34.849300" lon="128.533077">
			<ele>54.11</ele>
			<time>2020-01-17T05:12:52.65Z</time>
		</trkpt>
		<trkpt lat="34.849273" lon="128.533009">
			<ele>54.56</ele>
			<time>2020-01-17T05:12:53.07Z</time>
		</trkpt>
		<trkpt lat="34.849253" lon="128.532938">
			<ele>54.89</ele>
			<time>2020-01-17T05:12:53.48Z</time>
		</trkpt>
		<trkpt lat="34.849242" lon="128.532862">
			<ele>55.02</ele>
			<time>2020-01-17T05:12:53.90Z</time>
		</trkpt>
		<trkpt lat="34.849238" lon="128.532781">
			<ele>55.52</ele>
			<time>2020-01-17T05:12:54.34Z</time>
		</trkpt>
		<trkpt lat="34.849237" lon="128.532694">
			<ele>55.97</ele>
			<time>2020-01-17T05:12:54.82Z</time>
		</trkpt>
		<trkpt lat="34.849207" lon="128.531982">
			<ele>55.75</ele>
			<time>2020-01-17T05:12:58.72Z</time>
		</trkpt>
		<trkpt lat="34.849183" lon="128.531920">
			<ele>55.76</ele>
			<time>2020-01-17T05:12:59.10Z</time>
		</trkpt>
		<trkpt lat="34.849151" lon="128.531858">
			<ele>55.35</ele>
			<time>2020-01-17T05:12:59.50Z</time>
		</trkpt>
		<trkpt lat="34.849094" lon="128.531745">
			<ele>54.32</ele>
			<time>2020-01-17T05:13:00.22Z</time>
		</trkpt>
		<trkpt lat="34.849075" lon="128.531697">
			<ele>53.67</ele>
			<time>2020-01-17T05:13:00.51Z</time>
		</trkpt>
		<trkpt lat="34.849063" lon="128.531658">
			<ele>52.95</ele>
			<time>2020-01-17T05:13:00.74Z</time>
		</trkpt>
		<trkpt lat="34.849058" lon="128.531629">
			<ele>52.66</ele>
			<time>2020-01-17T05:13:00.90Z</time>
		</trkpt>
		<trkpt lat="34.849054" lon="128.531606">
			<ele>52.60</ele>
			<time>2020-01-17T05:13:01.03Z</time>
		</trkpt>
		<trkpt lat="34.849053" lon="128.531606">
			<ele>52.47</ele>
			<time>2020-01-17T05:13:01.09Z</time>
		</trkpt>
		<trkpt lat="34.849053" lon="128.531606">
			<ele>52.44</ele>
			<time>2020-01-17T05:13:01.15Z</time>
		</trkpt>
		<trkpt lat="34.849053" lon="128.531604">
			<ele>52.41</ele>
			<time>2020-01-17T05:13:01.21Z</time>
		</trkpt>
		<trkpt lat="34.849050" lon="128.531602">
			<ele>52.54</ele>
			<time>2020-01-17T05:13:01.27Z</time>
		</trkpt>
		<trkpt lat="34.849037" lon="128.531626">
			<ele>52.01</ele>
			<time>2020-01-17T05:13:01.43Z</time>
		</trkpt>
		<trkpt lat="34.849027" lon="128.531619">
			<ele>51.93</ele>
			<time>2020-01-17T05:13:01.51Z</time>
		</trkpt>
		<trkpt lat="34.849013" lon="128.531611">
			<ele>51.72</ele>
			<time>2020-01-17T05:13:01.61Z</time>
		</trkpt>
		<trkpt lat="34.848998" lon="128.531602">
			<ele>51.67</ele>
			<time>2020-01-17T05:13:01.72Z</time>
		</trkpt>
		<trkpt lat="34.848982" lon="128.531587">
			<ele>51.58</ele>
			<time>2020-01-17T05:13:01.86Z</time>
		</trkpt>
		<trkpt lat="34.848964" lon="128.531572">
			<ele>51.46</ele>
			<time>2020-01-17T05:13:02Z</time>
		</trkpt>
		<trkpt lat="34.848913" lon="128.531518">
			<ele>50.23</ele>
			<time>2020-01-17T05:13:02.45Z</time>
		</trkpt>
		<trkpt lat="34.848875" lon="128.531505">
			<ele>50.14</ele>
			<time>2020-01-17T05:13:02.71Z</time>
		</trkpt>
		<trkpt lat="34.848565" lon="128.531198">
			<ele>47.53</ele>
			<time>2020-01-17T05:13:05.38Z</time>
		</trkpt>
		<trkpt lat="34.848585" lon="128.531178">
			<ele>54.09</ele>
			<time>2020-01-17T05:13:05.55Z</time>
		</trkpt>
		<trkpt lat="34.848857" lon="128.530575">
			<ele>54.09</ele>
			<time>2020-01-17T05:13:09.31Z</time>
		</trkpt>
		<trkpt lat="34.848883" lon="128.530438">
			<ele>54.09</ele>
			<time>2020-01-17T05:13:10.09Z</time>
		</trkpt>
		<trkpt lat="34.848773" lon="128.530312">
			<ele>54.09</ele>
			<time>2020-01-17T05:13:11.09Z</time>
		</trkpt>
		<trkpt lat="34.848667" lon="128.530183">
			<ele>54.09</ele>
			<time>2020-01-17T05:13:12.09Z</time>
		</trkpt>
		<trkpt lat="34.848594" lon="128.530058">
			<ele>54.09</ele>
			<time>2020-01-17T05:13:12.93Z</time>
		</trkpt>
		<trkpt lat="34.848700" lon="128.529912">
			<ele>54.09</ele>
			<time>2020-01-17T05:13:14Z</time>
		</trkpt>
		<trkpt lat="34.848822" lon="128.529778">
			<ele>54.09</ele>
			<time>2020-01-17T05:13:15.10Z</time>
		</trkpt>
		<trkpt lat="34.848852" lon="128.529762">
			<ele>54.09</ele>
			<time>2020-01-17T05:13:15.31Z</time>
		</trkpt>
		<trkpt lat="34.848885" lon="128.529749">
			<ele>54.09</ele>
			<time>2020-01-17T05:13:15.55Z</time>
		</trkpt>
		<trkpt lat="34.848955" lon="128.529765">
			<ele>54.09</ele>
			<time>2020-01-17T05:13:16.02Z</time>
		</trkpt>
		<trkpt lat="34.849041" lon="128.529785">
			<ele>54.09</ele>
			<time>2020-01-17T05:13:16.60Z</time>
		</trkpt>
		<trkpt lat="34.849131" lon="128.529696">
			<ele>54.09</ele>
			<time>2020-01-17T05:13:17.37Z</time>
		</trkpt>
		<trkpt lat="34.849181" lon="128.529652">
			<ele>54.09</ele>
			<time>2020-01-17T05:13:17.79Z</time>
		</trkpt>
		<trkpt lat="34.849194" lon="128.529648">
			<ele>54.09</ele>
			<time>2020-01-17T05:13:17.88Z</time>
		</trkpt>
		<trkpt lat="34.849293" lon="128.529607">
			<ele>54.09</ele>
			<time>2020-01-17T05:13:18.58Z</time>
		</trkpt>
		<trkpt lat="34.849307" lon="128.529595">
			<ele>54.09</ele>
			<time>2020-01-17T05:13:18.69Z</time>
		</trkpt>
		<trkpt lat="34.849393" lon="128.529562">
			<ele>54.09</ele>
			<time>2020-01-17T05:13:19.29Z</time>
		</trkpt>
		<trkpt lat="34.849479" lon="128.529477">
			<ele>54.09</ele>
			<time>2020-01-17T05:13:20.03Z</time>
		</trkpt>
		<trkpt lat="34.849496" lon="128.529457">
			<ele>54.09</ele>
			<time>2020-01-17T05:13:20.19Z</time>
		</trkpt>
		<trkpt lat="34.849555" lon="128.529380">
			<ele>54.09</ele>
			<time>2020-01-17T05:13:20.77Z</time>
		</trkpt>
		<trkpt lat="34.849615" lon="128.529267">
			<ele>54.09</ele>
			<time>2020-01-17T05:13:21.50Z</time>
		</trkpt>
		<trkpt lat="34.849618" lon="128.529226">
			<ele>54.09</ele>
			<time>2020-01-17T05:13:21.72Z</time>
		</trkpt>
		<trkpt lat="34.849655" lon="128.529169">
			<ele>54.09</ele>
			<time>2020-01-17T05:13:22.12Z</time>
		</trkpt>
		<trkpt lat="34.849694" lon="128.529064">
			<ele>54.09</ele>
			<time>2020-01-17T05:13:22.75Z</time>
		</trkpt>
		<trkpt lat="34.849698" lon="128.529036">
			<ele>54.09</ele>
			<time>2020-01-17T05:13:22.91Z</time>
		</trkpt>
		<trkpt lat="34.849734" lon="128.528834">
			<ele>54.09</ele>
			<time>2020-01-17T05:13:24.04Z</time>
		</trkpt>
		<trkpt lat="34.849644" lon="128.528458">
			<ele>54.09</ele>
			<time>2020-01-17T05:13:26.19Z</time>
		</trkpt>
		<trkpt lat="34.849593" lon="128.528295">
			<ele>55.02</ele>
			<time>2020-01-17T05:13:27.14Z</time>
		</trkpt>
		<trkpt lat="34.849671" lon="128.527965">
			<ele>57.65</ele>
			<time>2020-01-17T05:13:29.02Z</time>
		</trkpt>
		<trkpt lat="34.849708" lon="128.527927">
			<ele>58.49</ele>
			<time>2020-01-17T05:13:29.34Z</time>
		</trkpt>
		<trkpt lat="34.849845" lon="128.527622">
			<ele>62.40</ele>
			<time>2020-01-17T05:13:31.24Z</time>
		</trkpt>
		<trkpt lat="34.849967" lon="128.527406">
			<ele>65.60</ele>
			<time>2020-01-17T05:13:32.68Z</time>
		</trkpt>
		<trkpt lat="34.850013" lon="128.527336">
			<ele>66.23</ele>
			<time>2020-01-17T05:13:33.17Z</time>
		</trkpt>
		<trkpt lat="34.850273" lon="128.527003">
			<ele>69.29</ele>
			<time>2020-01-17T05:13:35.68Z</time>
		</trkpt>
		<trkpt lat="34.850450" lon="128.526648">
			<ele>72.72</ele>
			<time>2020-01-17T05:13:37.95Z</time>
		</trkpt>
		<trkpt lat="34.850585" lon="128.526467">
			<ele>72.36</ele>
			<time>2020-01-17T05:13:39.29Z</time>
		</trkpt>
		<trkpt lat="34.850655" lon="128.526359">
			<ele>72.36</ele>
			<time>2020-01-17T05:13:40.04Z</time>
		</trkpt>
		<trkpt lat="34.850611" lon="128.526221">
			<ele>75.00</ele>
			<time>2020-01-17T05:13:40.85Z</time>
		</trkpt>
		<trkpt lat="34.850589" lon="128.526176">
			<ele>75.59</ele>
			<time>2020-01-17T05:13:41.14Z</time>
		</trkpt>
		<trkpt lat="34.850560" lon="128.526125">
			<ele>76.45</ele>
			<time>2020-01-17T05:13:41.48Z</time>
		</trkpt>
		<trkpt lat="34.850465" lon="128.525981">
			<ele>79.71</ele>
			<time>2020-01-17T05:13:42.49Z</time>
		</trkpt>
		<trkpt lat="34.850428" lon="128.525928">
			<ele>79.91</ele>
			<time>2020-01-17T05:13:42.87Z</time>
		</trkpt>
		<trkpt lat="34.850402" lon="128.525854">
			<ele>79.91</ele>
			<time>2020-01-17T05:13:43.31Z</time>
		</trkpt>
		<trkpt lat="34.850402" lon="128.525848">
			<ele>79.91</ele>
			<time>2020-01-17T05:13:43.37Z</time>
		</trkpt>
		<trkpt lat="34.850330" lon="128.525782">
			<ele>79.91</ele>
			<time>2020-01-17T05:13:43.97Z</time>
		</trkpt>
		<trkpt lat="34.850177" lon="128.525675">
			<ele>79.91</ele>
			<time>2020-01-17T05:13:45.14Z</time>
		</trkpt>
		<trkpt lat="34.850167" lon="128.525675">
			<ele>79.91</ele>
			<time>2020-01-17T05:13:45.22Z</time>
		</trkpt>
		<trkpt lat="34.850011" lon="128.525669">
			<ele>79.91</ele>
			<time>2020-01-17T05:13:46.25Z</time>
		</trkpt>
		<trkpt lat="34.849995" lon="128.525675">
			<ele>79.91</ele>
			<time>2020-01-17T05:13:46.36Z</time>
		</trkpt>
		<trkpt lat="34.849832" lon="128.525637">
			<ele>79.91</ele>
			<time>2020-01-17T05:13:47.47Z</time>
		</trkpt>
		<trkpt lat="34.849652" lon="128.525568">
			<ele>79.91</ele>
			<time>2020-01-17T05:13:48.73Z</time>
		</trkpt>
		<trkpt lat="34.849636" lon="128.525568">
			<ele>79.91</ele>
			<time>2020-01-17T05:13:48.84Z</time>
		</trkpt>
		<trkpt lat="34.849521" lon="128.525569">
			<ele>79.91</ele>
			<time>2020-01-17T05:13:49.60Z</time>
		</trkpt>
		<trkpt lat="34.849516" lon="128.525569">
			<ele>79.91</ele>
			<time>2020-01-17T05:13:49.66Z</time>
		</trkpt>
		<trkpt lat="34.849374" lon="128.525579">
			<ele>79.91</ele>
			<time>2020-01-17T05:13:50.61Z</time>
		</trkpt>
		<trkpt lat="34.849363" lon="128.525579">
			<ele>79.91</ele>
			<time>2020-01-17T05:13:50.68Z</time>
		</trkpt>
		<trkpt lat="34.849318" lon="128.525576">
			<ele>79.91</ele>
			<time>2020-01-17T05:13:50.99Z</time>
		</trkpt>
		<trkpt lat="34.849309" lon="128.525487">
			<ele>79.91</ele>
			<time>2020-01-17T05:13:51.47Z</time>
		</trkpt>
		<trkpt lat="34.849475" lon="128.525347">
			<ele>79.91</ele>
			<time>2020-01-17T05:13:52.82Z</time>
		</trkpt>
		<trkpt lat="34.849576" lon="128.525229">
			<ele>95.59</ele>
			<time>2020-01-17T05:13:53.75Z</time>
		</trkpt>
		<trkpt lat="34.849736" lon="128.525143">
			<ele>98.86</ele>
			<time>2020-01-17T05:13:54.91Z</time>
		</trkpt>
		<trkpt lat="34.849956" lon="128.525105">
			<ele>101.86</ele>
			<time>2020-01-17T05:13:56.40Z</time>
		</trkpt>
		<trkpt lat="34.850195" lon="128.524996">
			<ele>105.53</ele>
			<time>2020-01-17T05:13:58.10Z</time>
		</trkpt>
		<trkpt lat="34.850248" lon="128.524946">
			<ele>106.15</ele>
			<time>2020-01-17T05:13:58.54Z</time>
		</trkpt>
		<trkpt lat="34.850250" lon="128.524804">
			<ele>109.25</ele>
			<time>2020-01-17T05:13:59.32Z</time>
		</trkpt>
		<trkpt lat="34.850177" lon="128.524774">
			<ele>112.63</ele>
			<time>2020-01-17T05:13:59.83Z</time>
		</trkpt>
		<trkpt lat="34.850158" lon="128.524749">
			<ele>115.71</ele>
			<time>2020-01-17T05:14:00.02Z</time>
		</trkpt>
		<trkpt lat="34.849939" lon="128.524747">
			<ele>114.74</ele>
			<time>2020-01-17T05:14:01.48Z</time>
		</trkpt>
		<trkpt lat="34.849790" lon="128.524831">
			<ele>115.25</ele>
			<time>2020-01-17T05:14:02.58Z</time>
		</trkpt>
		<trkpt lat="34.849646" lon="128.524750">
			<ele>116.57</ele>
			<time>2020-01-17T05:14:03.63Z</time>
		</trkpt>
		<trkpt lat="34.849840" lon="128.524692">
			<ele>120.11</ele>
			<time>2020-01-17T05:14:04.96Z</time>
		</trkpt>
		<trkpt lat="34.849886" lon="128.524658">
			<ele>121.60</ele>
			<time>2020-01-17T05:14:05.32Z</time>
		</trkpt>
		<trkpt lat="34.850153" lon="128.524497">
			<ele>124.65</ele>
			<time>2020-01-17T05:14:07.31Z</time>
		</trkpt>
		<trkpt lat="34.850232" lon="128.524494">
			<ele>125.39</ele>
			<time>2020-01-17T05:14:07.84Z</time>
		</trkpt>
		<trkpt lat="34.850390" lon="128.524445">
			<ele>125.39</ele>
			<time>2020-01-17T05:14:08.92Z</time>
		</trkpt>
		<trkpt lat="34.850497" lon="128.524406">
			<ele>125.39</ele>
			<time>2020-01-17T05:14:09.67Z</time>
		</trkpt>
		<trkpt lat="34.850508" lon="128.524386">
			<ele>125.39</ele>
			<time>2020-01-17T05:14:09.80Z</time>
		</trkpt>
		<trkpt lat="34.850567" lon="128.524353">
			<ele>125.39</ele>
			<time>2020-01-17T05:14:10.23Z</time>
		</trkpt>
		<trkpt lat="34.850601" lon="128.524307">
			<ele>125.39</ele>
			<time>2020-01-17T05:14:10.57Z</time>
		</trkpt>
		<trkpt lat="34.850612" lon="128.524229">
			<ele>125.39</ele>
			<time>2020-01-17T05:14:11Z</time>
		</trkpt>
		<trkpt lat="34.850598" lon="128.524154">
			<ele>123.58</ele>
			<time>2020-01-17T05:14:11.42Z</time>
		</trkpt>
		<trkpt lat="34.850534" lon="128.523906">
			<ele>120.07</ele>
			<time>2020-01-17T05:14:12.85Z</time>
		</trkpt>
		<trkpt lat="34.850474" lon="128.523652">
			<ele>116.89</ele>
			<time>2020-01-17T05:14:14.29Z</time>
		</trkpt>
		<trkpt lat="34.850402" lon="128.523544">
			<ele>116.03</ele>
			<time>2020-01-17T05:14:15.05Z</time>
		</trkpt>
		<trkpt lat="34.850073" lon="128.522870">
			<ele>113.58</ele>
			<time>2020-01-17T05:14:19.35Z</time>
		</trkpt>
		<trkpt lat="34.850038" lon="128.522465">
			<ele>111.66</ele>
			<time>2020-01-17T05:14:21.57Z</time>
		</trkpt>
		<trkpt lat="34.849953" lon="128.522290">
			<ele>108.38</ele>
			<time>2020-01-17T05:14:22.69Z</time>
		</trkpt>
		<trkpt lat="34.849899" lon="128.522141">
			<ele>107.17</ele>
			<time>2020-01-17T05:14:23.58Z</time>
		</trkpt>
		<trkpt lat="34.849909" lon="128.521941">
			<ele>106.66</ele>
			<time>2020-01-17T05:14:24.67Z</time>
		</trkpt>
		<trkpt lat="34.849920" lon="128.521847">
			<ele>105.03</ele>
			<time>2020-01-17T05:14:25.19Z</time>
		</trkpt>
		<trkpt lat="34.849912" lon="128.521597">
			<ele>101.64</ele>
			<time>2020-01-17T05:14:26.56Z</time>
		</trkpt>
		<trkpt lat="34.849900" lon="128.521570">
			<ele>101.38</ele>
			<time>2020-01-17T05:14:26.73Z</time>
		</trkpt>
		<trkpt lat="34.849846" lon="128.521501">
			<ele>99.75</ele>
			<time>2020-01-17T05:14:27.25Z</time>
		</trkpt>
		<trkpt lat="34.849820" lon="128.521453">
			<ele>99.67</ele>
			<time>2020-01-17T05:14:27.57Z</time>
		</trkpt>
		<trkpt lat="34.849813" lon="128.521437">
			<ele>99.42</ele>
			<time>2020-01-17T05:14:27.66Z</time>
		</trkpt>
		<trkpt lat="34.850021" lon="128.521468">
			<ele>94.41</ele>
			<time>2020-01-17T05:14:29.06Z</time>
		</trkpt>
		<trkpt lat="34.850323" lon="128.521488">
			<ele>91.26</ele>
			<time>2020-01-17T05:14:31.08Z</time>
		</trkpt>
		<trkpt lat="34.850412" lon="128.521493">
			<ele>89.94</ele>
			<time>2020-01-17T05:14:31.67Z</time>
		</trkpt>
		<trkpt lat="34.850618" lon="128.521528">
			<ele>86.60</ele>
			<time>2020-01-17T05:14:33.06Z</time>
		</trkpt>
		<trkpt lat="34.850782" lon="128.521659">
			<ele>83.54</ele>
			<time>2020-01-17T05:14:34.37Z</time>
		</trkpt>
		<trkpt lat="34.850944" lon="128.521769">
			<ele>80.41</ele>
			<time>2020-01-17T05:14:35.60Z</time>
		</trkpt>
		<trkpt lat="34.850988" lon="128.521740">
			<ele>79.69</ele>
			<time>2020-01-17T05:14:35.94Z</time>
		</trkpt>
		<trkpt lat="34.850976" lon="128.521562">
			<ele>79.51</ele>
			<time>2020-01-17T05:14:36.91Z</time>
		</trkpt>
		<trkpt lat="34.850976" lon="128.521562">
			<ele>79.47</ele>
			<time>2020-01-17T05:14:36.97Z</time>
		</trkpt>
		<trkpt lat="34.850976" lon="128.521562">
			<ele>79.83</ele>
			<time>2020-01-17T05:14:37.03Z</time>
		</trkpt>
		<trkpt lat="34.850927" lon="128.521483">
			<ele>79.19</ele>
			<time>2020-01-17T05:14:37.57Z</time>
		</trkpt>
		<trkpt lat="34.850881" lon="128.521005">
			<ele>75.92</ele>
			<time>2020-01-17T05:14:40.21Z</time>
		</trkpt>
		<trkpt lat="34.850998" lon="128.520886">
			<ele>73.58</ele>
			<time>2020-01-17T05:14:41.22Z</time>
		</trkpt>
		<trkpt lat="34.851226" lon="128.520748">
			<ele>67.78</ele>
			<time>2020-01-17T05:14:42.92Z</time>
		</trkpt>
		<trkpt lat="34.851255" lon="128.520722">
			<ele>67.16</ele>
			<time>2020-01-17T05:14:43.16Z</time>
		</trkpt>
		<trkpt lat="34.851304" lon="128.520687">
			<ele>66.00</ele>
			<time>2020-01-17T05:14:43.54Z</time>
		</trkpt>
		<trkpt lat="34.851392" lon="128.520618">
			<ele>63.88</ele>
			<time>2020-01-17T05:14:44.24Z</time>
		</trkpt>
		<trkpt lat="34.851526" lon="128.520557">
			<ele>62.00</ele>
			<time>2020-01-17T05:14:45.19Z</time>
		</trkpt>
		<trkpt lat="34.851625" lon="128.520517">
			<ele>61.73</ele>
			<time>2020-01-17T05:14:45.89Z</time>
		</trkpt>
		<trkpt lat="34.851740" lon="128.520592">
			<ele>61.73</ele>
			<time>2020-01-17T05:14:46.75Z</time>
		</trkpt>
		<trkpt lat="34.851834" lon="128.520680">
			<ele>61.73</ele>
			<time>2020-01-17T05:14:47.54Z</time>
		</trkpt>
		<trkpt lat="34.851925" lon="128.520676">
			<ele>61.73</ele>
			<time>2020-01-17T05:14:48.15Z</time>
		</trkpt>
		<trkpt lat="34.852043" lon="128.520615">
			<ele>55.69</ele>
			<time>2020-01-17T05:14:49.01Z</time>
		</trkpt>
		<trkpt lat="34.852078" lon="128.520589">
			<ele>54.83</ele>
			<time>2020-01-17T05:14:49.28Z</time>
		</trkpt>
		<trkpt lat="34.852104" lon="128.520581">
			<ele>54.50</ele>
			<time>2020-01-17T05:14:49.46Z</time>
		</trkpt>
		<trkpt lat="34.852300" lon="128.520442">
			<ele>51.18</ele>
			<time>2020-01-17T05:14:50.97Z</time>
		</trkpt>
		<trkpt lat="34.852315" lon="128.520445">
			<ele>50.50</ele>
			<time>2020-01-17T05:14:51.07Z</time>
		</trkpt>
		<trkpt lat="34.852409" lon="128.520457">
			<ele>50.34</ele>
			<time>2020-01-17T05:14:51.70Z</time>
		</trkpt>
		<trkpt lat="34.852524" lon="128.520309">
			<ele>47.76</ele>
			<time>2020-01-17T05:14:52.81Z</time>
		</trkpt>
		<trkpt lat="34.852647" lon="128.520221">
			<ele>47.76</ele>
			<time>2020-01-17T05:14:53.76Z</time>
		</trkpt>
		<trkpt lat="34.852734" lon="128.520257">
			<ele>44.37</ele>
			<time>2020-01-17T05:14:54.38Z</time>
		</trkpt>
		<trkpt lat="34.852790" lon="128.520325">
			<ele>41.36</ele>
			<time>2020-01-17T05:14:54.90Z</time>
		</trkpt>
		<trkpt lat="34.852881" lon="128.520325">
			<ele>41.36</ele>
			<time>2020-01-17T05:14:55.51Z</time>
		</trkpt>
		<trkpt lat="34.852974" lon="128.520230">
			<ele>41.36</ele>
			<time>2020-01-17T05:14:56.32Z</time>
		</trkpt>
		<trkpt lat="34.853049" lon="128.520201">
			<ele>38.44</ele>
			<time>2020-01-17T05:14:56.85Z</time>
		</trkpt>
		<trkpt lat="34.853170" lon="128.520289">
			<ele>38.44</ele>
			<time>2020-01-17T05:14:57.78Z</time>
		</trkpt>
		<trkpt lat="34.853229" lon="128.520393">
			<ele>38.44</ele>
			<time>2020-01-17T05:14:58.48Z</time>
		</trkpt>
		<trkpt lat="34.853350" lon="128.520422">
			<ele>38.44</ele>
			<time>2020-01-17T05:14:59.30Z</time>
		</trkpt>
		<trkpt lat="34.853441" lon="128.520402">
			<ele>36.59</ele>
			<time>2020-01-17T05:14:59.91Z</time>
		</trkpt>
		<trkpt lat="34.853494" lon="128.520307">
			<ele>36.59</ele>
			<time>2020-01-17T05:15:00.54Z</time>
		</trkpt>
		<trkpt lat="34.853620" lon="128.520209">
			<ele>36.59</ele>
			<time>2020-01-17T05:15:01.54Z</time>
		</trkpt>
		<trkpt lat="34.853715" lon="128.520179">
			<ele>35.54</ele>
			<time>2020-01-17T05:15:02.19Z</time>
		</trkpt>
		<trkpt lat="34.853966" lon="128.520030">
			<ele>35.05</ele>
			<time>2020-01-17T05:15:04.05Z</time>
		</trkpt>
		<trkpt lat="34.853966" lon="128.520030">
			<ele>35.03</ele>
			<time>2020-01-17T05:15:04.11Z</time>
		</trkpt>
		<trkpt lat="34.853965" lon="128.520030">
			<ele>34.83</ele>
			<time>2020-01-17T05:15:04.17Z</time>
		</trkpt>
		<trkpt lat="34.853963" lon="128.520033">
			<ele>34.88</ele>
			<time>2020-01-17T05:15:04.23Z</time>
		</trkpt>
		<trkpt lat="34.853963" lon="128.520032">
			<ele>34.89</ele>
			<time>2020-01-17T05:15:04.29Z</time>
		</trkpt>
		<trkpt lat="34.854029" lon="128.519951">
			<ele>34.89</ele>
			<time>2020-01-17T05:15:04.92Z</time>
		</trkpt>
		<trkpt lat="34.854088" lon="128.519899">
			<ele>34.89</ele>
			<time>2020-01-17T05:15:05.40Z</time>
		</trkpt>
		<trkpt lat="34.854096" lon="128.519844">
			<ele>34.89</ele>
			<time>2020-01-17T05:15:05.71Z</time>
		</trkpt>
		<trkpt lat="34.854072" lon="128.519661">
			<ele>34.89</ele>
			<time>2020-01-17T05:15:06.72Z</time>
		</trkpt>
		<trkpt lat="34.854066" lon="128.519504">
			<ele>34.89</ele>
			<time>2020-01-17T05:15:07.58Z</time>
		</trkpt>
		<trkpt lat="34.854061" lon="128.519491">
			<ele>34.89</ele>
			<time>2020-01-17T05:15:07.66Z</time>
		</trkpt>
		<trkpt lat="34.854061" lon="128.519478">
			<ele>34.89</ele>
			<time>2020-01-17T05:15:07.73Z</time>
		</trkpt>
		<trkpt lat="34.854055" lon="128.519387">
			<ele>34.89</ele>
			<time>2020-01-17T05:15:08.23Z</time>
		</trkpt>
		<trkpt lat="34.854125" lon="128.519285">
			<ele>34.89</ele>
			<time>2020-01-17T05:15:08.96Z</time>
		</trkpt>
		<trkpt lat="34.854172" lon="128.519159">
			<ele>34.90</ele>
			<time>2020-01-17T05:15:09.71Z</time>
		</trkpt>
		<trkpt lat="34.854225" lon="128.518928">
			<ele>34.90</ele>
			<time>2020-01-17T05:15:11.03Z</time>
		</trkpt>
		<trkpt lat="34.854351" lon="128.518715">
			<ele>34.90</ele>
			<time>2020-01-17T05:15:12.46Z</time>
		</trkpt>
		<trkpt lat="34.854430" lon="128.518557">
			<ele>32.80</ele>
			<time>2020-01-17T05:15:13.48Z</time>
		</trkpt>
		<trkpt lat="34.854514" lon="128.518333">
			<ele>32.80</ele>
			<time>2020-01-17T05:15:14.82Z</time>
		</trkpt>
		<trkpt lat="34.854671" lon="128.518033">
			<ele>32.80</ele>
			<time>2020-01-17T05:15:16.77Z</time>
		</trkpt>
		<trkpt lat="34.854874" lon="128.517703">
			<ele>32.80</ele>
			<time>2020-01-17T05:15:19.03Z</time>
		</trkpt>
		<trkpt lat="34.854922" lon="128.517592">
			<ele>32.80</ele>
			<time>2020-01-17T05:15:19.72Z</time>
		</trkpt>
		<trkpt lat="34.855040" lon="128.517406">
			<ele>32.80</ele>
			<time>2020-01-17T05:15:21Z</time>
		</trkpt>
		<trkpt lat="34.855125" lon="128.517213">
			<ele>32.80</ele>
			<time>2020-01-17T05:15:22.20Z</time>
		</trkpt>
		<trkpt lat="34.855219" lon="128.517007">
			<ele>32.80</ele>
			<time>2020-01-17T05:15:23.49Z</time>
		</trkpt>
		<extensions>
			<gte:name>#143</gte:name>
			<gte:color>#00ce00</gte:color>
		</extensions>
	</trkseg>
</trk>
</gpx>