<?xml version="1.0" encoding="UTF-8"?>
<gpx version="1.1" creator="GPS Visualizer Sandbox https://www.gpsvisualizer.com/draw/" xmlns="http://www.topografix.com/GPX/1/1" xmlns:xsi="http://www.w3.org/2001/XMLSchema-instance" xsi:schemaLocation="http://www.topografix.com/GPX/1/1 http://www.topografix.com/GPX/1/1/gpx.xsd">
	<trk>
		<name>04코스 고사리밭길(남37) (20201213) 노전마을 우회</name>
		<desc>Length: 14.99 km (9.312 mi)</desc>
		<extensions>
			<line xmlns="http://www.topografix.com/GPX/gpx_style/0/2"><color>00ff00</color></line>
		</extensions>
		<trkseg>
			<trkpt lat="34.8576565" lon="128.0127227"></trkpt>
			<trkpt lat="34.8576736" lon="128.0128255"></trkpt>
			<trkpt lat="34.8580309" lon="128.0127758"></trkpt>
			<trkpt lat="34.8580566" lon="128.0128509"></trkpt>
			<trkpt lat="34.8581714" lon="128.0128177"></trkpt>
			<trkpt lat="34.8583078" lon="128.0128263"></trkpt>
			<trkpt lat="34.8584157" lon="128.013081"></trkpt>
			<trkpt lat="34.8585246" lon="128.0131979"></trkpt>
			<trkpt lat="34.8586491" lon="128.0132487"></trkpt>
			<trkpt lat="34.8586708" lon="128.0132844"></trkpt>
			<trkpt lat="34.858667" lon="128.0133702"></trkpt>
			<trkpt lat="34.8587073" lon="128.0134766"></trkpt>
			<trkpt lat="34.8588138" lon="128.0136316"></trkpt>
			<trkpt lat="34.8590493" lon="128.0138402"></trkpt>
			<trkpt lat="34.8592127" lon="128.0143956"></trkpt>
			<trkpt lat="34.859372" lon="128.0150956"></trkpt>
			<trkpt lat="34.8595953" lon="128.0149689"></trkpt>
			<trkpt lat="34.8606335" lon="128.0142202"></trkpt>
			<trkpt lat="34.8609658" lon="128.0140338"></trkpt>
			<trkpt lat="34.8616707" lon="128.0147196"></trkpt>
			<trkpt lat="34.8618323" lon="128.0144978"></trkpt>
			<trkpt lat="34.8623462" lon="128.0136676"></trkpt>
			<trkpt lat="34.8625154" lon="128.0134334"></trkpt>
			<trkpt lat="34.8624821" lon="128.0132332"></trkpt>
			<trkpt lat="34.8624796" lon="128.0130588"></trkpt>
			<trkpt lat="34.8634223" lon="128.0123288"></trkpt>
			<trkpt lat="34.8656624" lon="128.0107815"></trkpt>
			<trkpt lat="34.8657329" lon="128.0107572"></trkpt>
			<trkpt lat="34.8657623" lon="128.0107831"></trkpt>
			<trkpt lat="34.8657757" lon="128.0110332"></trkpt>
			<trkpt lat="34.8658721" lon="128.0113147"></trkpt>
			<trkpt lat="34.8658547" lon="128.0113681"></trkpt>
			<trkpt lat="34.8656803" lon="128.011492"></trkpt>
			<trkpt lat="34.8656588" lon="128.011532"></trkpt>
			<trkpt lat="34.8657358" lon="128.01182"></trkpt>
			<trkpt lat="34.8656961" lon="128.0146182"></trkpt>
			<trkpt lat="34.8657041" lon="128.0164082"></trkpt>
			<trkpt lat="34.8657208" lon="128.016475"></trkpt>
			<trkpt lat="34.8659027" lon="128.0166492"></trkpt>
			<trkpt lat="34.8659433" lon="128.0167399"></trkpt>
			<trkpt lat="34.8659603" lon="128.0169779"></trkpt>
			<trkpt lat="34.8658931" lon="128.0173913"></trkpt>
			<trkpt lat="34.8658684" lon="128.0174423"></trkpt>
			<trkpt lat="34.8658011" lon="128.0174944"></trkpt>
			<trkpt lat="34.8656324" lon="128.0178289"></trkpt>
			<trkpt lat="34.8654962" lon="128.0184188"></trkpt>
			<trkpt lat="34.8652516" lon="128.0188037"></trkpt>
			<trkpt lat="34.8651514" lon="128.0188904"></trkpt>
			<trkpt lat="34.8649709" lon="128.0189825"></trkpt>
			<trkpt lat="34.8646939" lon="128.0189928"></trkpt>
			<trkpt lat="34.8643927" lon="128.0189007"></trkpt>
			<trkpt lat="34.8637762" lon="128.0190887"></trkpt>
			<trkpt lat="34.8636601" lon="128.0191957"></trkpt>
			<trkpt lat="34.863494" lon="128.0202366"></trkpt>
			<trkpt lat="34.8641108" lon="128.0213235"></trkpt>
			<trkpt lat="34.8644058" lon="128.0218973"></trkpt>
			<trkpt lat="34.8651485" lon="128.0231355"></trkpt>
			<trkpt lat="34.8652798" lon="128.0233996"></trkpt>
			<trkpt lat="34.8654969" lon="128.0237422"></trkpt>
			<trkpt lat="34.8657741" lon="128.0242665"></trkpt>
			<trkpt lat="34.8660632" lon="128.0247426"></trkpt>
			<trkpt lat="34.8663561" lon="128.024599"></trkpt>
			<trkpt lat="34.8665695" lon="128.0246463"></trkpt>
			<trkpt lat="34.866623" lon="128.024705"></trkpt>
			<trkpt lat="34.866966" lon="128.0254838"></trkpt>
			<trkpt lat="34.8670426" lon="128.0255827"></trkpt>
			<trkpt lat="34.8674904" lon="128.0256943"></trkpt>
			<trkpt lat="34.8678573" lon="128.025712"></trkpt>
			<trkpt lat="34.8679577" lon="128.0256911"></trkpt>
			<trkpt lat="34.8681372" lon="128.0255043"></trkpt>
			<trkpt lat="34.8682327" lon="128.0252881"></trkpt>
			<trkpt lat="34.8685039" lon="128.0250055"></trkpt>
			<trkpt lat="34.8685481" lon="128.0249294"></trkpt>
			<trkpt lat="34.8686807" lon="128.0248468"></trkpt>
			<trkpt lat="34.8687496" lon="128.0248322"></trkpt>
			<trkpt lat="34.8689205" lon="128.0248827"></trkpt>
			<trkpt lat="34.868636" lon="128.0253366"></trkpt>
			<trkpt lat="34.868465" lon="128.0256951"></trkpt>
			<trkpt lat="34.8681533" lon="128.0265636"></trkpt>
			<trkpt lat="34.8680376" lon="128.0271049"></trkpt>
			<trkpt lat="34.8685498" lon="128.0270879"></trkpt>
			<trkpt lat="34.8688051" lon="128.0271804"></trkpt>
			<trkpt lat="34.8691927" lon="128.0270481"></trkpt>
			<trkpt lat="34.8693147" lon="128.027071"></trkpt>
			<trkpt lat="34.8695866" lon="128.0272533"></trkpt>
			<trkpt lat="34.8698302" lon="128.0273517"></trkpt>
			<trkpt lat="34.8704882" lon="128.0276986"></trkpt>
			<trkpt lat="34.8707073" lon="128.0278948"></trkpt>
			<trkpt lat="34.870998" lon="128.0284059"></trkpt>
			<trkpt lat="34.871163" lon="128.0285882"></trkpt>
			<trkpt lat="34.8717154" lon="128.0290717"></trkpt>
			<trkpt lat="34.8720056" lon="128.0291645"></trkpt>
			<trkpt lat="34.8718989" lon="128.0296467"></trkpt>
			<trkpt lat="34.8719241" lon="128.0299409"></trkpt>
			<trkpt lat="34.8719666" lon="128.029924"></trkpt>
			<trkpt lat="34.8722675" lon="128.029504"></trkpt>
			<trkpt lat="34.8724052" lon="128.0294172"></trkpt>
			<trkpt lat="34.8726935" lon="128.0294336"></trkpt>
			<trkpt lat="34.8729382" lon="128.0293792"></trkpt>
			<trkpt lat="34.8730339" lon="128.0293972"></trkpt>
			<trkpt lat="34.8733419" lon="128.0293723"></trkpt>
			<trkpt lat="34.8739531" lon="128.0291255"></trkpt>
			<trkpt lat="34.8741047" lon="128.0288119"></trkpt>
			<trkpt lat="34.8742525" lon="128.0287812"></trkpt>
			<trkpt lat="34.8742984" lon="128.0288056"></trkpt>
			<trkpt lat="34.8743701" lon="128.0287781"></trkpt>
			<trkpt lat="34.8744155" lon="128.0285748"></trkpt>
			<trkpt lat="34.8744514" lon="128.0285192"></trkpt>
			<trkpt lat="34.8747024" lon="128.0283313"></trkpt>
			<trkpt lat="34.8748704" lon="128.0280575"></trkpt>
			<trkpt lat="34.8751319" lon="128.027549"></trkpt>
			<trkpt lat="34.8752456" lon="128.0273949"></trkpt>
			<trkpt lat="34.8753945" lon="128.027113"></trkpt>
			<trkpt lat="34.8754965" lon="128.0270568"></trkpt>
			<trkpt lat="34.8756759" lon="128.0270686"></trkpt>
			<trkpt lat="34.8762312" lon="128.0270097"></trkpt>
			<trkpt lat="34.8766863" lon="128.02677"></trkpt>
			<trkpt lat="34.8768534" lon="128.0267213"></trkpt>
			<trkpt lat="34.8770536" lon="128.026733"></trkpt>
			<trkpt lat="34.8772695" lon="128.0270887"></trkpt>
			<trkpt lat="34.8774955" lon="128.0273553"></trkpt>
			<trkpt lat="34.8776152" lon="128.0275381"></trkpt>
			<trkpt lat="34.8776942" lon="128.027545"></trkpt>
			<trkpt lat="34.8777466" lon="128.0275911"></trkpt>
			<trkpt lat="34.8780232" lon="128.0282864"></trkpt>
			<trkpt lat="34.8780453" lon="128.0286525"></trkpt>
			<trkpt lat="34.878088" lon="128.0288194"></trkpt>
			<trkpt lat="34.8782071" lon="128.028873"></trkpt>
			<trkpt lat="34.8782503" lon="128.0288658"></trkpt>
			<trkpt lat="34.8782729" lon="128.028916"></trkpt>
			<trkpt lat="34.8782723" lon="128.0291556"></trkpt>
			<trkpt lat="34.8783086" lon="128.0294814"></trkpt>
			<trkpt lat="34.8782496" lon="128.02962"></trkpt>
			<trkpt lat="34.8782281" lon="128.0297938"></trkpt>
			<trkpt lat="34.8783036" lon="128.0299078"></trkpt>
			<trkpt lat="34.8784234" lon="128.0299602"></trkpt>
			<trkpt lat="34.878745" lon="128.0300044"></trkpt>
			<trkpt lat="34.8789259" lon="128.0301172"></trkpt>
			<trkpt lat="34.8791264" lon="128.0302871"></trkpt>
			<trkpt lat="34.8793764" lon="128.0304233"></trkpt>
			<trkpt lat="34.879717" lon="128.0307256"></trkpt>
			<trkpt lat="34.8799027" lon="128.0310005"></trkpt>
			<trkpt lat="34.8801281" lon="128.031207"></trkpt>
			<trkpt lat="34.8802901" lon="128.0312881"></trkpt>
			<trkpt lat="34.8803038" lon="128.0313502"></trkpt>
			<trkpt lat="34.8802851" lon="128.0313931"></trkpt>
			<trkpt lat="34.8802068" lon="128.0314019"></trkpt>
			<trkpt lat="34.8801933" lon="128.0314882"></trkpt>
			<trkpt lat="34.8803689" lon="128.031809"></trkpt>
			<trkpt lat="34.8805435" lon="128.031989"></trkpt>
			<trkpt lat="34.8811489" lon="128.0320408"></trkpt>
			<trkpt lat="34.8812854" lon="128.0320055"></trkpt>
			<trkpt lat="34.8814068" lon="128.0319184"></trkpt>
			<trkpt lat="34.8814923" lon="128.0318979"></trkpt>
			<trkpt lat="34.8815264" lon="128.0318641"></trkpt>
			<trkpt lat="34.8814955" lon="128.0315615"></trkpt>
			<trkpt lat="34.8815374" lon="128.0314798"></trkpt>
			<trkpt lat="34.881625" lon="128.0316076"></trkpt>
			<trkpt lat="34.8817141" lon="128.0316627"></trkpt>
			<trkpt lat="34.8819273" lon="128.0318998"></trkpt>
			<trkpt lat="34.8819046" lon="128.0315114"></trkpt>
			<trkpt lat="34.8821084" lon="128.0307314"></trkpt>
			<trkpt lat="34.8821552" lon="128.030752"></trkpt>
			<trkpt lat="34.8822261" lon="128.0309472"></trkpt>
			<trkpt lat="34.8822751" lon="128.0309756"></trkpt>
			<trkpt lat="34.8824017" lon="128.0307779"></trkpt>
			<trkpt lat="34.8824664" lon="128.0307857"></trkpt>
			<trkpt lat="34.8827108" lon="128.0312169"></trkpt>
			<trkpt lat="34.8828217" lon="128.0315014"></trkpt>
			<trkpt lat="34.8829608" lon="128.0314634"></trkpt>
			<trkpt lat="34.8831685" lon="128.031487"></trkpt>
			<trkpt lat="34.8834813" lon="128.0316282"></trkpt>
			<trkpt lat="34.883678" lon="128.031764"></trkpt>
			<trkpt lat="34.8839271" lon="128.0318871"></trkpt>
			<trkpt lat="34.884225" lon="128.0321435"></trkpt>
			<trkpt lat="34.8849133" lon="128.0325761"></trkpt>
			<trkpt lat="34.885017" lon="128.0325972"></trkpt>
			<trkpt lat="34.8852411" lon="128.0327106"></trkpt>
			<trkpt lat="34.8859946" lon="128.0332102"></trkpt>
			<trkpt lat="34.8860609" lon="128.0333214"></trkpt>
			<trkpt lat="34.8863423" lon="128.0335751"></trkpt>
			<trkpt lat="34.8869379" lon="128.0340095"></trkpt>
			<trkpt lat="34.8869375" lon="128.0340605"></trkpt>
			<trkpt lat="34.8869021" lon="128.0341013"></trkpt>
			<trkpt lat="34.8866256" lon="128.0341128"></trkpt>
			<trkpt lat="34.8863989" lon="128.0341855"></trkpt>
			<trkpt lat="34.8860818" lon="128.0342088"></trkpt>
			<trkpt lat="34.8858812" lon="128.0342584"></trkpt>
			<trkpt lat="34.8857901" lon="128.0342013"></trkpt>
			<trkpt lat="34.885605" lon="128.0339279"></trkpt>
			<trkpt lat="34.8852946" lon="128.0335796"></trkpt>
			<trkpt lat="34.8851139" lon="128.0332622"></trkpt>
			<trkpt lat="34.8850135" lon="128.0329527"></trkpt>
			<trkpt lat="34.8848984" lon="128.032745"></trkpt>
			<trkpt lat="34.8847117" lon="128.0325872"></trkpt>
			<trkpt lat="34.8845759" lon="128.0325642"></trkpt>
			<trkpt lat="34.8843547" lon="128.0326085"></trkpt>
			<trkpt lat="34.8841971" lon="128.0326106"></trkpt>
			<trkpt lat="34.883844" lon="128.0325511"></trkpt>
			<trkpt lat="34.8836949" lon="128.0325828"></trkpt>
			<trkpt lat="34.8835988" lon="128.0325726"></trkpt>
			<trkpt lat="34.883489" lon="128.0325218"></trkpt>
			<trkpt lat="34.8834364" lon="128.032555"></trkpt>
			<trkpt lat="34.8833214" lon="128.0327482"></trkpt>
			<trkpt lat="34.8831949" lon="128.0329008"></trkpt>
			<trkpt lat="34.8830404" lon="128.0329915"></trkpt>
			<trkpt lat="34.8826824" lon="128.0330283"></trkpt>
			<trkpt lat="34.882306" lon="128.0329388"></trkpt>
			<trkpt lat="34.8820679" lon="128.0329403"></trkpt>
			<trkpt lat="34.8818955" lon="128.0330581"></trkpt>
			<trkpt lat="34.881805" lon="128.0332236"></trkpt>
			<trkpt lat="34.8817378" lon="128.0335359"></trkpt>
			<trkpt lat="34.8816009" lon="128.033711"></trkpt>
			<trkpt lat="34.8812455" lon="128.0337621"></trkpt>
			<trkpt lat="34.8811904" lon="128.0339329"></trkpt>
			<trkpt lat="34.8812443" lon="128.034516"></trkpt>
			<trkpt lat="34.8811458" lon="128.0348279"></trkpt>
			<trkpt lat="34.8811553" lon="128.0349869"></trkpt>
			<trkpt lat="34.8812087" lon="128.0350602"></trkpt>
			<trkpt lat="34.8813292" lon="128.0351283"></trkpt>
			<trkpt lat="34.8816313" lon="128.035517"></trkpt>
			<trkpt lat="34.8816814" lon="128.0360148"></trkpt>
			<trkpt lat="34.8816568" lon="128.0362081"></trkpt>
			<trkpt lat="34.8817069" lon="128.0364344"></trkpt>
			<trkpt lat="34.8819141" lon="128.0367724"></trkpt>
			<trkpt lat="34.8820612" lon="128.0369277"></trkpt>
			<trkpt lat="34.8823967" lon="128.0371979"></trkpt>
			<trkpt lat="34.8824324" lon="128.037253"></trkpt>
			<trkpt lat="34.8823896" lon="128.0373521"></trkpt>
			<trkpt lat="34.8818812" lon="128.0379774"></trkpt>
			<trkpt lat="34.8817548" lon="128.0382407"></trkpt>
			<trkpt lat="34.8816835" lon="128.0383297"></trkpt>
			<trkpt lat="34.8816179" lon="128.0383275"></trkpt>
			<trkpt lat="34.8813807" lon="128.0382337"></trkpt>
			<trkpt lat="34.8813799" lon="128.038302"></trkpt>
			<trkpt lat="34.8815024" lon="128.0387634"></trkpt>
			<trkpt lat="34.8815542" lon="128.0390937"></trkpt>
			<trkpt lat="34.8817166" lon="128.0397928"></trkpt>
			<trkpt lat="34.8818257" lon="128.0398453"></trkpt>
			<trkpt lat="34.8820529" lon="128.0397225"></trkpt>
			<trkpt lat="34.8822608" lon="128.0395687"></trkpt>
			<trkpt lat="34.8823394" lon="128.039569"></trkpt>
			<trkpt lat="34.8823604" lon="128.0396023"></trkpt>
			<trkpt lat="34.8822299" lon="128.0400091"></trkpt>
			<trkpt lat="34.8822602" lon="128.0400976"></trkpt>
			<trkpt lat="34.8820026" lon="128.040209"></trkpt>
			<trkpt lat="34.8818735" lon="128.0403247"></trkpt>
			<trkpt lat="34.8817649" lon="128.0404699"></trkpt>
			<trkpt lat="34.8814959" lon="128.0409328"></trkpt>
			<trkpt lat="34.881327" lon="128.0410301"></trkpt>
			<trkpt lat="34.8807714" lon="128.0410663"></trkpt>
			<trkpt lat="34.880346" lon="128.0410637"></trkpt>
			<trkpt lat="34.880198" lon="128.0411071"></trkpt>
			<trkpt lat="34.8800893" lon="128.0412677"></trkpt>
			<trkpt lat="34.880032" lon="128.0414585"></trkpt>
			<trkpt lat="34.8798535" lon="128.0428907"></trkpt>
			<trkpt lat="34.8798035" lon="128.0431197"></trkpt>
			<trkpt lat="34.8797623" lon="128.0436828"></trkpt>
			<trkpt lat="34.8796492" lon="128.0440556"></trkpt>
			<trkpt lat="34.8796697" lon="128.0444527"></trkpt>
			<trkpt lat="34.8797609" lon="128.0448658"></trkpt>
			<trkpt lat="34.8797576" lon="128.0450088"></trkpt>
			<trkpt lat="34.8795608" lon="128.0451527"></trkpt>
			<trkpt lat="34.8796543" lon="128.0452674"></trkpt>
			<trkpt lat="34.8796616" lon="128.045915"></trkpt>
			<trkpt lat="34.879592" lon="128.0461388"></trkpt>
			<trkpt lat="34.8796095" lon="128.0462804"></trkpt>
			<trkpt lat="34.8797178" lon="128.0464325"></trkpt>
			<trkpt lat="34.8796274" lon="128.0466417"></trkpt>
			<trkpt lat="34.8796963" lon="128.0466981"></trkpt>
			<trkpt lat="34.8798434" lon="128.0467201"></trkpt>
			<trkpt lat="34.879936" lon="128.0466787"></trkpt>
			<trkpt lat="34.8799679" lon="128.0467128"></trkpt>
			<trkpt lat="34.8799944" lon="128.0468809"></trkpt>
			<trkpt lat="34.8799813" lon="128.0469285"></trkpt>
			<trkpt lat="34.8800724" lon="128.047004"></trkpt>
			<trkpt lat="34.8802472" lon="128.0470297"></trkpt>
			<trkpt lat="34.8804165" lon="128.0471701"></trkpt>
			<trkpt lat="34.8808168" lon="128.0473924"></trkpt>
			<trkpt lat="34.8813915" lon="128.0478168"></trkpt>
			<trkpt lat="34.8816034" lon="128.0478923"></trkpt>
			<trkpt lat="34.8817933" lon="128.0478721"></trkpt>
			<trkpt lat="34.881841" lon="128.04789"></trkpt>
			<trkpt lat="34.8819295" lon="128.0484556"></trkpt>
			<trkpt lat="34.8821641" lon="128.049356"></trkpt>
			<trkpt lat="34.8822151" lon="128.0494121"></trkpt>
			<trkpt lat="34.8823484" lon="128.0494486"></trkpt>
			<trkpt lat="34.8826764" lon="128.0494721"></trkpt>
			<trkpt lat="34.8829017" lon="128.049534"></trkpt>
			<trkpt lat="34.8835229" lon="128.0500662"></trkpt>
			<trkpt lat="34.8837004" lon="128.0503972"></trkpt>
			<trkpt lat="34.8838433" lon="128.0509097"></trkpt>
			<trkpt lat="34.8838462" lon="128.0510584"></trkpt>
			<trkpt lat="34.8840531" lon="128.0519085"></trkpt>
			<trkpt lat="34.8840528" lon="128.0520953"></trkpt>
			<trkpt lat="34.8840171" lon="128.0522964"></trkpt>
			<trkpt lat="34.8839704" lon="128.0524217"></trkpt>
			<trkpt lat="34.8839537" lon="128.0526118"></trkpt>
			<trkpt lat="34.8840019" lon="128.0527601"></trkpt>
			<trkpt lat="34.8841998" lon="128.0530552"></trkpt>
			<trkpt lat="34.8842851" lon="128.0533699"></trkpt>
			<trkpt lat="34.8842831" lon="128.0535771"></trkpt>
			<trkpt lat="34.884217" lon="128.0538506"></trkpt>
			<trkpt lat="34.8841436" lon="128.0539313"></trkpt>
			<trkpt lat="34.8839382" lon="128.0540514"></trkpt>
			<trkpt lat="34.8838284" lon="128.0541841"></trkpt>
			<trkpt lat="34.883475" lon="128.0547299"></trkpt>
			<trkpt lat="34.8831901" lon="128.0551079"></trkpt>
			<trkpt lat="34.8826479" lon="128.0554285"></trkpt>
			<trkpt lat="34.8825574" lon="128.0555443"></trkpt>
			<trkpt lat="34.8822965" lon="128.0557823"></trkpt>
			<trkpt lat="34.8821368" lon="128.0559672"></trkpt>
			<trkpt lat="34.8821017" lon="128.0560437"></trkpt>
			<trkpt lat="34.8820985" lon="128.0561324"></trkpt>
			<trkpt lat="34.8820296" lon="128.0562928"></trkpt>
			<trkpt lat="34.8816102" lon="128.0565504"></trkpt>
			<trkpt lat="34.8815221" lon="128.0566439"></trkpt>
			<trkpt lat="34.8812038" lon="128.0568514"></trkpt>
			<trkpt lat="34.8807804" lon="128.0567287"></trkpt>
			<trkpt lat="34.8805186" lon="128.0565462"></trkpt>
			<trkpt lat="34.880365" lon="128.056501"></trkpt>
			<trkpt lat="34.880264" lon="128.0565088"></trkpt>
			<trkpt lat="34.8801122" lon="128.0564158"></trkpt>
			<trkpt lat="34.8798504" lon="128.0561494"></trkpt>
			<trkpt lat="34.8797291" lon="128.055899"></trkpt>
			<trkpt lat="34.8796888" lon="128.0557479"></trkpt>
			<trkpt lat="34.8796207" lon="128.0556861"></trkpt>
			<trkpt lat="34.8793665" lon="128.0556748"></trkpt>
			<trkpt lat="34.8786358" lon="128.0557388"></trkpt>
			<trkpt lat="34.8783372" lon="128.0557028"></trkpt>
			<trkpt lat="34.8779778" lon="128.0555247"></trkpt>
			<trkpt lat="34.8776417" lon="128.0552645"></trkpt>
			<trkpt lat="34.8774434" lon="128.055166"></trkpt>
			<trkpt lat="34.8771657" lon="128.0549378"></trkpt>
			<trkpt lat="34.8770894" lon="128.0549119"></trkpt>
			<trkpt lat="34.8770422" lon="128.0549415"></trkpt>
			<trkpt lat="34.8770362" lon="128.0549983"></trkpt>
			<trkpt lat="34.8772639" lon="128.0554294"></trkpt>
			<trkpt lat="34.8773217" lon="128.0556538"></trkpt>
			<trkpt lat="34.8773232" lon="128.0558686"></trkpt>
			<trkpt lat="34.8772692" lon="128.0562377"></trkpt>
			<trkpt lat="34.8772262" lon="128.0563149"></trkpt>
			<trkpt lat="34.8771445" lon="128.0563697"></trkpt>
			<trkpt lat="34.8770362" lon="128.0563913"></trkpt>
			<trkpt lat="34.8769012" lon="128.0563691"></trkpt>
			<trkpt lat="34.8762476" lon="128.056104"></trkpt>
			<trkpt lat="34.876074" lon="128.0561453"></trkpt>
			<trkpt lat="34.8759786" lon="128.0562073"></trkpt>
			<trkpt lat="34.8759334" lon="128.0562935"></trkpt>
			<trkpt lat="34.8759058" lon="128.0562856"></trkpt>
			<trkpt lat="34.8758351" lon="128.0554344"></trkpt>
			<trkpt lat="34.8757604" lon="128.0551388"></trkpt>
			<trkpt lat="34.8756505" lon="128.0543179"></trkpt>
			<trkpt lat="34.8758561" lon="128.0537923"></trkpt>
			<trkpt lat="34.8758414" lon="128.0537116"></trkpt>
			<trkpt lat="34.8756976" lon="128.053556"></trkpt>
			<trkpt lat="34.8756234" lon="128.0535248"></trkpt>
			<trkpt lat="34.8754889" lon="128.0535605"></trkpt>
			<trkpt lat="34.8749841" lon="128.0535515"></trkpt>
			<trkpt lat="34.874831" lon="128.0534961"></trkpt>
			<trkpt lat="34.8744939" lon="128.0532587"></trkpt>
			<trkpt lat="34.8741083" lon="128.0531206"></trkpt>
			<trkpt lat="34.8739984" lon="128.0531374"></trkpt>
			<trkpt lat="34.8738692" lon="128.0532782"></trkpt>
			<trkpt lat="34.873839" lon="128.0534836"></trkpt>
			<trkpt lat="34.8738396" lon="128.0538906"></trkpt>
			<trkpt lat="34.8737269" lon="128.0542247"></trkpt>
			<trkpt lat="34.8735832" lon="128.0548758"></trkpt>
			<trkpt lat="34.8734823" lon="128.0551301"></trkpt>
			<trkpt lat="34.8735152" lon="128.0552624"></trkpt>
			<trkpt lat="34.8736957" lon="128.0555769"></trkpt>
			<trkpt lat="34.8737404" lon="128.0558271"></trkpt>
			<trkpt lat="34.8737181" lon="128.0559556"></trkpt>
			<trkpt lat="34.8736558" lon="128.0560939"></trkpt>
			<trkpt lat="34.8734275" lon="128.0563039"></trkpt>
			<trkpt lat="34.8732642" lon="128.0565354"></trkpt>
			<trkpt lat="34.8731817" lon="128.0567697"></trkpt>
			<trkpt lat="34.8729315" lon="128.0568907"></trkpt>
			<trkpt lat="34.8728743" lon="128.057037"></trkpt>
			<trkpt lat="34.8729021" lon="128.0571851"></trkpt>
			<trkpt lat="34.8729669" lon="128.057296"></trkpt>
			<trkpt lat="34.8731512" lon="128.0573774"></trkpt>
			<trkpt lat="34.8734698" lon="128.0573868"></trkpt>
			<trkpt lat="34.8736931" lon="128.0574887"></trkpt>
			<trkpt lat="34.873821" lon="128.057792"></trkpt>
			<trkpt lat="34.873901" lon="128.0582439"></trkpt>
			<trkpt lat="34.8738566" lon="128.0584595"></trkpt>
			<trkpt lat="34.8736909" lon="128.0585474"></trkpt>
			<trkpt lat="34.8735506" lon="128.0586732"></trkpt>
			<trkpt lat="34.8735244" lon="128.0587696"></trkpt>
			<trkpt lat="34.8736197" lon="128.0590986"></trkpt>
			<trkpt lat="34.8737947" lon="128.0595379"></trkpt>
			<trkpt lat="34.8737732" lon="128.0596228"></trkpt>
			<trkpt lat="34.8735211" lon="128.0600132"></trkpt>
			<trkpt lat="34.8733899" lon="128.0601649"></trkpt>
			<trkpt lat="34.873335" lon="128.0601606"></trkpt>
			<trkpt lat="34.8732431" lon="128.0600399"></trkpt>
			<trkpt lat="34.8726612" lon="128.0594477"></trkpt>
			<trkpt lat="34.8725804" lon="128.0594246"></trkpt>
			<trkpt lat="34.8725406" lon="128.0594706"></trkpt>
			<trkpt lat="34.8723446" lon="128.0595342"></trkpt>
			<trkpt lat="34.8722657" lon="128.0596277"></trkpt>
			<trkpt lat="34.8721703" lon="128.0598053"></trkpt>
			<trkpt lat="34.8720851" lon="128.0600356"></trkpt>
			<trkpt lat="34.8718308" lon="128.0604911"></trkpt>
			<trkpt lat="34.871648" lon="128.0605335"></trkpt>
			<trkpt lat="34.8714641" lon="128.0605254"></trkpt>
			<trkpt lat="34.8716122" lon="128.0608034"></trkpt>
			<trkpt lat="34.8716652" lon="128.0611501"></trkpt>
			<trkpt lat="34.8716528" lon="128.06139"></trkpt>
			<trkpt lat="34.8716815" lon="128.0617312"></trkpt>
			<trkpt lat="34.8715544" lon="128.0619858"></trkpt>
			<trkpt lat="34.8713241" lon="128.0620132"></trkpt>
			<trkpt lat="34.8712587" lon="128.062045"></trkpt>
			<trkpt lat="34.8711104" lon="128.0624358"></trkpt>
			<trkpt lat="34.8709321" lon="128.0625423"></trkpt>
			<trkpt lat="34.870587" lon="128.0626103"></trkpt>
			<trkpt lat="34.8704892" lon="128.0627331"></trkpt>
			<trkpt lat="34.8704797" lon="128.063014"></trkpt>
			<trkpt lat="34.8704578" lon="128.0631033"></trkpt>
			<trkpt lat="34.8702858" lon="128.0632756"></trkpt>
			<trkpt lat="34.8701626" lon="128.0633341"></trkpt>
			<trkpt lat="34.8698115" lon="128.0632469"></trkpt>
			<trkpt lat="34.8696467" lon="128.0634214"></trkpt>
			<trkpt lat="34.8695294" lon="128.0636841"></trkpt>
			<trkpt lat="34.8694939" lon="128.0638509"></trkpt>
			<trkpt lat="34.8694922" lon="128.0640192"></trkpt>
			<trkpt lat="34.8695429" lon="128.0642351"></trkpt>
			<trkpt lat="34.8697939" lon="128.0644571"></trkpt>
			<trkpt lat="34.8698914" lon="128.0644853"></trkpt>
			<trkpt lat="34.8699087" lon="128.0647072"></trkpt>
			<trkpt lat="34.8699689" lon="128.0648577"></trkpt>
			<trkpt lat="34.8700311" lon="128.0651367"></trkpt>
			<trkpt lat="34.8701749" lon="128.0655299"></trkpt>
			<trkpt lat="34.8701764" lon="128.0657984"></trkpt>
			<trkpt lat="34.8700537" lon="128.0659489"></trkpt>
			<trkpt lat="34.8699812" lon="128.0659851"></trkpt>
			<trkpt lat="34.8696856" lon="128.0660086"></trkpt>
			<trkpt lat="34.8694031" lon="128.0659509"></trkpt>
			<trkpt lat="34.8692082" lon="128.0658487"></trkpt>
			<trkpt lat="34.869011" lon="128.0655765"></trkpt>
			<trkpt lat="34.868911" lon="128.0653911"></trkpt>
			<trkpt lat="34.8684607" lon="128.0650576"></trkpt>
			<trkpt lat="34.8682668" lon="128.0646956"></trkpt>
			<trkpt lat="34.8680359" lon="128.0644062"></trkpt>
			<trkpt lat="34.8679118" lon="128.064327"></trkpt>
			<trkpt lat="34.8677347" lon="128.0642979"></trkpt>
			<trkpt lat="34.8674842" lon="128.0643701"></trkpt>
			<trkpt lat="34.8673545" lon="128.0644435"></trkpt>
			<trkpt lat="34.8672563" lon="128.0645386"></trkpt>
			<trkpt lat="34.8670335" lon="128.0648384"></trkpt>
			<trkpt lat="34.8669775" lon="128.0648319"></trkpt>
			<trkpt lat="34.8669007" lon="128.0647588"></trkpt>
			<trkpt lat="34.866674" lon="128.0644375"></trkpt>
			<trkpt lat="34.8664138" lon="128.064217"></trkpt>
			<trkpt lat="34.8660487" lon="128.0640239"></trkpt>
			<trkpt lat="34.8656963" lon="128.0640551"></trkpt>
			<trkpt lat="34.8655899" lon="128.064138"></trkpt>
			<trkpt lat="34.8654803" lon="128.0642692"></trkpt>
			<trkpt lat="34.8653248" lon="128.0642101"></trkpt>
			<trkpt lat="34.8650684" lon="128.0640522"></trkpt>
			<trkpt lat="34.8649777" lon="128.0640658"></trkpt>
			<trkpt lat="34.8646665" lon="128.0638229"></trkpt>
			<trkpt lat="34.8642995" lon="128.0636579"></trkpt>
			<trkpt lat="34.8639774" lon="128.0633409"></trkpt>
			<trkpt lat="34.8637251" lon="128.063255"></trkpt>
			<trkpt lat="34.8636036" lon="128.063262"></trkpt>
			<trkpt lat="34.863404" lon="128.0633842"></trkpt>
			<trkpt lat="34.863238" lon="128.0635457"></trkpt>
			<trkpt lat="34.8631216" lon="128.063619"></trkpt>
			<trkpt lat="34.8628944" lon="128.0636028"></trkpt>
			<trkpt lat="34.862741" lon="128.0635487"></trkpt>
			<trkpt lat="34.8624628" lon="128.0633415"></trkpt>
			<trkpt lat="34.862327" lon="128.0631503"></trkpt>
			<trkpt lat="34.8621018" lon="128.0626928"></trkpt>
			<trkpt lat="34.861993" lon="128.0625215"></trkpt>
			<trkpt lat="34.8619259" lon="128.0622471"></trkpt>
			<trkpt lat="34.8617737" lon="128.0620482"></trkpt>
			<trkpt lat="34.8616683" lon="128.0617428"></trkpt>
			<trkpt lat="34.8616336" lon="128.0615609"></trkpt>
			<trkpt lat="34.8617036" lon="128.0608886"></trkpt>
			<trkpt lat="34.8617707" lon="128.0606084"></trkpt>
			<trkpt lat="34.861761" lon="128.0605047"></trkpt>
			<trkpt lat="34.8616147" lon="128.0603697"></trkpt>
			<trkpt lat="34.8615057" lon="128.0603047"></trkpt>
			<trkpt lat="34.8614218" lon="128.0602025"></trkpt>
			<trkpt lat="34.8612989" lon="128.0601753"></trkpt>
			<trkpt lat="34.8610495" lon="128.0600365"></trkpt>
			<trkpt lat="34.8608987" lon="128.0597545"></trkpt>
			<trkpt lat="34.8606418" lon="128.0594266"></trkpt>
			<trkpt lat="34.8604927" lon="128.0593801"></trkpt>
			<trkpt lat="34.8603199" lon="128.0592669"></trkpt>
			<trkpt lat="34.8602658" lon="128.0591961"></trkpt>
			<trkpt lat="34.8602935" lon="128.0590465"></trkpt>
			<trkpt lat="34.8602759" lon="128.0586343"></trkpt>
			<trkpt lat="34.8602235" lon="128.058427"></trkpt>
			<trkpt lat="34.8600646" lon="128.0581582"></trkpt>
			<trkpt lat="34.8599621" lon="128.0580529"></trkpt>
			<trkpt lat="34.8597825" lon="128.0577899"></trkpt>
			<trkpt lat="34.8595767" lon="128.0575724"></trkpt>
		</trkseg>
	</trk>
</gpx>
