<?xml version="1.0" encoding="utf-8" standalone="yes"?>
<gpx version="1.1" creator="GPS Visualizer https://www.gpsvisualizer.com/" xmlns="http://www.topografix.com/GPX/1/1" xmlns:xsi="http://www.w3.org/2001/XMLSchema-instance" xsi:schemaLocation="http://www.topografix.com/GPX/1/1 http://www.topografix.com/GPX/1/1/gpx.xsd">
<trk>
  <name>남파랑길 39코스 (남해바래길 6코스 죽방멸치길) 20200906</name>
  <trkseg>
    <trkpt lat="34.831678667" lon="128.000050329"></trkpt>
    <trkpt lat="34.831650653" lon="128.000255531"></trkpt>
    <trkpt lat="34.831626309" lon="128.000370472"></trkpt>
    <trkpt lat="34.831599044" lon="128.00051084"></trkpt>
    <trkpt lat="34.831568726" lon="128.000623545"></trkpt>
    <trkpt lat="34.831547555" lon="128.00076364"></trkpt>
    <trkpt lat="34.831541519" lon="128.000837308"></trkpt>
    <trkpt lat="34.831558177" lon="128.000892667"></trkpt>
    <trkpt lat="34.831599145" lon="128.00099259"></trkpt>
    <trkpt lat="34.831657542" lon="128.001109801"></trkpt>
    <trkpt lat="34.831723363" lon="128.001236672"></trkpt>
    <trkpt lat="34.831766202" lon="128.001310168"></trkpt>
    <trkpt lat="34.831882608" lon="128.001392032"></trkpt>
    <trkpt lat="34.831995559" lon="128.001432942"></trkpt>
    <trkpt lat="34.832070372" lon="128.001466687"></trkpt>
    <trkpt lat="34.83213304" lon="128.001522406"></trkpt>
    <trkpt lat="34.832159946" lon="128.001584331"></trkpt>
    <trkpt lat="34.832143098" lon="128.001660456"></trkpt>
    <trkpt lat="34.832123725" lon="128.001789151"></trkpt>
    <trkpt lat="34.832084766" lon="128.001946445"></trkpt>
    <trkpt lat="34.832053144" lon="128.002112421"></trkpt>
    <trkpt lat="34.832009398" lon="128.002418021"></trkpt>
    <trkpt lat="34.831963332" lon="128.002690869"></trkpt>
    <trkpt lat="34.83198878" lon="128.002858048"></trkpt>
    <trkpt lat="34.832042398" lon="128.0029814"></trkpt>
    <trkpt lat="34.83206935" lon="128.00302571"></trkpt>
    <trkpt lat="34.832102386" lon="128.003085051"></trkpt>
    <trkpt lat="34.832094623" lon="128.003168232"></trkpt>
    <trkpt lat="34.832086872" lon="128.003309933"></trkpt>
    <trkpt lat="34.832082244" lon="128.003508231"></trkpt>
    <trkpt lat="34.832062139" lon="128.003740498"></trkpt>
    <trkpt lat="34.832042154" lon="128.003937169"></trkpt>
    <trkpt lat="34.832026279" lon="128.00412303"></trkpt>
    <trkpt lat="34.83209528" lon="128.004132717"></trkpt>
    <trkpt lat="34.832070572" lon="128.004311224"></trkpt>
    <trkpt lat="34.832033251" lon="128.004381325"></trkpt>
    <trkpt lat="34.8319617" lon="128.004466327"></trkpt>
    <trkpt lat="34.831868447" lon="128.004585514"></trkpt>
    <trkpt lat="34.831806307" lon="128.004695354"></trkpt>
    <trkpt lat="34.83174094" lon="128.004841217"></trkpt>
    <trkpt lat="34.831675255" lon="128.005021693"></trkpt>
    <trkpt lat="34.831609549" lon="128.00520248"></trkpt>
    <trkpt lat="34.831534889" lon="128.005416903"></trkpt>
    <trkpt lat="34.831476758" lon="128.005596797"></trkpt>
    <trkpt lat="34.831409055" lon="128.005801248"></trkpt>
    <trkpt lat="34.831333594" lon="128.006014954"></trkpt>
    <trkpt lat="34.831265144" lon="128.006223535"></trkpt>
    <trkpt lat="34.831197134" lon="128.006449003"></trkpt>
    <trkpt lat="34.831121019" lon="128.006693226"></trkpt>
    <trkpt lat="34.831067794" lon="128.006944692"></trkpt>
    <trkpt lat="34.831003286" lon="128.007179218"></trkpt>
    <trkpt lat="34.830930591" lon="128.007458523"></trkpt>
    <trkpt lat="34.83086064" lon="128.007704805"></trkpt>
    <trkpt lat="34.830814111" lon="128.007868549"></trkpt>
    <trkpt lat="34.830736826" lon="128.007945851"></trkpt>
    <trkpt lat="34.83062592" lon="128.007985534"></trkpt>
    <trkpt lat="34.830513598" lon="128.008015646"></trkpt>
    <trkpt lat="34.830379628" lon="128.008047546"></trkpt>
    <trkpt lat="34.830267043" lon="128.008093316"></trkpt>
    <trkpt lat="34.830215603" lon="128.00815402"></trkpt>
    <trkpt lat="34.830194874" lon="128.008238793"></trkpt>
    <trkpt lat="34.830193815" lon="128.008362914"></trkpt>
    <trkpt lat="34.830221897" lon="128.008575779"></trkpt>
    <trkpt lat="34.83026401" lon="128.008875143"></trkpt>
    <trkpt lat="34.830303101" lon="128.009264659"></trkpt>
    <trkpt lat="34.830334417" lon="128.009588615"></trkpt>
    <trkpt lat="34.830360937" lon="128.009896527"></trkpt>
    <trkpt lat="34.830370206" lon="128.010068445"></trkpt>
    <trkpt lat="34.830365436" lon="128.010206562"></trkpt>
    <trkpt lat="34.830332739" lon="128.010440842"></trkpt>
    <trkpt lat="34.830276861" lon="128.010689808"></trkpt>
    <trkpt lat="34.830239701" lon="128.010941661"></trkpt>
    <trkpt lat="34.83023978" lon="128.011111539"></trkpt>
    <trkpt lat="34.830256952" lon="128.011284122"></trkpt>
    <trkpt lat="34.830356055" lon="128.011570522"></trkpt>
    <trkpt lat="34.830452553" lon="128.011755661"></trkpt>
    <trkpt lat="34.830598833" lon="128.012063258"></trkpt>
    <trkpt lat="34.830719657" lon="128.012222045"></trkpt>
    <trkpt lat="34.830815044" lon="128.012325905"></trkpt>
    <trkpt lat="34.830902624" lon="128.012411294"></trkpt>
    <trkpt lat="34.830956023" lon="128.01254811"></trkpt>
    <trkpt lat="34.830998592" lon="128.012791879"></trkpt>
    <trkpt lat="34.831023652" lon="128.013060624"></trkpt>
    <trkpt lat="34.831025228" lon="128.013161643"></trkpt>
    <trkpt lat="34.83098457" lon="128.013360602"></trkpt>
    <trkpt lat="34.830961113" lon="128.01346353"></trkpt>
    <trkpt lat="34.830947045" lon="128.013589329"></trkpt>
    <trkpt lat="34.830942375" lon="128.013833299"></trkpt>
    <trkpt lat="34.830940829" lon="128.014017085"></trkpt>
    <trkpt lat="34.830848535" lon="128.014163861"></trkpt>
    <trkpt lat="34.830798478" lon="128.014243921"></trkpt>
    <trkpt lat="34.830768741" lon="128.014348702"></trkpt>
    <trkpt lat="34.830733551" lon="128.014650357"></trkpt>
    <trkpt lat="34.830662281" lon="128.014908529"></trkpt>
    <trkpt lat="34.830573288" lon="128.015145143"></trkpt>
    <trkpt lat="34.830500024" lon="128.015419009"></trkpt>
    <trkpt lat="34.8303619" lon="128.015745408"></trkpt>
    <trkpt lat="34.830254619" lon="128.016013654"></trkpt>
    <trkpt lat="34.830197809" lon="128.01616779"></trkpt>
    <trkpt lat="34.830118546" lon="128.016400192"></trkpt>
    <trkpt lat="34.830059715" lon="128.016662013"></trkpt>
    <trkpt lat="34.830036321" lon="128.016867181"></trkpt>
    <trkpt lat="34.830016168" lon="128.017099206"></trkpt>
    <trkpt lat="34.830031735" lon="128.017415697"></trkpt>
    <trkpt lat="34.830073345" lon="128.017723377"></trkpt>
    <trkpt lat="34.830123984" lon="128.017942402"></trkpt>
    <trkpt lat="34.830170478" lon="128.01818081"></trkpt>
    <trkpt lat="34.830195474" lon="128.018362881"></trkpt>
    <trkpt lat="34.830181062" lon="128.018584075"></trkpt>
    <trkpt lat="34.830139093" lon="128.018755255"></trkpt>
    <trkpt lat="34.830098684" lon="128.018944757"></trkpt>
    <trkpt lat="34.830104703" lon="128.01916738"></trkpt>
    <trkpt lat="34.830127324" lon="128.019387436"></trkpt>
    <trkpt lat="34.830175791" lon="128.019588763"></trkpt>
    <trkpt lat="34.830206154" lon="128.019675898"></trkpt>
    <trkpt lat="34.830263946" lon="128.019735842"></trkpt>
    <trkpt lat="34.830357966" lon="128.019752903"></trkpt>
    <trkpt lat="34.830625315" lon="128.019642287"></trkpt>
    <trkpt lat="34.830874318" lon="128.019556614"></trkpt>
    <trkpt lat="34.830983182" lon="128.019521111"></trkpt>
    <trkpt lat="34.831139603" lon="128.019509887"></trkpt>
    <trkpt lat="34.831216669" lon="128.019305925"></trkpt>
    <trkpt lat="34.831327554" lon="128.019037774"></trkpt>
    <trkpt lat="34.831437125" lon="128.018811069"></trkpt>
    <trkpt lat="34.831568898" lon="128.018696122"></trkpt>
    <trkpt lat="34.831691601" lon="128.018599759"></trkpt>
    <trkpt lat="34.831803574" lon="128.018580358"></trkpt>
    <trkpt lat="34.831923015" lon="128.018589835"></trkpt>
    <trkpt lat="34.832190871" lon="128.018665335"></trkpt>
    <trkpt lat="34.832352102" lon="128.018714382"></trkpt>
    <trkpt lat="34.832465979" lon="128.018767216"></trkpt>
    <trkpt lat="34.832629922" lon="128.018916072"></trkpt>
    <trkpt lat="34.832693398" lon="128.019036755"></trkpt>
    <trkpt lat="34.832733576" lon="128.019146034"></trkpt>
    <trkpt lat="34.83279262" lon="128.019440389"></trkpt>
    <trkpt lat="34.832825209" lon="128.019672055"></trkpt>
    <trkpt lat="34.832846236" lon="128.020036685"></trkpt>
    <trkpt lat="34.832864384" lon="128.020486652"></trkpt>
    <trkpt lat="34.832843501" lon="128.020797261"></trkpt>
    <trkpt lat="34.832789055" lon="128.021087877"></trkpt>
    <trkpt lat="34.832714225" lon="128.021497361"></trkpt>
    <trkpt lat="34.832603198" lon="128.021919112"></trkpt>
    <trkpt lat="34.832618719" lon="128.02251411"></trkpt>
    <trkpt lat="34.832626707" lon="128.022909281"></trkpt>
    <trkpt lat="34.832654398" lon="128.023096978"></trkpt>
    <trkpt lat="34.83246178" lon="128.023165101"></trkpt>
    <trkpt lat="34.832482633" lon="128.023332654"></trkpt>
    <trkpt lat="34.832469786" lon="128.023414941"></trkpt>
    <trkpt lat="34.832306324" lon="128.02343143"></trkpt>
    <trkpt lat="34.832004588" lon="128.023417558"></trkpt>
    <trkpt lat="34.831548126" lon="128.023379972"></trkpt>
    <trkpt lat="34.831223112" lon="128.02336757"></trkpt>
    <trkpt lat="34.831060213" lon="128.023279783"></trkpt>
    <trkpt lat="34.830961875" lon="128.023267832"></trkpt>
    <trkpt lat="34.830783272" lon="128.023240319"></trkpt>
    <trkpt lat="34.830545035" lon="128.023285964"></trkpt>
    <trkpt lat="34.83026226" lon="128.023508251"></trkpt>
    <trkpt lat="34.830178228" lon="128.023589019"></trkpt>
    <trkpt lat="34.83004604" lon="128.023828837"></trkpt>
    <trkpt lat="34.829931747" lon="128.02389862"></trkpt>
    <trkpt lat="34.829785538" lon="128.023959963"></trkpt>
    <trkpt lat="34.829633384" lon="128.024063098"></trkpt>
    <trkpt lat="34.829484892" lon="128.024422375"></trkpt>
    <trkpt lat="34.82939635" lon="128.024808528"></trkpt>
    <trkpt lat="34.829360113" lon="128.025131539"></trkpt>
    <trkpt lat="34.82924145" lon="128.025561846"></trkpt>
    <trkpt lat="34.829100023" lon="128.025909737"></trkpt>
    <trkpt lat="34.829081791" lon="128.026099081"></trkpt>
    <trkpt lat="34.829142021" lon="128.026367981"></trkpt>
    <trkpt lat="34.829189815" lon="128.026568995"></trkpt>
    <trkpt lat="34.829220148" lon="128.02678173"></trkpt>
    <trkpt lat="34.829196784" lon="128.027010334"></trkpt>
    <trkpt lat="34.829194269" lon="128.027190709"></trkpt>
    <trkpt lat="34.829234743" lon="128.027389668"></trkpt>
    <trkpt lat="34.82929116" lon="128.027541103"></trkpt>
    <trkpt lat="34.829371313" lon="128.027779132"></trkpt>
    <trkpt lat="34.829384134" lon="128.027844742"></trkpt>
    <trkpt lat="34.829372125" lon="128.027954229"></trkpt>
    <trkpt lat="34.829322102" lon="128.028014246"></trkpt>
    <trkpt lat="34.829307681" lon="128.02806222"></trkpt>
    <trkpt lat="34.829323136" lon="128.028111945"></trkpt>
    <trkpt lat="34.829333833" lon="128.028176099"></trkpt>
    <trkpt lat="34.82932371" lon="128.028285266"></trkpt>
    <trkpt lat="34.82930213" lon="128.028473575"></trkpt>
    <trkpt lat="34.829293721" lon="128.028805133"></trkpt>
    <trkpt lat="34.829315364" lon="128.029184137"></trkpt>
    <trkpt lat="34.829354827" lon="128.029590402"></trkpt>
    <trkpt lat="34.829392943" lon="128.029835889"></trkpt>
    <trkpt lat="34.829442317" lon="128.029978321"></trkpt>
    <trkpt lat="34.829492329" lon="128.030178757"></trkpt>
    <trkpt lat="34.829483537" lon="128.030607887"></trkpt>
    <trkpt lat="34.829484408" lon="128.031024507"></trkpt>
    <trkpt lat="34.829529888" lon="128.031435916"></trkpt>
    <trkpt lat="34.829528656" lon="128.031734963"></trkpt>
    <trkpt lat="34.829445298" lon="128.031931837"></trkpt>
    <trkpt lat="34.829329571" lon="128.032053232"></trkpt>
    <trkpt lat="34.829243491" lon="128.032118254"></trkpt>
    <trkpt lat="34.82909487" lon="128.032222917"></trkpt>
    <trkpt lat="34.828969493" lon="128.032300765"></trkpt>
    <trkpt lat="34.828783451" lon="128.032420582"></trkpt>
    <trkpt lat="34.828619881" lon="128.032543358"></trkpt>
    <trkpt lat="34.828496128" lon="128.032622"></trkpt>
    <trkpt lat="34.828364399" lon="128.032769122"></trkpt>
    <trkpt lat="34.827969481" lon="128.033136496"></trkpt>
    <trkpt lat="34.827849797" lon="128.033259547"></trkpt>
    <trkpt lat="34.827839265" lon="128.033259794"></trkpt>
    <trkpt lat="34.827784028" lon="128.033328286"></trkpt>
    <trkpt lat="34.827721813" lon="128.033277092"></trkpt>
    <trkpt lat="34.827318469" lon="128.033597269"></trkpt>
    <trkpt lat="34.827033934" lon="128.033890901"></trkpt>
    <trkpt lat="34.82702852" lon="128.033897486"></trkpt>
    <trkpt lat="34.827017663" lon="128.033904081"></trkpt>
    <trkpt lat="34.826849551" lon="128.034118469"></trkpt>
    <trkpt lat="34.826564838" lon="128.034435629"></trkpt>
    <trkpt lat="34.826377229" lon="128.034654087"></trkpt>
    <trkpt lat="34.826309171" lon="128.034746811"></trkpt>
    <trkpt lat="34.8263581" lon="128.034799896"></trkpt>
    <trkpt lat="34.826426032" lon="128.034902716"></trkpt>
    <trkpt lat="34.826354406" lon="128.034985614"></trkpt>
    <trkpt lat="34.826192907" lon="128.035197461"></trkpt>
    <trkpt lat="34.826063511" lon="128.035331751"></trkpt>
    <trkpt lat="34.825848487" lon="128.035483946"></trkpt>
    <trkpt lat="34.825626307" lon="128.035628303"></trkpt>
    <trkpt lat="34.825505177" lon="128.0357088"></trkpt>
    <trkpt lat="34.825382064" lon="128.035772982"></trkpt>
    <trkpt lat="34.825178901" lon="128.035805381"></trkpt>
    <trkpt lat="34.825072682" lon="128.035831159"></trkpt>
    <trkpt lat="34.824983449" lon="128.035884944"></trkpt>
    <trkpt lat="34.82497938" lon="128.036136362"></trkpt>
    <trkpt lat="34.825018692" lon="128.036367395"></trkpt>
    <trkpt lat="34.825065335" lon="128.036577856"></trkpt>
    <trkpt lat="34.825085818" lon="128.03669305"></trkpt>
    <trkpt lat="34.825053268" lon="128.036802073"></trkpt>
    <trkpt lat="34.8249165" lon="128.037063363"></trkpt>
    <trkpt lat="34.824793302" lon="128.037297867"></trkpt>
    <trkpt lat="34.824632954" lon="128.037523225"></trkpt>
    <trkpt lat="34.824553567" lon="128.037589811"></trkpt>
    <trkpt lat="34.82453315" lon="128.037643071"></trkpt>
    <trkpt lat="34.82452292" lon="128.037705165"></trkpt>
    <trkpt lat="34.824543153" lon="128.037850458"></trkpt>
    <trkpt lat="34.824575003" lon="128.037956603"></trkpt>
    <trkpt lat="34.824590828" lon="128.038080257"></trkpt>
    <trkpt lat="34.824569032" lon="128.038230428"></trkpt>
    <trkpt lat="34.824477626" lon="128.038407122"></trkpt>
    <trkpt lat="34.824422499" lon="128.038451291"></trkpt>
    <trkpt lat="34.824276677" lon="128.038432524"></trkpt>
    <trkpt lat="34.823997341" lon="128.038371709"></trkpt>
    <trkpt lat="34.823707283" lon="128.03831102"></trkpt>
    <trkpt lat="34.823450262" lon="128.038243328"></trkpt>
    <trkpt lat="34.823195818" lon="128.038135352"></trkpt>
    <trkpt lat="34.822893271" lon="128.03798366"></trkpt>
    <trkpt lat="34.822666654" lon="128.03785406"></trkpt>
    <trkpt lat="34.82246229" lon="128.037736619"></trkpt>
    <trkpt lat="34.822272234" lon="128.037632076"></trkpt>
    <trkpt lat="34.822183501" lon="128.03752589"></trkpt>
    <trkpt lat="34.822137734" lon="128.037504948"></trkpt>
    <trkpt lat="34.822070565" lon="128.037454434"></trkpt>
    <trkpt lat="34.821976361" lon="128.037350091"></trkpt>
    <trkpt lat="34.821915004" lon="128.037344857"></trkpt>
    <trkpt lat="34.821810957" lon="128.037358713"></trkpt>
    <trkpt lat="34.82170822" lon="128.037351769"></trkpt>
    <trkpt lat="34.821586799" lon="128.037320485"></trkpt>
    <trkpt lat="34.821438755" lon="128.037298733"></trkpt>
    <trkpt lat="34.821212595" lon="128.037296351"></trkpt>
    <trkpt lat="34.820930759" lon="128.037312516"></trkpt>
    <trkpt lat="34.820532909" lon="128.037344966"></trkpt>
    <trkpt lat="34.8203668" lon="128.037365872"></trkpt>
    <trkpt lat="34.820158488" lon="128.037396098"></trkpt>
    <trkpt lat="34.81988559" lon="128.037403046"></trkpt>
    <trkpt lat="34.819593539" lon="128.037414569"></trkpt>
    <trkpt lat="34.819366914" lon="128.037419087"></trkpt>
    <trkpt lat="34.819220261" lon="128.037428279"></trkpt>
    <trkpt lat="34.819121276" lon="128.037421265"></trkpt>
    <trkpt lat="34.819001626" lon="128.037393346"></trkpt>
    <trkpt lat="34.818916557" lon="128.037356232"></trkpt>
    <trkpt lat="34.818709134" lon="128.037235224"></trkpt>
    <trkpt lat="34.818601206" lon="128.037170514"></trkpt>
    <trkpt lat="34.818473098" lon="128.037112991"></trkpt>
    <trkpt lat="34.818247406" lon="128.036994089"></trkpt>
    <trkpt lat="34.81806117" lon="128.036879553"></trkpt>
    <trkpt lat="34.817838415" lon="128.036765258"></trkpt>
    <trkpt lat="34.817677247" lon="128.036701308"></trkpt>
    <trkpt lat="34.817461534" lon="128.036643334"></trkpt>
    <trkpt lat="34.817269358" lon="128.036631529"></trkpt>
    <trkpt lat="34.817055459" lon="128.036656134"></trkpt>
    <trkpt lat="34.816814904" lon="128.036730277"></trkpt>
    <trkpt lat="34.816570544" lon="128.036891204"></trkpt>
    <trkpt lat="34.816282022" lon="128.037079064"></trkpt>
    <trkpt lat="34.815911756" lon="128.037305158"></trkpt>
    <trkpt lat="34.815691624" lon="128.037430898"></trkpt>
    <trkpt lat="34.815457818" lon="128.037581024"></trkpt>
    <trkpt lat="34.815244367" lon="128.037692088"></trkpt>
    <trkpt lat="34.814948343" lon="128.037859795"></trkpt>
    <trkpt lat="34.814745209" lon="128.037969214"></trkpt>
    <trkpt lat="34.814470184" lon="128.038131219"></trkpt>
    <trkpt lat="34.814255077" lon="128.038245989"></trkpt>
    <trkpt lat="34.814059084" lon="128.038345964"></trkpt>
    <trkpt lat="34.813841153" lon="128.038480626"></trkpt>
    <trkpt lat="34.813614453" lon="128.038554952"></trkpt>
    <trkpt lat="34.813408316" lon="128.038577123"></trkpt>
    <trkpt lat="34.813279565" lon="128.038558241"></trkpt>
    <trkpt lat="34.813083028" lon="128.038441892"></trkpt>
    <trkpt lat="34.812948922" lon="128.038314255"></trkpt>
    <trkpt lat="34.812843981" lon="128.038135782"></trkpt>
    <trkpt lat="34.812775591" lon="128.03790186"></trkpt>
    <trkpt lat="34.812755852" lon="128.037775595"></trkpt>
    <trkpt lat="34.812612471" lon="128.037734609"></trkpt>
    <trkpt lat="34.812362264" lon="128.037647308"></trkpt>
    <trkpt lat="34.812122765" lon="128.037537279"></trkpt>
    <trkpt lat="34.811984049" lon="128.037474996"></trkpt>
    <trkpt lat="34.811911136" lon="128.037477905"></trkpt>
    <trkpt lat="34.811804387" lon="128.037491532"></trkpt>
    <trkpt lat="34.811712119" lon="128.03754895"></trkpt>
    <trkpt lat="34.811640979" lon="128.037600546"></trkpt>
    <trkpt lat="34.811482439" lon="128.037825194"></trkpt>
    <trkpt lat="34.81123087" lon="128.038164857"></trkpt>
    <trkpt lat="34.810985168" lon="128.03847592"></trkpt>
    <trkpt lat="34.810760305" lon="128.038807979"></trkpt>
    <trkpt lat="34.810521071" lon="128.039147046"></trkpt>
    <trkpt lat="34.810263487" lon="128.039481296"></trkpt>
    <trkpt lat="34.810093871" lon="128.039746413"></trkpt>
    <trkpt lat="34.81006518" lon="128.039865958"></trkpt>
    <trkpt lat="34.809992898" lon="128.040020719"></trkpt>
    <trkpt lat="34.809815088" lon="128.040180153"></trkpt>
    <trkpt lat="34.809619494" lon="128.040348647"></trkpt>
    <trkpt lat="34.809577414" lon="128.040401945"></trkpt>
    <trkpt lat="34.809356957" lon="128.040524201"></trkpt>
    <trkpt lat="34.809185878" lon="128.040602065"></trkpt>
    <trkpt lat="34.809001661" lon="128.040687006"></trkpt>
    <trkpt lat="34.808865008" lon="128.040765552"></trkpt>
    <trkpt lat="34.80880186" lon="128.040816931"></trkpt>
    <trkpt lat="34.80860874" lon="128.040972382"></trkpt>
    <trkpt lat="34.808570083" lon="128.040986321"></trkpt>
    <trkpt lat="34.808439341" lon="128.041177041"></trkpt>
    <trkpt lat="34.808342605" lon="128.041308607"></trkpt>
    <trkpt lat="34.80830153" lon="128.041415902"></trkpt>
    <trkpt lat="34.808203853" lon="128.041631392"></trkpt>
    <trkpt lat="34.808147508" lon="128.041730497"></trkpt>
    <trkpt lat="34.807942541" lon="128.041883244"></trkpt>
    <trkpt lat="34.807815823" lon="128.041984472"></trkpt>
    <trkpt lat="34.807699717" lon="128.042058157"></trkpt>
    <trkpt lat="34.807588276" lon="128.04210236"></trkpt>
    <trkpt lat="34.80734461" lon="128.042273703"></trkpt>
    <trkpt lat="34.807218454" lon="128.042362817"></trkpt>
    <trkpt lat="34.807067517" lon="128.042466051"></trkpt>
    <trkpt lat="34.806952426" lon="128.042538313"></trkpt>
    <trkpt lat="34.806879404" lon="128.04258853"></trkpt>
    <trkpt lat="34.806857863" lon="128.042681131"></trkpt>
    <trkpt lat="34.806958627" lon="128.042932139"></trkpt>
    <trkpt lat="34.807060639" lon="128.043152475"></trkpt>
    <trkpt lat="34.807171188" lon="128.043332922"></trkpt>
    <trkpt lat="34.80730748" lon="128.043511539"></trkpt>
    <trkpt lat="34.807427746" lon="128.043674067"></trkpt>
    <trkpt lat="34.80768303" lon="128.044019209"></trkpt>
    <trkpt lat="34.807815489" lon="128.044164184"></trkpt>
    <trkpt lat="34.807933131" lon="128.044301169"></trkpt>
    <trkpt lat="34.808005458" lon="128.04438786"></trkpt>
    <trkpt lat="34.808034721" lon="128.044476737"></trkpt>
    <trkpt lat="34.808022731" lon="128.044582531"></trkpt>
    <trkpt lat="34.807991841" lon="128.044702223"></trkpt>
    <trkpt lat="34.807956547" lon="128.044939252"></trkpt>
    <trkpt lat="34.807934749" lon="128.045079689"></trkpt>
    <trkpt lat="34.807888546" lon="128.045174717"></trkpt>
    <trkpt lat="34.807840896" lon="128.04530566"></trkpt>
    <trkpt lat="34.80775712" lon="128.045462902"></trkpt>
    <trkpt lat="34.807661896" lon="128.045520836"></trkpt>
    <trkpt lat="34.807547394" lon="128.04556724"></trkpt>
    <trkpt lat="34.807499594" lon="128.045587165"></trkpt>
    <trkpt lat="34.807465541" lon="128.045636974"></trkpt>
    <trkpt lat="34.807373413" lon="128.045754436"></trkpt>
    <trkpt lat="34.807301997" lon="128.045856461"></trkpt>
    <trkpt lat="34.807203967" lon="128.045991429"></trkpt>
    <trkpt lat="34.807153831" lon="128.04606603"></trkpt>
    <trkpt lat="34.807114656" lon="128.046153313"></trkpt>
    <trkpt lat="34.807068806" lon="128.046266769"></trkpt>
    <trkpt lat="34.807062132" lon="128.046348825"></trkpt>
    <trkpt lat="34.807060967" lon="128.046490816"></trkpt>
    <trkpt lat="34.807058458" lon="128.046620434"></trkpt>
    <trkpt lat="34.807057257" lon="128.04680616"></trkpt>
    <trkpt lat="34.807038116" lon="128.046937176"></trkpt>
    <trkpt lat="34.806996409" lon="128.04696263"></trkpt>
    <trkpt lat="34.806919025" lon="128.046923915"></trkpt>
    <trkpt lat="34.806766544" lon="128.046841103"></trkpt>
    <trkpt lat="34.80663036" lon="128.046801037"></trkpt>
    <trkpt lat="34.806519696" lon="128.046763728"></trkpt>
    <trkpt lat="34.806335862" lon="128.046696954"></trkpt>
    <trkpt lat="34.806262645" lon="128.0466626"></trkpt>
    <trkpt lat="34.806123102" lon="128.04660852"></trkpt>
    <trkpt lat="34.806045646" lon="128.046581966"></trkpt>
    <trkpt lat="34.805949213" lon="128.046562293"></trkpt>
    <trkpt lat="34.805876686" lon="128.0465644"></trkpt>
    <trkpt lat="34.805762887" lon="128.046665956"></trkpt>
    <trkpt lat="34.805678508" lon="128.046741635"></trkpt>
    <trkpt lat="34.805557653" lon="128.046731024"></trkpt>
    <trkpt lat="34.805494867" lon="128.046702063"></trkpt>
    <trkpt lat="34.80544679" lon="128.046603855"></trkpt>
    <trkpt lat="34.805393519" lon="128.046432876"></trkpt>
    <trkpt lat="34.805368005" lon="128.046326528"></trkpt>
    <trkpt lat="34.80522186" lon="128.046088225"></trkpt>
    <trkpt lat="34.805103088" lon="128.045884955"></trkpt>
    <trkpt lat="34.805042098" lon="128.045725693"></trkpt>
    <trkpt lat="34.804969361" lon="128.045606263"></trkpt>
    <trkpt lat="34.804806251" lon="128.045545989"></trkpt>
    <trkpt lat="34.804634414" lon="128.045588712"></trkpt>
    <trkpt lat="34.804487225" lon="128.045642061"></trkpt>
    <trkpt lat="34.804385908" lon="128.045675724"></trkpt>
    <trkpt lat="34.804135382" lon="128.045770858"></trkpt>
    <trkpt lat="34.803897922" lon="128.045864337"></trkpt>
    <trkpt lat="34.803648759" lon="128.045957841"></trkpt>
    <trkpt lat="34.803377895" lon="128.046094399"></trkpt>
    <trkpt lat="34.803216835" lon="128.046168626"></trkpt>
    <trkpt lat="34.803133039" lon="128.04622365"></trkpt>
    <trkpt lat="34.802948404" lon="128.04626126"></trkpt>
    <trkpt lat="34.802905782" lon="128.046250439"></trkpt>
    <trkpt lat="34.802727379" lon="128.046391614"></trkpt>
    <trkpt lat="34.802478116" lon="128.046583065"></trkpt>
    <trkpt lat="34.80222488" lon="128.046816531"></trkpt>
    <trkpt lat="34.802130012" lon="128.046868964"></trkpt>
    <trkpt lat="34.802012008" lon="128.047148696"></trkpt>
    <trkpt lat="34.801931913" lon="128.047263275"></trkpt>
    <trkpt lat="34.801745762" lon="128.047472045"></trkpt>
    <trkpt lat="34.801683702" lon="128.047653158"></trkpt>
    <trkpt lat="34.801570252" lon="128.047965277"></trkpt>
    <trkpt lat="34.801467982" lon="128.048302452"></trkpt>
    <trkpt lat="34.801407463" lon="128.048712852"></trkpt>
    <trkpt lat="34.801298773" lon="128.049115741"></trkpt>
    <trkpt lat="34.801207784" lon="128.049404082"></trkpt>
    <trkpt lat="34.801209008" lon="128.04958296"></trkpt>
    <trkpt lat="34.801251288" lon="128.049739405"></trkpt>
    <trkpt lat="34.801379993" lon="128.049877154"></trkpt>
    <trkpt lat="34.801531821" lon="128.049967468"></trkpt>
    <trkpt lat="34.801617418" lon="128.050074604"></trkpt>
    <trkpt lat="34.801684843" lon="128.050259318"></trkpt>
    <trkpt lat="34.801729751" lon="128.050393214"></trkpt>
    <trkpt lat="34.801671524" lon="128.050471956"></trkpt>
    <trkpt lat="34.801517787" lon="128.050489216"></trkpt>
    <trkpt lat="34.801239491" lon="128.050481257"></trkpt>
    <trkpt lat="34.801044383" lon="128.050486529"></trkpt>
    <trkpt lat="34.801015581" lon="128.050657846"></trkpt>
    <trkpt lat="34.801019647" lon="128.050874904"></trkpt>
    <trkpt lat="34.801000232" lon="128.051074727"></trkpt>
    <trkpt lat="34.800952891" lon="128.051129283"></trkpt>
    <trkpt lat="34.800871927" lon="128.051097304"></trkpt>
    <trkpt lat="34.800799533" lon="128.050870571"></trkpt>
    <trkpt lat="34.800764735" lon="128.05065757"></trkpt>
    <trkpt lat="34.800727758" lon="128.050511251"></trkpt>
    <trkpt lat="34.800677019" lon="128.050443669"></trkpt>
    <trkpt lat="34.800647435" lon="128.050524812"></trkpt>
    <trkpt lat="34.800601152" lon="128.050874872"></trkpt>
    <trkpt lat="34.800598744" lon="128.05091254"></trkpt>
    <trkpt lat="34.800497276" lon="128.051574644"></trkpt>
    <trkpt lat="34.800444247" lon="128.051843408"></trkpt>
    <trkpt lat="34.800409148" lon="128.051933241"></trkpt>
    <trkpt lat="34.800368704" lon="128.051942433"></trkpt>
    <trkpt lat="34.80029655" lon="128.051998432"></trkpt>
    <trkpt lat="34.800025085" lon="128.051773829"></trkpt>
    <trkpt lat="34.799746128" lon="128.051588883"></trkpt>
    <trkpt lat="34.799478042" lon="128.051405653"></trkpt>
    <trkpt lat="34.799109348" lon="128.051269738"></trkpt>
    <trkpt lat="34.798854656" lon="128.051078278"></trkpt>
    <trkpt lat="34.798700358" lon="128.050910385"></trkpt>
    <trkpt lat="34.798523406" lon="128.050887954"></trkpt>
    <trkpt lat="34.79810186" lon="128.050696661"></trkpt>
    <trkpt lat="34.797769651" lon="128.05065513"></trkpt>
    <trkpt lat="34.797434081" lon="128.050461491"></trkpt>
    <trkpt lat="34.797206516" lon="128.050437886"></trkpt>
    <trkpt lat="34.79704055" lon="128.050403063"></trkpt>
    <trkpt lat="34.796827106" lon="128.050408573"></trkpt>
    <trkpt lat="34.796671335" lon="128.050373882"></trkpt>
    <trkpt lat="34.796430475" lon="128.050379735"></trkpt>
    <trkpt lat="34.796285613" lon="128.050392244"></trkpt>
    <trkpt lat="34.796177125" lon="128.050375216"></trkpt>
    <trkpt lat="34.796180131" lon="128.050219857"></trkpt>
    <trkpt lat="34.796202414" lon="128.050011129"></trkpt>
    <trkpt lat="34.796224023" lon="128.04983281"></trkpt>
    <trkpt lat="34.796225549" lon="128.049657992"></trkpt>
    <trkpt lat="34.796238555" lon="128.049480172"></trkpt>
    <trkpt lat="34.796248536" lon="128.049313589"></trkpt>
    <trkpt lat="34.796205952" lon="128.049125895"></trkpt>
    <trkpt lat="34.79624573" lon="128.049120863"></trkpt>
    <trkpt lat="34.796296922" lon="128.04898779"></trkpt>
    <trkpt lat="34.796396281" lon="128.04885658"></trkpt>
    <trkpt lat="34.796440213" lon="128.048813505"></trkpt>
    <trkpt lat="34.796502313" lon="128.04876868"></trkpt>
    <trkpt lat="34.796595945" lon="128.048718614"></trkpt>
    <trkpt lat="34.796762359" lon="128.048696034"></trkpt>
    <trkpt lat="34.796863246" lon="128.048645886"></trkpt>
    <trkpt lat="34.796958962" lon="128.048523611"></trkpt>
    <trkpt lat="34.796993927" lon="128.048468686"></trkpt>
    <trkpt lat="34.796965605" lon="128.048421338"></trkpt>
    <trkpt lat="34.796877736" lon="128.048285089"></trkpt>
    <trkpt lat="34.796807865" lon="128.048172563"></trkpt>
    <trkpt lat="34.79673451" lon="128.048051161"></trkpt>
    <trkpt lat="34.796630446" lon="128.047880849"></trkpt>
    <trkpt lat="34.796561575" lon="128.047758039"></trkpt>
    <trkpt lat="34.796525036" lon="128.047667062"></trkpt>
    <trkpt lat="34.796506341" lon="128.047566654"></trkpt>
    <trkpt lat="34.796490297" lon="128.047435679"></trkpt>
    <trkpt lat="34.796454906" lon="128.047385708"></trkpt>
    <trkpt lat="34.796429207" lon="128.047355838"></trkpt>
    <trkpt lat="34.796415565" lon="128.047303143"></trkpt>
    <trkpt lat="34.796424772" lon="128.047270429"></trkpt>
    <trkpt lat="34.796390092" lon="128.047199488"></trkpt>
    <trkpt lat="34.796306549" lon="128.047070162"></trkpt>
    <trkpt lat="34.796211725" lon="128.046948698"></trkpt>
    <trkpt lat="34.79614794" lon="128.046811023"></trkpt>
    <trkpt lat="34.796110982" lon="128.046678073"></trkpt>
    <trkpt lat="34.796086326" lon="128.046550807"></trkpt>
    <trkpt lat="34.796068688" lon="128.046453228"></trkpt>
    <trkpt lat="34.796017954" lon="128.046291877"></trkpt>
    <trkpt lat="34.7959633" lon="128.046132538"></trkpt>
    <trkpt lat="34.795944586" lon="128.046079975"></trkpt>
    <trkpt lat="34.795927269" lon="128.046030846"></trkpt>
    <trkpt lat="34.795981938" lon="128.045990879"></trkpt>
    <trkpt lat="34.796076142" lon="128.045925219"></trkpt>
  </trkseg>
</trk>
</gpx>
