<?xml version="1.0" encoding="utf-8" standalone="yes"?>
<gpx version="1.1" creator="GPS Visualizer https://www.gpsvisualizer.com/" xmlns="http://www.topografix.com/GPX/1/1" xmlns:xsi="http://www.w3.org/2001/XMLSchema-instance" xsi:schemaLocation="http://www.topografix.com/GPX/1/1 http://www.topografix.com/GPX/1/1/gpx.xsd">
<trk>
  <name>남파랑길 41코스 (남해바래길 9코스 구운몽길) 20200906</name>
  <trkseg>
    <trkpt lat="34.725831584" lon="128.012879526"></trkpt>
    <trkpt lat="34.725809473" lon="128.012841416"></trkpt>
    <trkpt lat="34.725744295" lon="128.012838116"></trkpt>
    <trkpt lat="34.725645676" lon="128.012835533"></trkpt>
    <trkpt lat="34.725638574" lon="128.012967384"></trkpt>
    <trkpt lat="34.725624583" lon="128.013086713"></trkpt>
    <trkpt lat="34.725585444" lon="128.013070787"></trkpt>
    <trkpt lat="34.725502717" lon="128.013103812"></trkpt>
    <trkpt lat="34.72540839" lon="128.013145856"></trkpt>
    <trkpt lat="34.725217967" lon="128.013261299"></trkpt>
    <trkpt lat="34.72507927" lon="128.013386606"></trkpt>
    <trkpt lat="34.724999891" lon="128.013478832"></trkpt>
    <trkpt lat="34.724851861" lon="128.01352033"></trkpt>
    <trkpt lat="34.724766948" lon="128.013550478"></trkpt>
    <trkpt lat="34.724703501" lon="128.013578329"></trkpt>
    <trkpt lat="34.724609952" lon="128.013659139"></trkpt>
    <trkpt lat="34.724503263" lon="128.013726889"></trkpt>
    <trkpt lat="34.724417813" lon="128.013736757"></trkpt>
    <trkpt lat="34.724351411" lon="128.013708977"></trkpt>
    <trkpt lat="34.724317028" lon="128.013623228"></trkpt>
    <trkpt lat="34.724285398" lon="128.013465579"></trkpt>
    <trkpt lat="34.724253029" lon="128.013248827"></trkpt>
    <trkpt lat="34.72419889" lon="128.013047297"></trkpt>
    <trkpt lat="34.724135141" lon="128.012850115"></trkpt>
    <trkpt lat="34.724066611" lon="128.012680798"></trkpt>
    <trkpt lat="34.724009524" lon="128.012536913"></trkpt>
    <trkpt lat="34.723928807" lon="128.012370244"></trkpt>
    <trkpt lat="34.72376867" lon="128.01194954"></trkpt>
    <trkpt lat="34.723662789" lon="128.011683834"></trkpt>
    <trkpt lat="34.723544329" lon="128.011367173"></trkpt>
    <trkpt lat="34.72341368" lon="128.011072063"></trkpt>
    <trkpt lat="34.723217394" lon="128.010685509"></trkpt>
    <trkpt lat="34.723038256" lon="128.010324074"></trkpt>
    <trkpt lat="34.722841249" lon="128.009912697"></trkpt>
    <trkpt lat="34.722681908" lon="128.009558198"></trkpt>
    <trkpt lat="34.722461081" lon="128.009128127"></trkpt>
    <trkpt lat="34.722299181" lon="128.008830482"></trkpt>
    <trkpt lat="34.722072202" lon="128.008403306"></trkpt>
    <trkpt lat="34.721880723" lon="128.008114576"></trkpt>
    <trkpt lat="34.721770746" lon="128.007966444"></trkpt>
    <trkpt lat="34.72167322" lon="128.00785543"></trkpt>
    <trkpt lat="34.721476813" lon="128.007653697"></trkpt>
    <trkpt lat="34.721334665" lon="128.007517576"></trkpt>
    <trkpt lat="34.721190098" lon="128.007401491"></trkpt>
    <trkpt lat="34.721014041" lon="128.007292619"></trkpt>
    <trkpt lat="34.720856782" lon="128.00719518"></trkpt>
    <trkpt lat="34.720745959" lon="128.007125156"></trkpt>
    <trkpt lat="34.720568974" lon="128.00703787"></trkpt>
    <trkpt lat="34.72038664" lon="128.006952535"></trkpt>
    <trkpt lat="34.720121029" lon="128.006869542"></trkpt>
    <trkpt lat="34.719962122" lon="128.006821929"></trkpt>
    <trkpt lat="34.719782149" lon="128.006769048"></trkpt>
    <trkpt lat="34.719636987" lon="128.006764025"></trkpt>
    <trkpt lat="34.719553727" lon="128.006762384"></trkpt>
    <trkpt lat="34.719467998" lon="128.006768749"></trkpt>
    <trkpt lat="34.71938591" lon="128.006775021"></trkpt>
    <trkpt lat="34.719376056" lon="128.006571574"></trkpt>
    <trkpt lat="34.719333774" lon="128.006337215"></trkpt>
    <trkpt lat="34.719284049" lon="128.006146706"></trkpt>
    <trkpt lat="34.719347532" lon="128.005959727"></trkpt>
    <trkpt lat="34.719413497" lon="128.005819115"></trkpt>
    <trkpt lat="34.719464442" lon="128.005682405"></trkpt>
    <trkpt lat="34.71952751" lon="128.005514551"></trkpt>
    <trkpt lat="34.719508145" lon="128.005439004"></trkpt>
    <trkpt lat="34.719424735" lon="128.005342627"></trkpt>
    <trkpt lat="34.71934565" lon="128.00526606"></trkpt>
    <trkpt lat="34.71929211" lon="128.005202668"></trkpt>
    <trkpt lat="34.719264042" lon="128.005145961"></trkpt>
    <trkpt lat="34.71923339" lon="128.005056954"></trkpt>
    <trkpt lat="34.719206797" lon="128.004979444"></trkpt>
    <trkpt lat="34.719203669" lon="128.004856676"></trkpt>
    <trkpt lat="34.719150565" lon="128.004804951"></trkpt>
    <trkpt lat="34.719089604" lon="128.004766075"></trkpt>
    <trkpt lat="34.719008691" lon="128.00471741"></trkpt>
    <trkpt lat="34.718922306" lon="128.004642899"></trkpt>
    <trkpt lat="34.718826843" lon="128.004577995"></trkpt>
    <trkpt lat="34.718753479" lon="128.004513347"></trkpt>
    <trkpt lat="34.718676085" lon="128.004428014"></trkpt>
    <trkpt lat="34.718616153" lon="128.004368841"></trkpt>
    <trkpt lat="34.718519458" lon="128.004289216"></trkpt>
    <trkpt lat="34.718405123" lon="128.004181773"></trkpt>
    <trkpt lat="34.718334773" lon="128.0040832"></trkpt>
    <trkpt lat="34.718297687" lon="128.004008986"></trkpt>
    <trkpt lat="34.718277729" lon="128.003932114"></trkpt>
    <trkpt lat="34.718191757" lon="128.003944403"></trkpt>
    <trkpt lat="34.718135665" lon="128.003947625"></trkpt>
    <trkpt lat="34.718005997" lon="128.00407068"></trkpt>
    <trkpt lat="34.717924185" lon="128.004157495"></trkpt>
    <trkpt lat="34.717849388" lon="128.004299011"></trkpt>
    <trkpt lat="34.717771621" lon="128.004441308"></trkpt>
    <trkpt lat="34.717734933" lon="128.004411003"></trkpt>
    <trkpt lat="34.717686258" lon="128.004328182"></trkpt>
    <trkpt lat="34.717645708" lon="128.004265999"></trkpt>
    <trkpt lat="34.717595133" lon="128.004139451"></trkpt>
    <trkpt lat="34.717590199" lon="128.004032633"></trkpt>
    <trkpt lat="34.717548833" lon="128.00395547"></trkpt>
    <trkpt lat="34.717512173" lon="128.003870739"></trkpt>
    <trkpt lat="34.717446708" lon="128.003851907"></trkpt>
    <trkpt lat="34.717375852" lon="128.003707383"></trkpt>
    <trkpt lat="34.71729872" lon="128.003604625"></trkpt>
    <trkpt lat="34.717214773" lon="128.00347914"></trkpt>
    <trkpt lat="34.717141644" lon="128.003360769"></trkpt>
    <trkpt lat="34.717077619" lon="128.003287372"></trkpt>
    <trkpt lat="34.717037552" lon="128.003266541"></trkpt>
    <trkpt lat="34.716991701" lon="128.003260592"></trkpt>
    <trkpt lat="34.716933749" lon="128.003179475"></trkpt>
    <trkpt lat="34.716866596" lon="128.003062622"></trkpt>
    <trkpt lat="34.716825186" lon="128.002988168"></trkpt>
    <trkpt lat="34.716808153" lon="128.002909163"></trkpt>
    <trkpt lat="34.716853383" lon="128.002855462"></trkpt>
    <trkpt lat="34.716971422" lon="128.002769357"></trkpt>
    <trkpt lat="34.717058243" lon="128.002708408"></trkpt>
    <trkpt lat="34.71716156" lon="128.002667408"></trkpt>
    <trkpt lat="34.71721396" lon="128.002646074"></trkpt>
    <trkpt lat="34.717307207" lon="128.002574763"></trkpt>
    <trkpt lat="34.717348888" lon="128.002495371"></trkpt>
    <trkpt lat="34.717356191" lon="128.00242661"></trkpt>
    <trkpt lat="34.717321414" lon="128.002334491"></trkpt>
    <trkpt lat="34.71730475" lon="128.002259486"></trkpt>
    <trkpt lat="34.717283942" lon="128.002178793"></trkpt>
    <trkpt lat="34.717312773" lon="128.002005192"></trkpt>
    <trkpt lat="34.717359237" lon="128.001832068"></trkpt>
    <trkpt lat="34.717397854" lon="128.001715778"></trkpt>
    <trkpt lat="34.71740226" lon="128.001576093"></trkpt>
    <trkpt lat="34.717389873" lon="128.001436333"></trkpt>
    <trkpt lat="34.71737028" lon="128.001359424"></trkpt>
    <trkpt lat="34.71736707" lon="128.001258668"></trkpt>
    <trkpt lat="34.717368978" lon="128.001136607"></trkpt>
    <trkpt lat="34.71737055" lon="128.00102338"></trkpt>
    <trkpt lat="34.717401029" lon="128.000902325"></trkpt>
    <trkpt lat="34.717410134" lon="128.000838023"></trkpt>
    <trkpt lat="34.717401978" lon="128.000755364"></trkpt>
    <trkpt lat="34.717407596" lon="128.000614443"></trkpt>
    <trkpt lat="34.717391358" lon="128.000454454"></trkpt>
    <trkpt lat="34.717367207" lon="128.000313328"></trkpt>
    <trkpt lat="34.717350764" lon="128.000249485"></trkpt>
    <trkpt lat="34.717346122" lon="128.000166468"></trkpt>
    <trkpt lat="34.71727742" lon="128.000085155"></trkpt>
    <trkpt lat="34.717233128" lon="127.999982228"></trkpt>
    <trkpt lat="34.717199836" lon="127.999860918"></trkpt>
    <trkpt lat="34.717203476" lon="127.999694891"></trkpt>
    <trkpt lat="34.717228888" lon="127.999581415"></trkpt>
    <trkpt lat="34.717278163" lon="127.999482524"></trkpt>
    <trkpt lat="34.717358448" lon="127.999412732"></trkpt>
    <trkpt lat="34.71733505" lon="127.999307357"></trkpt>
    <trkpt lat="34.717370449" lon="127.999274808"></trkpt>
    <trkpt lat="34.717420974" lon="127.999252651"></trkpt>
    <trkpt lat="34.717483034" lon="127.999151287"></trkpt>
    <trkpt lat="34.717503859" lon="127.999065794"></trkpt>
    <trkpt lat="34.717507764" lon="127.998974149"></trkpt>
    <trkpt lat="34.717449146" lon="127.998849639"></trkpt>
    <trkpt lat="34.717409185" lon="127.998821623"></trkpt>
    <trkpt lat="34.717320415" lon="127.998673439"></trkpt>
    <trkpt lat="34.717264873" lon="127.998537533"></trkpt>
    <trkpt lat="34.717223648" lon="127.998332012"></trkpt>
    <trkpt lat="34.717184788" lon="127.998214392"></trkpt>
    <trkpt lat="34.717103942" lon="127.998118758"></trkpt>
    <trkpt lat="34.717058446" lon="127.997965112"></trkpt>
    <trkpt lat="34.717019827" lon="127.997845548"></trkpt>
    <trkpt lat="34.717012599" lon="127.997740427"></trkpt>
    <trkpt lat="34.716992473" lon="127.997509689"></trkpt>
    <trkpt lat="34.716983523" lon="127.997417586"></trkpt>
    <trkpt lat="34.716983031" lon="127.997317564"></trkpt>
    <trkpt lat="34.716938881" lon="127.997200228"></trkpt>
    <trkpt lat="34.716906865" lon="127.997081575"></trkpt>
    <trkpt lat="34.716839525" lon="127.99700162"></trkpt>
    <trkpt lat="34.716760458" lon="127.9969608"></trkpt>
    <trkpt lat="34.71663247" lon="127.996840013"></trkpt>
    <trkpt lat="34.716565973" lon="127.996719358"></trkpt>
    <trkpt lat="34.716465619" lon="127.996599337"></trkpt>
    <trkpt lat="34.716397434" lon="127.996446241"></trkpt>
    <trkpt lat="34.716306464" lon="127.996285035"></trkpt>
    <trkpt lat="34.716228701" lon="127.996135766"></trkpt>
    <trkpt lat="34.716141158" lon="127.995990389"></trkpt>
    <trkpt lat="34.716030456" lon="127.995828239"></trkpt>
    <trkpt lat="34.715931492" lon="127.995680917"></trkpt>
    <trkpt lat="34.715857716" lon="127.995575386"></trkpt>
    <trkpt lat="34.715840772" lon="127.995476148"></trkpt>
    <trkpt lat="34.715861675" lon="127.995373642"></trkpt>
    <trkpt lat="34.715887153" lon="127.995258468"></trkpt>
    <trkpt lat="34.715825491" lon="127.99517106"></trkpt>
    <trkpt lat="34.715768862" lon="127.995061346"></trkpt>
    <trkpt lat="34.715707769" lon="127.994942901"></trkpt>
    <trkpt lat="34.715678031" lon="127.994850142"></trkpt>
    <trkpt lat="34.71564835" lon="127.994706568"></trkpt>
    <trkpt lat="34.715616519" lon="127.994572058"></trkpt>
    <trkpt lat="34.71562723" lon="127.994445023"></trkpt>
    <trkpt lat="34.715622507" lon="127.994372937"></trkpt>
    <trkpt lat="34.715634524" lon="127.994253309"></trkpt>
    <trkpt lat="34.715690493" lon="127.994037244"></trkpt>
    <trkpt lat="34.715794888" lon="127.993775278"></trkpt>
    <trkpt lat="34.715867439" lon="127.993612969"></trkpt>
    <trkpt lat="34.715968184" lon="127.993438128"></trkpt>
    <trkpt lat="34.716108178" lon="127.993242435"></trkpt>
    <trkpt lat="34.716190438" lon="127.99315276"></trkpt>
    <trkpt lat="34.716273649" lon="127.993052077"></trkpt>
    <trkpt lat="34.716377825" lon="127.99292293"></trkpt>
    <trkpt lat="34.716469764" lon="127.992845281"></trkpt>
    <trkpt lat="34.716569065" lon="127.992751873"></trkpt>
    <trkpt lat="34.716615993" lon="127.992696951"></trkpt>
    <trkpt lat="34.716709202" lon="127.992555628"></trkpt>
    <trkpt lat="34.716788467" lon="127.992461198"></trkpt>
    <trkpt lat="34.716866106" lon="127.992368704"></trkpt>
    <trkpt lat="34.716944825" lon="127.992351274"></trkpt>
    <trkpt lat="34.717053122" lon="127.992347824"></trkpt>
    <trkpt lat="34.717141411" lon="127.992367021"></trkpt>
    <trkpt lat="34.717213318" lon="127.992417098"></trkpt>
    <trkpt lat="34.717283836" lon="127.992469626"></trkpt>
    <trkpt lat="34.717386103" lon="127.992466364"></trkpt>
    <trkpt lat="34.717498025" lon="127.992456391"></trkpt>
    <trkpt lat="34.717608799" lon="127.992429061"></trkpt>
    <trkpt lat="34.717758402" lon="127.992390994"></trkpt>
    <trkpt lat="34.717911134" lon="127.992393151"></trkpt>
    <trkpt lat="34.718053672" lon="127.992433778"></trkpt>
    <trkpt lat="34.718185103" lon="127.992383661"></trkpt>
    <trkpt lat="34.718293005" lon="127.992377639"></trkpt>
    <trkpt lat="34.718343716" lon="127.99233337"></trkpt>
    <trkpt lat="34.718352969" lon="127.992250788"></trkpt>
    <trkpt lat="34.718383622" lon="127.992237639"></trkpt>
    <trkpt lat="34.718431998" lon="127.992247066"></trkpt>
    <trkpt lat="34.718521264" lon="127.99229282"></trkpt>
    <trkpt lat="34.718689222" lon="127.992338583"></trkpt>
    <trkpt lat="34.718890387" lon="127.99237129"></trkpt>
    <trkpt lat="34.719129018" lon="127.992375205"></trkpt>
    <trkpt lat="34.71937414" lon="127.992386256"></trkpt>
    <trkpt lat="34.719658648" lon="127.99239008"></trkpt>
    <trkpt lat="34.719824323" lon="127.992355159"></trkpt>
    <trkpt lat="34.720015528" lon="127.992301394"></trkpt>
    <trkpt lat="34.720144468" lon="127.992243203"></trkpt>
    <trkpt lat="34.720250682" lon="127.992150544"></trkpt>
    <trkpt lat="34.72031767" lon="127.99203371"></trkpt>
    <trkpt lat="34.720370876" lon="127.991901131"></trkpt>
    <trkpt lat="34.720461444" lon="127.991678157"></trkpt>
    <trkpt lat="34.720500739" lon="127.991553879"></trkpt>
    <trkpt lat="34.720568624" lon="127.991390511"></trkpt>
    <trkpt lat="34.72063476" lon="127.991222856"></trkpt>
    <trkpt lat="34.720691505" lon="127.99107617"></trkpt>
    <trkpt lat="34.72077622" lon="127.99088847"></trkpt>
    <trkpt lat="34.720846108" lon="127.990710713"></trkpt>
    <trkpt lat="34.720907998" lon="127.990575975"></trkpt>
    <trkpt lat="34.720944289" lon="127.990434566"></trkpt>
    <trkpt lat="34.720971914" lon="127.990247176"></trkpt>
    <trkpt lat="34.720978259" lon="127.990086019"></trkpt>
    <trkpt lat="34.721001687" lon="127.98976995"></trkpt>
    <trkpt lat="34.721029024" lon="127.989455427"></trkpt>
    <trkpt lat="34.721065536" lon="127.989203802"></trkpt>
    <trkpt lat="34.721083153" lon="127.989034394"></trkpt>
    <trkpt lat="34.721100104" lon="127.988875438"></trkpt>
    <trkpt lat="34.721109722" lon="127.988700007"></trkpt>
    <trkpt lat="34.721107489" lon="127.988498036"></trkpt>
    <trkpt lat="34.721052542" lon="127.988180297"></trkpt>
    <trkpt lat="34.721000417" lon="127.98793462"></trkpt>
    <trkpt lat="34.720939479" lon="127.98770296"></trkpt>
    <trkpt lat="34.720872664" lon="127.987468205"></trkpt>
    <trkpt lat="34.720809653" lon="127.98731481"></trkpt>
    <trkpt lat="34.720698041" lon="127.987115657"></trkpt>
    <trkpt lat="34.720560609" lon="127.986891403"></trkpt>
    <trkpt lat="34.720437273" lon="127.986689326"></trkpt>
    <trkpt lat="34.720317503" lon="127.986491649"></trkpt>
    <trkpt lat="34.720197068" lon="127.986267815"></trkpt>
    <trkpt lat="34.720016126" lon="127.986030656"></trkpt>
    <trkpt lat="34.719847631" lon="127.985816902"></trkpt>
    <trkpt lat="34.7196997" lon="127.985643531"></trkpt>
    <trkpt lat="34.719544814" lon="127.985461589"></trkpt>
    <trkpt lat="34.719391426" lon="127.985335589"></trkpt>
    <trkpt lat="34.719272929" lon="127.985252113"></trkpt>
    <trkpt lat="34.719144765" lon="127.98518171"></trkpt>
    <trkpt lat="34.719033189" lon="127.985117721"></trkpt>
    <trkpt lat="34.718943971" lon="127.98509634"></trkpt>
    <trkpt lat="34.718942642" lon="127.985068401"></trkpt>
    <trkpt lat="34.718995484" lon="127.984874945"></trkpt>
    <trkpt lat="34.719057534" lon="127.984649699"></trkpt>
    <trkpt lat="34.719139367" lon="127.984361657"></trkpt>
    <trkpt lat="34.719215507" lon="127.984027822"></trkpt>
    <trkpt lat="34.719088887" lon="127.983965788"></trkpt>
    <trkpt lat="34.718958725" lon="127.983891704"></trkpt>
    <trkpt lat="34.71875909" lon="127.983778534"></trkpt>
    <trkpt lat="34.718560977" lon="127.983685155"></trkpt>
    <trkpt lat="34.718412966" lon="127.983644247"></trkpt>
    <trkpt lat="34.718225487" lon="127.983629432"></trkpt>
    <trkpt lat="34.71797293" lon="127.983608935"></trkpt>
    <trkpt lat="34.717667408" lon="127.983595986"></trkpt>
    <trkpt lat="34.717494541" lon="127.983630789"></trkpt>
    <trkpt lat="34.717343379" lon="127.983664378"></trkpt>
    <trkpt lat="34.717145184" lon="127.983713158"></trkpt>
    <trkpt lat="34.717083052" lon="127.983733783"></trkpt>
    <trkpt lat="34.716977381" lon="127.983744832"></trkpt>
    <trkpt lat="34.716914379" lon="127.983778351"></trkpt>
    <trkpt lat="34.716690364" lon="127.983885235"></trkpt>
    <trkpt lat="34.716484992" lon="127.983996556"></trkpt>
    <trkpt lat="34.716331425" lon="127.984089593"></trkpt>
    <trkpt lat="34.716178562" lon="127.984177463"></trkpt>
    <trkpt lat="34.716064619" lon="127.984324402"></trkpt>
    <trkpt lat="34.716008599" lon="127.98440018"></trkpt>
    <trkpt lat="34.715900859" lon="127.984499826"></trkpt>
    <trkpt lat="34.715770143" lon="127.984546922"></trkpt>
    <trkpt lat="34.715670838" lon="127.984556048"></trkpt>
    <trkpt lat="34.715594565" lon="127.984584095"></trkpt>
    <trkpt lat="34.715519927" lon="127.984650513"></trkpt>
    <trkpt lat="34.715441702" lon="127.984736375"></trkpt>
    <trkpt lat="34.715367965" lon="127.984815544"></trkpt>
    <trkpt lat="34.715285071" lon="127.98487081"></trkpt>
    <trkpt lat="34.715198153" lon="127.984886184"></trkpt>
    <trkpt lat="34.715050435" lon="127.984887214"></trkpt>
    <trkpt lat="34.7149679" lon="127.984857705"></trkpt>
    <trkpt lat="34.714907768" lon="127.984824804"></trkpt>
    <trkpt lat="34.714787288" lon="127.984752584"></trkpt>
    <trkpt lat="34.714658374" lon="127.984676595"></trkpt>
    <trkpt lat="34.714582077" lon="127.984618403"></trkpt>
    <trkpt lat="34.714502982" lon="127.984559336"></trkpt>
    <trkpt lat="34.71445187" lon="127.984526016"></trkpt>
    <trkpt lat="34.714389681" lon="127.984477032"></trkpt>
    <trkpt lat="34.714258412" lon="127.984415087"></trkpt>
    <trkpt lat="34.714109329" lon="127.984318817"></trkpt>
    <trkpt lat="34.714011392" lon="127.984235633"></trkpt>
    <trkpt lat="34.713907734" lon="127.984129797"></trkpt>
    <trkpt lat="34.713811795" lon="127.983998354"></trkpt>
    <trkpt lat="34.713713282" lon="127.983844417"></trkpt>
    <trkpt lat="34.713617593" lon="127.983678749"></trkpt>
    <trkpt lat="34.71343906" lon="127.983329435"></trkpt>
    <trkpt lat="34.713253539" lon="127.982968946"></trkpt>
    <trkpt lat="34.713144174" lon="127.982734894"></trkpt>
    <trkpt lat="34.713038726" lon="127.982503574"></trkpt>
    <trkpt lat="34.712944958" lon="127.982301313"></trkpt>
    <trkpt lat="34.712869129" lon="127.982136101"></trkpt>
    <trkpt lat="34.712766747" lon="127.981823091"></trkpt>
    <trkpt lat="34.712704616" lon="127.981610928"></trkpt>
    <trkpt lat="34.712660442" lon="127.981394366"></trkpt>
    <trkpt lat="34.712620184" lon="127.981218923"></trkpt>
    <trkpt lat="34.712578662" lon="127.981047691"></trkpt>
    <trkpt lat="34.712539035" lon="127.980752608"></trkpt>
    <trkpt lat="34.712513238" lon="127.980376599"></trkpt>
    <trkpt lat="34.712501185" lon="127.980034159"></trkpt>
    <trkpt lat="34.712488694" lon="127.979694705"></trkpt>
    <trkpt lat="34.712494331" lon="127.979386628"></trkpt>
    <trkpt lat="34.712510451" lon="127.979212412"></trkpt>
    <trkpt lat="34.712538821" lon="127.978972944"></trkpt>
    <trkpt lat="34.712568764" lon="127.978818975"></trkpt>
    <trkpt lat="34.712582965" lon="127.978713167"></trkpt>
    <trkpt lat="34.712574564" lon="127.978576945"></trkpt>
    <trkpt lat="34.712537956" lon="127.978465422"></trkpt>
    <trkpt lat="34.712498243" lon="127.978386693"></trkpt>
    <trkpt lat="34.712443894" lon="127.978331882"></trkpt>
    <trkpt lat="34.712365054" lon="127.978286438"></trkpt>
    <trkpt lat="34.712277978" lon="127.978213283"></trkpt>
    <trkpt lat="34.712261251" lon="127.978121686"></trkpt>
    <trkpt lat="34.712269727" lon="127.978007955"></trkpt>
    <trkpt lat="34.712293434" lon="127.977881559"></trkpt>
    <trkpt lat="34.712327952" lon="127.977827762"></trkpt>
    <trkpt lat="34.712334432" lon="127.97775897"></trkpt>
    <trkpt lat="34.712336052" lon="127.977692941"></trkpt>
    <trkpt lat="34.712302028" lon="127.977607733"></trkpt>
    <trkpt lat="34.712284508" lon="127.977551068"></trkpt>
    <trkpt lat="34.712264426" lon="127.977435604"></trkpt>
    <trkpt lat="34.712264002" lon="127.977273844"></trkpt>
    <trkpt lat="34.712278093" lon="127.977106852"></trkpt>
    <trkpt lat="34.712317123" lon="127.976926968"></trkpt>
    <trkpt lat="34.712399297" lon="127.976773227"></trkpt>
    <trkpt lat="34.712491025" lon="127.976638071"></trkpt>
    <trkpt lat="34.712539413" lon="127.976547382"></trkpt>
    <trkpt lat="34.712564944" lon="127.976498128"></trkpt>
    <trkpt lat="34.712619018" lon="127.97642257"></trkpt>
    <trkpt lat="34.712591735" lon="127.976322032"></trkpt>
    <trkpt lat="34.712548984" lon="127.976247878"></trkpt>
    <trkpt lat="34.712440424" lon="127.976180472"></trkpt>
    <trkpt lat="34.712368463" lon="127.976153796"></trkpt>
    <trkpt lat="34.712270912" lon="127.976177532"></trkpt>
    <trkpt lat="34.71224488" lon="127.976202574"></trkpt>
    <trkpt lat="34.712186539" lon="127.97622651"></trkpt>
    <trkpt lat="34.712084811" lon="127.976276996"></trkpt>
    <trkpt lat="34.71201509" lon="127.976264946"></trkpt>
    <trkpt lat="34.711954697" lon="127.976304687"></trkpt>
    <trkpt lat="34.711917896" lon="127.976405206"></trkpt>
    <trkpt lat="34.711867485" lon="127.976446513"></trkpt>
    <trkpt lat="34.711818642" lon="127.97640062"></trkpt>
    <trkpt lat="34.711752803" lon="127.976286967"></trkpt>
    <trkpt lat="34.711701545" lon="127.976191168"></trkpt>
    <trkpt lat="34.711675437" lon="127.976084757"></trkpt>
    <trkpt lat="34.711664165" lon="127.97602777"></trkpt>
    <trkpt lat="34.711668848" lon="127.975981864"></trkpt>
    <trkpt lat="34.711680715" lon="127.975806105"></trkpt>
    <trkpt lat="34.711716434" lon="127.975629233"></trkpt>
    <trkpt lat="34.711749669" lon="127.975438674"></trkpt>
    <trkpt lat="34.711777069" lon="127.975284873"></trkpt>
    <trkpt lat="34.711814958" lon="127.975158832"></trkpt>
    <trkpt lat="34.711848576" lon="127.975002201"></trkpt>
    <trkpt lat="34.711880922" lon="127.974905712"></trkpt>
    <trkpt lat="34.71191048" lon="127.974802681"></trkpt>
    <trkpt lat="34.711945644" lon="127.974743861"></trkpt>
    <trkpt lat="34.711903541" lon="127.974689472"></trkpt>
    <trkpt lat="34.711876511" lon="127.974626754"></trkpt>
    <trkpt lat="34.711840421" lon="127.974538677"></trkpt>
    <trkpt lat="34.711794983" lon="127.974447899"></trkpt>
    <trkpt lat="34.711759232" lon="127.974338523"></trkpt>
    <trkpt lat="34.711714658" lon="127.974242906"></trkpt>
    <trkpt lat="34.711699582" lon="127.974181182"></trkpt>
    <trkpt lat="34.711700935" lon="127.974122143"></trkpt>
    <trkpt lat="34.711733165" lon="127.974079327"></trkpt>
    <trkpt lat="34.711785831" lon="127.97406441"></trkpt>
    <trkpt lat="34.711847459" lon="127.974093322"></trkpt>
    <trkpt lat="34.71185116" lon="127.97409395"></trkpt>
    <trkpt lat="34.711922169" lon="127.974125171"></trkpt>
    <trkpt lat="34.711931009" lon="127.974128462"></trkpt>
    <trkpt lat="34.712002289" lon="127.974160627"></trkpt>
    <trkpt lat="34.712074641" lon="127.974204189"></trkpt>
    <trkpt lat="34.712077977" lon="127.974206396"></trkpt>
    <trkpt lat="34.712150884" lon="127.974243951"></trkpt>
    <trkpt lat="34.71219051" lon="127.974232247"></trkpt>
    <trkpt lat="34.712233614" lon="127.974227571"></trkpt>
    <trkpt lat="34.712296557" lon="127.974165173"></trkpt>
    <trkpt lat="34.712343812" lon="127.974092409"></trkpt>
    <trkpt lat="34.712390474" lon="127.974020956"></trkpt>
    <trkpt lat="34.712428264" lon="127.973946728"></trkpt>
    <trkpt lat="34.712444938" lon="127.973897849"></trkpt>
    <trkpt lat="34.712456209" lon="127.973832136"></trkpt>
    <trkpt lat="34.712485945" lon="127.973750802"></trkpt>
    <trkpt lat="34.712511547" lon="127.973617819"></trkpt>
    <trkpt lat="34.712556903" lon="127.973495273"></trkpt>
    <trkpt lat="34.712569839" lon="127.973438285"></trkpt>
    <trkpt lat="34.712585768" lon="127.973327082"></trkpt>
    <trkpt lat="34.712587356" lon="127.973248998"></trkpt>
    <trkpt lat="34.712604213" lon="127.973112383"></trkpt>
    <trkpt lat="34.712615033" lon="127.973030932"></trkpt>
    <trkpt lat="34.712627836" lon="127.97293798"></trkpt>
    <trkpt lat="34.712660876" lon="127.972823901"></trkpt>
    <trkpt lat="34.712700805" lon="127.97273019"></trkpt>
    <trkpt lat="34.712714981" lon="127.972680576"></trkpt>
    <trkpt lat="34.71274782" lon="127.972667842"></trkpt>
    <trkpt lat="34.712769163" lon="127.972601982"></trkpt>
    <trkpt lat="34.712777695" lon="127.972545024"></trkpt>
    <trkpt lat="34.712793278" lon="127.972498357"></trkpt>
    <trkpt lat="34.712771871" lon="127.972381485"></trkpt>
    <trkpt lat="34.712743084" lon="127.972285087"></trkpt>
    <trkpt lat="34.712717854" lon="127.972215108"></trkpt>
    <trkpt lat="34.712712694" lon="127.972127629"></trkpt>
    <trkpt lat="34.712716136" lon="127.972016596"></trkpt>
    <trkpt lat="34.712728197" lon="127.9719779"></trkpt>
    <trkpt lat="34.712746868" lon="127.971929797"></trkpt>
    <trkpt lat="34.712776678" lon="127.97191007"></trkpt>
    <trkpt lat="34.71280308" lon="127.971894702"></trkpt>
    <trkpt lat="34.712827788" lon="127.971894117"></trkpt>
    <trkpt lat="34.712958515" lon="127.97189314"></trkpt>
    <trkpt lat="34.713032412" lon="127.971878628"></trkpt>
    <trkpt lat="34.713133874" lon="127.97184822"></trkpt>
    <trkpt lat="34.713264286" lon="127.971810038"></trkpt>
    <trkpt lat="34.713414881" lon="127.97169383"></trkpt>
    <trkpt lat="34.713526713" lon="127.971611113"></trkpt>
    <trkpt lat="34.713602763" lon="127.971518912"></trkpt>
    <trkpt lat="34.713689869" lon="127.971416748"></trkpt>
    <trkpt lat="34.713786162" lon="127.971337702"></trkpt>
    <trkpt lat="34.713828447" lon="127.971230834"></trkpt>
    <trkpt lat="34.713841521" lon="127.971142677"></trkpt>
    <trkpt lat="34.713908825" lon="127.971029885"></trkpt>
    <trkpt lat="34.713952884" lon="127.970963134"></trkpt>
    <trkpt lat="34.714016171" lon="127.970922781"></trkpt>
    <trkpt lat="34.714063408" lon="127.970892256"></trkpt>
    <trkpt lat="34.714086414" lon="127.970881696"></trkpt>
    <trkpt lat="34.714114409" lon="127.97087806"></trkpt>
    <trkpt lat="34.714165003" lon="127.970728643"></trkpt>
    <trkpt lat="34.714183704" lon="127.970650707"></trkpt>
    <trkpt lat="34.714199187" lon="127.970535075"></trkpt>
    <trkpt lat="34.714210812" lon="127.970471133"></trkpt>
    <trkpt lat="34.714209435" lon="127.970400509"></trkpt>
    <trkpt lat="34.714193182" lon="127.970333714"></trkpt>
    <trkpt lat="34.714163954" lon="127.970283621"></trkpt>
    <trkpt lat="34.714145038" lon="127.97026752"></trkpt>
    <trkpt lat="34.714120263" lon="127.970169608"></trkpt>
    <trkpt lat="34.714094819" lon="127.970077363"></trkpt>
    <trkpt lat="34.71407298" lon="127.970017767"></trkpt>
    <trkpt lat="34.714070283" lon="127.969938731"></trkpt>
    <trkpt lat="34.714072109" lon="127.969864319"></trkpt>
    <trkpt lat="34.71406662" lon="127.969772161"></trkpt>
    <trkpt lat="34.714064788" lon="127.969720358"></trkpt>
    <trkpt lat="34.714075756" lon="127.969652637"></trkpt>
    <trkpt lat="34.714070274" lon="127.969557993"></trkpt>
    <trkpt lat="34.714051929" lon="127.969469261"></trkpt>
    <trkpt lat="34.714076392" lon="127.969342867"></trkpt>
    <trkpt lat="34.714116905" lon="127.969253987"></trkpt>
    <trkpt lat="34.714108248" lon="127.969132896"></trkpt>
    <trkpt lat="34.714079462" lon="127.969028553"></trkpt>
    <trkpt lat="34.714046797" lon="127.968906796"></trkpt>
    <trkpt lat="34.714014685" lon="127.968799985"></trkpt>
    <trkpt lat="34.713963989" lon="127.968636699"></trkpt>
    <trkpt lat="34.713928445" lon="127.96851617"></trkpt>
    <trkpt lat="34.713892232" lon="127.968375434"></trkpt>
    <trkpt lat="34.713876925" lon="127.968274123"></trkpt>
    <trkpt lat="34.713877324" lon="127.968131474"></trkpt>
    <trkpt lat="34.713918403" lon="127.968006819"></trkpt>
    <trkpt lat="34.713993459" lon="127.967886222"></trkpt>
    <trkpt lat="34.714034202" lon="127.967817159"></trkpt>
    <trkpt lat="34.714043491" lon="127.967764198"></trkpt>
    <trkpt lat="34.713988449" lon="127.967708266"></trkpt>
    <trkpt lat="34.713871184" lon="127.967588044"></trkpt>
    <trkpt lat="34.713815117" lon="127.9674726"></trkpt>
    <trkpt lat="34.713745243" lon="127.96728576"></trkpt>
    <trkpt lat="34.713679704" lon="127.967109835"></trkpt>
    <trkpt lat="34.713650386" lon="127.967027846"></trkpt>
    <trkpt lat="34.713600884" lon="127.966921061"></trkpt>
    <trkpt lat="34.71352008" lon="127.96681572"></trkpt>
    <trkpt lat="34.713422066" lon="127.966684579"></trkpt>
    <trkpt lat="34.71335029" lon="127.966613837"></trkpt>
    <trkpt lat="34.713247954" lon="127.966528642"></trkpt>
    <trkpt lat="34.713189083" lon="127.966457063"></trkpt>
    <trkpt lat="34.713134827" lon="127.966325263"></trkpt>
    <trkpt lat="34.713094815" lon="127.96622057"></trkpt>
    <trkpt lat="34.713034606" lon="127.966100923"></trkpt>
    <trkpt lat="34.712991281" lon="127.96599237"></trkpt>
    <trkpt lat="34.712972607" lon="127.96591265"></trkpt>
    <trkpt lat="34.712985537" lon="127.965827882"></trkpt>
    <trkpt lat="34.713019386" lon="127.965746119"></trkpt>
    <trkpt lat="34.713077293" lon="127.965710096"></trkpt>
    <trkpt lat="34.713169171" lon="127.965712229"></trkpt>
    <trkpt lat="34.713234623" lon="127.965683793"></trkpt>
    <trkpt lat="34.713335406" lon="127.965623934"></trkpt>
    <trkpt lat="34.713475568" lon="127.965523044"></trkpt>
    <trkpt lat="34.713547235" lon="127.965459887"></trkpt>
    <trkpt lat="34.71362988" lon="127.965391715"></trkpt>
    <trkpt lat="34.713717912" lon="127.965294315"></trkpt>
    <trkpt lat="34.713819969" lon="127.965173408"></trkpt>
    <trkpt lat="34.713874756" lon="127.965073451"></trkpt>
    <trkpt lat="34.713920441" lon="127.964952472"></trkpt>
    <trkpt lat="34.713945268" lon="127.964828323"></trkpt>
    <trkpt lat="34.713944408" lon="127.964705877"></trkpt>
    <trkpt lat="34.713940604" lon="127.964626818"></trkpt>
    <trkpt lat="34.713974464" lon="127.964522582"></trkpt>
    <trkpt lat="34.71400538" lon="127.964422045"></trkpt>
    <trkpt lat="34.714047483" lon="127.964261258"></trkpt>
    <trkpt lat="34.714063922" lon="127.964149369"></trkpt>
    <trkpt lat="34.714113498" lon="127.964003146"></trkpt>
    <trkpt lat="34.714153913" lon="127.963911399"></trkpt>
    <trkpt lat="34.714213255" lon="127.963736881"></trkpt>
    <trkpt lat="34.714257679" lon="127.963614986"></trkpt>
    <trkpt lat="34.714284665" lon="127.963525314"></trkpt>
    <trkpt lat="34.714319808" lon="127.963448925"></trkpt>
    <trkpt lat="34.714351022" lon="127.963417446"></trkpt>
    <trkpt lat="34.714387994" lon="127.963389136"></trkpt>
    <trkpt lat="34.71447523" lon="127.963347485"></trkpt>
    <trkpt lat="34.714574924" lon="127.96327896"></trkpt>
    <trkpt lat="34.71463967" lon="127.963182387"></trkpt>
    <trkpt lat="34.714679847" lon="127.963111649"></trkpt>
    <trkpt lat="34.714715971" lon="127.963081466"></trkpt>
    <trkpt lat="34.714780392" lon="127.96309319"></trkpt>
    <trkpt lat="34.71483058" lon="127.963093096"></trkpt>
    <trkpt lat="34.714872546" lon="127.963075292"></trkpt>
    <trkpt lat="34.714897509" lon="127.962993929"></trkpt>
    <trkpt lat="34.714915101" lon="127.962923527"></trkpt>
    <trkpt lat="34.714963041" lon="127.962804134"></trkpt>
    <trkpt lat="34.714994927" lon="127.962713656"></trkpt>
    <trkpt lat="34.715026962" lon="127.962663107"></trkpt>
    <trkpt lat="34.715113905" lon="127.962615848"></trkpt>
    <trkpt lat="34.715225772" lon="127.96258041"></trkpt>
    <trkpt lat="34.715352262" lon="127.962538702"></trkpt>
    <trkpt lat="34.715434575" lon="127.962483527"></trkpt>
    <trkpt lat="34.715507087" lon="127.962446575"></trkpt>
    <trkpt lat="34.715630308" lon="127.962399881"></trkpt>
    <trkpt lat="34.715719639" lon="127.962338496"></trkpt>
    <trkpt lat="34.715771351" lon="127.962277451"></trkpt>
    <trkpt lat="34.715801791" lon="127.962223561"></trkpt>
    <trkpt lat="34.715881727" lon="127.962083297"></trkpt>
    <trkpt lat="34.715970633" lon="127.961935016"></trkpt>
    <trkpt lat="34.71602761" lon="127.961910953"></trkpt>
    <trkpt lat="34.716102284" lon="127.961927543"></trkpt>
    <trkpt lat="34.716230387" lon="127.961974296"></trkpt>
    <trkpt lat="34.716368073" lon="127.962028901"></trkpt>
    <trkpt lat="34.716404403" lon="127.962000682"></trkpt>
    <trkpt lat="34.716466371" lon="127.961857945"></trkpt>
    <trkpt lat="34.716536088" lon="127.961723816"></trkpt>
    <trkpt lat="34.716598764" lon="127.961596565"></trkpt>
    <trkpt lat="34.716671076" lon="127.961490705"></trkpt>
    <trkpt lat="34.716717932" lon="127.961439425"></trkpt>
    <trkpt lat="34.716705419" lon="127.961372509"></trkpt>
    <trkpt lat="34.716675599" lon="127.961235944"></trkpt>
    <trkpt lat="34.716708043" lon="127.961160114"></trkpt>
    <trkpt lat="34.716708183" lon="127.961023839"></trkpt>
    <trkpt lat="34.716705832" lon="127.960884339"></trkpt>
    <trkpt lat="34.716695761" lon="127.960764878"></trkpt>
    <trkpt lat="34.716708296" lon="127.960697369"></trkpt>
    <trkpt lat="34.716733606" lon="127.960627616"></trkpt>
    <trkpt lat="34.7167111" lon="127.960468778"></trkpt>
    <trkpt lat="34.716711081" lon="127.960358339"></trkpt>
    <trkpt lat="34.716718705" lon="127.96026029"></trkpt>
    <trkpt lat="34.716734174" lon="127.960125308"></trkpt>
    <trkpt lat="34.716751967" lon="127.960023756"></trkpt>
    <trkpt lat="34.716751849" lon="127.959860882"></trkpt>
    <trkpt lat="34.716744296" lon="127.959743967"></trkpt>
    <trkpt lat="34.716731654" lon="127.959636357"></trkpt>
    <trkpt lat="34.716744268" lon="127.959519598"></trkpt>
    <trkpt lat="34.716840648" lon="127.959360278"></trkpt>
    <trkpt lat="34.716873707" lon="127.959268283"></trkpt>
    <trkpt lat="34.716827816" lon="127.959168934"></trkpt>
    <trkpt lat="34.716756686" lon="127.959118689"></trkpt>
    <trkpt lat="34.71668349" lon="127.959075613"></trkpt>
    <trkpt lat="34.716658281" lon="127.959029704"></trkpt>
    <trkpt lat="34.716716428" lon="127.958814891"></trkpt>
    <trkpt lat="34.716792729" lon="127.95865518"></trkpt>
    <trkpt lat="34.716851591" lon="127.95858113"></trkpt>
    <trkpt lat="34.716890094" lon="127.958537785"></trkpt>
    <trkpt lat="34.716913022" lon="127.958497552"></trkpt>
    <trkpt lat="34.717045234" lon="127.95859659"></trkpt>
    <trkpt lat="34.717164527" lon="127.958689281"></trkpt>
    <trkpt lat="34.717230577" lon="127.958785122"></trkpt>
    <trkpt lat="34.717306855" lon="127.958843941"></trkpt>
    <trkpt lat="34.717423949" lon="127.958887419"></trkpt>
    <trkpt lat="34.71749271" lon="127.958933925"></trkpt>
    <trkpt lat="34.717574198" lon="127.959026865"></trkpt>
    <trkpt lat="34.717587035" lon="127.959082709"></trkpt>
    <trkpt lat="34.717579556" lon="127.959181993"></trkpt>
    <trkpt lat="34.717510296" lon="127.959323498"></trkpt>
    <trkpt lat="34.717436186" lon="127.959517233"></trkpt>
    <trkpt lat="34.717370664" lon="127.959691894"></trkpt>
    <trkpt lat="34.71732124" lon="127.959889931"></trkpt>
    <trkpt lat="34.717314621" lon="127.96000113"></trkpt>
    <trkpt lat="34.717396738" lon="127.960106"></trkpt>
    <trkpt lat="34.7175048" lon="127.960134121"></trkpt>
    <trkpt lat="34.717644962" lon="127.96013735"></trkpt>
    <trkpt lat="34.717725159" lon="127.960119943"></trkpt>
    <trkpt lat="34.717784895" lon="127.960072134"></trkpt>
    <trkpt lat="34.717828653" lon="127.95999881"></trkpt>
    <trkpt lat="34.71786079" lon="127.959922541"></trkpt>
    <trkpt lat="34.717887794" lon="127.959778996"></trkpt>
    <trkpt lat="34.7178973" lon="127.959644903"></trkpt>
    <trkpt lat="34.717914692" lon="127.959493143"></trkpt>
    <trkpt lat="34.71795606" lon="127.959293745"></trkpt>
    <trkpt lat="34.71797683" lon="127.959189628"></trkpt>
    <trkpt lat="34.718018658" lon="127.959092417"></trkpt>
    <trkpt lat="34.718111302" lon="127.959038255"></trkpt>
    <trkpt lat="34.71819758" lon="127.958977793"></trkpt>
    <trkpt lat="34.718329605" lon="127.958945757"></trkpt>
    <trkpt lat="34.718422929" lon="127.958914896"></trkpt>
    <trkpt lat="34.718503408" lon="127.958856754"></trkpt>
    <trkpt lat="34.718621856" lon="127.958746185"></trkpt>
    <trkpt lat="34.718749577" lon="127.958628396"></trkpt>
    <trkpt lat="34.718868746" lon="127.958511843"></trkpt>
    <trkpt lat="34.719004385" lon="127.958347554"></trkpt>
    <trkpt lat="34.719123725" lon="127.958230528"></trkpt>
    <trkpt lat="34.719258701" lon="127.958179589"></trkpt>
    <trkpt lat="34.719338227" lon="127.958111506"></trkpt>
    <trkpt lat="34.719469049" lon="127.958010638"></trkpt>
    <trkpt lat="34.719617287" lon="127.957946651"></trkpt>
    <trkpt lat="34.719878793" lon="127.957895964"></trkpt>
    <trkpt lat="34.720125977" lon="127.957884985"></trkpt>
    <trkpt lat="34.720330786" lon="127.957864593"></trkpt>
    <trkpt lat="34.720566148" lon="127.95783302"></trkpt>
    <trkpt lat="34.720752417" lon="127.95776006"></trkpt>
    <trkpt lat="34.720849169" lon="127.957728072"></trkpt>
    <trkpt lat="34.720904673" lon="127.957694248"></trkpt>
    <trkpt lat="34.720893141" lon="127.957566558"></trkpt>
    <trkpt lat="34.720911507" lon="127.957483798"></trkpt>
    <trkpt lat="34.720917803" lon="127.957394213"></trkpt>
    <trkpt lat="34.720938684" lon="127.957233158"></trkpt>
    <trkpt lat="34.720968897" lon="127.957166913"></trkpt>
    <trkpt lat="34.721026662" lon="127.957138711"></trkpt>
    <trkpt lat="34.72115546" lon="127.957118888"></trkpt>
    <trkpt lat="34.72121442" lon="127.957153819"></trkpt>
    <trkpt lat="34.72127827" lon="127.957186898"></trkpt>
    <trkpt lat="34.721362853" lon="127.957295656"></trkpt>
    <trkpt lat="34.721385238" lon="127.957454982"></trkpt>
    <trkpt lat="34.721399475" lon="127.957552198"></trkpt>
    <trkpt lat="34.721423265" lon="127.957648812"></trkpt>
    <trkpt lat="34.721490591" lon="127.957740467"></trkpt>
    <trkpt lat="34.721662037" lon="127.957889445"></trkpt>
    <trkpt lat="34.721771316" lon="127.957953648"></trkpt>
    <trkpt lat="34.721885213" lon="127.958030514"></trkpt>
    <trkpt lat="34.722068422" lon="127.957995035"></trkpt>
    <trkpt lat="34.722228433" lon="127.957967162"></trkpt>
    <trkpt lat="34.722415754" lon="127.957925571"></trkpt>
    <trkpt lat="34.722476742" lon="127.957857547"></trkpt>
    <trkpt lat="34.722478857" lon="127.957852376"></trkpt>
    <trkpt lat="34.722513365" lon="127.957714251"></trkpt>
    <trkpt lat="34.722691358" lon="127.957601937"></trkpt>
    <trkpt lat="34.722871752" lon="127.957518061"></trkpt>
    <trkpt lat="34.72299119" lon="127.957442523"></trkpt>
    <trkpt lat="34.723140758" lon="127.957455419"></trkpt>
    <trkpt lat="34.723270272" lon="127.957517923"></trkpt>
    <trkpt lat="34.723352321" lon="127.957626056"></trkpt>
    <trkpt lat="34.7234911" lon="127.957862227"></trkpt>
    <trkpt lat="34.723641804" lon="127.958034911"></trkpt>
    <trkpt lat="34.723795713" lon="127.95823918"></trkpt>
    <trkpt lat="34.723884923" lon="127.958393952"></trkpt>
    <trkpt lat="34.723954748" lon="127.958619686"></trkpt>
    <trkpt lat="34.723995194" lon="127.958920874"></trkpt>
    <trkpt lat="34.724009417" lon="127.959012773"></trkpt>
    <trkpt lat="34.724040367" lon="127.958985519"></trkpt>
    <trkpt lat="34.724109615" lon="127.958853689"></trkpt>
    <trkpt lat="34.724159901" lon="127.958713569"></trkpt>
    <trkpt lat="34.724178385" lon="127.958612914"></trkpt>
    <trkpt lat="34.72420599" lon="127.958474259"></trkpt>
    <trkpt lat="34.724206997" lon="127.958391779"></trkpt>
    <trkpt lat="34.724180621" lon="127.958254991"></trkpt>
    <trkpt lat="34.724152585" lon="127.958159213"></trkpt>
    <trkpt lat="34.724117764" lon="127.958109169"></trkpt>
    <trkpt lat="34.724088643" lon="127.958022101"></trkpt>
    <trkpt lat="34.724026371" lon="127.957855325"></trkpt>
    <trkpt lat="34.72399142" lon="127.957735736"></trkpt>
    <trkpt lat="34.723984768" lon="127.957634148"></trkpt>
    <trkpt lat="34.723969045" lon="127.957480424"></trkpt>
    <trkpt lat="34.723914802" lon="127.95735621"></trkpt>
    <trkpt lat="34.723889603" lon="127.957282687"></trkpt>
    <trkpt lat="34.723835011" lon="127.957075818"></trkpt>
    <trkpt lat="34.723800114" lon="127.956973653"></trkpt>
    <trkpt lat="34.723743646" lon="127.956762188"></trkpt>
    <trkpt lat="34.723690183" lon="127.9565141"></trkpt>
    <trkpt lat="34.723662761" lon="127.956297679"></trkpt>
    <trkpt lat="34.723649067" lon="127.956066218"></trkpt>
    <trkpt lat="34.72364147" lon="127.955923794"></trkpt>
    <trkpt lat="34.723661172" lon="127.955749104"></trkpt>
    <trkpt lat="34.723680695" lon="127.955643673"></trkpt>
    <trkpt lat="34.72372361" lon="127.955488375"></trkpt>
    <trkpt lat="34.723782848" lon="127.955365463"></trkpt>
    <trkpt lat="34.723857495" lon="127.955249943"></trkpt>
    <trkpt lat="34.723939995" lon="127.955148852"></trkpt>
    <trkpt lat="34.724036097" lon="127.955074556"></trkpt>
    <trkpt lat="34.724142972" lon="127.955041197"></trkpt>
    <trkpt lat="34.724234573" lon="127.955001979"></trkpt>
    <trkpt lat="34.724303936" lon="127.954947581"></trkpt>
    <trkpt lat="34.724360643" lon="127.954855761"></trkpt>
    <trkpt lat="34.724402973" lon="127.954776601"></trkpt>
    <trkpt lat="34.724494771" lon="127.954582749"></trkpt>
    <trkpt lat="34.724528659" lon="127.954453678"></trkpt>
    <trkpt lat="34.72456432" lon="127.954322067"></trkpt>
    <trkpt lat="34.724618133" lon="127.954194337"></trkpt>
    <trkpt lat="34.724667057" lon="127.954097295"></trkpt>
    <trkpt lat="34.724731622" lon="127.953998203"></trkpt>
    <trkpt lat="34.724930466" lon="127.953709642"></trkpt>
    <trkpt lat="34.725097161" lon="127.953465413"></trkpt>
    <trkpt lat="34.72518232" lon="127.95338764"></trkpt>
    <trkpt lat="34.725396131" lon="127.953312308"></trkpt>
    <trkpt lat="34.72553194" lon="127.953267806"></trkpt>
    <trkpt lat="34.725649292" lon="127.953236077"></trkpt>
    <trkpt lat="34.725741046" lon="127.953219985"></trkpt>
    <trkpt lat="34.725836589" lon="127.95324598"></trkpt>
    <trkpt lat="34.725879432" lon="127.953302116"></trkpt>
    <trkpt lat="34.725912963" lon="127.953368356"></trkpt>
    <trkpt lat="34.726017499" lon="127.953546351"></trkpt>
    <trkpt lat="34.726117991" lon="127.953730456"></trkpt>
    <trkpt lat="34.726233606" lon="127.953916797"></trkpt>
    <trkpt lat="34.726341203" lon="127.954037723"></trkpt>
    <trkpt lat="34.726430017" lon="127.954088389"></trkpt>
    <trkpt lat="34.726526064" lon="127.954086107"></trkpt>
    <trkpt lat="34.726595014" lon="127.954066772"></trkpt>
    <trkpt lat="34.726743308" lon="127.954014268"></trkpt>
    <trkpt lat="34.726851211" lon="127.9539766"></trkpt>
    <trkpt lat="34.727005074" lon="127.953965623"></trkpt>
    <trkpt lat="34.727099063" lon="127.95397727"></trkpt>
    <trkpt lat="34.727216143" lon="127.954058446"></trkpt>
    <trkpt lat="34.727290718" lon="127.954185871"></trkpt>
    <trkpt lat="34.727366812" lon="127.954306255"></trkpt>
    <trkpt lat="34.727454673" lon="127.95437505"></trkpt>
    <trkpt lat="34.72754095" lon="127.954424066"></trkpt>
    <trkpt lat="34.72767756" lon="127.95445003"></trkpt>
    <trkpt lat="34.727793374" lon="127.954439915"></trkpt>
    <trkpt lat="34.727937967" lon="127.954439307"></trkpt>
    <trkpt lat="34.728055454" lon="127.954429793"></trkpt>
    <trkpt lat="34.728279049" lon="127.954430471"></trkpt>
    <trkpt lat="34.728394002" lon="127.95446102"></trkpt>
    <trkpt lat="34.728490356" lon="127.954530501"></trkpt>
    <trkpt lat="34.728619386" lon="127.954645365"></trkpt>
    <trkpt lat="34.728697059" lon="127.954738176"></trkpt>
    <trkpt lat="34.728763996" lon="127.954824875"></trkpt>
    <trkpt lat="34.728841511" lon="127.954913887"></trkpt>
    <trkpt lat="34.728929804" lon="127.955014222"></trkpt>
    <trkpt lat="34.728984683" lon="127.955048101"></trkpt>
    <trkpt lat="34.728972411" lon="127.955013948"></trkpt>
    <trkpt lat="34.728898726" lon="127.954907974"></trkpt>
    <trkpt lat="34.728822528" lon="127.954749594"></trkpt>
    <trkpt lat="34.728836599" lon="127.954668516"></trkpt>
    <trkpt lat="34.728868264" lon="127.954603202"></trkpt>
    <trkpt lat="34.728897027" lon="127.954493384"></trkpt>
    <trkpt lat="34.728923408" lon="127.954403136"></trkpt>
    <trkpt lat="34.72893401" lon="127.954282962"></trkpt>
    <trkpt lat="34.728939945" lon="127.954173746"></trkpt>
    <trkpt lat="34.728936047" lon="127.954053728"></trkpt>
    <trkpt lat="34.728999404" lon="127.953977171"></trkpt>
    <trkpt lat="34.729020075" lon="127.953854737"></trkpt>
    <trkpt lat="34.729039701" lon="127.953706296"></trkpt>
    <trkpt lat="34.729052714" lon="127.953573806"></trkpt>
    <trkpt lat="34.729092136" lon="127.953497552"></trkpt>
    <trkpt lat="34.72918001" lon="127.953457049"></trkpt>
    <trkpt lat="34.72926284" lon="127.953433396"></trkpt>
    <trkpt lat="34.729305707" lon="127.95346382"></trkpt>
    <trkpt lat="34.729482343" lon="127.953624161"></trkpt>
    <trkpt lat="34.729599929" lon="127.953691404"></trkpt>
    <trkpt lat="34.729685629" lon="127.953764852"></trkpt>
    <trkpt lat="34.729783272" lon="127.953874221"></trkpt>
    <trkpt lat="34.729881933" lon="127.953987148"></trkpt>
    <trkpt lat="34.72998239" lon="127.954070625"></trkpt>
    <trkpt lat="34.73016851" lon="127.954174715"></trkpt>
    <trkpt lat="34.730330057" lon="127.954240824"></trkpt>
    <trkpt lat="34.730483507" lon="127.954328855"></trkpt>
    <trkpt lat="34.730650517" lon="127.954447733"></trkpt>
    <trkpt lat="34.730788395" lon="127.954542378"></trkpt>
    <trkpt lat="34.730915285" lon="127.954600221"></trkpt>
    <trkpt lat="34.731059599" lon="127.954653679"></trkpt>
    <trkpt lat="34.731178991" lon="127.954700618"></trkpt>
    <trkpt lat="34.731277039" lon="127.954596577"></trkpt>
    <trkpt lat="34.73142531" lon="127.954445052"></trkpt>
    <trkpt lat="34.73164012" lon="127.95424906"></trkpt>
    <trkpt lat="34.731816433" lon="127.954067201"></trkpt>
    <trkpt lat="34.731964921" lon="127.953908218"></trkpt>
    <trkpt lat="34.732145425" lon="127.953687845"></trkpt>
    <trkpt lat="34.731956649" lon="127.953452788"></trkpt>
    <trkpt lat="34.731910699" lon="127.953361215"></trkpt>
    <trkpt lat="34.731900965" lon="127.953295273"></trkpt>
    <trkpt lat="34.731900965" lon="127.953293586"></trkpt>
    <trkpt lat="34.732015258" lon="127.953226311"></trkpt>
    <trkpt lat="34.732038433" lon="127.953199595"></trkpt>
    <trkpt lat="34.732054737" lon="127.953179614"></trkpt>
    <trkpt lat="34.732051544" lon="127.95310322"></trkpt>
    <trkpt lat="34.732053471" lon="127.953034459"></trkpt>
    <trkpt lat="34.732039363" lon="127.95297571"></trkpt>
    <trkpt lat="34.732000288" lon="127.952922871"></trkpt>
    <trkpt lat="34.731965125" lon="127.952886469"></trkpt>
    <trkpt lat="34.731956541" lon="127.952850729"></trkpt>
    <trkpt lat="34.731952121" lon="127.952759949"></trkpt>
    <trkpt lat="34.731951813" lon="127.952605613"></trkpt>
    <trkpt lat="34.731929016" lon="127.952517628"></trkpt>
    <trkpt lat="34.731869868" lon="127.95235229"></trkpt>
    <trkpt lat="34.731827808" lon="127.952249995"></trkpt>
    <trkpt lat="34.731714078" lon="127.952176251"></trkpt>
    <trkpt lat="34.731566268" lon="127.952060801"></trkpt>
    <trkpt lat="34.731471921" lon="127.951940354"></trkpt>
    <trkpt lat="34.731444039" lon="127.951882338"></trkpt>
    <trkpt lat="34.731385905" lon="127.951807546"></trkpt>
    <trkpt lat="34.731278728" lon="127.951716686"></trkpt>
    <trkpt lat="34.731129246" lon="127.951553305"></trkpt>
    <trkpt lat="34.731020934" lon="127.95142826"></trkpt>
    <trkpt lat="34.730968939" lon="127.951318754"></trkpt>
    <trkpt lat="34.730971034" lon="127.951163345"></trkpt>
    <trkpt lat="34.730995862" lon="127.950918213"></trkpt>
    <trkpt lat="34.730996211" lon="127.950766217"></trkpt>
    <trkpt lat="34.73105136" lon="127.950573436"></trkpt>
    <trkpt lat="34.731081863" lon="127.95040886"></trkpt>
    <trkpt lat="34.731073743" lon="127.950217615"></trkpt>
    <trkpt lat="34.731081113" lon="127.950084096"></trkpt>
    <trkpt lat="34.731097976" lon="127.949955469"></trkpt>
    <trkpt lat="34.731093824" lon="127.949823475"></trkpt>
    <trkpt lat="34.731132309" lon="127.949626212"></trkpt>
    <trkpt lat="34.731200913" lon="127.949518018"></trkpt>
    <trkpt lat="34.73123817" lon="127.949402077"></trkpt>
    <trkpt lat="34.731245804" lon="127.949300351"></trkpt>
    <trkpt lat="34.731085765" lon="127.949226713"></trkpt>
    <trkpt lat="34.730987036" lon="127.949132952"></trkpt>
    <trkpt lat="34.730951598" lon="127.949053165"></trkpt>
    <trkpt lat="34.730916957" lon="127.948947376"></trkpt>
    <trkpt lat="34.730980007" lon="127.948783918"></trkpt>
    <trkpt lat="34.731070387" lon="127.948680393"></trkpt>
    <trkpt lat="34.731130813" lon="127.948588676"></trkpt>
    <trkpt lat="34.731210483" lon="127.948530873"></trkpt>
    <trkpt lat="34.731279769" lon="127.948484097"></trkpt>
    <trkpt lat="34.731417282" lon="127.94836623"></trkpt>
    <trkpt lat="34.731532359" lon="127.948340164"></trkpt>
    <trkpt lat="34.731691671" lon="127.948285308"></trkpt>
    <trkpt lat="34.731800021" lon="127.948257588"></trkpt>
    <trkpt lat="34.731886578" lon="127.948206171"></trkpt>
    <trkpt lat="34.73195559" lon="127.948151374"></trkpt>
    <trkpt lat="34.732082566" lon="127.948123442"></trkpt>
    <trkpt lat="34.732190212" lon="127.948140801"></trkpt>
    <trkpt lat="34.732268466" lon="127.948137556"></trkpt>
    <trkpt lat="34.732386337" lon="127.948106313"></trkpt>
    <trkpt lat="34.732488486" lon="127.948069415"></trkpt>
    <trkpt lat="34.732558304" lon="127.947989668"></trkpt>
    <trkpt lat="34.732601373" lon="127.947892362"></trkpt>
    <trkpt lat="34.732629193" lon="127.947815249"></trkpt>
    <trkpt lat="34.732786714" lon="127.947681525"></trkpt>
    <trkpt lat="34.732882869" lon="127.947634147"></trkpt>
    <trkpt lat="34.732997992" lon="127.94749507"></trkpt>
    <trkpt lat="34.733103641" lon="127.947456905"></trkpt>
    <trkpt lat="34.733191096" lon="127.947430106"></trkpt>
    <trkpt lat="34.733282305" lon="127.947412862"></trkpt>
    <trkpt lat="34.733396435" lon="127.947377571"></trkpt>
    <trkpt lat="34.733464475" lon="127.947343805"></trkpt>
    <trkpt lat="34.733644708" lon="127.947169848"></trkpt>
    <trkpt lat="34.733794407" lon="127.947108364"></trkpt>
    <trkpt lat="34.733945703" lon="127.947073959"></trkpt>
    <trkpt lat="34.734123363" lon="127.947025917"></trkpt>
    <trkpt lat="34.734192708" lon="127.946995335"></trkpt>
    <trkpt lat="34.734391877" lon="127.947009639"></trkpt>
    <trkpt lat="34.73448881" lon="127.947036733"></trkpt>
    <trkpt lat="34.734554225" lon="127.947048119"></trkpt>
    <trkpt lat="34.734630285" lon="127.947032879"></trkpt>
    <trkpt lat="34.734657598" lon="127.947018119"></trkpt>
    <trkpt lat="34.734706658" lon="127.946977195"></trkpt>
    <trkpt lat="34.734923718" lon="127.946954927"></trkpt>
    <trkpt lat="34.735121749" lon="127.9469185"></trkpt>
    <trkpt lat="34.735253839" lon="127.946925434"></trkpt>
    <trkpt lat="34.735425064" lon="127.946846971"></trkpt>
    <trkpt lat="34.73560156" lon="127.946852302"></trkpt>
    <trkpt lat="34.735751691" lon="127.946878672"></trkpt>
    <trkpt lat="34.735899475" lon="127.946887856"></trkpt>
    <trkpt lat="34.736023457" lon="127.946916679"></trkpt>
    <trkpt lat="34.736110711" lon="127.946917727"></trkpt>
    <trkpt lat="34.736353471" lon="127.947012189"></trkpt>
    <trkpt lat="34.736582787" lon="127.947027821"></trkpt>
    <trkpt lat="34.736709505" lon="127.947113676"></trkpt>
    <trkpt lat="34.736788602" lon="127.947178448"></trkpt>
    <trkpt lat="34.736850679" lon="127.947235643"></trkpt>
    <trkpt lat="34.737004315" lon="127.947233881"></trkpt>
    <trkpt lat="34.737130803" lon="127.947206938"></trkpt>
    <trkpt lat="34.737163586" lon="127.947119045"></trkpt>
    <trkpt lat="34.737227607" lon="127.947011218"></trkpt>
    <trkpt lat="34.737289433" lon="127.947013351"></trkpt>
    <trkpt lat="34.737360644" lon="127.947040118"></trkpt>
    <trkpt lat="34.737394144" lon="127.947041644"></trkpt>
    <trkpt lat="34.737449053" lon="127.947055565"></trkpt>
    <trkpt lat="34.737491195" lon="127.94710128"></trkpt>
    <trkpt lat="34.737611333" lon="127.947213884"></trkpt>
    <trkpt lat="34.737694839" lon="127.947281876"></trkpt>
    <trkpt lat="34.737783077" lon="127.947338828"></trkpt>
    <trkpt lat="34.73784636" lon="127.947378394"></trkpt>
    <trkpt lat="34.737880265" lon="127.947404355"></trkpt>
    <trkpt lat="34.737908118" lon="127.947411466"></trkpt>
    <trkpt lat="34.737953278" lon="127.947416377"></trkpt>
    <trkpt lat="34.737998744" lon="127.947430948"></trkpt>
    <trkpt lat="34.73827401" lon="127.947510334"></trkpt>
    <trkpt lat="34.738404935" lon="127.947501361"></trkpt>
    <trkpt lat="34.738618793" lon="127.947549231"></trkpt>
    <trkpt lat="34.738724388" lon="127.947600393"></trkpt>
    <trkpt lat="34.738904316" lon="127.947745712"></trkpt>
    <trkpt lat="34.739014194" lon="127.947821939"></trkpt>
    <trkpt lat="34.739167099" lon="127.947890572"></trkpt>
    <trkpt lat="34.739260404" lon="127.947851758"></trkpt>
    <trkpt lat="34.739302835" lon="127.947851271"></trkpt>
    <trkpt lat="34.739342731" lon="127.947890966"></trkpt>
    <trkpt lat="34.739387438" lon="127.94796737"></trkpt>
    <trkpt lat="34.739463132" lon="127.948038134"></trkpt>
    <trkpt lat="34.739586798" lon="127.948037269"></trkpt>
    <trkpt lat="34.739671883" lon="127.948038406"></trkpt>
    <trkpt lat="34.739747867" lon="127.94795534"></trkpt>
    <trkpt lat="34.73981913" lon="127.947872473"></trkpt>
    <trkpt lat="34.739883323" lon="127.947840444"></trkpt>
    <trkpt lat="34.7399943" lon="127.947807988"></trkpt>
    <trkpt lat="34.740016837" lon="127.947796877"></trkpt>
    <trkpt lat="34.74001253" lon="127.947647346"></trkpt>
    <trkpt lat="34.74020257" lon="127.947631228"></trkpt>
    <trkpt lat="34.740416145" lon="127.947553302"></trkpt>
    <trkpt lat="34.740554359" lon="127.94751552"></trkpt>
    <trkpt lat="34.740711763" lon="127.947460621"></trkpt>
    <trkpt lat="34.740796941" lon="127.947438269"></trkpt>
    <trkpt lat="34.740872221" lon="127.947411552"></trkpt>
    <trkpt lat="34.740974253" lon="127.947614434"></trkpt>
    <trkpt lat="34.741044145" lon="127.947809328"></trkpt>
    <trkpt lat="34.741104574" lon="127.947975493"></trkpt>
    <trkpt lat="34.741145506" lon="127.94807814"></trkpt>
    <trkpt lat="34.741152438" lon="127.948158954"></trkpt>
    <trkpt lat="34.741076517" lon="127.948319531"></trkpt>
    <trkpt lat="34.74099394" lon="127.94847482"></trkpt>
    <trkpt lat="34.741005067" lon="127.948741884"></trkpt>
    <trkpt lat="34.741020396" lon="127.94900972"></trkpt>
    <trkpt lat="34.741018374" lon="127.949227955"></trkpt>
    <trkpt lat="34.741100765" lon="127.949384463"></trkpt>
    <trkpt lat="34.741159201" lon="127.949435862"></trkpt>
    <trkpt lat="34.741214096" lon="127.94944874"></trkpt>
    <trkpt lat="34.741304037" lon="127.949389057"></trkpt>
    <trkpt lat="34.741542205" lon="127.949237774"></trkpt>
    <trkpt lat="34.741651287" lon="127.949166977"></trkpt>
    <trkpt lat="34.741694165" lon="127.949056422"></trkpt>
    <trkpt lat="34.741727019" lon="127.948895038"></trkpt>
    <trkpt lat="34.741756448" lon="127.948801865"></trkpt>
    <trkpt lat="34.741825575" lon="127.948706702"></trkpt>
    <trkpt lat="34.741898334" lon="127.948645374"></trkpt>
    <trkpt lat="34.741972805" lon="127.948607379"></trkpt>
    <trkpt lat="34.741977393" lon="127.94860582"></trkpt>
    <trkpt lat="34.742051581" lon="127.948574557"></trkpt>
    <trkpt lat="34.742121359" lon="127.94853257"></trkpt>
    <trkpt lat="34.742180697" lon="127.94846246"></trkpt>
    <trkpt lat="34.742235997" lon="127.948371445"></trkpt>
    <trkpt lat="34.742256246" lon="127.948284668"></trkpt>
    <trkpt lat="34.742271321" lon="127.94817111"></trkpt>
    <trkpt lat="34.742331217" lon="127.948030734"></trkpt>
    <trkpt lat="34.742382406" lon="127.947930938"></trkpt>
    <trkpt lat="34.742455449" lon="127.947816148"></trkpt>
    <trkpt lat="34.742499608" lon="127.947679042"></trkpt>
    <trkpt lat="34.742529374" lon="127.947513737"></trkpt>
    <trkpt lat="34.742558877" lon="127.947280903"></trkpt>
    <trkpt lat="34.742587668" lon="127.947077383"></trkpt>
    <trkpt lat="34.742605944" lon="127.94685293"></trkpt>
    <trkpt lat="34.742651128" lon="127.946682122"></trkpt>
    <trkpt lat="34.742702943" lon="127.946577388"></trkpt>
    <trkpt lat="34.742791333" lon="127.946472217"></trkpt>
    <trkpt lat="34.742912935" lon="127.946361705"></trkpt>
    <trkpt lat="34.743038839" lon="127.9462491"></trkpt>
    <trkpt lat="34.743173851" lon="127.946164492"></trkpt>
    <trkpt lat="34.743300915" lon="127.946109429"></trkpt>
    <trkpt lat="34.743391412" lon="127.94609313"></trkpt>
    <trkpt lat="34.74350619" lon="127.946061265"></trkpt>
    <trkpt lat="34.743620969" lon="127.946027655"></trkpt>
    <trkpt lat="34.743855963" lon="127.945947207"></trkpt>
    <trkpt lat="34.744068763" lon="127.945873411"></trkpt>
    <trkpt lat="34.744322716" lon="127.94579319"></trkpt>
    <trkpt lat="34.74454132" lon="127.945714153"></trkpt>
    <trkpt lat="34.744871241" lon="127.945597333"></trkpt>
    <trkpt lat="34.745056576" lon="127.945524166"></trkpt>
    <trkpt lat="34.745277775" lon="127.94542843"></trkpt>
    <trkpt lat="34.745397663" lon="127.945351187"></trkpt>
    <trkpt lat="34.745567867" lon="127.945258103"></trkpt>
    <trkpt lat="34.745734715" lon="127.945121102"></trkpt>
    <trkpt lat="34.745790063" lon="127.945067614"></trkpt>
    <trkpt lat="34.745915638" lon="127.944968798"></trkpt>
    <trkpt lat="34.746029609" lon="127.944890879"></trkpt>
    <trkpt lat="34.746194457" lon="127.944815587"></trkpt>
    <trkpt lat="34.746337042" lon="127.944773369"></trkpt>
    <trkpt lat="34.746527282" lon="127.944741588"></trkpt>
    <trkpt lat="34.746634506" lon="127.944752812"></trkpt>
    <trkpt lat="34.746729969" lon="127.944783704"></trkpt>
    <trkpt lat="34.746815305" lon="127.944826745"></trkpt>
    <trkpt lat="34.746902731" lon="127.944910417"></trkpt>
    <trkpt lat="34.746991017" lon="127.945019109"></trkpt>
    <trkpt lat="34.747141063" lon="127.945195989"></trkpt>
    <trkpt lat="34.747264645" lon="127.945330662"></trkpt>
    <trkpt lat="34.747313663" lon="127.945401565"></trkpt>
    <trkpt lat="34.747511835" lon="127.945631157"></trkpt>
    <trkpt lat="34.747669372" lon="127.945734126"></trkpt>
    <trkpt lat="34.747732205" lon="127.945766389"></trkpt>
    <trkpt lat="34.747952064" lon="127.945833669"></trkpt>
    <trkpt lat="34.748045593" lon="127.945845666"></trkpt>
    <trkpt lat="34.748316833" lon="127.945902571"></trkpt>
    <trkpt lat="34.748533082" lon="127.945948328"></trkpt>
    <trkpt lat="34.748847214" lon="127.946016428"></trkpt>
    <trkpt lat="34.749148135" lon="127.946071377"></trkpt>
    <trkpt lat="34.749404755" lon="127.9461242"></trkpt>
    <trkpt lat="34.749686833" lon="127.946176382"></trkpt>
    <trkpt lat="34.749916335" lon="127.946221642"></trkpt>
    <trkpt lat="34.750163515" lon="127.946250199"></trkpt>
    <trkpt lat="34.750376969" lon="127.946240882"></trkpt>
    <trkpt lat="34.750622804" lon="127.946200329"></trkpt>
    <trkpt lat="34.750873999" lon="127.946188209"></trkpt>
    <trkpt lat="34.751303078" lon="127.9461906"></trkpt>
    <trkpt lat="34.751580933" lon="127.94619551"></trkpt>
    <trkpt lat="34.751822926" lon="127.946183299"></trkpt>
    <trkpt lat="34.751974428" lon="127.946180776"></trkpt>
    <trkpt lat="34.752239888" lon="127.946178196"></trkpt>
    <trkpt lat="34.752486273" lon="127.946180529"></trkpt>
    <trkpt lat="34.752788072" lon="127.946168028"></trkpt>
    <trkpt lat="34.75309717" lon="127.946160654"></trkpt>
    <trkpt lat="34.753381041" lon="127.94616547"></trkpt>
    <trkpt lat="34.75366257" lon="127.946170283"></trkpt>
    <trkpt lat="34.753908108" lon="127.946168178"></trkpt>
    <trkpt lat="34.754270484" lon="127.946154501"></trkpt>
    <trkpt lat="34.754517248" lon="127.946160094"></trkpt>
    <trkpt lat="34.754778844" lon="127.946169785"></trkpt>
    <trkpt lat="34.75498304" lon="127.946199028"></trkpt>
    <trkpt lat="34.755136937" lon="127.946247541"></trkpt>
    <trkpt lat="34.755298346" lon="127.946373424"></trkpt>
    <trkpt lat="34.755470908" lon="127.946530669"></trkpt>
    <trkpt lat="34.755722073" lon="127.94671196"></trkpt>
    <trkpt lat="34.755905523" lon="127.946872926"></trkpt>
    <trkpt lat="34.755928955" lon="127.946898129"></trkpt>
    <trkpt lat="34.756136451" lon="127.947044734"></trkpt>
    <trkpt lat="34.756328656" lon="127.947140201"></trkpt>
    <trkpt lat="34.756444846" lon="127.947157171"></trkpt>
    <trkpt lat="34.756711023" lon="127.947193211"></trkpt>
    <trkpt lat="34.757033824" lon="127.947237267"></trkpt>
    <trkpt lat="34.757261297" lon="127.947277165"></trkpt>
    <trkpt lat="34.757508474" lon="127.947336683"></trkpt>
    <trkpt lat="34.75767168" lon="127.947435636"></trkpt>
    <trkpt lat="34.757791526" lon="127.947473706"></trkpt>
    <trkpt lat="34.758032087" lon="127.947570563"></trkpt>
    <trkpt lat="34.758334011" lon="127.947661146"></trkpt>
    <trkpt lat="34.75862302" lon="127.94775496"></trkpt>
    <trkpt lat="34.758916479" lon="127.947871992"></trkpt>
    <trkpt lat="34.759250216" lon="127.947983875"></trkpt>
    <trkpt lat="34.75978915" lon="127.948165158"></trkpt>
    <trkpt lat="34.760295391" lon="127.948266925"></trkpt>
    <trkpt lat="34.760947544" lon="127.948319357"></trkpt>
    <trkpt lat="34.76166448" lon="127.948363359"></trkpt>
    <trkpt lat="34.7622057" lon="127.948398482"></trkpt>
    <trkpt lat="34.762540157" lon="127.948433198"></trkpt>
    <trkpt lat="34.762747117" lon="127.948452722"></trkpt>
    <trkpt lat="34.762862693" lon="127.948457198"></trkpt>
    <trkpt lat="34.762889456" lon="127.948455102"></trkpt>
    <trkpt lat="34.76288928" lon="127.948396396"></trkpt>
    <trkpt lat="34.762895505" lon="127.948299394"></trkpt>
  </trkseg>
</trk>
</gpx>
