<?xml version="1.0" encoding="UTF-8"?>
<gpx version="1.1" creator="GPS Track Editor" xmlns="http://www.topografix.com/GPX/1/1" xmlns:xsi="http://www.w3.org/2001/XMLSchema-instance" xmlns:gte="http://www.gpstrackeditor.com/xmlschemas/General/1" xmlns:gpxtpx="http://www.garmin.com/xmlschemas/TrackPointExtension/v1" xmlns:gpxx="http://www.garmin.com/xmlschemas/GpxExtensions/v3" targetNamespace="http://www.topografix.com/GPX/1/1" elementFormDefault="qualified" xsi:schemaLocation="http://www.topografix.com/GPX/1/1 http://www.topografix.com/GPX/1/1/gpx.xsd">
<metadata>
	<name>GPS_2020-01-20_015921</name>
</metadata>
<trk>
	<name>077-보성군 득량면 비봉리 득량만바다낚시공원 입구~보성군 회천면 동율리 율포솔밭 입구</name>
	<trkseg>
		<trkpt lat="34.696404" lon="127.183600">
			<ele>0.00</ele>
			<time>2020-01-20T01:59:21.93Z</time>
		</trkpt>
		<trkpt lat="34.696275" lon="127.183526">
			<ele>0.00</ele>
			<time>2020-01-20T01:59:22.88Z</time>
		</trkpt>
		<trkpt lat="34.696275" lon="127.183526">
			<ele>0.00</ele>
			<time>2020-01-20T01:59:22.94Z</time>
		</trkpt>
		<trkpt lat="34.696158" lon="127.183513">
			<ele>0.00</ele>
			<time>2020-01-20T01:59:23.72Z</time>
		</trkpt>
		<trkpt lat="34.696064" lon="127.183503">
			<ele>0.00</ele>
			<time>2020-01-20T01:59:24.35Z</time>
		</trkpt>
		<trkpt lat="34.695885" lon="127.183508">
			<ele>0.00</ele>
			<time>2020-01-20T01:59:25.55Z</time>
		</trkpt>
		<trkpt lat="34.695650" lon="127.183555">
			<ele>0.00</ele>
			<time>2020-01-20T01:59:27.13Z</time>
		</trkpt>
		<trkpt lat="34.695478" lon="127.183636">
			<ele>0.00</ele>
			<time>2020-01-20T01:59:28.36Z</time>
		</trkpt>
		<trkpt lat="34.695334" lon="127.183688">
			<ele>0.00</ele>
			<time>2020-01-20T01:59:29.36Z</time>
		</trkpt>
		<trkpt lat="34.695138" lon="127.183701">
			<ele>0.00</ele>
			<time>2020-01-20T01:59:30.67Z</time>
		</trkpt>
		<trkpt lat="34.694934" lon="127.183690">
			<ele>0.00</ele>
			<time>2020-01-20T01:59:32.04Z</time>
		</trkpt>
		<trkpt lat="34.694804" lon="127.183643">
			<ele>0.00</ele>
			<time>2020-01-20T01:59:32.94Z</time>
		</trkpt>
		<trkpt lat="34.694682" lon="127.183574">
			<ele>0.00</ele>
			<time>2020-01-20T01:59:33.83Z</time>
		</trkpt>
		<trkpt lat="34.694598" lon="127.183428">
			<ele>0.00</ele>
			<time>2020-01-20T01:59:34.81Z</time>
		</trkpt>
		<trkpt lat="34.694548" lon="127.183268">
			<ele>0.00</ele>
			<time>2020-01-20T01:59:35.75Z</time>
		</trkpt>
		<trkpt lat="34.694495" lon="127.183119">
			<ele>0.00</ele>
			<time>2020-01-20T01:59:36.64Z</time>
		</trkpt>
		<trkpt lat="34.694432" lon="127.182796">
			<ele>0.00</ele>
			<time>2020-01-20T01:59:38.46Z</time>
		</trkpt>
		<trkpt lat="34.694374" lon="127.182587">
			<ele>0.00</ele>
			<time>2020-01-20T01:59:39.67Z</time>
		</trkpt>
		<trkpt lat="34.694329" lon="127.182382">
			<ele>0.00</ele>
			<time>2020-01-20T01:59:40.83Z</time>
		</trkpt>
		<trkpt lat="34.694275" lon="127.182244">
			<ele>0.00</ele>
			<time>2020-01-20T01:59:41.67Z</time>
		</trkpt>
		<trkpt lat="34.694220" lon="127.182106">
			<ele>0.00</ele>
			<time>2020-01-20T01:59:42.51Z</time>
		</trkpt>
		<trkpt lat="34.694117" lon="127.181875">
			<ele>0.00</ele>
			<time>2020-01-20T01:59:43.95Z</time>
		</trkpt>
		<trkpt lat="34.693985" lon="127.181579">
			<ele>0.00</ele>
			<time>2020-01-20T01:59:45.80Z</time>
		</trkpt>
		<trkpt lat="34.693945" lon="127.181383">
			<ele>0.00</ele>
			<time>2020-01-20T01:59:46.91Z</time>
		</trkpt>
		<trkpt lat="34.693913" lon="127.181063">
			<ele>0.00</ele>
			<time>2020-01-20T01:59:48.67Z</time>
		</trkpt>
		<trkpt lat="34.693908" lon="127.180730">
			<ele>0.00</ele>
			<time>2020-01-20T01:59:50.49Z</time>
		</trkpt>
		<trkpt lat="34.693893" lon="127.180369">
			<ele>0.00</ele>
			<time>2020-01-20T01:59:52.48Z</time>
		</trkpt>
		<trkpt lat="34.693842" lon="127.180120">
			<ele>0.00</ele>
			<time>2020-01-20T01:59:53.89Z</time>
		</trkpt>
		<trkpt lat="34.693788" lon="127.179889">
			<ele>0.00</ele>
			<time>2020-01-20T01:59:55.20Z</time>
		</trkpt>
		<trkpt lat="34.693717" lon="127.179667">
			<ele>0.00</ele>
			<time>2020-01-20T01:59:56.51Z</time>
		</trkpt>
		<trkpt lat="34.693666" lon="127.179525">
			<ele>0.00</ele>
			<time>2020-01-20T01:59:57.36Z</time>
		</trkpt>
		<trkpt lat="34.693593" lon="127.179386">
			<ele>0.00</ele>
			<time>2020-01-20T01:59:58.26Z</time>
		</trkpt>
		<trkpt lat="34.693464" lon="127.179179">
			<ele>0.00</ele>
			<time>2020-01-20T01:59:59.69Z</time>
		</trkpt>
		<trkpt lat="34.693309" lon="127.178977">
			<ele>0.00</ele>
			<time>2020-01-20T02:00:01.20Z</time>
		</trkpt>
		<trkpt lat="34.693189" lon="127.178801">
			<ele>0.00</ele>
			<time>2020-01-20T02:00:02.45Z</time>
		</trkpt>
		<trkpt lat="34.693186" lon="127.178799">
			<ele>0.00</ele>
			<time>2020-01-20T02:00:02.51Z</time>
		</trkpt>
		<trkpt lat="34.693049" lon="127.178589">
			<ele>0.00</ele>
			<time>2020-01-20T02:00:03.98Z</time>
		</trkpt>
		<trkpt lat="34.693047" lon="127.178584">
			<ele>0.00</ele>
			<time>2020-01-20T02:00:04.04Z</time>
		</trkpt>
		<trkpt lat="34.692958" lon="127.178366">
			<ele>0.00</ele>
			<time>2020-01-20T02:00:05.37Z</time>
		</trkpt>
		<trkpt lat="34.692911" lon="127.178073">
			<ele>0.00</ele>
			<time>2020-01-20T02:00:07.01Z</time>
		</trkpt>
		<trkpt lat="34.692840" lon="127.177814">
			<ele>0.00</ele>
			<time>2020-01-20T02:00:08.51Z</time>
		</trkpt>
		<trkpt lat="34.692838" lon="127.177806">
			<ele>0.00</ele>
			<time>2020-01-20T02:00:08.57Z</time>
		</trkpt>
		<trkpt lat="34.692812" lon="127.177562">
			<ele>0.00</ele>
			<time>2020-01-20T02:00:09.92Z</time>
		</trkpt>
		<trkpt lat="34.692812" lon="127.177546">
			<ele>0.00</ele>
			<time>2020-01-20T02:00:10Z</time>
		</trkpt>
		<trkpt lat="34.692810" lon="127.177329">
			<ele>0.00</ele>
			<time>2020-01-20T02:00:11.19Z</time>
		</trkpt>
		<trkpt lat="34.692823" lon="127.177146">
			<ele>0.00</ele>
			<time>2020-01-20T02:00:12.20Z</time>
		</trkpt>
		<trkpt lat="34.692851" lon="127.176994">
			<ele>0.00</ele>
			<time>2020-01-20T02:00:13.05Z</time>
		</trkpt>
		<trkpt lat="34.692899" lon="127.176630">
			<ele>0.00</ele>
			<time>2020-01-20T02:00:15.08Z</time>
		</trkpt>
		<trkpt lat="34.692951" lon="127.176103">
			<ele>0.00</ele>
			<time>2020-01-20T02:00:17.98Z</time>
		</trkpt>
		<trkpt lat="34.692925" lon="127.175624">
			<ele>0.00</ele>
			<time>2020-01-20T02:00:20.62Z</time>
		</trkpt>
		<trkpt lat="34.692936" lon="127.175003">
			<ele>0.00</ele>
			<time>2020-01-20T02:00:24.02Z</time>
		</trkpt>
		<trkpt lat="34.692938" lon="127.174450">
			<ele>0.00</ele>
			<time>2020-01-20T02:00:27.05Z</time>
		</trkpt>
		<trkpt lat="34.692932" lon="127.174107">
			<ele>0.00</ele>
			<time>2020-01-20T02:00:28.93Z</time>
		</trkpt>
		<trkpt lat="34.692921" lon="127.173338">
			<ele>0.00</ele>
			<time>2020-01-20T02:00:33.15Z</time>
		</trkpt>
		<trkpt lat="34.692934" lon="127.172804">
			<ele>0.00</ele>
			<time>2020-01-20T02:00:36.08Z</time>
		</trkpt>
		<trkpt lat="34.692932" lon="127.172408">
			<ele>0.00</ele>
			<time>2020-01-20T02:00:38.25Z</time>
		</trkpt>
		<trkpt lat="34.693023" lon="127.172107">
			<ele>0.00</ele>
			<time>2020-01-20T02:00:40Z</time>
		</trkpt>
		<trkpt lat="34.693133" lon="127.171864">
			<ele>0.00</ele>
			<time>2020-01-20T02:00:41.53Z</time>
		</trkpt>
		<trkpt lat="34.693318" lon="127.171547">
			<ele>0.00</ele>
			<time>2020-01-20T02:00:43.65Z</time>
		</trkpt>
		<trkpt lat="34.693598" lon="127.171259">
			<ele>0.00</ele>
			<time>2020-01-20T02:00:46.10Z</time>
		</trkpt>
		<trkpt lat="34.693878" lon="127.170974">
			<ele>0.00</ele>
			<time>2020-01-20T02:00:48.53Z</time>
		</trkpt>
		<trkpt lat="34.694160" lon="127.170741">
			<ele>0.00</ele>
			<time>2020-01-20T02:00:50.81Z</time>
		</trkpt>
		<trkpt lat="34.694504" lon="127.170476">
			<ele>0.00</ele>
			<time>2020-01-20T02:00:53.52Z</time>
		</trkpt>
		<trkpt lat="34.694715" lon="127.170408">
			<ele>0.00</ele>
			<time>2020-01-20T02:00:54.98Z</time>
		</trkpt>
		<trkpt lat="34.694967" lon="127.170332">
			<ele>0.00</ele>
			<time>2020-01-20T02:00:56.71Z</time>
		</trkpt>
		<trkpt lat="34.695202" lon="127.170214">
			<ele>0.00</ele>
			<time>2020-01-20T02:00:58.40Z</time>
		</trkpt>
		<trkpt lat="34.695430" lon="127.170091">
			<ele>0.00</ele>
			<time>2020-01-20T02:01:00.07Z</time>
		</trkpt>
		<trkpt lat="34.695644" lon="127.169830">
			<ele>0.00</ele>
			<time>2020-01-20T02:01:02.09Z</time>
		</trkpt>
		<trkpt lat="34.695940" lon="127.169330">
			<ele>0.00</ele>
			<time>2020-01-20T02:01:05.47Z</time>
		</trkpt>
		<trkpt lat="34.696218" lon="127.168929">
			<ele>0.00</ele>
			<time>2020-01-20T02:01:08.34Z</time>
		</trkpt>
		<trkpt lat="34.696425" lon="127.168599">
			<ele>0.00</ele>
			<time>2020-01-20T02:01:10.61Z</time>
		</trkpt>
		<trkpt lat="34.696615" lon="127.168269">
			<ele>0.00</ele>
			<time>2020-01-20T02:01:12.82Z</time>
		</trkpt>
		<trkpt lat="34.696690" lon="127.167934">
			<ele>0.00</ele>
			<time>2020-01-20T02:01:14.72Z</time>
		</trkpt>
		<trkpt lat="34.696716" lon="127.167609">
			<ele>0.00</ele>
			<time>2020-01-20T02:01:16.51Z</time>
		</trkpt>
		<trkpt lat="34.696736" lon="127.167298">
			<ele>0.00</ele>
			<time>2020-01-20T02:01:18.22Z</time>
		</trkpt>
		<trkpt lat="34.696761" lon="127.166803">
			<ele>0.00</ele>
			<time>2020-01-20T02:01:20.94Z</time>
		</trkpt>
		<trkpt lat="34.696805" lon="127.166549">
			<ele>0.00</ele>
			<time>2020-01-20T02:01:22.37Z</time>
		</trkpt>
		<trkpt lat="34.696856" lon="127.166190">
			<ele>0.00</ele>
			<time>2020-01-20T02:01:24.36Z</time>
		</trkpt>
		<trkpt lat="34.696887" lon="127.166017">
			<ele>0.00</ele>
			<time>2020-01-20T02:01:25.33Z</time>
		</trkpt>
		<trkpt lat="34.696944" lon="127.165570">
			<ele>0.00</ele>
			<time>2020-01-20T02:01:27.81Z</time>
		</trkpt>
		<trkpt lat="34.697056" lon="127.164837">
			<ele>0.00</ele>
			<time>2020-01-20T02:01:31.90Z</time>
		</trkpt>
		<trkpt lat="34.697134" lon="127.163879">
			<ele>0.00</ele>
			<time>2020-01-20T02:01:37.17Z</time>
		</trkpt>
		<trkpt lat="34.697112" lon="127.163201">
			<ele>0.00</ele>
			<time>2020-01-20T02:01:40.90Z</time>
		</trkpt>
		<trkpt lat="34.697129" lon="127.162121">
			<ele>0.00</ele>
			<time>2020-01-20T02:01:46.81Z</time>
		</trkpt>
		<trkpt lat="34.697129" lon="127.162108">
			<ele>0.00</ele>
			<time>2020-01-20T02:01:46.89Z</time>
		</trkpt>
		<trkpt lat="34.697174" lon="127.161137">
			<ele>0.00</ele>
			<time>2020-01-20T02:01:52.22Z</time>
		</trkpt>
		<trkpt lat="34.697191" lon="127.160818">
			<ele>0.00</ele>
			<time>2020-01-20T02:01:53.97Z</time>
		</trkpt>
		<trkpt lat="34.697196" lon="127.160186">
			<ele>0.00</ele>
			<time>2020-01-20T02:01:57.43Z</time>
		</trkpt>
		<trkpt lat="34.697213" lon="127.159609">
			<ele>0.00</ele>
			<time>2020-01-20T02:02:00.60Z</time>
		</trkpt>
		<trkpt lat="34.697252" lon="127.159249">
			<ele>0.00</ele>
			<time>2020-01-20T02:02:02.59Z</time>
		</trkpt>
		<trkpt lat="34.697370" lon="127.158587">
			<ele>0.00</ele>
			<time>2020-01-20T02:02:06.30Z</time>
		</trkpt>
		<trkpt lat="34.697593" lon="127.157894">
			<ele>0.00</ele>
			<time>2020-01-20T02:02:10.38Z</time>
		</trkpt>
		<trkpt lat="34.697755" lon="127.157365">
			<ele>0.00</ele>
			<time>2020-01-20T02:02:13.47Z</time>
		</trkpt>
		<trkpt lat="34.697788" lon="127.157119">
			<ele>0.00</ele>
			<time>2020-01-20T02:02:14.84Z</time>
		</trkpt>
		<trkpt lat="34.697861" lon="127.156463">
			<ele>0.00</ele>
			<time>2020-01-20T02:02:18.47Z</time>
		</trkpt>
		<trkpt lat="34.697916" lon="127.155986">
			<ele>0.00</ele>
			<time>2020-01-20T02:02:21.11Z</time>
		</trkpt>
		<trkpt lat="34.697955" lon="127.155854">
			<ele>0.00</ele>
			<time>2020-01-20T02:02:21.88Z</time>
		</trkpt>
		<trkpt lat="34.697970" lon="127.155568">
			<ele>0.00</ele>
			<time>2020-01-20T02:02:23.44Z</time>
		</trkpt>
		<trkpt lat="34.697970" lon="127.155401">
			<ele>0.00</ele>
			<time>2020-01-20T02:02:24.36Z</time>
		</trkpt>
		<trkpt lat="34.697972" lon="127.155224">
			<ele>0.00</ele>
			<time>2020-01-20T02:02:25.33Z</time>
		</trkpt>
		<trkpt lat="34.697880" lon="127.154962">
			<ele>0.00</ele>
			<time>2020-01-20T02:02:26.89Z</time>
		</trkpt>
		<trkpt lat="34.697772" lon="127.154765">
			<ele>0.00</ele>
			<time>2020-01-20T02:02:28.19Z</time>
		</trkpt>
		<trkpt lat="34.697605" lon="127.154527">
			<ele>0.00</ele>
			<time>2020-01-20T02:02:29.91Z</time>
		</trkpt>
		<trkpt lat="34.697398" lon="127.154384">
			<ele>0.00</ele>
			<time>2020-01-20T02:02:31.49Z</time>
		</trkpt>
		<trkpt lat="34.697170" lon="127.154194">
			<ele>0.00</ele>
			<time>2020-01-20T02:02:33.34Z</time>
		</trkpt>
		<trkpt lat="34.696930" lon="127.153895">
			<ele>0.00</ele>
			<time>2020-01-20T02:02:35.63Z</time>
		</trkpt>
		<trkpt lat="34.696913" lon="127.153888">
			<ele>0.00</ele>
			<time>2020-01-20T02:02:35.75Z</time>
		</trkpt>
		<trkpt lat="34.696773" lon="127.153671">
			<ele>0.00</ele>
			<time>2020-01-20T02:02:37.26Z</time>
		</trkpt>
		<trkpt lat="34.696669" lon="127.153446">
			<ele>0.00</ele>
			<time>2020-01-20T02:02:38.67Z</time>
		</trkpt>
		<trkpt lat="34.696622" lon="127.153185">
			<ele>0.00</ele>
			<time>2020-01-20T02:02:40.14Z</time>
		</trkpt>
		<trkpt lat="34.696545" lon="127.152790">
			<ele>0.00</ele>
			<time>2020-01-20T02:02:42.37Z</time>
		</trkpt>
		<trkpt lat="34.696565" lon="127.152472">
			<ele>0.00</ele>
			<time>2020-01-20T02:02:44.11Z</time>
		</trkpt>
		<trkpt lat="34.696518" lon="127.152272">
			<ele>0.00</ele>
			<time>2020-01-20T02:02:45.25Z</time>
		</trkpt>
		<trkpt lat="34.696464" lon="127.152093">
			<ele>0.00</ele>
			<time>2020-01-20T02:02:46.30Z</time>
		</trkpt>
		<trkpt lat="34.696421" lon="127.151914">
			<ele>0.00</ele>
			<time>2020-01-20T02:02:47.32Z</time>
		</trkpt>
		<trkpt lat="34.696354" lon="127.151800">
			<ele>0.00</ele>
			<time>2020-01-20T02:02:48.09Z</time>
		</trkpt>
		<trkpt lat="34.696260" lon="127.151567">
			<ele>0.00</ele>
			<time>2020-01-20T02:02:49.51Z</time>
		</trkpt>
		<trkpt lat="34.696187" lon="127.151355">
			<ele>0.00</ele>
			<time>2020-01-20T02:02:50.77Z</time>
		</trkpt>
		<trkpt lat="34.696120" lon="127.151135">
			<ele>0.00</ele>
			<time>2020-01-20T02:02:52.06Z</time>
		</trkpt>
		<trkpt lat="34.696073" lon="127.150919">
			<ele>0.00</ele>
			<time>2020-01-20T02:02:53.28Z</time>
		</trkpt>
		<trkpt lat="34.696039" lon="127.150709">
			<ele>0.00</ele>
			<time>2020-01-20T02:02:54.45Z</time>
		</trkpt>
		<trkpt lat="34.696019" lon="127.150526">
			<ele>0.00</ele>
			<time>2020-01-20T02:02:55.47Z</time>
		</trkpt>
		<trkpt lat="34.696022" lon="127.150290">
			<ele>0.00</ele>
			<time>2020-01-20T02:02:56.76Z</time>
		</trkpt>
		<trkpt lat="34.696086" lon="127.150106">
			<ele>0.00</ele>
			<time>2020-01-20T02:02:57.85Z</time>
		</trkpt>
		<trkpt lat="34.696163" lon="127.149964">
			<ele>0.00</ele>
			<time>2020-01-20T02:02:58.79Z</time>
		</trkpt>
		<trkpt lat="34.696257" lon="127.149817">
			<ele>0.00</ele>
			<time>2020-01-20T02:02:59.81Z</time>
		</trkpt>
		<trkpt lat="34.696351" lon="127.149585">
			<ele>0.00</ele>
			<time>2020-01-20T02:03:01.23Z</time>
		</trkpt>
		<trkpt lat="34.696395" lon="127.149324">
			<ele>0.00</ele>
			<time>2020-01-20T02:03:02.69Z</time>
		</trkpt>
		<trkpt lat="34.696395" lon="127.149193">
			<ele>0.00</ele>
			<time>2020-01-20T02:03:03.40Z</time>
		</trkpt>
		<trkpt lat="34.696338" lon="127.148945">
			<ele>0.00</ele>
			<time>2020-01-20T02:03:04.82Z</time>
		</trkpt>
		<trkpt lat="34.696267" lon="127.148790">
			<ele>0.00</ele>
			<time>2020-01-20T02:03:05.79Z</time>
		</trkpt>
		<trkpt lat="34.696174" lon="127.148704">
			<ele>0.00</ele>
			<time>2020-01-20T02:03:06.57Z</time>
		</trkpt>
		<trkpt lat="34.696080" lon="127.148639">
			<ele>0.00</ele>
			<time>2020-01-20T02:03:07.29Z</time>
		</trkpt>
		<trkpt lat="34.695989" lon="127.148557">
			<ele>0.00</ele>
			<time>2020-01-20T02:03:08.04Z</time>
		</trkpt>
		<trkpt lat="34.695979" lon="127.148549">
			<ele>0.00</ele>
			<time>2020-01-20T02:03:08.12Z</time>
		</trkpt>
		<trkpt lat="34.695852" lon="127.148451">
			<ele>0.00</ele>
			<time>2020-01-20T02:03:09.12Z</time>
		</trkpt>
		<trkpt lat="34.695771" lon="127.148301">
			<ele>0.00</ele>
			<time>2020-01-20T02:03:10.11Z</time>
		</trkpt>
		<trkpt lat="34.695724" lon="127.148125">
			<ele>0.00</ele>
			<time>2020-01-20T02:03:11.12Z</time>
		</trkpt>
		<trkpt lat="34.695681" lon="127.147922">
			<ele>0.00</ele>
			<time>2020-01-20T02:03:12.27Z</time>
		</trkpt>
		<trkpt lat="34.695694" lon="127.147706">
			<ele>0.00</ele>
			<time>2020-01-20T02:03:13.46Z</time>
		</trkpt>
		<trkpt lat="34.695731" lon="127.147514">
			<ele>0.00</ele>
			<time>2020-01-20T02:03:14.54Z</time>
		</trkpt>
		<trkpt lat="34.695822" lon="127.147075">
			<ele>0.00</ele>
			<time>2020-01-20T02:03:17.02Z</time>
		</trkpt>
		<trkpt lat="34.695829" lon="127.147055">
			<ele>0.00</ele>
			<time>2020-01-20T02:03:17.14Z</time>
		</trkpt>
		<trkpt lat="34.695949" lon="127.146521">
			<ele>0.00</ele>
			<time>2020-01-20T02:03:20.17Z</time>
		</trkpt>
		<trkpt lat="34.696020" lon="127.146056">
			<ele>0.00</ele>
			<time>2020-01-20T02:03:22.76Z</time>
		</trkpt>
		<trkpt lat="34.696137" lon="127.145449">
			<ele>0.00</ele>
			<time>2020-01-20T02:03:26.18Z</time>
		</trkpt>
		<trkpt lat="34.696204" lon="127.144777">
			<ele>0.00</ele>
			<time>2020-01-20T02:03:29.90Z</time>
		</trkpt>
		<trkpt lat="34.696288" lon="127.144100">
			<ele>0.00</ele>
			<time>2020-01-20T02:03:33.65Z</time>
		</trkpt>
		<trkpt lat="34.696379" lon="127.143562">
			<ele>0.00</ele>
			<time>2020-01-20T02:03:36.66Z</time>
		</trkpt>
		<trkpt lat="34.696422" lon="127.143210">
			<ele>0.00</ele>
			<time>2020-01-20T02:03:38.61Z</time>
		</trkpt>
		<trkpt lat="34.696492" lon="127.142530">
			<ele>0.00</ele>
			<time>2020-01-20T02:03:42.37Z</time>
		</trkpt>
		<trkpt lat="34.696590" lon="127.141967">
			<ele>0.00</ele>
			<time>2020-01-20T02:03:45.52Z</time>
		</trkpt>
		<trkpt lat="34.696731" lon="127.141409">
			<ele>0.00</ele>
			<time>2020-01-20T02:03:48.72Z</time>
		</trkpt>
		<trkpt lat="34.696948" lon="127.140785">
			<ele>0.00</ele>
			<time>2020-01-20T02:03:52.43Z</time>
		</trkpt>
		<trkpt lat="34.697082" lon="127.140402">
			<ele>0.00</ele>
			<time>2020-01-20T02:03:54.71Z</time>
		</trkpt>
		<trkpt lat="34.697337" lon="127.139974">
			<ele>0.00</ele>
			<time>2020-01-20T02:03:57.61Z</time>
		</trkpt>
		<trkpt lat="34.697676" lon="127.139481">
			<ele>0.00</ele>
			<time>2020-01-20T02:04:01.13Z</time>
		</trkpt>
		<trkpt lat="34.698041" lon="127.139020">
			<ele>0.00</ele>
			<time>2020-01-20T02:04:04.64Z</time>
		</trkpt>
		<trkpt lat="34.698349" lon="127.138638">
			<ele>0.00</ele>
			<time>2020-01-20T02:04:07.57Z</time>
		</trkpt>
		<trkpt lat="34.698610" lon="127.138317">
			<ele>0.00</ele>
			<time>2020-01-20T02:04:10.05Z</time>
		</trkpt>
		<trkpt lat="34.698905" lon="127.137942">
			<ele>0.00</ele>
			<time>2020-01-20T02:04:12.89Z</time>
		</trkpt>
		<trkpt lat="34.699249" lon="127.137522">
			<ele>0.00</ele>
			<time>2020-01-20T02:04:16.14Z</time>
		</trkpt>
		<trkpt lat="34.699661" lon="127.137069">
			<ele>0.00</ele>
			<time>2020-01-20T02:04:19.84Z</time>
		</trkpt>
		<trkpt lat="34.700282" lon="127.136484">
			<ele>0.00</ele>
			<time>2020-01-20T02:04:25.08Z</time>
		</trkpt>
		<trkpt lat="34.700738" lon="127.136102">
			<ele>0.00</ele>
			<time>2020-01-20T02:04:28.77Z</time>
		</trkpt>
		<trkpt lat="34.701191" lon="127.135740">
			<ele>0.00</ele>
			<time>2020-01-20T02:04:32.38Z</time>
		</trkpt>
		<trkpt lat="34.701726" lon="127.135313">
			<ele>0.00</ele>
			<time>2020-01-20T02:04:36.65Z</time>
		</trkpt>
		<trkpt lat="34.701784" lon="127.134952">
			<ele>0.00</ele>
			<time>2020-01-20T02:04:38.67Z</time>
		</trkpt>
		<trkpt lat="34.701848" lon="127.134542">
			<ele>0.00</ele>
			<time>2020-01-20T02:04:40.95Z</time>
		</trkpt>
		<trkpt lat="34.701917" lon="127.134177">
			<ele>0.00</ele>
			<time>2020-01-20T02:04:43Z</time>
		</trkpt>
		<trkpt lat="34.701937" lon="127.133785">
			<ele>0.00</ele>
			<time>2020-01-20T02:04:45.16Z</time>
		</trkpt>
		<trkpt lat="34.701948" lon="127.133236">
			<ele>0.00</ele>
			<time>2020-01-20T02:04:48.17Z</time>
		</trkpt>
		<trkpt lat="34.701979" lon="127.132844">
			<ele>0.00</ele>
			<time>2020-01-20T02:04:50.33Z</time>
		</trkpt>
		<trkpt lat="34.702031" lon="127.132557">
			<ele>0.00</ele>
			<time>2020-01-20T02:04:51.94Z</time>
		</trkpt>
		<trkpt lat="34.702193" lon="127.132141">
			<ele>0.00</ele>
			<time>2020-01-20T02:04:54.46Z</time>
		</trkpt>
		<trkpt lat="34.702343" lon="127.131782">
			<ele>0.00</ele>
			<time>2020-01-20T02:04:56.67Z</time>
		</trkpt>
		<trkpt lat="34.702459" lon="127.131485">
			<ele>0.00</ele>
			<time>2020-01-20T02:04:58.47Z</time>
		</trkpt>
		<trkpt lat="34.702593" lon="127.130965">
			<ele>0.00</ele>
			<time>2020-01-20T02:05:01.45Z</time>
		</trkpt>
		<trkpt lat="34.702704" lon="127.130479">
			<ele>0.00</ele>
			<time>2020-01-20T02:05:04.22Z</time>
		</trkpt>
		<trkpt lat="34.702782" lon="127.130137">
			<ele>0.00</ele>
			<time>2020-01-20T02:05:06.17Z</time>
		</trkpt>
		<trkpt lat="34.702871" lon="127.129782">
			<ele>0.00</ele>
			<time>2020-01-20T02:05:08.20Z</time>
		</trkpt>
		<trkpt lat="34.702935" lon="127.129606">
			<ele>0.00</ele>
			<time>2020-01-20T02:05:09.25Z</time>
		</trkpt>
		<trkpt lat="34.703310" lon="127.129603">
			<ele>0.00</ele>
			<time>2020-01-20T02:05:11.75Z</time>
		</trkpt>
		<trkpt lat="34.703630" lon="127.129684">
			<ele>0.00</ele>
			<time>2020-01-20T02:05:13.93Z</time>
		</trkpt>
		<trkpt lat="34.704181" lon="127.129745">
			<ele>0.00</ele>
			<time>2020-01-20T02:05:17.62Z</time>
		</trkpt>
		<trkpt lat="34.704392" lon="127.129758">
			<ele>0.00</ele>
			<time>2020-01-20T02:05:19.03Z</time>
		</trkpt>
		<trkpt lat="34.704573" lon="127.129630">
			<ele>0.00</ele>
			<time>2020-01-20T02:05:20.43Z</time>
		</trkpt>
		<trkpt lat="34.704895" lon="127.129288">
			<ele>0.00</ele>
			<time>2020-01-20T02:05:23.28Z</time>
		</trkpt>
		<trkpt lat="34.705067" lon="127.129111">
			<ele>0.00</ele>
			<time>2020-01-20T02:05:24.77Z</time>
		</trkpt>
		<trkpt lat="34.705788" lon="127.129055">
			<ele>0.00</ele>
			<time>2020-01-20T02:05:29.60Z</time>
		</trkpt>
		<trkpt lat="34.706432" lon="127.129054">
			<ele>0.00</ele>
			<time>2020-01-20T02:05:33.89Z</time>
		</trkpt>
		<trkpt lat="34.706691" lon="127.129070">
			<ele>0.00</ele>
			<time>2020-01-20T02:05:35.61Z</time>
		</trkpt>
		<trkpt lat="34.706800" lon="127.129084">
			<ele>0.00</ele>
			<time>2020-01-20T02:05:36.34Z</time>
		</trkpt>
		<trkpt lat="34.706884" lon="127.129114">
			<ele>0.00</ele>
			<time>2020-01-20T02:05:36.93Z</time>
		</trkpt>
		<trkpt lat="34.706923" lon="127.128984">
			<ele>0.00</ele>
			<time>2020-01-20T02:05:37.69Z</time>
		</trkpt>
		<trkpt lat="34.706957" lon="127.128847">
			<ele>0.00</ele>
			<time>2020-01-20T02:05:38.47Z</time>
		</trkpt>
		<trkpt lat="34.706944" lon="127.128810">
			<ele>0.00</ele>
			<time>2020-01-20T02:05:38.69Z</time>
		</trkpt>
		<trkpt lat="34.706926" lon="127.128797">
			<ele>0.00</ele>
			<time>2020-01-20T02:05:38.83Z</time>
		</trkpt>
		<trkpt lat="34.706767" lon="127.128754">
			<ele>0.00</ele>
			<time>2020-01-20T02:05:39.92Z</time>
		</trkpt>
		<trkpt lat="34.706537" lon="127.128661">
			<ele>0.00</ele>
			<time>2020-01-20T02:05:41.53Z</time>
		</trkpt>
		<trkpt lat="34.706270" lon="127.128551">
			<ele>0.00</ele>
			<time>2020-01-20T02:05:43.41Z</time>
		</trkpt>
		<trkpt lat="34.706156" lon="127.128499">
			<ele>0.00</ele>
			<time>2020-01-20T02:05:44.22Z</time>
		</trkpt>
		<trkpt lat="34.706105" lon="127.128458">
			<ele>0.00</ele>
			<time>2020-01-20T02:05:44.63Z</time>
		</trkpt>
		<trkpt lat="34.706024" lon="127.128354">
			<ele>0.00</ele>
			<time>2020-01-20T02:05:45.42Z</time>
		</trkpt>
		<trkpt lat="34.705968" lon="127.128243">
			<ele>0.00</ele>
			<time>2020-01-20T02:05:46.13Z</time>
		</trkpt>
		<trkpt lat="34.705910" lon="127.128205">
			<ele>0.00</ele>
			<time>2020-01-20T02:05:46.57Z</time>
		</trkpt>
		<trkpt lat="34.705874" lon="127.128216">
			<ele>0.00</ele>
			<time>2020-01-20T02:05:46.82Z</time>
		</trkpt>
		<trkpt lat="34.705835" lon="127.128302">
			<ele>0.00</ele>
			<time>2020-01-20T02:05:47.36Z</time>
		</trkpt>
		<trkpt lat="34.705739" lon="127.128439">
			<ele>0.00</ele>
			<time>2020-01-20T02:05:48.35Z</time>
		</trkpt>
		<trkpt lat="34.705629" lon="127.128529">
			<ele>0.00</ele>
			<time>2020-01-20T02:05:49.23Z</time>
		</trkpt>
		<trkpt lat="34.705519" lon="127.128559">
			<ele>0.00</ele>
			<time>2020-01-20T02:05:49.98Z</time>
		</trkpt>
		<trkpt lat="34.705303" lon="127.128600">
			<ele>0.00</ele>
			<time>2020-01-20T02:05:51.44Z</time>
		</trkpt>
		<trkpt lat="34.704929" lon="127.128684">
			<ele>0.00</ele>
			<time>2020-01-20T02:05:53.97Z</time>
		</trkpt>
		<trkpt lat="34.704572" lon="127.128752">
			<ele>0.00</ele>
			<time>2020-01-20T02:05:56.38Z</time>
		</trkpt>
		<trkpt lat="34.704319" lon="127.128784">
			<ele>0.00</ele>
			<time>2020-01-20T02:05:58.07Z</time>
		</trkpt>
		<trkpt lat="34.704169" lon="127.128784">
			<ele>0.00</ele>
			<time>2020-01-20T02:05:59.08Z</time>
		</trkpt>
		<trkpt lat="34.704041" lon="127.128768">
			<ele>0.00</ele>
			<time>2020-01-20T02:05:59.93Z</time>
		</trkpt>
		<trkpt lat="34.703911" lon="127.128721">
			<ele>0.00</ele>
			<time>2020-01-20T02:06:00.84Z</time>
		</trkpt>
		<trkpt lat="34.703514" lon="127.128514">
			<ele>0.00</ele>
			<time>2020-01-20T02:06:03.72Z</time>
		</trkpt>
		<trkpt lat="34.703190" lon="127.128355">
			<ele>0.00</ele>
			<time>2020-01-20T02:06:06.05Z</time>
		</trkpt>
		<trkpt lat="34.702975" lon="127.128224">
			<ele>0.00</ele>
			<time>2020-01-20T02:06:07.65Z</time>
		</trkpt>
		<trkpt lat="34.702854" lon="127.128126">
			<ele>0.00</ele>
			<time>2020-01-20T02:06:08.62Z</time>
		</trkpt>
		<trkpt lat="34.702640" lon="127.127923">
			<ele>0.00</ele>
			<time>2020-01-20T02:06:10.43Z</time>
		</trkpt>
		<trkpt lat="34.702418" lon="127.127640">
			<ele>0.00</ele>
			<time>2020-01-20T02:06:12.57Z</time>
		</trkpt>
		<trkpt lat="34.702237" lon="127.127353">
			<ele>0.00</ele>
			<time>2020-01-20T02:06:14.56Z</time>
		</trkpt>
		<trkpt lat="34.701864" lon="127.126781">
			<ele>0.00</ele>
			<time>2020-01-20T02:06:18.56Z</time>
		</trkpt>
		<trkpt lat="34.701438" lon="127.126107">
			<ele>0.00</ele>
			<time>2020-01-20T02:06:23.22Z</time>
		</trkpt>
		<trkpt lat="34.701116" lon="127.125600">
			<ele>0.00</ele>
			<time>2020-01-20T02:06:26.73Z</time>
		</trkpt>
		<trkpt lat="34.701026" lon="127.125443">
			<ele>0.00</ele>
			<time>2020-01-20T02:06:27.78Z</time>
		</trkpt>
		<trkpt lat="34.701021" lon="127.125375">
			<ele>0.00</ele>
			<time>2020-01-20T02:06:28.15Z</time>
		</trkpt>
		<trkpt lat="34.701044" lon="127.125255">
			<ele>0.00</ele>
			<time>2020-01-20T02:06:28.83Z</time>
		</trkpt>
		<trkpt lat="34.701109" lon="127.125052">
			<ele>0.00</ele>
			<time>2020-01-20T02:06:30.02Z</time>
		</trkpt>
		<trkpt lat="34.701289" lon="127.124597">
			<ele>0.00</ele>
			<time>2020-01-20T02:06:32.79Z</time>
		</trkpt>
		<trkpt lat="34.701359" lon="127.124423">
			<ele>0.00</ele>
			<time>2020-01-20T02:06:33.85Z</time>
		</trkpt>
		<trkpt lat="34.701386" lon="127.124363">
			<ele>0.00</ele>
			<time>2020-01-20T02:06:34.22Z</time>
		</trkpt>
		<trkpt lat="34.701424" lon="127.124348">
			<ele>0.00</ele>
			<time>2020-01-20T02:06:34.49Z</time>
		</trkpt>
		<trkpt lat="34.701438" lon="127.124323">
			<ele>0.00</ele>
			<time>2020-01-20T02:06:34.65Z</time>
		</trkpt>
		<trkpt lat="34.701368" lon="127.124088">
			<ele>0.00</ele>
			<time>2020-01-20T02:06:36.02Z</time>
		</trkpt>
		<trkpt lat="34.701009" lon="127.123889">
			<ele>0.00</ele>
			<time>2020-01-20T02:06:38.65Z</time>
		</trkpt>
		<trkpt lat="34.700725" lon="127.123703">
			<ele>0.00</ele>
			<time>2020-01-20T02:06:40.80Z</time>
		</trkpt>
		<trkpt lat="34.700414" lon="127.123459">
			<ele>0.00</ele>
			<time>2020-01-20T02:06:43.27Z</time>
		</trkpt>
		<trkpt lat="34.700165" lon="127.123268">
			<ele>0.00</ele>
			<time>2020-01-20T02:06:45.24Z</time>
		</trkpt>
		<trkpt lat="34.699930" lon="127.123083">
			<ele>0.00</ele>
			<time>2020-01-20T02:06:47.10Z</time>
		</trkpt>
		<trkpt lat="34.699765" lon="127.122940">
			<ele>0.00</ele>
			<time>2020-01-20T02:06:48.45Z</time>
		</trkpt>
		<trkpt lat="34.699626" lon="127.122787">
			<ele>0.00</ele>
			<time>2020-01-20T02:06:49.70Z</time>
		</trkpt>
		<trkpt lat="34.699484" lon="127.122641">
			<ele>0.00</ele>
			<time>2020-01-20T02:06:50.94Z</time>
		</trkpt>
		<trkpt lat="34.699323" lon="127.122447">
			<ele>0.00</ele>
			<time>2020-01-20T02:06:52.45Z</time>
		</trkpt>
		<trkpt lat="34.699155" lon="127.122203">
			<ele>0.00</ele>
			<time>2020-01-20T02:06:54.20Z</time>
		</trkpt>
		<trkpt lat="34.699039" lon="127.122017">
			<ele>0.00</ele>
			<time>2020-01-20T02:06:55.48Z</time>
		</trkpt>
		<trkpt lat="34.698979" lon="127.121907">
			<ele>0.00</ele>
			<time>2020-01-20T02:06:56.20Z</time>
		</trkpt>
		<trkpt lat="34.698955" lon="127.121823">
			<ele>0.00</ele>
			<time>2020-01-20T02:06:56.69Z</time>
		</trkpt>
		<trkpt lat="34.698958" lon="127.121757">
			<ele>0.00</ele>
			<time>2020-01-20T02:06:57.05Z</time>
		</trkpt>
		<trkpt lat="34.698988" lon="127.121641">
			<ele>0.00</ele>
			<time>2020-01-20T02:06:57.72Z</time>
		</trkpt>
		<trkpt lat="34.699013" lon="127.121583">
			<ele>0.00</ele>
			<time>2020-01-20T02:06:58.07Z</time>
		</trkpt>
		<trkpt lat="34.699038" lon="127.121549">
			<ele>0.00</ele>
			<time>2020-01-20T02:06:58.33Z</time>
		</trkpt>
		<trkpt lat="34.699053" lon="127.121505">
			<ele>0.00</ele>
			<time>2020-01-20T02:06:58.59Z</time>
		</trkpt>
		<trkpt lat="34.699059" lon="127.121427">
			<ele>0.00</ele>
			<time>2020-01-20T02:06:59.02Z</time>
		</trkpt>
		<trkpt lat="34.699045" lon="127.121383">
			<ele>0.00</ele>
			<time>2020-01-20T02:06:59.28Z</time>
		</trkpt>
		<trkpt lat="34.698996" lon="127.121358">
			<ele>0.00</ele>
			<time>2020-01-20T02:06:59.63Z</time>
		</trkpt>
		<trkpt lat="34.698776" lon="127.121340">
			<ele>0.00</ele>
			<time>2020-01-20T02:07:01.11Z</time>
		</trkpt>
		<trkpt lat="34.698646" lon="127.121320">
			<ele>0.00</ele>
			<time>2020-01-20T02:07:01.97Z</time>
		</trkpt>
		<trkpt lat="34.698584" lon="127.121274">
			<ele>0.00</ele>
			<time>2020-01-20T02:07:02.46Z</time>
		</trkpt>
		<trkpt lat="34.698518" lon="127.121227">
			<ele>0.00</ele>
			<time>2020-01-20T02:07:02.97Z</time>
		</trkpt>
		<trkpt lat="34.698431" lon="127.121205">
			<ele>0.00</ele>
			<time>2020-01-20T02:07:03.56Z</time>
		</trkpt>
		<trkpt lat="34.698398" lon="127.121205">
			<ele>0.00</ele>
			<time>2020-01-20T02:07:03.78Z</time>
		</trkpt>
		<trkpt lat="34.698372" lon="127.121213">
			<ele>0.00</ele>
			<time>2020-01-20T02:07:03.96Z</time>
		</trkpt>
		<trkpt lat="34.698321" lon="127.121132">
			<ele>0.00</ele>
			<time>2020-01-20T02:07:04.52Z</time>
		</trkpt>
		<trkpt lat="34.698253" lon="127.121018">
			<ele>0.00</ele>
			<time>2020-01-20T02:07:05.29Z</time>
		</trkpt>
		<trkpt lat="34.698125" lon="127.120798">
			<ele>0.00</ele>
			<time>2020-01-20T02:07:06.77Z</time>
		</trkpt>
		<trkpt lat="34.698015" lon="127.120626">
			<ele>0.00</ele>
			<time>2020-01-20T02:07:07.96Z</time>
		</trkpt>
		<trkpt lat="34.697768" lon="127.120225">
			<ele>0.00</ele>
			<time>2020-01-20T02:07:10.71Z</time>
		</trkpt>
		<trkpt lat="34.697719" lon="127.120163">
			<ele>0.00</ele>
			<time>2020-01-20T02:07:11.18Z</time>
		</trkpt>
		<trkpt lat="34.697688" lon="127.120161">
			<ele>0.00</ele>
			<time>2020-01-20T02:07:11.39Z</time>
		</trkpt>
		<trkpt lat="34.697653" lon="127.120164">
			<ele>0.00</ele>
			<time>2020-01-20T02:07:11.62Z</time>
		</trkpt>
		<trkpt lat="34.697591" lon="127.120080">
			<ele>0.00</ele>
			<time>2020-01-20T02:07:12.24Z</time>
		</trkpt>
		<trkpt lat="34.697373" lon="127.119797">
			<ele>0.00</ele>
			<time>2020-01-20T02:07:14.37Z</time>
		</trkpt>
		<trkpt lat="34.697087" lon="127.119435">
			<ele>0.00</ele>
			<time>2020-01-20T02:07:17.12Z</time>
		</trkpt>
		<trkpt lat="34.697010" lon="127.119350">
			<ele>0.00</ele>
			<time>2020-01-20T02:07:17.81Z</time>
		</trkpt>
		<trkpt lat="34.696976" lon="127.119332">
			<ele>0.00</ele>
			<time>2020-01-20T02:07:18.06Z</time>
		</trkpt>
		<trkpt lat="34.696932" lon="127.119329">
			<ele>0.00</ele>
			<time>2020-01-20T02:07:18.35Z</time>
		</trkpt>
		<trkpt lat="34.696885" lon="127.119309">
			<ele>0.00</ele>
			<time>2020-01-20T02:07:18.69Z</time>
		</trkpt>
		<trkpt lat="34.696815" lon="127.119261">
			<ele>0.00</ele>
			<time>2020-01-20T02:07:19.22Z</time>
		</trkpt>
		<trkpt lat="34.696747" lon="127.119182">
			<ele>0.00</ele>
			<time>2020-01-20T02:07:19.85Z</time>
		</trkpt>
		<trkpt lat="34.696643" lon="127.119056">
			<ele>0.00</ele>
			<time>2020-01-20T02:07:20.83Z</time>
		</trkpt>
		<trkpt lat="34.696538" lon="127.118908">
			<ele>0.00</ele>
			<time>2020-01-20T02:07:21.90Z</time>
		</trkpt>
		<trkpt lat="34.696425" lon="127.118736">
			<ele>0.00</ele>
			<time>2020-01-20T02:07:23.11Z</time>
		</trkpt>
		<trkpt lat="34.696274" lon="127.118493">
			<ele>0.00</ele>
			<time>2020-01-20T02:07:24.78Z</time>
		</trkpt>
		<trkpt lat="34.696267" lon="127.118459">
			<ele>0.00</ele>
			<time>2020-01-20T02:07:24.96Z</time>
		</trkpt>
		<trkpt lat="34.696270" lon="127.118411">
			<ele>0.00</ele>
			<time>2020-01-20T02:07:25.23Z</time>
		</trkpt>
		<trkpt lat="34.696262" lon="127.118375">
			<ele>0.00</ele>
			<time>2020-01-20T02:07:25.44Z</time>
		</trkpt>
		<trkpt lat="34.696222" lon="127.118376">
			<ele>0.00</ele>
			<time>2020-01-20T02:07:25.71Z</time>
		</trkpt>
		<trkpt lat="34.696173" lon="127.118432">
			<ele>0.00</ele>
			<time>2020-01-20T02:07:26.16Z</time>
		</trkpt>
		<trkpt lat="34.696122" lon="127.118426">
			<ele>0.00</ele>
			<time>2020-01-20T02:07:26.49Z</time>
		</trkpt>
		<trkpt lat="34.695941" lon="127.118273">
			<ele>0.00</ele>
			<time>2020-01-20T02:07:27.96Z</time>
		</trkpt>
		<trkpt lat="34.695739" lon="127.118061">
			<ele>0.00</ele>
			<time>2020-01-20T02:07:29.74Z</time>
		</trkpt>
		<trkpt lat="34.695582" lon="127.117868">
			<ele>0.00</ele>
			<time>2020-01-20T02:07:31.23Z</time>
		</trkpt>
		<trkpt lat="34.695542" lon="127.117817">
			<ele>0.00</ele>
			<time>2020-01-20T02:07:31.62Z</time>
		</trkpt>
		<trkpt lat="34.695479" lon="127.117790">
			<ele>0.00</ele>
			<time>2020-01-20T02:07:32.06Z</time>
		</trkpt>
		<trkpt lat="34.695417" lon="127.117748">
			<ele>0.00</ele>
			<time>2020-01-20T02:07:32.54Z</time>
		</trkpt>
		<trkpt lat="34.695365" lon="127.117701">
			<ele>0.00</ele>
			<time>2020-01-20T02:07:32.96Z</time>
		</trkpt>
		<trkpt lat="34.695226" lon="127.117498">
			<ele>0.00</ele>
			<time>2020-01-20T02:07:34.42Z</time>
		</trkpt>
		<trkpt lat="34.695054" lon="127.117367">
			<ele>0.00</ele>
			<time>2020-01-20T02:07:35.77Z</time>
		</trkpt>
		<trkpt lat="34.694738" lon="127.117089">
			<ele>0.00</ele>
			<time>2020-01-20T02:07:38.37Z</time>
		</trkpt>
		<trkpt lat="34.694566" lon="127.116926">
			<ele>0.00</ele>
			<time>2020-01-20T02:07:39.82Z</time>
		</trkpt>
		<trkpt lat="34.694510" lon="127.116840">
			<ele>0.00</ele>
			<time>2020-01-20T02:07:40.43Z</time>
		</trkpt>
		<trkpt lat="34.694454" lon="127.116768">
			<ele>0.00</ele>
			<time>2020-01-20T02:07:40.97Z</time>
		</trkpt>
		<trkpt lat="34.694388" lon="127.116699">
			<ele>0.00</ele>
			<time>2020-01-20T02:07:41.55Z</time>
		</trkpt>
		<trkpt lat="34.694325" lon="127.116592">
			<ele>0.00</ele>
			<time>2020-01-20T02:07:42.27Z</time>
		</trkpt>
		<trkpt lat="34.694302" lon="127.116513">
			<ele>0.00</ele>
			<time>2020-01-20T02:07:42.73Z</time>
		</trkpt>
		<trkpt lat="34.694302" lon="127.116407">
			<ele>0.00</ele>
			<time>2020-01-20T02:07:43.31Z</time>
		</trkpt>
		<trkpt lat="34.694297" lon="127.116313">
			<ele>0.00</ele>
			<time>2020-01-20T02:07:43.83Z</time>
		</trkpt>
		<trkpt lat="34.694200" lon="127.116029">
			<ele>0.00</ele>
			<time>2020-01-20T02:07:45.51Z</time>
		</trkpt>
		<trkpt lat="34.694089" lon="127.115631">
			<ele>0.00</ele>
			<time>2020-01-20T02:07:47.82Z</time>
		</trkpt>
		<trkpt lat="34.693887" lon="127.114986">
			<ele>0.00</ele>
			<time>2020-01-20T02:07:51.60Z</time>
		</trkpt>
		<trkpt lat="34.693844" lon="127.114854">
			<ele>0.00</ele>
			<time>2020-01-20T02:07:52.38Z</time>
		</trkpt>
		<trkpt lat="34.693861" lon="127.114771">
			<ele>0.00</ele>
			<time>2020-01-20T02:07:52.85Z</time>
		</trkpt>
		<trkpt lat="34.693967" lon="127.114522">
			<ele>0.00</ele>
			<time>2020-01-20T02:07:54.38Z</time>
		</trkpt>
		<trkpt lat="34.694021" lon="127.114427">
			<ele>0.00</ele>
			<time>2020-01-20T02:07:55.02Z</time>
		</trkpt>
		<trkpt lat="34.694068" lon="127.114380">
			<ele>0.00</ele>
			<time>2020-01-20T02:07:55.42Z</time>
		</trkpt>
		<trkpt lat="34.694079" lon="127.114355">
			<ele>0.00</ele>
			<time>2020-01-20T02:07:55.58Z</time>
		</trkpt>
		<trkpt lat="34.693949" lon="127.114153">
			<ele>0.00</ele>
			<time>2020-01-20T02:07:56.99Z</time>
		</trkpt>
		<trkpt lat="34.693884" lon="127.114153">
			<ele>0.00</ele>
			<time>2020-01-20T02:07:57.42Z</time>
		</trkpt>
		<trkpt lat="34.693645" lon="127.114227">
			<ele>0.00</ele>
			<time>2020-01-20T02:07:59.06Z</time>
		</trkpt>
		<trkpt lat="34.693465" lon="127.114279">
			<ele>0.00</ele>
			<time>2020-01-20T02:08:00.30Z</time>
		</trkpt>
		<trkpt lat="34.693422" lon="127.114279">
			<ele>0.00</ele>
			<time>2020-01-20T02:08:00.58Z</time>
		</trkpt>
		<trkpt lat="34.693315" lon="127.114209">
			<ele>0.00</ele>
			<time>2020-01-20T02:08:01.39Z</time>
		</trkpt>
		<trkpt lat="34.692931" lon="127.113960">
			<ele>0.00</ele>
			<time>2020-01-20T02:08:04.29Z</time>
		</trkpt>
		<trkpt lat="34.692375" lon="127.113653">
			<ele>0.00</ele>
			<time>2020-01-20T02:08:08.37Z</time>
		</trkpt>
		<trkpt lat="34.691947" lon="127.113403">
			<ele>0.00</ele>
			<time>2020-01-20T02:08:11.53Z</time>
		</trkpt>
		<trkpt lat="34.691556" lon="127.113172">
			<ele>0.00</ele>
			<time>2020-01-20T02:08:14.43Z</time>
		</trkpt>
		<trkpt lat="34.691195" lon="127.112989">
			<ele>0.00</ele>
			<time>2020-01-20T02:08:17.03Z</time>
		</trkpt>
		<trkpt lat="34.690889" lon="127.112846">
			<ele>0.00</ele>
			<time>2020-01-20T02:08:19.22Z</time>
		</trkpt>
		<trkpt lat="34.690688" lon="127.112757">
			<ele>0.00</ele>
			<time>2020-01-20T02:08:20.65Z</time>
		</trkpt>
		<trkpt lat="34.690555" lon="127.112730">
			<ele>0.00</ele>
			<time>2020-01-20T02:08:21.55Z</time>
		</trkpt>
		<trkpt lat="34.690260" lon="127.112643">
			<ele>0.00</ele>
			<time>2020-01-20T02:08:23.57Z</time>
		</trkpt>
		<trkpt lat="34.689841" lon="127.112528">
			<ele>0.00</ele>
			<time>2020-01-20T02:08:26.43Z</time>
		</trkpt>
		<trkpt lat="34.689521" lon="127.112421">
			<ele>0.00</ele>
			<time>2020-01-20T02:08:28.64Z</time>
		</trkpt>
		<trkpt lat="34.689061" lon="127.112284">
			<ele>0.00</ele>
			<time>2020-01-20T02:08:31.80Z</time>
		</trkpt>
		<trkpt lat="34.688804" lon="127.112212">
			<ele>0.00</ele>
			<time>2020-01-20T02:08:33.56Z</time>
		</trkpt>
		<trkpt lat="34.688700" lon="127.112185">
			<ele>0.00</ele>
			<time>2020-01-20T02:08:34.27Z</time>
		</trkpt>
		<trkpt lat="34.688595" lon="127.112180">
			<ele>0.00</ele>
			<time>2020-01-20T02:08:34.97Z</time>
		</trkpt>
		<trkpt lat="34.688454" lon="127.112172">
			<ele>0.00</ele>
			<time>2020-01-20T02:08:35.91Z</time>
		</trkpt>
		<trkpt lat="34.688190" lon="127.112201">
			<ele>0.00</ele>
			<time>2020-01-20T02:08:37.68Z</time>
		</trkpt>
		<trkpt lat="34.688118" lon="127.112195">
			<ele>0.00</ele>
			<time>2020-01-20T02:08:38.16Z</time>
		</trkpt>
		<trkpt lat="34.688043" lon="127.112156">
			<ele>0.00</ele>
			<time>2020-01-20T02:08:38.70Z</time>
		</trkpt>
		<trkpt lat="34.687941" lon="127.112086">
			<ele>0.00</ele>
			<time>2020-01-20T02:08:39.48Z</time>
		</trkpt>
		<trkpt lat="34.687625" lon="127.111813">
			<ele>0.00</ele>
			<time>2020-01-20T02:08:42.07Z</time>
		</trkpt>
		<trkpt lat="34.687361" lon="127.111552">
			<ele>0.00</ele>
			<time>2020-01-20T02:08:44.34Z</time>
		</trkpt>
		<trkpt lat="34.687087" lon="127.111343">
			<ele>0.00</ele>
			<time>2020-01-20T02:08:46.49Z</time>
		</trkpt>
		<trkpt lat="34.686789" lon="127.111122">
			<ele>0.00</ele>
			<time>2020-01-20T02:08:48.82Z</time>
		</trkpt>
		<trkpt lat="34.686588" lon="127.110986">
			<ele>0.00</ele>
			<time>2020-01-20T02:08:50.35Z</time>
		</trkpt>
		<trkpt lat="34.686320" lon="127.110835">
			<ele>0.00</ele>
			<time>2020-01-20T02:08:52.32Z</time>
		</trkpt>
		<trkpt lat="34.686144" lon="127.110745">
			<ele>0.00</ele>
			<time>2020-01-20T02:08:53.60Z</time>
		</trkpt>
		<trkpt lat="34.685818" lon="127.110600">
			<ele>0.00</ele>
			<time>2020-01-20T02:08:55.91Z</time>
		</trkpt>
		<trkpt lat="34.685556" lon="127.110434">
			<ele>0.00</ele>
			<time>2020-01-20T02:08:57.88Z</time>
		</trkpt>
		<trkpt lat="34.685379" lon="127.110356">
			<ele>0.00</ele>
			<time>2020-01-20T02:08:59.13Z</time>
		</trkpt>
		<trkpt lat="34.685075" lon="127.110237">
			<ele>0.00</ele>
			<time>2020-01-20T02:09:01.26Z</time>
		</trkpt>
		<trkpt lat="34.684702" lon="127.110048">
			<ele>0.00</ele>
			<time>2020-01-20T02:09:03.96Z</time>
		</trkpt>
		<trkpt lat="34.684611" lon="127.110033">
			<ele>0.00</ele>
			<time>2020-01-20T02:09:04.57Z</time>
		</trkpt>
		<trkpt lat="34.684340" lon="127.109991">
			<ele>0.00</ele>
			<time>2020-01-20T02:09:06.39Z</time>
		</trkpt>
		<trkpt lat="34.684136" lon="127.109988">
			<ele>0.00</ele>
			<time>2020-01-20T02:09:07.75Z</time>
		</trkpt>
		<trkpt lat="34.683934" lon="127.109983">
			<ele>0.00</ele>
			<time>2020-01-20T02:09:09.10Z</time>
		</trkpt>
		<trkpt lat="34.683788" lon="127.110022">
			<ele>0.00</ele>
			<time>2020-01-20T02:09:10.09Z</time>
		</trkpt>
		<trkpt lat="34.683687" lon="127.110088">
			<ele>0.00</ele>
			<time>2020-01-20T02:09:10.86Z</time>
		</trkpt>
		<trkpt lat="34.683589" lon="127.110175">
			<ele>0.00</ele>
			<time>2020-01-20T02:09:11.67Z</time>
		</trkpt>
		<trkpt lat="34.683493" lon="127.110220">
			<ele>0.00</ele>
			<time>2020-01-20T02:09:12.35Z</time>
		</trkpt>
		<trkpt lat="34.683448" lon="127.110219">
			<ele>0.00</ele>
			<time>2020-01-20T02:09:12.65Z</time>
		</trkpt>
		<trkpt lat="34.683362" lon="127.110187">
			<ele>0.00</ele>
			<time>2020-01-20T02:09:13.25Z</time>
		</trkpt>
		<trkpt lat="34.683319" lon="127.110154">
			<ele>0.00</ele>
			<time>2020-01-20T02:09:13.59Z</time>
		</trkpt>
		<trkpt lat="34.683265" lon="127.110170">
			<ele>0.00</ele>
			<time>2020-01-20T02:09:13.96Z</time>
		</trkpt>
		<trkpt lat="34.683232" lon="127.110243">
			<ele>0.00</ele>
			<time>2020-01-20T02:09:14.42Z</time>
		</trkpt>
		<trkpt lat="34.683206" lon="127.110311">
			<ele>0.00</ele>
			<time>2020-01-20T02:09:14.83Z</time>
		</trkpt>
		<trkpt lat="34.683173" lon="127.110352">
			<ele>0.00</ele>
			<time>2020-01-20T02:09:15.14Z</time>
		</trkpt>
		<trkpt lat="34.683134" lon="127.110367">
			<ele>0.00</ele>
			<time>2020-01-20T02:09:15.42Z</time>
		</trkpt>
		<trkpt lat="34.683062" lon="127.110386">
			<ele>0.00</ele>
			<time>2020-01-20T02:09:15.91Z</time>
		</trkpt>
		<trkpt lat="34.682978" lon="127.110371">
			<ele>0.00</ele>
			<time>2020-01-20T02:09:16.47Z</time>
		</trkpt>
		<trkpt lat="34.682755" lon="127.110323">
			<ele>0.00</ele>
			<time>2020-01-20T02:09:17.98Z</time>
		</trkpt>
		<trkpt lat="34.682445" lon="127.110265">
			<ele>0.00</ele>
			<time>2020-01-20T02:09:20.07Z</time>
		</trkpt>
		<trkpt lat="34.682218" lon="127.110244">
			<ele>0.00</ele>
			<time>2020-01-20T02:09:21.59Z</time>
		</trkpt>
		<trkpt lat="34.682139" lon="127.110244">
			<ele>0.00</ele>
			<time>2020-01-20T02:09:22.11Z</time>
		</trkpt>
		<trkpt lat="34.682036" lon="127.110276">
			<ele>0.00</ele>
			<time>2020-01-20T02:09:22.82Z</time>
		</trkpt>
		<trkpt lat="34.681931" lon="127.110332">
			<ele>0.00</ele>
			<time>2020-01-20T02:09:23.59Z</time>
		</trkpt>
		<trkpt lat="34.681861" lon="127.110381">
			<ele>0.00</ele>
			<time>2020-01-20T02:09:24.13Z</time>
		</trkpt>
		<trkpt lat="34.681823" lon="127.110415">
			<ele>0.00</ele>
			<time>2020-01-20T02:09:24.44Z</time>
		</trkpt>
		<trkpt lat="34.681758" lon="127.110461">
			<ele>0.00</ele>
			<time>2020-01-20T02:09:24.95Z</time>
		</trkpt>
		<trkpt lat="34.681651" lon="127.110500">
			<ele>0.00</ele>
			<time>2020-01-20T02:09:25.69Z</time>
		</trkpt>
		<trkpt lat="34.681565" lon="127.110499">
			<ele>0.00</ele>
			<time>2020-01-20T02:09:26.26Z</time>
		</trkpt>
		<trkpt lat="34.681480" lon="127.110517">
			<ele>0.00</ele>
			<time>2020-01-20T02:09:26.84Z</time>
		</trkpt>
		<trkpt lat="34.681422" lon="127.110496">
			<ele>0.00</ele>
			<time>2020-01-20T02:09:27.24Z</time>
		</trkpt>
		<trkpt lat="34.681332" lon="127.110407">
			<ele>0.00</ele>
			<time>2020-01-20T02:09:28.01Z</time>
		</trkpt>
		<trkpt lat="34.681298" lon="127.110341">
			<ele>0.00</ele>
			<time>2020-01-20T02:09:28.44Z</time>
		</trkpt>
		<trkpt lat="34.681310" lon="127.110272">
			<ele>0.00</ele>
			<time>2020-01-20T02:09:28.82Z</time>
		</trkpt>
		<trkpt lat="34.681340" lon="127.110167">
			<ele>0.00</ele>
			<time>2020-01-20T02:09:29.43Z</time>
		</trkpt>
		<trkpt lat="34.681399" lon="127.110082">
			<ele>0.00</ele>
			<time>2020-01-20T02:09:30.04Z</time>
		</trkpt>
		<trkpt lat="34.681473" lon="127.110006">
			<ele>0.00</ele>
			<time>2020-01-20T02:09:30.69Z</time>
		</trkpt>
		<trkpt lat="34.681549" lon="127.109902">
			<ele>0.00</ele>
			<time>2020-01-20T02:09:31.45Z</time>
		</trkpt>
		<trkpt lat="34.681625" lon="127.109785">
			<ele>0.00</ele>
			<time>2020-01-20T02:09:32.27Z</time>
		</trkpt>
		<trkpt lat="34.681676" lon="127.109668">
			<ele>0.00</ele>
			<time>2020-01-20T02:09:33Z</time>
		</trkpt>
		<trkpt lat="34.681701" lon="127.109551">
			<ele>0.00</ele>
			<time>2020-01-20T02:09:33.66Z</time>
		</trkpt>
		<trkpt lat="34.681701" lon="127.109430">
			<ele>0.00</ele>
			<time>2020-01-20T02:09:34.32Z</time>
		</trkpt>
		<trkpt lat="34.681676" lon="127.109338">
			<ele>0.00</ele>
			<time>2020-01-20T02:09:34.85Z</time>
		</trkpt>
		<trkpt lat="34.681597" lon="127.109189">
			<ele>0.00</ele>
			<time>2020-01-20T02:09:35.83Z</time>
		</trkpt>
		<trkpt lat="34.681561" lon="127.109111">
			<ele>0.00</ele>
			<time>2020-01-20T02:09:36.32Z</time>
		</trkpt>
		<trkpt lat="34.681552" lon="127.109032">
			<ele>0.00</ele>
			<time>2020-01-20T02:09:36.75Z</time>
		</trkpt>
		<trkpt lat="34.681552" lon="127.109027">
			<ele>0.00</ele>
			<time>2020-01-20T02:09:36.81Z</time>
		</trkpt>
		<trkpt lat="34.681558" lon="127.108931">
			<ele>0.00</ele>
			<time>2020-01-20T02:09:37.34Z</time>
		</trkpt>
		<trkpt lat="34.681606" lon="127.108865">
			<ele>0.00</ele>
			<time>2020-01-20T02:09:37.82Z</time>
		</trkpt>
		<trkpt lat="34.681701" lon="127.108729">
			<ele>0.00</ele>
			<time>2020-01-20T02:09:38.80Z</time>
		</trkpt>
		<trkpt lat="34.681770" lon="127.108628">
			<ele>0.00</ele>
			<time>2020-01-20T02:09:39.52Z</time>
		</trkpt>
		<trkpt lat="34.681788" lon="127.108535">
			<ele>0.00</ele>
			<time>2020-01-20T02:09:40.04Z</time>
		</trkpt>
		<trkpt lat="34.681794" lon="127.108472">
			<ele>0.00</ele>
			<time>2020-01-20T02:09:40.39Z</time>
		</trkpt>
		<trkpt lat="34.681786" lon="127.108373">
			<ele>0.00</ele>
			<time>2020-01-20T02:09:40.94Z</time>
		</trkpt>
		<trkpt lat="34.681758" lon="127.108355">
			<ele>0.00</ele>
			<time>2020-01-20T02:09:41.15Z</time>
		</trkpt>
		<trkpt lat="34.681698" lon="127.108343">
			<ele>0.00</ele>
			<time>2020-01-20T02:09:41.55Z</time>
		</trkpt>
		<trkpt lat="34.681627" lon="127.108367">
			<ele>0.00</ele>
			<time>2020-01-20T02:09:42.05Z</time>
		</trkpt>
		<trkpt lat="34.681541" lon="127.108406">
			<ele>0.00</ele>
			<time>2020-01-20T02:09:42.66Z</time>
		</trkpt>
		<trkpt lat="34.681443" lon="127.108394">
			<ele>0.00</ele>
			<time>2020-01-20T02:09:43.31Z</time>
		</trkpt>
		<trkpt lat="34.681325" lon="127.108373">
			<ele>0.00</ele>
			<time>2020-01-20T02:09:44.11Z</time>
		</trkpt>
		<trkpt lat="34.681071" lon="127.108309">
			<ele>0.00</ele>
			<time>2020-01-20T02:09:45.84Z</time>
		</trkpt>
		<trkpt lat="34.680952" lon="127.108357">
			<ele>0.00</ele>
			<time>2020-01-20T02:09:46.67Z</time>
		</trkpt>
		<trkpt lat="34.680950" lon="127.108357">
			<ele>0.00</ele>
			<time>2020-01-20T02:09:46.73Z</time>
		</trkpt>
		<trkpt lat="34.680875" lon="127.108416">
			<ele>0.00</ele>
			<time>2020-01-20T02:09:47.33Z</time>
		</trkpt>
		<trkpt lat="34.680790" lon="127.108516">
			<ele>0.00</ele>
			<time>2020-01-20T02:09:48.12Z</time>
		</trkpt>
		<trkpt lat="34.680698" lon="127.108621">
			<ele>0.00</ele>
			<time>2020-01-20T02:09:48.96Z</time>
		</trkpt>
		<trkpt lat="34.680612" lon="127.108695">
			<ele>0.00</ele>
			<time>2020-01-20T02:09:49.66Z</time>
		</trkpt>
		<trkpt lat="34.680512" lon="127.108768">
			<ele>0.00</ele>
			<time>2020-01-20T02:09:50.44Z</time>
		</trkpt>
		<trkpt lat="34.680424" lon="127.108812">
			<ele>0.00</ele>
			<time>2020-01-20T02:09:51.08Z</time>
		</trkpt>
		<trkpt lat="34.680246" lon="127.108871">
			<ele>0.00</ele>
			<time>2020-01-20T02:09:52.31Z</time>
		</trkpt>
		<trkpt lat="34.680134" lon="127.108893">
			<ele>0.00</ele>
			<time>2020-01-20T02:09:53.06Z</time>
		</trkpt>
		<trkpt lat="34.680133" lon="127.108891">
			<ele>0.00</ele>
			<time>2020-01-20T02:09:53.12Z</time>
		</trkpt>
		<trkpt lat="34.680100" lon="127.108915">
			<ele>0.00</ele>
			<time>2020-01-20T02:09:53.38Z</time>
		</trkpt>
		<trkpt lat="34.680078" lon="127.108977">
			<ele>0.00</ele>
			<time>2020-01-20T02:09:53.75Z</time>
		</trkpt>
		<trkpt lat="34.680045" lon="127.109090">
			<ele>0.00</ele>
			<time>2020-01-20T02:09:54.41Z</time>
		</trkpt>
		<trkpt lat="34.679993" lon="127.109217">
			<ele>0.00</ele>
			<time>2020-01-20T02:09:55.18Z</time>
		</trkpt>
		<trkpt lat="34.679952" lon="127.109306">
			<ele>0.00</ele>
			<time>2020-01-20T02:09:55.74Z</time>
		</trkpt>
		<trkpt lat="34.679891" lon="127.109388">
			<ele>0.00</ele>
			<time>2020-01-20T02:09:56.35Z</time>
		</trkpt>
		<trkpt lat="34.679835" lon="127.109467">
			<ele>0.00</ele>
			<time>2020-01-20T02:09:56.92Z</time>
		</trkpt>
		<trkpt lat="34.679776" lon="127.109495">
			<ele>0.00</ele>
			<time>2020-01-20T02:09:57.34Z</time>
		</trkpt>
		<trkpt lat="34.679718" lon="127.109504">
			<ele>0.00</ele>
			<time>2020-01-20T02:09:57.73Z</time>
		</trkpt>
		<trkpt lat="34.679635" lon="127.109519">
			<ele>0.00</ele>
			<time>2020-01-20T02:09:58.30Z</time>
		</trkpt>
		<trkpt lat="34.679564" lon="127.109516">
			<ele>0.00</ele>
			<time>2020-01-20T02:09:58.77Z</time>
		</trkpt>
		<trkpt lat="34.679509" lon="127.109477">
			<ele>0.00</ele>
			<time>2020-01-20T02:09:59.19Z</time>
		</trkpt>
		<trkpt lat="34.679411" lon="127.109385">
			<ele>0.00</ele>
			<time>2020-01-20T02:10:00.02Z</time>
		</trkpt>
		<trkpt lat="34.679339" lon="127.109307">
			<ele>0.00</ele>
			<time>2020-01-20T02:10:00.66Z</time>
		</trkpt>
		<trkpt lat="34.679287" lon="127.109212">
			<ele>0.00</ele>
			<time>2020-01-20T02:10:01.29Z</time>
		</trkpt>
		<trkpt lat="34.679249" lon="127.109097">
			<ele>0.00</ele>
			<time>2020-01-20T02:10:01.96Z</time>
		</trkpt>
		<trkpt lat="34.679199" lon="127.108868">
			<ele>0.00</ele>
			<time>2020-01-20T02:10:03.26Z</time>
		</trkpt>
		<trkpt lat="34.679123" lon="127.108504">
			<ele>0.00</ele>
			<time>2020-01-20T02:10:05.32Z</time>
		</trkpt>
		<trkpt lat="34.679074" lon="127.108312">
			<ele>0.00</ele>
			<time>2020-01-20T02:10:06.43Z</time>
		</trkpt>
		<trkpt lat="34.679010" lon="127.108131">
			<ele>0.00</ele>
			<time>2020-01-20T02:10:07.51Z</time>
		</trkpt>
		<trkpt lat="34.678942" lon="127.108014">
			<ele>0.00</ele>
			<time>2020-01-20T02:10:08.29Z</time>
		</trkpt>
		<trkpt lat="34.678823" lon="127.107833">
			<ele>0.00</ele>
			<time>2020-01-20T02:10:09.56Z</time>
		</trkpt>
		<trkpt lat="34.678616" lon="127.107511">
			<ele>0.00</ele>
			<time>2020-01-20T02:10:11.80Z</time>
		</trkpt>
		<trkpt lat="34.678445" lon="127.107234">
			<ele>0.00</ele>
			<time>2020-01-20T02:10:13.70Z</time>
		</trkpt>
		<trkpt lat="34.678344" lon="127.107102">
			<ele>0.00</ele>
			<time>2020-01-20T02:10:14.69Z</time>
		</trkpt>
		<trkpt lat="34.678266" lon="127.107010">
			<ele>0.00</ele>
			<time>2020-01-20T02:10:15.41Z</time>
		</trkpt>
		<trkpt lat="34.678163" lon="127.106924">
			<ele>0.00</ele>
			<time>2020-01-20T02:10:16.25Z</time>
		</trkpt>
		<trkpt lat="34.678000" lon="127.106773">
			<ele>0.00</ele>
			<time>2020-01-20T02:10:17.61Z</time>
		</trkpt>
		<trkpt lat="34.677872" lon="127.106666">
			<ele>0.00</ele>
			<time>2020-01-20T02:10:18.65Z</time>
		</trkpt>
		<trkpt lat="34.677781" lon="127.106599">
			<ele>0.00</ele>
			<time>2020-01-20T02:10:19.36Z</time>
		</trkpt>
		<trkpt lat="34.677702" lon="127.106577">
			<ele>0.00</ele>
			<time>2020-01-20T02:10:19.90Z</time>
		</trkpt>
		<trkpt lat="34.677598" lon="127.106586">
			<ele>0.00</ele>
			<time>2020-01-20T02:10:20.60Z</time>
		</trkpt>
		<trkpt lat="34.677506" lon="127.106616">
			<ele>0.00</ele>
			<time>2020-01-20T02:10:21.23Z</time>
		</trkpt>
		<trkpt lat="34.677226" lon="127.106701">
			<ele>0.00</ele>
			<time>2020-01-20T02:10:23.15Z</time>
		</trkpt>
		<trkpt lat="34.677081" lon="127.106754">
			<ele>0.00</ele>
			<time>2020-01-20T02:10:24.16Z</time>
		</trkpt>
		<trkpt lat="34.677049" lon="127.106738">
			<ele>0.00</ele>
			<time>2020-01-20T02:10:24.39Z</time>
		</trkpt>
		<trkpt lat="34.677004" lon="127.106703">
			<ele>0.00</ele>
			<time>2020-01-20T02:10:24.75Z</time>
		</trkpt>
		<trkpt lat="34.676968" lon="127.106659">
			<ele>0.00</ele>
			<time>2020-01-20T02:10:25.09Z</time>
		</trkpt>
		<trkpt lat="34.676959" lon="127.106566">
			<ele>0.00</ele>
			<time>2020-01-20T02:10:25.60Z</time>
		</trkpt>
		<trkpt lat="34.676946" lon="127.106388">
			<ele>0.00</ele>
			<time>2020-01-20T02:10:26.58Z</time>
		</trkpt>
		<trkpt lat="34.676928" lon="127.105939">
			<ele>0.00</ele>
			<time>2020-01-20T02:10:29.05Z</time>
		</trkpt>
		<trkpt lat="34.676907" lon="127.105568">
			<ele>0.00</ele>
			<time>2020-01-20T02:10:31.09Z</time>
		</trkpt>
		<trkpt lat="34.676879" lon="127.105211">
			<ele>0.00</ele>
			<time>2020-01-20T02:10:33.05Z</time>
		</trkpt>
		<trkpt lat="34.676845" lon="127.104802">
			<ele>0.00</ele>
			<time>2020-01-20T02:10:35.30Z</time>
		</trkpt>
		<trkpt lat="34.676818" lon="127.104412">
			<ele>0.00</ele>
			<time>2020-01-20T02:10:37.45Z</time>
		</trkpt>
		<trkpt lat="34.676795" lon="127.104164">
			<ele>0.00</ele>
			<time>2020-01-20T02:10:38.82Z</time>
		</trkpt>
		<trkpt lat="34.676712" lon="127.103663">
			<ele>0.00</ele>
			<time>2020-01-20T02:10:41.62Z</time>
		</trkpt>
		<trkpt lat="34.676651" lon="127.103376">
			<ele>0.00</ele>
			<time>2020-01-20T02:10:43.25Z</time>
		</trkpt>
		<trkpt lat="34.676541" lon="127.102803">
			<ele>0.00</ele>
			<time>2020-01-20T02:10:46.47Z</time>
		</trkpt>
		<trkpt lat="34.676461" lon="127.102268">
			<ele>0.00</ele>
			<time>2020-01-20T02:10:49.45Z</time>
		</trkpt>
		<trkpt lat="34.676425" lon="127.102031">
			<ele>0.00</ele>
			<time>2020-01-20T02:10:50.78Z</time>
		</trkpt>
		<trkpt lat="34.676372" lon="127.101830">
			<ele>0.00</ele>
			<time>2020-01-20T02:10:51.93Z</time>
		</trkpt>
		<trkpt lat="34.676286" lon="127.101568">
			<ele>0.00</ele>
			<time>2020-01-20T02:10:53.48Z</time>
		</trkpt>
		<trkpt lat="34.676170" lon="127.101223">
			<ele>0.00</ele>
			<time>2020-01-20T02:10:55.52Z</time>
		</trkpt>
		<trkpt lat="34.676001" lon="127.100807">
			<ele>0.00</ele>
			<time>2020-01-20T02:10:58.07Z</time>
		</trkpt>
		<trkpt lat="34.675774" lon="127.100420">
			<ele>0.00</ele>
			<time>2020-01-20T02:11:00.67Z</time>
		</trkpt>
		<trkpt lat="34.675588" lon="127.100090">
			<ele>0.00</ele>
			<time>2020-01-20T02:11:02.87Z</time>
		</trkpt>
		<trkpt lat="34.675388" lon="127.099741">
			<ele>0.00</ele>
			<time>2020-01-20T02:11:05.20Z</time>
		</trkpt>
		<trkpt lat="34.675141" lon="127.099378">
			<ele>0.00</ele>
			<time>2020-01-20T02:11:07.78Z</time>
		</trkpt>
		<trkpt lat="34.674997" lon="127.099208">
			<ele>0.00</ele>
			<time>2020-01-20T02:11:09.12Z</time>
		</trkpt>
		<trkpt lat="34.674860" lon="127.099090">
			<ele>0.00</ele>
			<time>2020-01-20T02:11:10.24Z</time>
		</trkpt>
		<trkpt lat="34.674758" lon="127.099008">
			<ele>0.00</ele>
			<time>2020-01-20T02:11:11.06Z</time>
		</trkpt>
		<trkpt lat="34.674652" lon="127.098934">
			<ele>0.00</ele>
			<time>2020-01-20T02:11:11.87Z</time>
		</trkpt>
		<trkpt lat="34.674563" lon="127.098865">
			<ele>0.00</ele>
			<time>2020-01-20T02:11:12.57Z</time>
		</trkpt>
		<trkpt lat="34.674352" lon="127.098717">
			<ele>0.00</ele>
			<time>2020-01-20T02:11:14.20Z</time>
		</trkpt>
		<trkpt lat="34.674241" lon="127.098627">
			<ele>0.00</ele>
			<time>2020-01-20T02:11:15.08Z</time>
		</trkpt>
		<trkpt lat="34.674135" lon="127.098555">
			<ele>0.00</ele>
			<time>2020-01-20T02:11:15.89Z</time>
		</trkpt>
		<trkpt lat="34.673949" lon="127.098439">
			<ele>0.00</ele>
			<time>2020-01-20T02:11:17.29Z</time>
		</trkpt>
		<trkpt lat="34.673791" lon="127.098324">
			<ele>0.00</ele>
			<time>2020-01-20T02:11:18.52Z</time>
		</trkpt>
		<trkpt lat="34.673639" lon="127.098220">
			<ele>0.00</ele>
			<time>2020-01-20T02:11:19.68Z</time>
		</trkpt>
		<trkpt lat="34.673572" lon="127.098188">
			<ele>0.00</ele>
			<time>2020-01-20T02:11:20.16Z</time>
		</trkpt>
		<trkpt lat="34.673480" lon="127.098158">
			<ele>0.00</ele>
			<time>2020-01-20T02:11:20.79Z</time>
		</trkpt>
		<trkpt lat="34.673373" lon="127.098126">
			<ele>0.00</ele>
			<time>2020-01-20T02:11:21.53Z</time>
		</trkpt>
		<trkpt lat="34.673224" lon="127.098103">
			<ele>0.00</ele>
			<time>2020-01-20T02:11:22.53Z</time>
		</trkpt>
		<trkpt lat="34.673120" lon="127.098108">
			<ele>0.00</ele>
			<time>2020-01-20T02:11:23.22Z</time>
		</trkpt>
		<trkpt lat="34.673019" lon="127.098120">
			<ele>0.00</ele>
			<time>2020-01-20T02:11:23.90Z</time>
		</trkpt>
		<trkpt lat="34.672928" lon="127.098138">
			<ele>0.00</ele>
			<time>2020-01-20T02:11:24.52Z</time>
		</trkpt>
		<trkpt lat="34.672788" lon="127.098221">
			<ele>0.00</ele>
			<time>2020-01-20T02:11:25.55Z</time>
		</trkpt>
		<trkpt lat="34.672664" lon="127.098274">
			<ele>0.00</ele>
			<time>2020-01-20T02:11:26.43Z</time>
		</trkpt>
		<trkpt lat="34.672548" lon="127.098320">
			<ele>0.00</ele>
			<time>2020-01-20T02:11:27.24Z</time>
		</trkpt>
		<trkpt lat="34.672467" lon="127.098340">
			<ele>0.00</ele>
			<time>2020-01-20T02:11:27.79Z</time>
		</trkpt>
		<trkpt lat="34.672388" lon="127.098342">
			<ele>0.00</ele>
			<time>2020-01-20T02:11:28.32Z</time>
		</trkpt>
		<trkpt lat="34.672298" lon="127.098328">
			<ele>0.00</ele>
			<time>2020-01-20T02:11:28.92Z</time>
		</trkpt>
		<trkpt lat="34.672150" lon="127.098269">
			<ele>0.00</ele>
			<time>2020-01-20T02:11:29.96Z</time>
		</trkpt>
		<trkpt lat="34.672075" lon="127.098217">
			<ele>0.00</ele>
			<time>2020-01-20T02:11:30.54Z</time>
		</trkpt>
		<trkpt lat="34.671988" lon="127.098141">
			<ele>0.00</ele>
			<time>2020-01-20T02:11:31.25Z</time>
		</trkpt>
		<trkpt lat="34.671927" lon="127.098059">
			<ele>0.00</ele>
			<time>2020-01-20T02:11:31.86Z</time>
		</trkpt>
		<trkpt lat="34.671812" lon="127.097854">
			<ele>0.00</ele>
			<time>2020-01-20T02:11:33.22Z</time>
		</trkpt>
		<trkpt lat="34.671506" lon="127.097420">
			<ele>0.00</ele>
			<time>2020-01-20T02:11:36.35Z</time>
		</trkpt>
		<trkpt lat="34.671049" lon="127.096782">
			<ele>0.00</ele>
			<time>2020-01-20T02:11:40.99Z</time>
		</trkpt>
		<trkpt lat="34.670767" lon="127.096376">
			<ele>0.00</ele>
			<time>2020-01-20T02:11:43.90Z</time>
		</trkpt>
		<trkpt lat="34.670475" lon="127.095998">
			<ele>0.00</ele>
			<time>2020-01-20T02:11:46.75Z</time>
		</trkpt>
		<trkpt lat="34.670178" lon="127.095584">
			<ele>0.00</ele>
			<time>2020-01-20T02:11:49.76Z</time>
		</trkpt>
		<trkpt lat="34.670008" lon="127.095336">
			<ele>0.00</ele>
			<time>2020-01-20T02:11:51.53Z</time>
		</trkpt>
		<trkpt lat="34.669915" lon="127.095181">
			<ele>0.00</ele>
			<time>2020-01-20T02:11:52.58Z</time>
		</trkpt>
		<trkpt lat="34.669860" lon="127.095053">
			<ele>0.00</ele>
			<time>2020-01-20T02:11:53.38Z</time>
		</trkpt>
		<trkpt lat="34.669846" lon="127.094924">
			<ele>0.00</ele>
			<time>2020-01-20T02:11:54.09Z</time>
		</trkpt>
		<trkpt lat="34.669862" lon="127.094863">
			<ele>0.00</ele>
			<time>2020-01-20T02:11:54.44Z</time>
		</trkpt>
		<trkpt lat="34.669901" lon="127.094803">
			<ele>0.00</ele>
			<time>2020-01-20T02:11:54.86Z</time>
		</trkpt>
		<trkpt lat="34.669919" lon="127.094788">
			<ele>0.00</ele>
			<time>2020-01-20T02:11:55Z</time>
		</trkpt>
		<trkpt lat="34.669959" lon="127.094832">
			<ele>0.00</ele>
			<time>2020-01-20T02:11:55.36Z</time>
		</trkpt>
		<trkpt lat="34.670176" lon="127.094502">
			<ele>0.00</ele>
			<time>2020-01-20T02:11:57.68Z</time>
		</trkpt>
		<trkpt lat="34.670268" lon="127.094358">
			<ele>0.00</ele>
			<time>2020-01-20T02:11:58.68Z</time>
		</trkpt>
		<trkpt lat="34.670344" lon="127.094250">
			<ele>0.00</ele>
			<time>2020-01-20T02:11:59.46Z</time>
		</trkpt>
		<trkpt lat="34.670399" lon="127.094186">
			<ele>0.00</ele>
			<time>2020-01-20T02:11:59.96Z</time>
		</trkpt>
		<trkpt lat="34.670485" lon="127.094073">
			<ele>0.00</ele>
			<time>2020-01-20T02:12:00.81Z</time>
		</trkpt>
		<trkpt lat="34.670553" lon="127.093948">
			<ele>0.00</ele>
			<time>2020-01-20T02:12:01.64Z</time>
		</trkpt>
		<trkpt lat="34.670598" lon="127.093816">
			<ele>0.00</ele>
			<time>2020-01-20T02:12:02.42Z</time>
		</trkpt>
		<trkpt lat="34.670604" lon="127.093682">
			<ele>0.00</ele>
			<time>2020-01-20T02:12:03.15Z</time>
		</trkpt>
		<trkpt lat="34.670593" lon="127.093466">
			<ele>0.00</ele>
			<time>2020-01-20T02:12:04.34Z</time>
		</trkpt>
		<trkpt lat="34.670552" lon="127.093022">
			<ele>0.00</ele>
			<time>2020-01-20T02:12:06.79Z</time>
		</trkpt>
		<trkpt lat="34.670488" lon="127.092227">
			<ele>0.00</ele>
			<time>2020-01-20T02:12:11.17Z</time>
		</trkpt>
		<trkpt lat="34.670489" lon="127.092196">
			<ele>0.00</ele>
			<time>2020-01-20T02:12:11.34Z</time>
		</trkpt>
		<trkpt lat="34.670506" lon="127.092178">
			<ele>0.00</ele>
			<time>2020-01-20T02:12:11.49Z</time>
		</trkpt>
		<trkpt lat="34.670529" lon="127.092174">
			<ele>0.00</ele>
			<time>2020-01-20T02:12:11.65Z</time>
		</trkpt>
		<trkpt lat="34.670551" lon="127.092174">
			<ele>0.00</ele>
			<time>2020-01-20T02:12:11.79Z</time>
		</trkpt>
		<trkpt lat="34.670554" lon="127.092178">
			<ele>0.00</ele>
			<time>2020-01-20T02:12:11.85Z</time>
		</trkpt>
		<trkpt lat="34.670544" lon="127.092024">
			<ele>0.00</ele>
			<time>2020-01-20T02:12:12.70Z</time>
		</trkpt>
		<trkpt lat="34.670544" lon="127.092024">
			<ele>0.00</ele>
			<time>2020-01-20T02:12:12.76Z</time>
		</trkpt>
		<trkpt lat="34.670497" lon="127.092020">
			<ele>0.00</ele>
			<time>2020-01-20T02:12:13.07Z</time>
		</trkpt>
		<extensions>
			<gte:name>#450</gte:name>
			<gte:color>#08ffba</gte:color>
		</extensions>
	</trkseg>
</trk>
</gpx>