<?xml version="1.0" encoding="UTF-8"?>
<gpx version="1.1" creator="GPS Visualizer Sandbox https://www.gpsvisualizer.com/draw/" xmlns="http://www.topografix.com/GPX/1/1" xmlns:xsi="http://www.w3.org/2001/XMLSchema-instance" xsi:schemaLocation="http://www.topografix.com/GPX/1/1 http://www.topografix.com/GPX/1/1/gpx.xsd">
	<trk>
		<name>남파랑길-047-하동군 금남면 노량리 남해대교 교차로~하동군 하동읍 광평리 섬진교 27.6km(시종점변경)</name>
		<desc>Length: 27.51 km (17.1 mi)</desc>
		<extensions>
			<line xmlns="http://www.topografix.com/GPX/gpx_style/0/2"><color>00ff00</color></line>
		</extensions>
		<trkseg>
			<trkpt lat="34.9476032" lon="127.8712251"></trkpt>
			<trkpt lat="34.9476262" lon="127.8711185"></trkpt>
			<trkpt lat="34.9475128" lon="127.8709901"></trkpt>
			<trkpt lat="34.9475499" lon="127.8708854"></trkpt>
			<trkpt lat="34.947457" lon="127.8709865"></trkpt>
			<trkpt lat="34.9472949" lon="127.8708136"></trkpt>
			<trkpt lat="34.9472956" lon="127.870745"></trkpt>
			<trkpt lat="34.947594" lon="127.870101"></trkpt>
			<trkpt lat="34.947772" lon="127.869596"></trkpt>
			<trkpt lat="34.947819" lon="127.869188"></trkpt>
			<trkpt lat="34.947772" lon="127.868952"></trkpt>
			<trkpt lat="34.947857" lon="127.868392"></trkpt>
			<trkpt lat="34.947871" lon="127.867971"></trkpt>
			<trkpt lat="34.947772" lon="127.867505"></trkpt>
			<trkpt lat="34.947544" lon="127.867193"></trkpt>
			<trkpt lat="34.947203" lon="127.866986"></trkpt>
			<trkpt lat="34.946671" lon="127.86644"></trkpt>
			<trkpt lat="34.946317" lon="127.865941"></trkpt>
			<trkpt lat="34.946257" lon="127.865692"></trkpt>
			<trkpt lat="34.946599" lon="127.8651"></trkpt>
			<trkpt lat="34.946641" lon="127.864713"></trkpt>
			<trkpt lat="34.946464" lon="127.864064"></trkpt>
			<trkpt lat="34.94646" lon="127.86375"></trkpt>
			<trkpt lat="34.946602" lon="127.8635"></trkpt>
			<trkpt lat="34.946783" lon="127.863379"></trkpt>
			<trkpt lat="34.947097" lon="127.863401"></trkpt>
			<trkpt lat="34.947372" lon="127.863634"></trkpt>
			<trkpt lat="34.947897" lon="127.863024"></trkpt>
			<trkpt lat="34.948004" lon="127.86283"></trkpt>
			<trkpt lat="34.948082" lon="127.862545"></trkpt>
			<trkpt lat="34.948213" lon="127.861607"></trkpt>
			<trkpt lat="34.947975" lon="127.861536"></trkpt>
			<trkpt lat="34.948137" lon="127.860638"></trkpt>
			<trkpt lat="34.948282" lon="127.859366"></trkpt>
			<trkpt lat="34.948339" lon="127.859203"></trkpt>
			<trkpt lat="34.948455" lon="127.859139"></trkpt>
			<trkpt lat="34.949774" lon="127.859252"></trkpt>
			<trkpt lat="34.950017" lon="127.859192"></trkpt>
			<trkpt lat="34.950852" lon="127.858093"></trkpt>
			<trkpt lat="34.950947" lon="127.857816"></trkpt>
			<trkpt lat="34.950942" lon="127.857456"></trkpt>
			<trkpt lat="34.950496" lon="127.856267"></trkpt>
			<trkpt lat="34.950574" lon="127.855799"></trkpt>
			<trkpt lat="34.950692" lon="127.855412"></trkpt>
			<trkpt lat="34.951192" lon="127.854636"></trkpt>
			<trkpt lat="34.951604" lon="127.854406"></trkpt>
			<trkpt lat="34.951659" lon="127.854325"></trkpt>
			<trkpt lat="34.951667" lon="127.853714"></trkpt>
			<trkpt lat="34.951895" lon="127.853624"></trkpt>
			<trkpt lat="34.952144" lon="127.853629"></trkpt>
			<trkpt lat="34.952315" lon="127.853709"></trkpt>
			<trkpt lat="34.952462" lon="127.853707"></trkpt>
			<trkpt lat="34.952675" lon="127.853531"></trkpt>
			<trkpt lat="34.952864" lon="127.853525"></trkpt>
			<trkpt lat="34.952976" lon="127.853275"></trkpt>
			<trkpt lat="34.953389" lon="127.853358"></trkpt>
			<trkpt lat="34.953646" lon="127.853321"></trkpt>
			<trkpt lat="34.953877" lon="127.853469"></trkpt>
			<trkpt lat="34.954253" lon="127.853623"></trkpt>
			<trkpt lat="34.954502" lon="127.853612"></trkpt>
			<trkpt lat="34.954701" lon="127.853674"></trkpt>
			<trkpt lat="34.955116" lon="127.853362"></trkpt>
			<trkpt lat="34.955472" lon="127.853196"></trkpt>
			<trkpt lat="34.955855" lon="127.852926"></trkpt>
			<trkpt lat="34.956443" lon="127.852211"></trkpt>
			<trkpt lat="34.956595" lon="127.851581"></trkpt>
			<trkpt lat="34.956878" lon="127.851012"></trkpt>
			<trkpt lat="34.95703" lon="127.850404"></trkpt>
			<trkpt lat="34.957281" lon="127.849661"></trkpt>
			<trkpt lat="34.957324" lon="127.849334"></trkpt>
			<trkpt lat="34.957552" lon="127.848968"></trkpt>
			<trkpt lat="34.95783" lon="127.8487"></trkpt>
			<trkpt lat="34.958083" lon="127.848027"></trkpt>
			<trkpt lat="34.958069" lon="127.847689"></trkpt>
			<trkpt lat="34.958099" lon="127.847675"></trkpt>
			<trkpt lat="34.958203" lon="127.847945"></trkpt>
			<trkpt lat="34.958367" lon="127.847911"></trkpt>
			<trkpt lat="34.958752" lon="127.847584"></trkpt>
			<trkpt lat="34.958608" lon="127.84692"></trkpt>
			<trkpt lat="34.958619" lon="127.846777"></trkpt>
			<trkpt lat="34.958661" lon="127.846766"></trkpt>
			<trkpt lat="34.958847" lon="127.846458"></trkpt>
			<trkpt lat="34.959205" lon="127.846351"></trkpt>
			<trkpt lat="34.959417" lon="127.846145"></trkpt>
			<trkpt lat="34.959575" lon="127.8459"></trkpt>
			<trkpt lat="34.95963" lon="127.845719"></trkpt>
			<trkpt lat="34.959607" lon="127.845551"></trkpt>
			<trkpt lat="34.95975" lon="127.845294"></trkpt>
			<trkpt lat="34.959965" lon="127.845079"></trkpt>
			<trkpt lat="34.96017" lon="127.844972"></trkpt>
			<trkpt lat="34.960428" lon="127.844701"></trkpt>
			<trkpt lat="34.960681" lon="127.844552"></trkpt>
			<trkpt lat="34.960889" lon="127.844489"></trkpt>
			<trkpt lat="34.960962" lon="127.844218"></trkpt>
			<trkpt lat="34.960905" lon="127.844112"></trkpt>
			<trkpt lat="34.961813" lon="127.842154"></trkpt>
			<trkpt lat="34.962953" lon="127.841849"></trkpt>
			<trkpt lat="34.962995" lon="127.841773"></trkpt>
			<trkpt lat="34.963112" lon="127.840911"></trkpt>
			<trkpt lat="34.964448" lon="127.840832"></trkpt>
			<trkpt lat="34.965331" lon="127.840595"></trkpt>
			<trkpt lat="34.965698" lon="127.840594"></trkpt>
			<trkpt lat="34.966276" lon="127.840403"></trkpt>
			<trkpt lat="34.966663" lon="127.840472"></trkpt>
			<trkpt lat="34.96706" lon="127.840741"></trkpt>
			<trkpt lat="34.967306" lon="127.841189"></trkpt>
			<trkpt lat="34.967451" lon="127.841948"></trkpt>
			<trkpt lat="34.967931" lon="127.84244"></trkpt>
			<trkpt lat="34.968267" lon="127.842868"></trkpt>
			<trkpt lat="34.96832" lon="127.842827"></trkpt>
			<trkpt lat="34.968348" lon="127.842094"></trkpt>
			<trkpt lat="34.968417" lon="127.842046"></trkpt>
			<trkpt lat="34.970532" lon="127.843992"></trkpt>
			<trkpt lat="34.97066" lon="127.844052"></trkpt>
			<trkpt lat="34.971354" lon="127.843334"></trkpt>
			<trkpt lat="34.972219" lon="127.843323"></trkpt>
			<trkpt lat="34.974716" lon="127.846762"></trkpt>
			<trkpt lat="34.97494" lon="127.846996"></trkpt>
			<trkpt lat="34.975234" lon="127.847111"></trkpt>
			<trkpt lat="34.975546" lon="127.846542"></trkpt>
			<trkpt lat="34.975629" lon="127.846284"></trkpt>
			<trkpt lat="34.975872" lon="127.846366"></trkpt>
			<trkpt lat="34.976214" lon="127.846404"></trkpt>
			<trkpt lat="34.976561" lon="127.846245"></trkpt>
			<trkpt lat="34.976626" lon="127.846172"></trkpt>
			<trkpt lat="34.976755" lon="127.845791"></trkpt>
			<trkpt lat="34.977302" lon="127.845689"></trkpt>
			<trkpt lat="34.977522" lon="127.845495"></trkpt>
			<trkpt lat="34.978005" lon="127.845508"></trkpt>
			<trkpt lat="34.978438" lon="127.845339"></trkpt>
			<trkpt lat="34.978689" lon="127.845347"></trkpt>
			<trkpt lat="34.978767" lon="127.845441"></trkpt>
			<trkpt lat="34.978758" lon="127.845699"></trkpt>
			<trkpt lat="34.978589" lon="127.846186"></trkpt>
			<trkpt lat="34.97867" lon="127.84657"></trkpt>
			<trkpt lat="34.978913" lon="127.847097"></trkpt>
			<trkpt lat="34.979126" lon="127.84725"></trkpt>
			<trkpt lat="34.979429" lon="127.847242"></trkpt>
			<trkpt lat="34.979553" lon="127.847625"></trkpt>
			<trkpt lat="34.979747" lon="127.847942"></trkpt>
			<trkpt lat="34.979851" lon="127.848325"></trkpt>
			<trkpt lat="34.97983" lon="127.848756"></trkpt>
			<trkpt lat="34.979904" lon="127.848953"></trkpt>
			<trkpt lat="34.98003" lon="127.849052"></trkpt>
			<trkpt lat="34.980158" lon="127.849031"></trkpt>
			<trkpt lat="34.980359" lon="127.848781"></trkpt>
			<trkpt lat="34.980463" lon="127.848499"></trkpt>
			<trkpt lat="34.980514" lon="127.848456"></trkpt>
			<trkpt lat="34.98071" lon="127.848446"></trkpt>
			<trkpt lat="34.980986" lon="127.848522"></trkpt>
			<trkpt lat="34.981449" lon="127.849034"></trkpt>
			<trkpt lat="34.981666" lon="127.84907"></trkpt>
			<trkpt lat="34.981816" lon="127.848962"></trkpt>
			<trkpt lat="34.981967" lon="127.848469"></trkpt>
			<trkpt lat="34.981867" lon="127.847056"></trkpt>
			<trkpt lat="34.981743" lon="127.846588"></trkpt>
			<trkpt lat="34.98181" lon="127.845422"></trkpt>
			<trkpt lat="34.981745" lon="127.84456"></trkpt>
			<trkpt lat="34.981769" lon="127.844386"></trkpt>
			<trkpt lat="34.982181" lon="127.843766"></trkpt>
			<trkpt lat="34.982463" lon="127.843084"></trkpt>
			<trkpt lat="34.98273" lon="127.842789"></trkpt>
			<trkpt lat="34.982974" lon="127.841994"></trkpt>
			<trkpt lat="34.98307" lon="127.841796"></trkpt>
			<trkpt lat="34.983248" lon="127.841"></trkpt>
			<trkpt lat="34.983131" lon="127.840647"></trkpt>
			<trkpt lat="34.983014" lon="127.840521"></trkpt>
			<trkpt lat="34.982035" lon="127.840554"></trkpt>
			<trkpt lat="34.981953" lon="127.840465"></trkpt>
			<trkpt lat="34.981528" lon="127.839176"></trkpt>
			<trkpt lat="34.98115" lon="127.838741"></trkpt>
			<trkpt lat="34.981222" lon="127.838149"></trkpt>
			<trkpt lat="34.981074" lon="127.83772"></trkpt>
			<trkpt lat="34.981022" lon="127.836918"></trkpt>
			<trkpt lat="34.980805" lon="127.836257"></trkpt>
			<trkpt lat="34.980437" lon="127.835807"></trkpt>
			<trkpt lat="34.980271" lon="127.835404"></trkpt>
			<trkpt lat="34.979933" lon="127.834843"></trkpt>
			<trkpt lat="34.979754" lon="127.834638"></trkpt>
			<trkpt lat="34.980361" lon="127.833462"></trkpt>
			<trkpt lat="34.980308" lon="127.833159"></trkpt>
			<trkpt lat="34.98036" lon="127.83281"></trkpt>
			<trkpt lat="34.980332" lon="127.83218"></trkpt>
			<trkpt lat="34.980543" lon="127.831116"></trkpt>
			<trkpt lat="34.9804" lon="127.830658"></trkpt>
			<trkpt lat="34.980439" lon="127.830154"></trkpt>
			<trkpt lat="34.980619" lon="127.829621"></trkpt>
			<trkpt lat="34.98117" lon="127.828853"></trkpt>
			<trkpt lat="34.981378" lon="127.828442"></trkpt>
			<trkpt lat="34.981679" lon="127.828232"></trkpt>
			<trkpt lat="34.981822" lon="127.828202"></trkpt>
			<trkpt lat="34.981995" lon="127.827959"></trkpt>
			<trkpt lat="34.982039" lon="127.827814"></trkpt>
			<trkpt lat="34.98224" lon="127.827497"></trkpt>
			<trkpt lat="34.982624" lon="127.827232"></trkpt>
			<trkpt lat="34.982705" lon="127.827092"></trkpt>
			<trkpt lat="34.982811" lon="127.827078"></trkpt>
			<trkpt lat="34.982984" lon="127.82716"></trkpt>
			<trkpt lat="34.983009" lon="127.82711"></trkpt>
			<trkpt lat="34.982824" lon="127.825145"></trkpt>
			<trkpt lat="34.982079" lon="127.824466"></trkpt>
			<trkpt lat="34.982146" lon="127.824043"></trkpt>
			<trkpt lat="34.982202" lon="127.82393"></trkpt>
			<trkpt lat="34.9822" lon="127.823632"></trkpt>
			<trkpt lat="34.981964" lon="127.822996"></trkpt>
			<trkpt lat="34.981852" lon="127.822282"></trkpt>
			<trkpt lat="34.981962" lon="127.821863"></trkpt>
			<trkpt lat="34.98183" lon="127.821653"></trkpt>
			<trkpt lat="34.98178" lon="127.821451"></trkpt>
			<trkpt lat="34.981761" lon="127.820888"></trkpt>
			<trkpt lat="34.981702" lon="127.820642"></trkpt>
			<trkpt lat="34.981311" lon="127.819883"></trkpt>
			<trkpt lat="34.98126" lon="127.819641"></trkpt>
			<trkpt lat="34.981241" lon="127.819035"></trkpt>
			<trkpt lat="34.981323" lon="127.818415"></trkpt>
			<trkpt lat="34.981786" lon="127.817596"></trkpt>
			<trkpt lat="34.981955" lon="127.817115"></trkpt>
			<trkpt lat="34.982318" lon="127.816575"></trkpt>
			<trkpt lat="34.982543" lon="127.815978"></trkpt>
			<trkpt lat="34.982572" lon="127.81569"></trkpt>
			<trkpt lat="34.982656" lon="127.815668"></trkpt>
			<trkpt lat="34.983033" lon="127.815872"></trkpt>
			<trkpt lat="34.983202" lon="127.815853"></trkpt>
			<trkpt lat="34.983605" lon="127.81559"></trkpt>
			<trkpt lat="34.984274" lon="127.815363"></trkpt>
			<trkpt lat="34.984679" lon="127.81532"></trkpt>
			<trkpt lat="34.985272" lon="127.815516"></trkpt>
			<trkpt lat="34.985516" lon="127.815517"></trkpt>
			<trkpt lat="34.985843" lon="127.815348"></trkpt>
			<trkpt lat="34.986135" lon="127.814989"></trkpt>
			<trkpt lat="34.986218" lon="127.814816"></trkpt>
			<trkpt lat="34.986294" lon="127.814329"></trkpt>
			<trkpt lat="34.985925" lon="127.812542"></trkpt>
			<trkpt lat="34.985725" lon="127.812398"></trkpt>
			<trkpt lat="34.985483" lon="127.812369"></trkpt>
			<trkpt lat="34.985302" lon="127.812277"></trkpt>
			<trkpt lat="34.985284" lon="127.811814"></trkpt>
			<trkpt lat="34.984912" lon="127.809618"></trkpt>
			<trkpt lat="34.984827" lon="127.808759"></trkpt>
			<trkpt lat="34.98464" lon="127.808149"></trkpt>
			<trkpt lat="34.985002" lon="127.807969"></trkpt>
			<trkpt lat="34.985232" lon="127.807911"></trkpt>
			<trkpt lat="34.985176" lon="127.80772"></trkpt>
			<trkpt lat="34.984877" lon="127.807243"></trkpt>
			<trkpt lat="34.984695" lon="127.807111"></trkpt>
			<trkpt lat="34.983493" lon="127.805391"></trkpt>
			<trkpt lat="34.98302" lon="127.804604"></trkpt>
			<trkpt lat="34.983077" lon="127.804427"></trkpt>
			<trkpt lat="34.982949" lon="127.803353"></trkpt>
			<trkpt lat="34.982864" lon="127.803138"></trkpt>
			<trkpt lat="34.983321" lon="127.801471"></trkpt>
			<trkpt lat="34.984176" lon="127.801244"></trkpt>
			<trkpt lat="34.984745" lon="127.8009"></trkpt>
			<trkpt lat="34.984937" lon="127.800982"></trkpt>
			<trkpt lat="34.98597" lon="127.800649"></trkpt>
			<trkpt lat="34.986227" lon="127.800358"></trkpt>
			<trkpt lat="34.986368" lon="127.800332"></trkpt>
			<trkpt lat="34.986661" lon="127.800042"></trkpt>
			<trkpt lat="34.987172" lon="127.799181"></trkpt>
			<trkpt lat="34.987737" lon="127.798736"></trkpt>
			<trkpt lat="34.988268" lon="127.798409"></trkpt>
			<trkpt lat="34.989138" lon="127.798031"></trkpt>
			<trkpt lat="34.989164" lon="127.797871"></trkpt>
			<trkpt lat="34.989496" lon="127.797714"></trkpt>
			<trkpt lat="34.989802" lon="127.797663"></trkpt>
			<trkpt lat="34.98995" lon="127.797722"></trkpt>
			<trkpt lat="34.990265" lon="127.798028"></trkpt>
			<trkpt lat="34.990433" lon="127.798271"></trkpt>
			<trkpt lat="34.990896" lon="127.799717"></trkpt>
			<trkpt lat="34.99098" lon="127.799831"></trkpt>
			<trkpt lat="34.991147" lon="127.799877"></trkpt>
			<trkpt lat="34.991384" lon="127.800435"></trkpt>
			<trkpt lat="34.99146" lon="127.8005"></trkpt>
			<trkpt lat="34.991749" lon="127.800095"></trkpt>
			<trkpt lat="34.992254" lon="127.79961"></trkpt>
			<trkpt lat="34.992604" lon="127.798824"></trkpt>
			<trkpt lat="34.992962" lon="127.798216"></trkpt>
			<trkpt lat="34.993095" lon="127.798069"></trkpt>
			<trkpt lat="34.993924" lon="127.797558"></trkpt>
			<trkpt lat="34.994291" lon="127.797278"></trkpt>
			<trkpt lat="34.994608" lon="127.796917"></trkpt>
			<trkpt lat="34.994586" lon="127.79676"></trkpt>
			<trkpt lat="34.99374" lon="127.796371"></trkpt>
			<trkpt lat="34.993834" lon="127.795501"></trkpt>
			<trkpt lat="34.993765" lon="127.794627"></trkpt>
			<trkpt lat="34.993555" lon="127.793905"></trkpt>
			<trkpt lat="34.993337" lon="127.793453"></trkpt>
			<trkpt lat="34.992839" lon="127.79275"></trkpt>
			<trkpt lat="34.992509" lon="127.792425"></trkpt>
			<trkpt lat="34.99196" lon="127.792007"></trkpt>
			<trkpt lat="34.990663" lon="127.791181"></trkpt>
			<trkpt lat="34.989668" lon="127.790347"></trkpt>
			<trkpt lat="34.989332" lon="127.789944"></trkpt>
			<trkpt lat="34.988882" lon="127.789284"></trkpt>
			<trkpt lat="34.988689" lon="127.788818"></trkpt>
			<trkpt lat="34.988589" lon="127.788343"></trkpt>
			<trkpt lat="34.988565" lon="127.787151"></trkpt>
			<trkpt lat="34.988914" lon="127.786737"></trkpt>
			<trkpt lat="34.989028" lon="127.785685"></trkpt>
			<trkpt lat="34.98914" lon="127.785176"></trkpt>
			<trkpt lat="34.989469" lon="127.78408"></trkpt>
			<trkpt lat="34.989505" lon="127.783842"></trkpt>
			<trkpt lat="34.989476" lon="127.783049"></trkpt>
			<trkpt lat="34.989363" lon="127.78282"></trkpt>
			<trkpt lat="34.989432" lon="127.782749"></trkpt>
			<trkpt lat="34.989865" lon="127.783551"></trkpt>
			<trkpt lat="34.990272" lon="127.784053"></trkpt>
			<trkpt lat="34.990712" lon="127.784356"></trkpt>
			<trkpt lat="34.990994" lon="127.78446"></trkpt>
			<trkpt lat="34.991293" lon="127.784501"></trkpt>
			<trkpt lat="34.991627" lon="127.784474"></trkpt>
			<trkpt lat="34.99275" lon="127.784132"></trkpt>
			<trkpt lat="34.993551" lon="127.784003"></trkpt>
			<trkpt lat="34.997143" lon="127.7847"></trkpt>
			<trkpt lat="34.99775" lon="127.78478"></trkpt>
			<trkpt lat="34.997694" lon="127.784634"></trkpt>
			<trkpt lat="34.997697" lon="127.784502"></trkpt>
			<trkpt lat="34.997923" lon="127.784482"></trkpt>
			<trkpt lat="34.997931" lon="127.784305"></trkpt>
			<trkpt lat="34.998005" lon="127.784254"></trkpt>
			<trkpt lat="34.998287" lon="127.784355"></trkpt>
			<trkpt lat="34.998568" lon="127.784345"></trkpt>
			<trkpt lat="34.998664" lon="127.784393"></trkpt>
			<trkpt lat="34.999023" lon="127.784408"></trkpt>
			<trkpt lat="34.999315" lon="127.784508"></trkpt>
			<trkpt lat="34.999353" lon="127.784697"></trkpt>
			<trkpt lat="34.999658" lon="127.784888"></trkpt>
			<trkpt lat="35.000174" lon="127.784981"></trkpt>
			<trkpt lat="35.001582" lon="127.785064"></trkpt>
			<trkpt lat="35.002119" lon="127.785212"></trkpt>
			<trkpt lat="35.002495" lon="127.785232"></trkpt>
			<trkpt lat="35.002702" lon="127.785352"></trkpt>
			<trkpt lat="35.002928" lon="127.785585"></trkpt>
			<trkpt lat="35.003346" lon="127.785748"></trkpt>
			<trkpt lat="35.003417" lon="127.785833"></trkpt>
			<trkpt lat="35.004262" lon="127.786155"></trkpt>
			<trkpt lat="35.005633" lon="127.786472"></trkpt>
			<trkpt lat="35.006147" lon="127.786676"></trkpt>
			<trkpt lat="35.00672" lon="127.786698"></trkpt>
			<trkpt lat="35.006844" lon="127.786618"></trkpt>
			<trkpt lat="35.00723" lon="127.786677"></trkpt>
			<trkpt lat="35.007239" lon="127.786804"></trkpt>
			<trkpt lat="35.007336" lon="127.786818"></trkpt>
			<trkpt lat="35.00736" lon="127.786731"></trkpt>
			<trkpt lat="35.007818" lon="127.78679"></trkpt>
			<trkpt lat="35.008141" lon="127.787055"></trkpt>
			<trkpt lat="35.008574" lon="127.787581"></trkpt>
			<trkpt lat="35.009257" lon="127.788048"></trkpt>
			<trkpt lat="35.009165" lon="127.788187"></trkpt>
			<trkpt lat="35.009827" lon="127.788859"></trkpt>
			<trkpt lat="35.01016" lon="127.788955"></trkpt>
			<trkpt lat="35.010619" lon="127.788887"></trkpt>
			<trkpt lat="35.011297" lon="127.788427"></trkpt>
			<trkpt lat="35.011801" lon="127.788349"></trkpt>
			<trkpt lat="35.012116" lon="127.788207"></trkpt>
			<trkpt lat="35.012487" lon="127.788184"></trkpt>
			<trkpt lat="35.012806" lon="127.788308"></trkpt>
			<trkpt lat="35.013092" lon="127.788497"></trkpt>
			<trkpt lat="35.013543" lon="127.788655"></trkpt>
			<trkpt lat="35.013862" lon="127.788697"></trkpt>
			<trkpt lat="35.014507" lon="127.788526"></trkpt>
			<trkpt lat="35.015503" lon="127.788526"></trkpt>
			<trkpt lat="35.015993" lon="127.788718"></trkpt>
			<trkpt lat="35.01645" lon="127.788736"></trkpt>
			<trkpt lat="35.016967" lon="127.788627"></trkpt>
			<trkpt lat="35.017261" lon="127.788514"></trkpt>
			<trkpt lat="35.017517" lon="127.788284"></trkpt>
			<trkpt lat="35.017716" lon="127.788172"></trkpt>
			<trkpt lat="35.017899" lon="127.788168"></trkpt>
			<trkpt lat="35.019084" lon="127.788421"></trkpt>
			<trkpt lat="35.019466" lon="127.788386"></trkpt>
			<trkpt lat="35.019765" lon="127.78844"></trkpt>
			<trkpt lat="35.019798" lon="127.788402"></trkpt>
			<trkpt lat="35.019654" lon="127.788227"></trkpt>
			<trkpt lat="35.019637" lon="127.788136"></trkpt>
			<trkpt lat="35.019726" lon="127.788113"></trkpt>
			<trkpt lat="35.019766" lon="127.788"></trkpt>
			<trkpt lat="35.019988" lon="127.788056"></trkpt>
			<trkpt lat="35.02001" lon="127.787911"></trkpt>
			<trkpt lat="35.020429" lon="127.788003"></trkpt>
			<trkpt lat="35.020489" lon="127.787749"></trkpt>
			<trkpt lat="35.020913" lon="127.787872"></trkpt>
			<trkpt lat="35.020985" lon="127.787545"></trkpt>
			<trkpt lat="35.021167" lon="127.787598"></trkpt>
			<trkpt lat="35.021218" lon="127.787353"></trkpt>
			<trkpt lat="35.02168" lon="127.787469"></trkpt>
			<trkpt lat="35.022293" lon="127.787068"></trkpt>
			<trkpt lat="35.022609" lon="127.786638"></trkpt>
			<trkpt lat="35.023246" lon="127.785932"></trkpt>
			<trkpt lat="35.025555" lon="127.783115"></trkpt>
			<trkpt lat="35.027271" lon="127.781124"></trkpt>
			<trkpt lat="35.029009" lon="127.779008"></trkpt>
			<trkpt lat="35.029033" lon="127.778802"></trkpt>
			<trkpt lat="35.029285" lon="127.778174"></trkpt>
			<trkpt lat="35.029364" lon="127.777535"></trkpt>
			<trkpt lat="35.029607" lon="127.777051"></trkpt>
			<trkpt lat="35.029684" lon="127.777022"></trkpt>
			<trkpt lat="35.029731" lon="127.77693"></trkpt>
			<trkpt lat="35.029877" lon="127.776908"></trkpt>
			<trkpt lat="35.029933" lon="127.776788"></trkpt>
			<trkpt lat="35.029823" lon="127.776574"></trkpt>
			<trkpt lat="35.030093" lon="127.776326"></trkpt>
			<trkpt lat="35.030124" lon="127.77614"></trkpt>
			<trkpt lat="35.031431" lon="127.775223"></trkpt>
			<trkpt lat="35.033207" lon="127.774258"></trkpt>
			<trkpt lat="35.034554" lon="127.773749"></trkpt>
			<trkpt lat="35.034716" lon="127.773725"></trkpt>
			<trkpt lat="35.034816" lon="127.773864"></trkpt>
			<trkpt lat="35.035844" lon="127.773519"></trkpt>
			<trkpt lat="35.036199" lon="127.773508"></trkpt>
			<trkpt lat="35.036703" lon="127.773364"></trkpt>
			<trkpt lat="35.037176" lon="127.773127"></trkpt>
			<trkpt lat="35.03786" lon="127.773003"></trkpt>
			<trkpt lat="35.038647" lon="127.772458"></trkpt>
			<trkpt lat="35.038619" lon="127.772358"></trkpt>
			<trkpt lat="35.039614" lon="127.772056"></trkpt>
			<trkpt lat="35.040306" lon="127.771946"></trkpt>
			<trkpt lat="35.041421" lon="127.771686"></trkpt>
			<trkpt lat="35.041539" lon="127.77171"></trkpt>
			<trkpt lat="35.041854" lon="127.771652"></trkpt>
			<trkpt lat="35.043124" lon="127.771229"></trkpt>
			<trkpt lat="35.044004" lon="127.770876"></trkpt>
			<trkpt lat="35.044109" lon="127.770926"></trkpt>
			<trkpt lat="35.044767" lon="127.770668"></trkpt>
			<trkpt lat="35.046134" lon="127.770285"></trkpt>
			<trkpt lat="35.046397" lon="127.770148"></trkpt>
			<trkpt lat="35.046798" lon="127.77007"></trkpt>
			<trkpt lat="35.046996" lon="127.770175"></trkpt>
			<trkpt lat="35.047566" lon="127.770192"></trkpt>
			<trkpt lat="35.047984" lon="127.770065"></trkpt>
			<trkpt lat="35.048768" lon="127.770048"></trkpt>
			<trkpt lat="35.049339" lon="127.76998"></trkpt>
			<trkpt lat="35.049668" lon="127.769781"></trkpt>
			<trkpt lat="35.049991" lon="127.769657"></trkpt>
			<trkpt lat="35.05024" lon="127.769634"></trkpt>
			<trkpt lat="35.051171" lon="127.769946"></trkpt>
			<trkpt lat="35.051412" lon="127.769901"></trkpt>
			<trkpt lat="35.052084" lon="127.769576"></trkpt>
			<trkpt lat="35.052858" lon="127.768765"></trkpt>
			<trkpt lat="35.053502" lon="127.768196"></trkpt>
			<trkpt lat="35.053769" lon="127.767728"></trkpt>
			<trkpt lat="35.054106" lon="127.767353"></trkpt>
			<trkpt lat="35.054414" lon="127.767209"></trkpt>
			<trkpt lat="35.055638" lon="127.766835"></trkpt>
			<trkpt lat="35.056545" lon="127.76626"></trkpt>
			<trkpt lat="35.056915" lon="127.766183"></trkpt>
			<trkpt lat="35.057482" lon="127.766273"></trkpt>
			<trkpt lat="35.05771" lon="127.766206"></trkpt>
			<trkpt lat="35.058559" lon="127.765507"></trkpt>
			<trkpt lat="35.059055" lon="127.764881"></trkpt>
			<trkpt lat="35.0592" lon="127.764815"></trkpt>
			<trkpt lat="35.059514" lon="127.764307"></trkpt>
			<trkpt lat="35.059421" lon="127.764214"></trkpt>
			<trkpt lat="35.059025" lon="127.76333"></trkpt>
			<trkpt lat="35.059062" lon="127.76137"></trkpt>
			<trkpt lat="35.058931" lon="127.760127"></trkpt>
			<trkpt lat="35.058768" lon="127.759312"></trkpt>
			<trkpt lat="35.058531" lon="127.758459"></trkpt>
			<trkpt lat="35.058073" lon="127.757225"></trkpt>
			<trkpt lat="35.058048" lon="127.756496"></trkpt>
			<trkpt lat="35.058137" lon="127.7559"></trkpt>
			<trkpt lat="35.058117" lon="127.755526"></trkpt>
			<trkpt lat="35.057933" lon="127.754337"></trkpt>
			<trkpt lat="35.058147" lon="127.753484"></trkpt>
			<trkpt lat="35.05835" lon="127.752031"></trkpt>
			<trkpt lat="35.058514" lon="127.751233"></trkpt>
			<trkpt lat="35.059103" lon="127.749204"></trkpt>
			<trkpt lat="35.059423" lon="127.748394"></trkpt>
			<trkpt lat="35.059702" lon="127.748493"></trkpt>
			<trkpt lat="35.05984" lon="127.748321"></trkpt>
			<trkpt lat="35.059975" lon="127.748295"></trkpt>
			<trkpt lat="35.060148" lon="127.748405"></trkpt>
			<trkpt lat="35.060223" lon="127.748572"></trkpt>
			<trkpt lat="35.060588" lon="127.748552"></trkpt>
			<trkpt lat="35.061167" lon="127.747697"></trkpt>
			<trkpt lat="35.061414" lon="127.747448"></trkpt>
			<trkpt lat="35.061453" lon="127.747301"></trkpt>
			<trkpt lat="35.061434" lon="127.747165"></trkpt>
			<trkpt lat="35.061503" lon="127.746673"></trkpt>
			<trkpt lat="35.06179" lon="127.746298"></trkpt>
			<trkpt lat="35.06194" lon="127.745985"></trkpt>
			<trkpt lat="35.062045" lon="127.745542"></trkpt>
			<trkpt lat="35.062365" lon="127.745182"></trkpt>
			<trkpt lat="35.062636" lon="127.744497"></trkpt>
			<trkpt lat="35.062724" lon="127.744147"></trkpt>
			<trkpt lat="35.063022" lon="127.743507"></trkpt>
			<trkpt lat="35.063066" lon="127.743273"></trkpt>
			<trkpt lat="35.0631488" lon="127.7431832"></trkpt>
			<trkpt lat="35.063196" lon="127.7430254"></trkpt>
			<trkpt lat="35.0636893" lon="127.7422413"></trkpt>
			<trkpt lat="35.0639724" lon="127.7416894"></trkpt>
			<trkpt lat="35.0641921" lon="127.7414647"></trkpt>
			<trkpt lat="35.0642155" lon="127.7415148"></trkpt>
			<trkpt lat="35.064258" lon="127.7414842"></trkpt>
			<trkpt lat="35.064208" lon="127.7415384"></trkpt>
			<trkpt lat="35.0642452" lon="127.7415627"></trkpt>
			<trkpt lat="35.0643431" lon="127.7415032"></trkpt>
			<trkpt lat="35.0644021" lon="127.7416576"></trkpt>
			<trkpt lat="35.0643937" lon="127.7418003"></trkpt>
			<trkpt lat="35.064284" lon="127.7419031"></trkpt>
		</trkseg>
	</trk>
</gpx>
