<?xml version="1.0" encoding="UTF-8"?>
<gpx version="1.1" creator="GPS Track Editor" xmlns="http://www.topografix.com/GPX/1/1" xmlns:xsi="http://www.w3.org/2001/XMLSchema-instance" xmlns:gte="http://www.gpstrackeditor.com/xmlschemas/General/1" xmlns:gpxtpx="http://www.garmin.com/xmlschemas/TrackPointExtension/v1" xmlns:gpxx="http://www.garmin.com/xmlschemas/GpxExtensions/v3" targetNamespace="http://www.topografix.com/GPX/1/1" elementFormDefault="qualified" xsi:schemaLocation="http://www.topografix.com/GPX/1/1 http://www.topografix.com/GPX/1/1/gpx.xsd">
<metadata>
	<name>GPS_2020-01-19_205110</name>
</metadata>
<trk>
	<name>061(1)-순천만 흑두루미 보호기간 우회로(10월말~4월)</name>
	<trkseg>
		<trkpt lat="34.883729" lon="127.511315">
			<ele>0.00</ele>
			<time>2020-01-19T20:51:10.05Z</time>
		</trkpt>
		<trkpt lat="34.883882" lon="127.510889">
			<ele>0.00</ele>
			<time>2020-01-19T20:51:12.59Z</time>
		</trkpt>
		<trkpt lat="34.884085" lon="127.510415">
			<ele>0.00</ele>
			<time>2020-01-19T20:51:15.52Z</time>
		</trkpt>
		<trkpt lat="34.884287" lon="127.510017">
			<ele>0.00</ele>
			<time>2020-01-19T20:51:18.08Z</time>
		</trkpt>
		<trkpt lat="34.884514" lon="127.509970">
			<ele>0.00</ele>
			<time>2020-01-19T20:51:19.61Z</time>
		</trkpt>
		<trkpt lat="34.884691" lon="127.509633">
			<ele>0.00</ele>
			<time>2020-01-19T20:51:21.80Z</time>
		</trkpt>
		<trkpt lat="34.885321" lon="127.508895">
			<ele>0.00</ele>
			<time>2020-01-19T20:51:27.62Z</time>
		</trkpt>
		<trkpt lat="34.885735" lon="127.508341">
			<ele>0.00</ele>
			<time>2020-01-19T20:51:31.72Z</time>
		</trkpt>
		<trkpt lat="34.885997" lon="127.508001">
			<ele>0.00</ele>
			<time>2020-01-19T20:51:34.27Z</time>
		</trkpt>
		<trkpt lat="34.886284" lon="127.507631">
			<ele>0.00</ele>
			<time>2020-01-19T20:51:37.06Z</time>
		</trkpt>
		<trkpt lat="34.886349" lon="127.507231">
			<ele>0.00</ele>
			<time>2020-01-19T20:51:39.29Z</time>
		</trkpt>
		<trkpt lat="34.886386" lon="127.506602">
			<ele>0.00</ele>
			<time>2020-01-19T20:51:42.74Z</time>
		</trkpt>
		<trkpt lat="34.886411" lon="127.506004">
			<ele>0.00</ele>
			<time>2020-01-19T20:51:46.01Z</time>
		</trkpt>
		<trkpt lat="34.886411" lon="127.505283">
			<ele>0.00</ele>
			<time>2020-01-19T20:51:49.95Z</time>
		</trkpt>
		<trkpt lat="34.886398" lon="127.504685">
			<ele>0.00</ele>
			<time>2020-01-19T20:51:53.23Z</time>
		</trkpt>
		<trkpt lat="34.886507" lon="127.504240">
			<ele>0.00</ele>
			<time>2020-01-19T20:51:55.77Z</time>
		</trkpt>
		<trkpt lat="34.886695" lon="127.503337">
			<ele>0.00</ele>
			<time>2020-01-19T20:52:00.86Z</time>
		</trkpt>
		<trkpt lat="34.886909" lon="127.502740">
			<ele>0.00</ele>
			<time>2020-01-19T20:52:04.42Z</time>
		</trkpt>
		<trkpt lat="34.887037" lon="127.502341">
			<ele>0.00</ele>
			<time>2020-01-19T20:52:06.77Z</time>
		</trkpt>
		<trkpt lat="34.887051" lon="127.502074">
			<ele>0.00</ele>
			<time>2020-01-19T20:52:08.23Z</time>
		</trkpt>
		<trkpt lat="34.887104" lon="127.501741">
			<ele>0.00</ele>
			<time>2020-01-19T20:52:10.09Z</time>
		</trkpt>
		<trkpt lat="34.887143" lon="127.501497">
			<ele>0.00</ele>
			<time>2020-01-19T20:52:11.44Z</time>
		</trkpt>
		<trkpt lat="34.887195" lon="127.501222">
			<ele>0.00</ele>
			<time>2020-01-19T20:52:12.98Z</time>
		</trkpt>
		<trkpt lat="34.886919" lon="127.501147">
			<ele>0.00</ele>
			<time>2020-01-19T20:52:14.87Z</time>
		</trkpt>
		<trkpt lat="34.886377" lon="127.501269">
			<ele>0.00</ele>
			<time>2020-01-19T20:52:18.54Z</time>
		</trkpt>
		<trkpt lat="34.885672" lon="127.501315">
			<ele>0.00</ele>
			<time>2020-01-19T20:52:23.25Z</time>
		</trkpt>
		<trkpt lat="34.885118" lon="127.501376">
			<ele>0.00</ele>
			<time>2020-01-19T20:52:26.96Z</time>
		</trkpt>
		<trkpt lat="34.884400" lon="127.501406">
			<ele>0.00</ele>
			<time>2020-01-19T20:52:31.75Z</time>
		</trkpt>
		<trkpt lat="34.884299" lon="127.500381">
			<ele>0.00</ele>
			<time>2020-01-19T20:52:37.40Z</time>
		</trkpt>
		<trkpt lat="34.884149" lon="127.499078">
			<ele>0.00</ele>
			<time>2020-01-19T20:52:44.59Z</time>
		</trkpt>
		<trkpt lat="34.884033" lon="127.497903">
			<ele>0.00</ele>
			<time>2020-01-19T20:52:51.07Z</time>
		</trkpt>
		<trkpt lat="34.883903" lon="127.495989">
			<ele>0.00</ele>
			<time>2020-01-19T20:53:01.57Z</time>
		</trkpt>
		<trkpt lat="34.883891" lon="127.494918">
			<ele>0.00</ele>
			<time>2020-01-19T20:53:07.43Z</time>
		</trkpt>
		<trkpt lat="34.883840" lon="127.494388">
			<ele>0.00</ele>
			<time>2020-01-19T20:53:10.34Z</time>
		</trkpt>
		<trkpt lat="34.883711" lon="127.493018">
			<ele>0.00</ele>
			<time>2020-01-19T20:53:17.89Z</time>
		</trkpt>
		<trkpt lat="34.883711" lon="127.492178">
			<ele>0.00</ele>
			<time>2020-01-19T20:53:22.48Z</time>
		</trkpt>
		<trkpt lat="34.883600" lon="127.491447">
			<ele>0.00</ele>
			<time>2020-01-19T20:53:26.54Z</time>
		</trkpt>
		<trkpt lat="34.883600" lon="127.490747">
			<ele>0.00</ele>
			<time>2020-01-19T20:53:30.38Z</time>
		</trkpt>
		<trkpt lat="34.883523" lon="127.489735">
			<ele>0.00</ele>
			<time>2020-01-19T20:53:35.93Z</time>
		</trkpt>
		<trkpt lat="34.882629" lon="127.489891">
			<ele>0.00</ele>
			<time>2020-01-19T20:53:41.95Z</time>
		</trkpt>
		<trkpt lat="34.881649" lon="127.490009">
			<ele>0.00</ele>
			<time>2020-01-19T20:53:48.51Z</time>
		</trkpt>
		<trkpt lat="34.880996" lon="127.490139">
			<ele>0.00</ele>
			<time>2020-01-19T20:53:52.93Z</time>
		</trkpt>
		<trkpt lat="34.880206" lon="127.490231">
			<ele>0.00</ele>
			<time>2020-01-19T20:53:58.22Z</time>
		</trkpt>
		<trkpt lat="34.879551" lon="127.490249">
			<ele>0.00</ele>
			<time>2020-01-19T20:54:02.59Z</time>
		</trkpt>
		<trkpt lat="34.879460" lon="127.490564">
			<ele>0.00</ele>
			<time>2020-01-19T20:54:04.42Z</time>
		</trkpt>
		<trkpt lat="34.878806" lon="127.490415">
			<ele>0.00</ele>
			<time>2020-01-19T20:54:08.85Z</time>
		</trkpt>
		<trkpt lat="34.878290" lon="127.490324">
			<ele>0.00</ele>
			<time>2020-01-19T20:54:12.33Z</time>
		</trkpt>
		<trkpt lat="34.877666" lon="127.490193">
			<ele>0.00</ele>
			<time>2020-01-19T20:54:16.55Z</time>
		</trkpt>
		<trkpt lat="34.877484" lon="127.490786">
			<ele>0.00</ele>
			<time>2020-01-19T20:54:20.01Z</time>
		</trkpt>
		<trkpt lat="34.877241" lon="127.491361">
			<ele>0.00</ele>
			<time>2020-01-19T20:54:23.54Z</time>
		</trkpt>
		<trkpt lat="34.876983" lon="127.491546">
			<ele>0.00</ele>
			<time>2020-01-19T20:54:25.54Z</time>
		</trkpt>
		<trkpt lat="34.876512" lon="127.491767">
			<ele>0.00</ele>
			<time>2020-01-19T20:54:28.91Z</time>
		</trkpt>
		<trkpt lat="34.876223" lon="127.492045">
			<ele>0.00</ele>
			<time>2020-01-19T20:54:31.36Z</time>
		</trkpt>
		<trkpt lat="34.875903" lon="127.492399">
			<ele>0.00</ele>
			<time>2020-01-19T20:54:34.24Z</time>
		</trkpt>
		<trkpt lat="34.875706" lon="127.492622">
			<ele>0.00</ele>
			<time>2020-01-19T20:54:36.04Z</time>
		</trkpt>
		<extensions>
			<gte:name>#433</gte:name>
			<gte:color>#cece00</gte:color>
		</extensions>
	</trkseg>
</trk>
</gpx>