<?xml version="1.0" encoding="UTF-8"?>
<gpx version="1.1" creator="GPS Visualizer Sandbox https://www.gpsvisualizer.com/draw/" xmlns="http://www.topografix.com/GPX/1/1" xmlns:xsi="http://www.w3.org/2001/XMLSchema-instance" xsi:schemaLocation="http://www.topografix.com/GPX/1/1 http://www.topografix.com/GPX/1/1/gpx.xsd">
	<trk>
		<name>017~019 (고현~옥포) 거제 임시우회노선</name>
		<desc>Length: 8.661 km (5.382 mi)</desc>
		<extensions>
			<line xmlns="http://www.topografix.com/GPX/gpx_style/0/2"><color>00ffff</color></line>
		</extensions>
		<trkseg>
			<trkpt lat="34.8975778" lon="128.6300211"></trkpt>
			<trkpt lat="34.8976167" lon="128.6305307"></trkpt>
			<trkpt lat="34.8976954" lon="128.6313647"></trkpt>
			<trkpt lat="34.8977388" lon="128.631767"></trkpt>
			<trkpt lat="34.8977824" lon="128.632413"></trkpt>
			<trkpt lat="34.8978282" lon="128.6328062"></trkpt>
			<trkpt lat="34.8978387" lon="128.6329843"></trkpt>
			<trkpt lat="34.8978197" lon="128.6331307"></trkpt>
			<trkpt lat="34.8977871" lon="128.6332714"></trkpt>
			<trkpt lat="34.8977254" lon="128.6334129"></trkpt>
			<trkpt lat="34.8976593" lon="128.6335083"></trkpt>
			<trkpt lat="34.8975605" lon="128.6336244"></trkpt>
			<trkpt lat="34.8974875" lon="128.6336876"></trkpt>
			<trkpt lat="34.8976065" lon="128.6338906"></trkpt>
			<trkpt lat="34.8977254" lon="128.6340351"></trkpt>
			<trkpt lat="34.8977908" lon="128.6341346"></trkpt>
			<trkpt lat="34.8978515" lon="128.6342506"></trkpt>
			<trkpt lat="34.8978612" lon="128.6343031"></trkpt>
			<trkpt lat="34.8978653" lon="128.6344631"></trkpt>
			<trkpt lat="34.897856" lon="128.6346627"></trkpt>
			<trkpt lat="34.8978307" lon="128.6356488"></trkpt>
			<trkpt lat="34.8978483" lon="128.6356631"></trkpt>
			<trkpt lat="34.897844" lon="128.6358191"></trkpt>
			<trkpt lat="34.8978249" lon="128.6358335"></trkpt>
			<trkpt lat="34.8978165" lon="128.6362783"></trkpt>
			<trkpt lat="34.8977958" lon="128.636431"></trkpt>
			<trkpt lat="34.8977195" lon="128.6371224"></trkpt>
			<trkpt lat="34.8976955" lon="128.6374342"></trkpt>
			<trkpt lat="34.8976811" lon="128.6375343"></trkpt>
			<trkpt lat="34.8976576" lon="128.6375977"></trkpt>
			<trkpt lat="34.8976049" lon="128.6376848"></trkpt>
			<trkpt lat="34.8975344" lon="128.6377491"></trkpt>
			<trkpt lat="34.8975079" lon="128.6378883"></trkpt>
			<trkpt lat="34.8975486" lon="128.6379734"></trkpt>
			<trkpt lat="34.8976408" lon="128.6380782"></trkpt>
			<trkpt lat="34.8977076" lon="128.6381414"></trkpt>
			<trkpt lat="34.8977676" lon="128.6382142"></trkpt>
			<trkpt lat="34.8978191" lon="128.6382882"></trkpt>
			<trkpt lat="34.8977841" lon="128.6385538"></trkpt>
			<trkpt lat="34.8977528" lon="128.6386609"></trkpt>
			<trkpt lat="34.8976975" lon="128.6389435"></trkpt>
			<trkpt lat="34.89768" lon="128.6390604"></trkpt>
			<trkpt lat="34.897694" lon="128.6391934"></trkpt>
			<trkpt lat="34.8977433" lon="128.6393023"></trkpt>
			<trkpt lat="34.8977862" lon="128.6394213"></trkpt>
			<trkpt lat="34.897783" lon="128.6395444"></trkpt>
			<trkpt lat="34.8977559" lon="128.6396572"></trkpt>
			<trkpt lat="34.8977066" lon="128.6397731"></trkpt>
			<trkpt lat="34.8976446" lon="128.6398559"></trkpt>
			<trkpt lat="34.8975887" lon="128.6399167"></trkpt>
			<trkpt lat="34.8975425" lon="128.6400083"></trkpt>
			<trkpt lat="34.897525" lon="128.6401619"></trkpt>
			<trkpt lat="34.8975696" lon="128.6402393"></trkpt>
			<trkpt lat="34.8976176" lon="128.6403477"></trkpt>
			<trkpt lat="34.8976734" lon="128.6404315"></trkpt>
			<trkpt lat="34.8976767" lon="128.6405247"></trkpt>
			<trkpt lat="34.897549" lon="128.6407427"></trkpt>
			<trkpt lat="34.8974643" lon="128.6408676"></trkpt>
			<trkpt lat="34.897379" lon="128.6410064"></trkpt>
			<trkpt lat="34.8972865" lon="128.6411426"></trkpt>
			<trkpt lat="34.8971891" lon="128.6413042"></trkpt>
			<trkpt lat="34.8969992" lon="128.6415903"></trkpt>
			<trkpt lat="34.8968972" lon="128.641722"></trkpt>
			<trkpt lat="34.8968174" lon="128.6418555"></trkpt>
			<trkpt lat="34.8967887" lon="128.6419566"></trkpt>
			<trkpt lat="34.8968026" lon="128.6421244"></trkpt>
			<trkpt lat="34.896703" lon="128.6421605"></trkpt>
			<trkpt lat="34.8966115" lon="128.6421469"></trkpt>
			<trkpt lat="34.896517" lon="128.642319"></trkpt>
			<trkpt lat="34.8963992" lon="128.6424186"></trkpt>
			<trkpt lat="34.8964043" lon="128.6425142"></trkpt>
			<trkpt lat="34.8962946" lon="128.6425731"></trkpt>
			<trkpt lat="34.8961941" lon="128.6426024"></trkpt>
			<trkpt lat="34.8960783" lon="128.6426499"></trkpt>
			<trkpt lat="34.8959562" lon="128.6427111"></trkpt>
			<trkpt lat="34.8958112" lon="128.6427746"></trkpt>
			<trkpt lat="34.8956781" lon="128.6428565"></trkpt>
			<trkpt lat="34.8955896" lon="128.6428883"></trkpt>
			<trkpt lat="34.8954504" lon="128.6429595"></trkpt>
			<trkpt lat="34.8952152" lon="128.6430687"></trkpt>
			<trkpt lat="34.8949997" lon="128.643142"></trkpt>
			<trkpt lat="34.8947288" lon="128.6432547"></trkpt>
			<trkpt lat="34.8945967" lon="128.6433161"></trkpt>
			<trkpt lat="34.8937359" lon="128.6437639"></trkpt>
			<trkpt lat="34.8936202" lon="128.6438468"></trkpt>
			<trkpt lat="34.8935327" lon="128.643925"></trkpt>
			<trkpt lat="34.8934845" lon="128.6439905"></trkpt>
			<trkpt lat="34.8933933" lon="128.6440794"></trkpt>
			<trkpt lat="34.8930745" lon="128.6443159"></trkpt>
			<trkpt lat="34.8929475" lon="128.6444313"></trkpt>
			<trkpt lat="34.8928342" lon="128.6445136"></trkpt>
			<trkpt lat="34.8925986" lon="128.6447453"></trkpt>
			<trkpt lat="34.8923376" lon="128.6449581"></trkpt>
			<trkpt lat="34.8920806" lon="128.645131"></trkpt>
			<trkpt lat="34.891432" lon="128.6456741"></trkpt>
			<trkpt lat="34.8912639" lon="128.6458002"></trkpt>
			<trkpt lat="34.8910456" lon="128.6459411"></trkpt>
			<trkpt lat="34.8910428" lon="128.6461339"></trkpt>
			<trkpt lat="34.8910313" lon="128.6462733"></trkpt>
			<trkpt lat="34.8909669" lon="128.646427"></trkpt>
			<trkpt lat="34.8909367" lon="128.6465148"></trkpt>
			<trkpt lat="34.8909197" lon="128.6466197"></trkpt>
			<trkpt lat="34.8909266" lon="128.6467689"></trkpt>
			<trkpt lat="34.8909201" lon="128.6471451"></trkpt>
			<trkpt lat="34.8909241" lon="128.6473463"></trkpt>
			<trkpt lat="34.8909119" lon="128.6478198"></trkpt>
			<trkpt lat="34.8909222" lon="128.648002"></trkpt>
			<trkpt lat="34.89096" lon="128.6481871"></trkpt>
			<trkpt lat="34.8910458" lon="128.6484612"></trkpt>
			<trkpt lat="34.891103" lon="128.6485932"></trkpt>
			<trkpt lat="34.8911602" lon="128.648751"></trkpt>
			<trkpt lat="34.8912109" lon="128.6489142"></trkpt>
			<trkpt lat="34.8912637" lon="128.6492456"></trkpt>
			<trkpt lat="34.8913039" lon="128.6497587"></trkpt>
			<trkpt lat="34.891313" lon="128.649923"></trkpt>
			<trkpt lat="34.8913087" lon="128.650094"></trkpt>
			<trkpt lat="34.8912953" lon="128.6502378"></trkpt>
			<trkpt lat="34.8913058" lon="128.6503794"></trkpt>
			<trkpt lat="34.8913532" lon="128.6504742"></trkpt>
			<trkpt lat="34.8914182" lon="128.6506279"></trkpt>
			<trkpt lat="34.8915003" lon="128.6507871"></trkpt>
			<trkpt lat="34.8915698" lon="128.6509743"></trkpt>
			<trkpt lat="34.8917" lon="128.6512882"></trkpt>
			<trkpt lat="34.8917846" lon="128.6514642"></trkpt>
			<trkpt lat="34.8919044" lon="128.6518385"></trkpt>
			<trkpt lat="34.8919453" lon="128.6520303"></trkpt>
			<trkpt lat="34.8919614" lon="128.6521388"></trkpt>
			<trkpt lat="34.8917055" lon="128.6521343"></trkpt>
			<trkpt lat="34.8916482" lon="128.6521738"></trkpt>
			<trkpt lat="34.8916466" lon="128.6521792"></trkpt>
			<trkpt lat="34.8918285" lon="128.6527863"></trkpt>
			<trkpt lat="34.8919616" lon="128.6531624"></trkpt>
			<trkpt lat="34.8920176" lon="128.6532885"></trkpt>
			<trkpt lat="34.8922387" lon="128.6537164"></trkpt>
			<trkpt lat="34.8924916" lon="128.6541187"></trkpt>
			<trkpt lat="34.8925782" lon="128.6542482"></trkpt>
			<trkpt lat="34.8927231" lon="128.6545582"></trkpt>
			<trkpt lat="34.8927727" lon="128.6546831"></trkpt>
			<trkpt lat="34.8928586" lon="128.6548167"></trkpt>
			<trkpt lat="34.8930283" lon="128.6549847"></trkpt>
			<trkpt lat="34.8930921" lon="128.6550803"></trkpt>
			<trkpt lat="34.8931245" lon="128.6552094"></trkpt>
			<trkpt lat="34.8931298" lon="128.6553805"></trkpt>
			<trkpt lat="34.8931238" lon="128.6555485"></trkpt>
			<trkpt lat="34.8931094" lon="128.6556861"></trkpt>
			<trkpt lat="34.8931219" lon="128.655816"></trkpt>
			<trkpt lat="34.8931532" lon="128.6559122"></trkpt>
			<trkpt lat="34.8931846" lon="128.6559887"></trkpt>
			<trkpt lat="34.8933408" lon="128.6561797"></trkpt>
			<trkpt lat="34.8934943" lon="128.6563137"></trkpt>
			<trkpt lat="34.8935577" lon="128.6564032"></trkpt>
			<trkpt lat="34.8936225" lon="128.6565275"></trkpt>
			<trkpt lat="34.8936729" lon="128.6566404"></trkpt>
			<trkpt lat="34.893779" lon="128.6567924"></trkpt>
			<trkpt lat="34.8938793" lon="128.6570648"></trkpt>
			<trkpt lat="34.893958" lon="128.6573129"></trkpt>
			<trkpt lat="34.8939869" lon="128.6574363"></trkpt>
			<trkpt lat="34.8940474" lon="128.657781"></trkpt>
			<trkpt lat="34.8941302" lon="128.6579784"></trkpt>
			<trkpt lat="34.8941838" lon="128.6581771"></trkpt>
			<trkpt lat="34.8942049" lon="128.6583245"></trkpt>
			<trkpt lat="34.8942055" lon="128.658479"></trkpt>
			<trkpt lat="34.8942236" lon="128.6588939"></trkpt>
			<trkpt lat="34.8942183" lon="128.6590396"></trkpt>
			<trkpt lat="34.8942186" lon="128.6592741"></trkpt>
			<trkpt lat="34.8942264" lon="128.6593726"></trkpt>
			<trkpt lat="34.8942527" lon="128.6595318"></trkpt>
			<trkpt lat="34.8942698" lon="128.6597044"></trkpt>
			<trkpt lat="34.8942919" lon="128.6598307"></trkpt>
			<trkpt lat="34.8943089" lon="128.6599663"></trkpt>
			<trkpt lat="34.8943299" lon="128.6600818"></trkpt>
			<trkpt lat="34.8943341" lon="128.6602725"></trkpt>
			<trkpt lat="34.8943216" lon="128.6604837"></trkpt>
			<trkpt lat="34.8942794" lon="128.6610143"></trkpt>
			<trkpt lat="34.8942791" lon="128.661377"></trkpt>
			<trkpt lat="34.8942895" lon="128.6620016"></trkpt>
			<trkpt lat="34.8942185" lon="128.6621027"></trkpt>
			<trkpt lat="34.8941455" lon="128.6621897"></trkpt>
			<trkpt lat="34.8940593" lon="128.6623114"></trkpt>
			<trkpt lat="34.8940117" lon="128.6624451"></trkpt>
			<trkpt lat="34.8940168" lon="128.6625802"></trkpt>
			<trkpt lat="34.8940507" lon="128.6627519"></trkpt>
			<trkpt lat="34.8941072" lon="128.6629221"></trkpt>
			<trkpt lat="34.894207" lon="128.6630315"></trkpt>
			<trkpt lat="34.8942593" lon="128.6630655"></trkpt>
			<trkpt lat="34.8943508" lon="128.6631749"></trkpt>
			<trkpt lat="34.8944407" lon="128.6632488"></trkpt>
			<trkpt lat="34.8945438" lon="128.6633188"></trkpt>
			<trkpt lat="34.8946626" lon="128.6633808"></trkpt>
			<trkpt lat="34.8947436" lon="128.6633907"></trkpt>
			<trkpt lat="34.8947852" lon="128.6634132"></trkpt>
			<trkpt lat="34.8948422" lon="128.663511"></trkpt>
			<trkpt lat="34.8949718" lon="128.6637948"></trkpt>
			<trkpt lat="34.89504" lon="128.6639325"></trkpt>
			<trkpt lat="34.8951696" lon="128.6641685"></trkpt>
			<trkpt lat="34.8952804" lon="128.6644488"></trkpt>
			<trkpt lat="34.8952956" lon="128.6645351"></trkpt>
			<trkpt lat="34.8952786" lon="128.664661"></trkpt>
			<trkpt lat="34.8952061" lon="128.6648877"></trkpt>
			<trkpt lat="34.8952087" lon="128.6650185"></trkpt>
			<trkpt lat="34.8952236" lon="128.6651209"></trkpt>
			<trkpt lat="34.8952688" lon="128.665215"></trkpt>
			<trkpt lat="34.8953274" lon="128.6652844"></trkpt>
			<trkpt lat="34.895395" lon="128.6653538"></trkpt>
			<trkpt lat="34.895454" lon="128.665449"></trkpt>
			<trkpt lat="34.8954916" lon="128.6655505"></trkpt>
			<trkpt lat="34.8955185" lon="128.6656562"></trkpt>
			<trkpt lat="34.8955166" lon="128.6658504"></trkpt>
			<trkpt lat="34.8955304" lon="128.6659431"></trkpt>
			<trkpt lat="34.8955334" lon="128.6660701"></trkpt>
			<trkpt lat="34.895528" lon="128.6661848"></trkpt>
			<trkpt lat="34.8954861" lon="128.6663013"></trkpt>
			<trkpt lat="34.8954659" lon="128.6664155"></trkpt>
			<trkpt lat="34.8954732" lon="128.6665972"></trkpt>
			<trkpt lat="34.8955044" lon="128.6668143"></trkpt>
			<trkpt lat="34.8955511" lon="128.6670184"></trkpt>
			<trkpt lat="34.8956258" lon="128.6672723"></trkpt>
			<trkpt lat="34.8956893" lon="128.667452"></trkpt>
			<trkpt lat="34.8957446" lon="128.6675879"></trkpt>
			<trkpt lat="34.8958172" lon="128.6676969"></trkpt>
			<trkpt lat="34.8959088" lon="128.6678019"></trkpt>
			<trkpt lat="34.8959829" lon="128.6679411"></trkpt>
			<trkpt lat="34.896085" lon="128.6680928"></trkpt>
			<trkpt lat="34.8961798" lon="128.6683974"></trkpt>
			<trkpt lat="34.8962062" lon="128.6685785"></trkpt>
			<trkpt lat="34.896209" lon="128.6687493"></trkpt>
			<trkpt lat="34.8961892" lon="128.6689003"></trkpt>
			<trkpt lat="34.8961622" lon="128.6690428"></trkpt>
			<trkpt lat="34.8961669" lon="128.6691918"></trkpt>
			<trkpt lat="34.8961585" lon="128.6693558"></trkpt>
			<trkpt lat="34.8961176" lon="128.6694979"></trkpt>
			<trkpt lat="34.8960548" lon="128.669624"></trkpt>
			<trkpt lat="34.8960364" lon="128.6697457"></trkpt>
			<trkpt lat="34.8960255" lon="128.6698775"></trkpt>
			<trkpt lat="34.8960439" lon="128.6700264"></trkpt>
			<trkpt lat="34.8960729" lon="128.670129"></trkpt>
			<trkpt lat="34.8960853" lon="128.6702554"></trkpt>
			<trkpt lat="34.8960763" lon="128.6703834"></trkpt>
			<trkpt lat="34.8960243" lon="128.670546"></trkpt>
			<trkpt lat="34.8959591" lon="128.6706732"></trkpt>
			<trkpt lat="34.8959078" lon="128.6707916"></trkpt>
			<trkpt lat="34.8958715" lon="128.6709415"></trkpt>
			<trkpt lat="34.8958465" lon="128.6710678"></trkpt>
			<trkpt lat="34.895844" lon="128.6714167"></trkpt>
			<trkpt lat="34.8958214" lon="128.6717375"></trkpt>
			<trkpt lat="34.8958058" lon="128.6719099"></trkpt>
			<trkpt lat="34.8958273" lon="128.6720883"></trkpt>
			<trkpt lat="34.8958345" lon="128.6722314"></trkpt>
			<trkpt lat="34.8958151" lon="128.6723701"></trkpt>
			<trkpt lat="34.8957684" lon="128.6725046"></trkpt>
			<trkpt lat="34.895729" lon="128.6726424"></trkpt>
			<trkpt lat="34.8957029" lon="128.6727695"></trkpt>
			<trkpt lat="34.8956565" lon="128.6730913"></trkpt>
			<trkpt lat="34.8956452" lon="128.6732945"></trkpt>
			<trkpt lat="34.8956663" lon="128.6735517"></trkpt>
			<trkpt lat="34.8956933" lon="128.673684"></trkpt>
			<trkpt lat="34.895685" lon="128.6738266"></trkpt>
			<trkpt lat="34.8956697" lon="128.6739689"></trkpt>
			<trkpt lat="34.8956498" lon="128.6742581"></trkpt>
			<trkpt lat="34.8956576" lon="128.6743771"></trkpt>
			<trkpt lat="34.8956327" lon="128.6744526"></trkpt>
			<trkpt lat="34.8954889" lon="128.6746165"></trkpt>
			<trkpt lat="34.8954601" lon="128.6747072"></trkpt>
			<trkpt lat="34.8954669" lon="128.6747871"></trkpt>
			<trkpt lat="34.8955096" lon="128.6748532"></trkpt>
			<trkpt lat="34.8955631" lon="128.6748992"></trkpt>
			<trkpt lat="34.895626" lon="128.67493"></trkpt>
			<trkpt lat="34.8956945" lon="128.6749285"></trkpt>
			<trkpt lat="34.895759" lon="128.6748415"></trkpt>
			<trkpt lat="34.8959107" lon="128.6745964"></trkpt>
			<trkpt lat="34.8959689" lon="128.6744903"></trkpt>
			<trkpt lat="34.8960217" lon="128.6744073"></trkpt>
			<trkpt lat="34.8962267" lon="128.6740334"></trkpt>
			<trkpt lat="34.8963059" lon="128.6738447"></trkpt>
			<trkpt lat="34.8963631" lon="128.6737259"></trkpt>
			<trkpt lat="34.8964141" lon="128.6736375"></trkpt>
			<trkpt lat="34.8965423" lon="128.6735208"></trkpt>
			<trkpt lat="34.8966097" lon="128.673503"></trkpt>
			<trkpt lat="34.8966946" lon="128.6735106"></trkpt>
			<trkpt lat="34.8967983" lon="128.6735585"></trkpt>
			<trkpt lat="34.8968956" lon="128.6735522"></trkpt>
			<trkpt lat="34.8969817" lon="128.6735142"></trkpt>
			<trkpt lat="34.897064" lon="128.6734655"></trkpt>
			<trkpt lat="34.8971409" lon="128.6734562"></trkpt>
			<trkpt lat="34.8972183" lon="128.6734904"></trkpt>
			<trkpt lat="34.8972612" lon="128.6735461"></trkpt>
			<trkpt lat="34.8972851" lon="128.6736159"></trkpt>
			<trkpt lat="34.8972999" lon="128.6737355"></trkpt>
			<trkpt lat="34.8972991" lon="128.6738333"></trkpt>
			<trkpt lat="34.8972655" lon="128.6739489"></trkpt>
			<trkpt lat="34.8972199" lon="128.6740283"></trkpt>
			<trkpt lat="34.8971094" lon="128.6741005"></trkpt>
			<trkpt lat="34.8970564" lon="128.6741506"></trkpt>
			<trkpt lat="34.8970034" lon="128.6742156"></trkpt>
			<trkpt lat="34.8969282" lon="128.6743418"></trkpt>
			<trkpt lat="34.8968134" lon="128.6746217"></trkpt>
			<trkpt lat="34.8967219" lon="128.6750242"></trkpt>
			<trkpt lat="34.8967284" lon="128.6751216"></trkpt>
			<trkpt lat="34.8967511" lon="128.6752413"></trkpt>
			<trkpt lat="34.896784" lon="128.6753345"></trkpt>
			<trkpt lat="34.896817" lon="128.6754521"></trkpt>
			<trkpt lat="34.896793" lon="128.6755267"></trkpt>
			<trkpt lat="34.8967039" lon="128.6755485"></trkpt>
			<trkpt lat="34.8966014" lon="128.6755395"></trkpt>
			<trkpt lat="34.8964543" lon="128.675542"></trkpt>
			<trkpt lat="34.8963929" lon="128.675595"></trkpt>
			<trkpt lat="34.896275" lon="128.675797"></trkpt>
			<trkpt lat="34.896235" lon="128.6759051"></trkpt>
			<trkpt lat="34.8961742" lon="128.676039"></trkpt>
			<trkpt lat="34.8961238" lon="128.67613"></trkpt>
			<trkpt lat="34.8960619" lon="128.6762152"></trkpt>
			<trkpt lat="34.8959883" lon="128.6762744"></trkpt>
			<trkpt lat="34.8958941" lon="128.6762978"></trkpt>
			<trkpt lat="34.8957102" lon="128.676278"></trkpt>
			<trkpt lat="34.8956137" lon="128.6762731"></trkpt>
			<trkpt lat="34.8955364" lon="128.6762997"></trkpt>
			<trkpt lat="34.8954583" lon="128.676354"></trkpt>
			<trkpt lat="34.8953864" lon="128.6764242"></trkpt>
			<trkpt lat="34.8952172" lon="128.6766088"></trkpt>
			<trkpt lat="34.8951671" lon="128.6766361"></trkpt>
			<trkpt lat="34.8950871" lon="128.6766393"></trkpt>
			<trkpt lat="34.8950189" lon="128.6765902"></trkpt>
			<trkpt lat="34.8949239" lon="128.6764115"></trkpt>
			<trkpt lat="34.8948715" lon="128.6763291"></trkpt>
			<trkpt lat="34.8948088" lon="128.6762658"></trkpt>
			<trkpt lat="34.8947233" lon="128.6762771"></trkpt>
			<trkpt lat="34.894613" lon="128.6763073"></trkpt>
			<trkpt lat="34.8945082" lon="128.6763439"></trkpt>
			<trkpt lat="34.8943408" lon="128.6764447"></trkpt>
			<trkpt lat="34.8942631" lon="128.6764845"></trkpt>
			<trkpt lat="34.8941968" lon="128.6764866"></trkpt>
			<trkpt lat="34.8941497" lon="128.6764379"></trkpt>
			<trkpt lat="34.8941372" lon="128.6763494"></trkpt>
			<trkpt lat="34.8941359" lon="128.676217"></trkpt>
			<trkpt lat="34.8941494" lon="128.6760766"></trkpt>
			<trkpt lat="34.8941435" lon="128.6759634"></trkpt>
			<trkpt lat="34.8941031" lon="128.6758832"></trkpt>
			<trkpt lat="34.8940301" lon="128.6758754"></trkpt>
			<trkpt lat="34.8938449" lon="128.675873"></trkpt>
			<trkpt lat="34.8937645" lon="128.6758192"></trkpt>
			<trkpt lat="34.8936783" lon="128.6756666"></trkpt>
			<trkpt lat="34.8936161" lon="128.6755875"></trkpt>
			<trkpt lat="34.8935417" lon="128.6755236"></trkpt>
			<trkpt lat="34.8934478" lon="128.6754703"></trkpt>
			<trkpt lat="34.8932591" lon="128.6753176"></trkpt>
			<trkpt lat="34.8931497" lon="128.6751132"></trkpt>
			<trkpt lat="34.8930458" lon="128.6750424"></trkpt>
			<trkpt lat="34.8929498" lon="128.6751201"></trkpt>
			<trkpt lat="34.8929493" lon="128.6752533"></trkpt>
			<trkpt lat="34.8929686" lon="128.6754136"></trkpt>
			<trkpt lat="34.892953" lon="128.6755315"></trkpt>
			<trkpt lat="34.8929383" lon="128.6757251"></trkpt>
			<trkpt lat="34.8929029" lon="128.6758598"></trkpt>
			<trkpt lat="34.8928914" lon="128.6760142"></trkpt>
			<trkpt lat="34.8928707" lon="128.6761753"></trkpt>
			<trkpt lat="34.892869" lon="128.6762917"></trkpt>
			<trkpt lat="34.8928562" lon="128.6764042"></trkpt>
			<trkpt lat="34.8928275" lon="128.6765254"></trkpt>
			<trkpt lat="34.8928342" lon="128.676769"></trkpt>
			<trkpt lat="34.8927782" lon="128.6771352"></trkpt>
			<trkpt lat="34.8927308" lon="128.677294"></trkpt>
			<trkpt lat="34.8926782" lon="128.6773995"></trkpt>
			<trkpt lat="34.8925679" lon="128.6775618"></trkpt>
			<trkpt lat="34.8924952" lon="128.6776447"></trkpt>
			<trkpt lat="34.8924112" lon="128.6776899"></trkpt>
			<trkpt lat="34.89235" lon="128.6777435"></trkpt>
			<trkpt lat="34.892275" lon="128.6777864"></trkpt>
			<trkpt lat="34.8921971" lon="128.6777807"></trkpt>
			<trkpt lat="34.8920248" lon="128.6777377"></trkpt>
			<trkpt lat="34.89193" lon="128.6776933"></trkpt>
			<trkpt lat="34.8918291" lon="128.677682"></trkpt>
			<trkpt lat="34.8916908" lon="128.6776813"></trkpt>
			<trkpt lat="34.8915941" lon="128.6776895"></trkpt>
			<trkpt lat="34.8915302" lon="128.6777324"></trkpt>
			<trkpt lat="34.8914761" lon="128.6777598"></trkpt>
			<trkpt lat="34.8912631" lon="128.677721"></trkpt>
			<trkpt lat="34.8911209" lon="128.6776748"></trkpt>
			<trkpt lat="34.8910295" lon="128.6776313"></trkpt>
			<trkpt lat="34.8909275" lon="128.677592"></trkpt>
			<trkpt lat="34.8907807" lon="128.6775499"></trkpt>
			<trkpt lat="34.8906794" lon="128.6775094"></trkpt>
			<trkpt lat="34.8905428" lon="128.6774667"></trkpt>
			<trkpt lat="34.8904364" lon="128.6774107"></trkpt>
			<trkpt lat="34.8902122" lon="128.6773713"></trkpt>
			<trkpt lat="34.8898938" lon="128.6772881"></trkpt>
			<trkpt lat="34.8896251" lon="128.677279"></trkpt>
			<trkpt lat="34.889009" lon="128.6773106"></trkpt>
			<trkpt lat="34.8884556" lon="128.6771741"></trkpt>
			<trkpt lat="34.8881593" lon="128.6771942"></trkpt>
			<trkpt lat="34.8879948" lon="128.6772465"></trkpt>
			<trkpt lat="34.8878538" lon="128.677384"></trkpt>
			<trkpt lat="34.8878791" lon="128.6775292"></trkpt>
			<trkpt lat="34.8879147" lon="128.6776401"></trkpt>
			<trkpt lat="34.8879553" lon="128.6778989"></trkpt>
			<trkpt lat="34.8879291" lon="128.6780733"></trkpt>
			<trkpt lat="34.8879881" lon="128.6781436"></trkpt>
			<trkpt lat="34.8880301" lon="128.6782628"></trkpt>
			<trkpt lat="34.8880286" lon="128.6783947"></trkpt>
			<trkpt lat="34.8880727" lon="128.6785998"></trkpt>
			<trkpt lat="34.8881473" lon="128.6787784"></trkpt>
			<trkpt lat="34.8882162" lon="128.6789815"></trkpt>
			<trkpt lat="34.88832" lon="128.6791245"></trkpt>
			<trkpt lat="34.8884645" lon="128.6792099"></trkpt>
			<trkpt lat="34.888571" lon="128.6793072"></trkpt>
			<trkpt lat="34.888696" lon="128.6794097"></trkpt>
			<trkpt lat="34.8888286" lon="128.6794367"></trkpt>
			<trkpt lat="34.8889785" lon="128.6795326"></trkpt>
			<trkpt lat="34.8890941" lon="128.6796781"></trkpt>
			<trkpt lat="34.8891382" lon="128.6797962"></trkpt>
			<trkpt lat="34.8891526" lon="128.6799163"></trkpt>
			<trkpt lat="34.8891313" lon="128.6800995"></trkpt>
			<trkpt lat="34.8891951" lon="128.680276"></trkpt>
			<trkpt lat="34.8891758" lon="128.6804263"></trkpt>
			<trkpt lat="34.8891711" lon="128.6805906"></trkpt>
			<trkpt lat="34.8891752" lon="128.6806001"></trkpt>
			<trkpt lat="34.8893072" lon="128.6806981"></trkpt>
			<trkpt lat="34.8894554" lon="128.6807686"></trkpt>
			<trkpt lat="34.8895664" lon="128.6808933"></trkpt>
			<trkpt lat="34.8896476" lon="128.6811051"></trkpt>
			<trkpt lat="34.8896808" lon="128.6812986"></trkpt>
			<trkpt lat="34.8897207" lon="128.6814551"></trkpt>
			<trkpt lat="34.8898723" lon="128.6815833"></trkpt>
			<trkpt lat="34.8900387" lon="128.6816209"></trkpt>
			<trkpt lat="34.8904619" lon="128.6815786"></trkpt>
			<trkpt lat="34.8905663" lon="128.6817436"></trkpt>
			<trkpt lat="34.8906735" lon="128.6819791"></trkpt>
			<trkpt lat="34.8907607" lon="128.682224"></trkpt>
			<trkpt lat="34.8908038" lon="128.6823734"></trkpt>
			<trkpt lat="34.8907898" lon="128.682577"></trkpt>
			<trkpt lat="34.8906996" lon="128.6827954"></trkpt>
			<trkpt lat="34.8905927" lon="128.6829458"></trkpt>
			<trkpt lat="34.8905951" lon="128.6829877"></trkpt>
			<trkpt lat="34.8905663" lon="128.6831163"></trkpt>
			<trkpt lat="34.8905723" lon="128.6833761"></trkpt>
			<trkpt lat="34.8905239" lon="128.6834986"></trkpt>
			<trkpt lat="34.8904867" lon="128.6835595"></trkpt>
			<trkpt lat="34.8904808" lon="128.6836594"></trkpt>
			<trkpt lat="34.8904644" lon="128.6837402"></trkpt>
			<trkpt lat="34.8904498" lon="128.6837852"></trkpt>
			<trkpt lat="34.8904457" lon="128.6839096"></trkpt>
			<trkpt lat="34.8903821" lon="128.6844171"></trkpt>
			<trkpt lat="34.8903498" lon="128.6846103"></trkpt>
			<trkpt lat="34.8903043" lon="128.6849513"></trkpt>
			<trkpt lat="34.8902967" lon="128.6851487"></trkpt>
			<trkpt lat="34.8903112" lon="128.6853234"></trkpt>
			<trkpt lat="34.890368" lon="128.6855106"></trkpt>
			<trkpt lat="34.8904307" lon="128.6856043"></trkpt>
			<trkpt lat="34.8904694" lon="128.6856758"></trkpt>
			<trkpt lat="34.8904502" lon="128.6857542"></trkpt>
			<trkpt lat="34.890384" lon="128.6857681"></trkpt>
			<trkpt lat="34.8902652" lon="128.6857336"></trkpt>
			<trkpt lat="34.8901809" lon="128.6856816"></trkpt>
			<trkpt lat="34.8900945" lon="128.6856868"></trkpt>
			<trkpt lat="34.8900195" lon="128.6857766"></trkpt>
			<trkpt lat="34.8899913" lon="128.6859029"></trkpt>
			<trkpt lat="34.8900146" lon="128.6860535"></trkpt>
			<trkpt lat="34.8900522" lon="128.6861294"></trkpt>
			<trkpt lat="34.890089" lon="128.6862669"></trkpt>
			<trkpt lat="34.8899345" lon="128.6864089"></trkpt>
			<trkpt lat="34.8897919" lon="128.6865172"></trkpt>
			<trkpt lat="34.889707" lon="128.6865896"></trkpt>
			<trkpt lat="34.889639" lon="128.6867116"></trkpt>
			<trkpt lat="34.8896363" lon="128.6868797"></trkpt>
			<trkpt lat="34.8896653" lon="128.6872638"></trkpt>
			<trkpt lat="34.889652" lon="128.6874134"></trkpt>
			<trkpt lat="34.8895959" lon="128.6875275"></trkpt>
			<trkpt lat="34.8894129" lon="128.6877812"></trkpt>
			<trkpt lat="34.8893917" lon="128.6879429"></trkpt>
			<trkpt lat="34.889389" lon="128.6881777"></trkpt>
			<trkpt lat="34.8894045" lon="128.6884018"></trkpt>
			<trkpt lat="34.8894217" lon="128.6887929"></trkpt>
			<trkpt lat="34.8894399" lon="128.6889389"></trkpt>
			<trkpt lat="34.8894183" lon="128.6891581"></trkpt>
			<trkpt lat="34.8894456" lon="128.6895308"></trkpt>
			<trkpt lat="34.8894799" lon="128.6897048"></trkpt>
			<trkpt lat="34.8893755" lon="128.6898567"></trkpt>
			<trkpt lat="34.8895498" lon="128.6901434"></trkpt>
			<trkpt lat="34.8896698" lon="128.6903247"></trkpt>
			<trkpt lat="34.8897924" lon="128.6905299"></trkpt>
			<trkpt lat="34.8898558" lon="128.6905911"></trkpt>
			<trkpt lat="34.88986" lon="128.6905885"></trkpt>
			<trkpt lat="34.889918" lon="128.6906269"></trkpt>
			<trkpt lat="34.8899606" lon="128.6907708"></trkpt>
			<trkpt lat="34.8899974" lon="128.6909161"></trkpt>
			<trkpt lat="34.8900839" lon="128.6911909"></trkpt>
			<trkpt lat="34.8901102" lon="128.6913655"></trkpt>
			<trkpt lat="34.8901538" lon="128.691516"></trkpt>
			<trkpt lat="34.8901623" lon="128.691684"></trkpt>
			<trkpt lat="34.8900615" lon="128.692107"></trkpt>
			<trkpt lat="34.8899512" lon="128.6925356"></trkpt>
			<trkpt lat="34.8898433" lon="128.6929873"></trkpt>
			<trkpt lat="34.8897705" lon="128.6932069"></trkpt>
			<trkpt lat="34.8896602" lon="128.6936845"></trkpt>
			<trkpt lat="34.8895617" lon="128.6939193"></trkpt>
			<trkpt lat="34.8895284" lon="128.6941366"></trkpt>
			<trkpt lat="34.8895251" lon="128.6944572"></trkpt>
			<trkpt lat="34.8894803" lon="128.6947457"></trkpt>
			<trkpt lat="34.889403" lon="128.6950577"></trkpt>
			<trkpt lat="34.8894326" lon="128.6951126"></trkpt>
			<trkpt lat="34.8894311" lon="128.6952918"></trkpt>
		</trkseg>
	</trk>
</gpx>
