<?xml version="1.0" encoding="utf-8" standalone="yes"?>
<gpx version="1.1" creator="GPS Visualizer https://www.gpsvisualizer.com/" xmlns="http://www.topografix.com/GPX/1/1" xmlns:xsi="http://www.w3.org/2001/XMLSchema-instance" xsi:schemaLocation="http://www.topografix.com/GPX/1/1 http://www.topografix.com/GPX/1/1/gpx.xsd">
<trk>
  <name>남파랑길 36코스 (남해바래길 03코스 동대만길) 20200906</name>
  <trkseg>
    <trkpt lat="34.932314633" lon="128.053790476"></trkpt>
    <trkpt lat="34.93227996" lon="128.05384086"></trkpt>
    <trkpt lat="34.932276832" lon="128.053844587"></trkpt>
    <trkpt lat="34.932220575" lon="128.053918997"></trkpt>
    <trkpt lat="34.932214433" lon="128.053918987"></trkpt>
    <trkpt lat="34.932153098" lon="128.053946876"></trkpt>
    <trkpt lat="34.932148539" lon="128.053946885"></trkpt>
    <trkpt lat="34.932066834" lon="128.053936045"></trkpt>
    <trkpt lat="34.931949278" lon="128.053843167"></trkpt>
    <trkpt lat="34.931943228" lon="128.053837559"></trkpt>
    <trkpt lat="34.931807817" lon="128.053684474"></trkpt>
    <trkpt lat="34.931593798" lon="128.053434021"></trkpt>
    <trkpt lat="34.931415778" lon="128.053245437"></trkpt>
    <trkpt lat="34.93117348" lon="128.052991636"></trkpt>
    <trkpt lat="34.93096166" lon="128.052758897"></trkpt>
    <trkpt lat="34.930763508" lon="128.052513508"></trkpt>
    <trkpt lat="34.930627505" lon="128.052384586"></trkpt>
    <trkpt lat="34.930235133" lon="128.05196334"></trkpt>
    <trkpt lat="34.930067142" lon="128.051795375"></trkpt>
    <trkpt lat="34.929899153" lon="128.05161765"></trkpt>
    <trkpt lat="34.92944666" lon="128.051129266"></trkpt>
    <trkpt lat="34.92916508" lon="128.050820698"></trkpt>
    <trkpt lat="34.92855252" lon="128.050169713"></trkpt>
    <trkpt lat="34.928205325" lon="128.0498416"></trkpt>
    <trkpt lat="34.927559146" lon="128.049213743"></trkpt>
    <trkpt lat="34.92733948" lon="128.04898048"></trkpt>
    <trkpt lat="34.927093127" lon="128.04879621"></trkpt>
    <trkpt lat="34.926987554" lon="128.048685167"></trkpt>
    <trkpt lat="34.926873427" lon="128.048511124"></trkpt>
    <trkpt lat="34.926725069" lon="128.048169215"></trkpt>
    <trkpt lat="34.926687836" lon="128.048029192"></trkpt>
    <trkpt lat="34.92667772" lon="128.047959992"></trkpt>
    <trkpt lat="34.926483256" lon="128.04727451"></trkpt>
    <trkpt lat="34.926339806" lon="128.046790975"></trkpt>
    <trkpt lat="34.926230692" lon="128.046455456"></trkpt>
    <trkpt lat="34.925970714" lon="128.045797719"></trkpt>
    <trkpt lat="34.925885851" lon="128.045583348"></trkpt>
    <trkpt lat="34.92580353" lon="128.045366131"></trkpt>
    <trkpt lat="34.925739723" lon="128.045167659"></trkpt>
    <trkpt lat="34.925682035" lon="128.044859734"></trkpt>
    <trkpt lat="34.925558518" lon="128.044488108"></trkpt>
    <trkpt lat="34.925490768" lon="128.04415262"></trkpt>
    <trkpt lat="34.925408296" lon="128.043916803"></trkpt>
    <trkpt lat="34.925336583" lon="128.0437979"></trkpt>
    <trkpt lat="34.92528368" lon="128.043731972"></trkpt>
    <trkpt lat="34.925112117" lon="128.043468995"></trkpt>
    <trkpt lat="34.92490187" lon="128.043143317"></trkpt>
    <trkpt lat="34.92447265" lon="128.042536475"></trkpt>
    <trkpt lat="34.924234091" lon="128.04219599"></trkpt>
    <trkpt lat="34.923619437" lon="128.041355059"></trkpt>
    <trkpt lat="34.923477922" lon="128.041130545"></trkpt>
    <trkpt lat="34.923049587" lon="128.0405603"></trkpt>
    <trkpt lat="34.92293033" lon="128.040288934"></trkpt>
    <trkpt lat="34.922724153" lon="128.039821844"></trkpt>
    <trkpt lat="34.922641406" lon="128.039459381"></trkpt>
    <trkpt lat="34.922566957" lon="128.039079399"></trkpt>
    <trkpt lat="34.92255568" lon="128.03880177"></trkpt>
    <trkpt lat="34.922539719" lon="128.038360037"></trkpt>
    <trkpt lat="34.922564163" lon="128.037971057"></trkpt>
    <trkpt lat="34.922587511" lon="128.037722989"></trkpt>
    <trkpt lat="34.922593474" lon="128.037565936"></trkpt>
    <trkpt lat="34.922576861" lon="128.036903657"></trkpt>
    <trkpt lat="34.922571314" lon="128.03665338"></trkpt>
    <trkpt lat="34.922554844" lon="128.036428762"></trkpt>
    <trkpt lat="34.922522683" lon="128.036278432"></trkpt>
    <trkpt lat="34.922431655" lon="128.035905214"></trkpt>
    <trkpt lat="34.922384292" lon="128.035820397"></trkpt>
    <trkpt lat="34.922321639" lon="128.035616617"></trkpt>
    <trkpt lat="34.922229616" lon="128.035386678"></trkpt>
    <trkpt lat="34.922106534" lon="128.035109787"></trkpt>
    <trkpt lat="34.921921679" lon="128.034812376"></trkpt>
    <trkpt lat="34.921102439" lon="128.033643858"></trkpt>
    <trkpt lat="34.920882068" lon="128.033241757"></trkpt>
    <trkpt lat="34.920568664" lon="128.032844565"></trkpt>
    <trkpt lat="34.920028304" lon="128.032151488"></trkpt>
    <trkpt lat="34.91987602" lon="128.032003504"></trkpt>
    <trkpt lat="34.919786899" lon="128.031938103"></trkpt>
    <trkpt lat="34.919734779" lon="128.031881958"></trkpt>
    <trkpt lat="34.919735479" lon="128.031843828"></trkpt>
    <trkpt lat="34.919804244" lon="128.031842842"></trkpt>
    <trkpt lat="34.919900586" lon="128.031890397"></trkpt>
    <trkpt lat="34.920012663" lon="128.031959741"></trkpt>
    <trkpt lat="34.920099697" lon="128.031855769"></trkpt>
    <trkpt lat="34.920235613" lon="128.031706038"></trkpt>
    <trkpt lat="34.920241432" lon="128.031706121"></trkpt>
    <trkpt lat="34.920245314" lon="128.031704963"></trkpt>
    <trkpt lat="34.920367699" lon="128.031503939"></trkpt>
    <trkpt lat="34.920553737" lon="128.031215468"></trkpt>
    <trkpt lat="34.920623036" lon="128.031142506"></trkpt>
    <trkpt lat="34.920762526" lon="128.031075571"></trkpt>
    <trkpt lat="34.920936383" lon="128.031035034"></trkpt>
    <trkpt lat="34.921072803" lon="128.030994757"></trkpt>
    <trkpt lat="34.921186499" lon="128.030945237"></trkpt>
    <trkpt lat="34.921289938" lon="128.0306959"></trkpt>
    <trkpt lat="34.921307743" lon="128.030585017"></trkpt>
    <trkpt lat="34.921308284" lon="128.030342414"></trkpt>
    <trkpt lat="34.921277001" lon="128.03023674"></trkpt>
    <trkpt lat="34.921159462" lon="128.029999563"></trkpt>
    <trkpt lat="34.921087469" lon="128.02987186"></trkpt>
    <trkpt lat="34.921036972" lon="128.029833493"></trkpt>
    <trkpt lat="34.920980596" lon="128.02976775"></trkpt>
    <trkpt lat="34.920920215" lon="128.029672748"></trkpt>
    <trkpt lat="34.920928478" lon="128.029564895"></trkpt>
    <trkpt lat="34.920960451" lon="128.029487994"></trkpt>
    <trkpt lat="34.920973108" lon="128.029373298"></trkpt>
    <trkpt lat="34.920979812" lon="128.029298192"></trkpt>
    <trkpt lat="34.920888827" lon="128.029146036"></trkpt>
    <trkpt lat="34.920806224" lon="128.029062537"></trkpt>
    <trkpt lat="34.920698437" lon="128.028915182"></trkpt>
    <trkpt lat="34.920644049" lon="128.028838996"></trkpt>
    <trkpt lat="34.920646691" lon="128.028729934"></trkpt>
    <trkpt lat="34.920649517" lon="128.028724308"></trkpt>
    <trkpt lat="34.920670776" lon="128.028638773"></trkpt>
    <trkpt lat="34.920667647" lon="128.028512523"></trkpt>
    <trkpt lat="34.920658376" lon="128.028415063"></trkpt>
    <trkpt lat="34.920669511" lon="128.028293749"></trkpt>
    <trkpt lat="34.920668095" lon="128.028189706"></trkpt>
    <trkpt lat="34.920675833" lon="128.028143237"></trkpt>
    <trkpt lat="34.920667398" lon="128.028050096"></trkpt>
    <trkpt lat="34.920644668" lon="128.027945167"></trkpt>
    <trkpt lat="34.920611551" lon="128.027753704"></trkpt>
    <trkpt lat="34.920601094" lon="128.027568732"></trkpt>
    <trkpt lat="34.920612609" lon="128.027422219"></trkpt>
    <trkpt lat="34.920473545" lon="128.027260293"></trkpt>
    <trkpt lat="34.920384384" lon="128.027194777"></trkpt>
    <trkpt lat="34.92023873" lon="128.027074641"></trkpt>
    <trkpt lat="34.920098026" lon="128.026924812"></trkpt>
    <trkpt lat="34.920013856" lon="128.026854534"></trkpt>
    <trkpt lat="34.919817879" lon="128.026733964"></trkpt>
    <trkpt lat="34.91963029" lon="128.026682806"></trkpt>
    <trkpt lat="34.919522176" lon="128.026659058"></trkpt>
    <trkpt lat="34.919406469" lon="128.026662692"></trkpt>
    <trkpt lat="34.91935356" lon="128.026643919"></trkpt>
    <trkpt lat="34.919106292" lon="128.02637786"></trkpt>
    <trkpt lat="34.918871814" lon="128.026183982"></trkpt>
    <trkpt lat="34.918708041" lon="128.025992367"></trkpt>
    <trkpt lat="34.918515782" lon="128.025823929"></trkpt>
    <trkpt lat="34.918439055" lon="128.025777099"></trkpt>
    <trkpt lat="34.918298091" lon="128.025767313"></trkpt>
    <trkpt lat="34.918064385" lon="128.025807388"></trkpt>
    <trkpt lat="34.918051302" lon="128.025807602"></trkpt>
    <trkpt lat="34.918002868" lon="128.025798248"></trkpt>
    <trkpt lat="34.917916968" lon="128.025750869"></trkpt>
    <trkpt lat="34.917792413" lon="128.025682544"></trkpt>
    <trkpt lat="34.917707083" lon="128.025656015"></trkpt>
    <trkpt lat="34.917662596" lon="128.025625318"></trkpt>
    <trkpt lat="34.917683988" lon="128.025464298"></trkpt>
    <trkpt lat="34.917691778" lon="128.025308189"></trkpt>
    <trkpt lat="34.917634177" lon="128.02510605"></trkpt>
    <trkpt lat="34.917593045" lon="128.02498592"></trkpt>
    <trkpt lat="34.917447277" lon="128.024763097"></trkpt>
    <trkpt lat="34.917348457" lon="128.024631939"></trkpt>
    <trkpt lat="34.917269151" lon="128.02452486"></trkpt>
    <trkpt lat="34.917202966" lon="128.024408671"></trkpt>
    <trkpt lat="34.917150769" lon="128.024250308"></trkpt>
    <trkpt lat="34.917134096" lon="128.024115355"></trkpt>
    <trkpt lat="34.917136407" lon="128.023974622"></trkpt>
    <trkpt lat="34.917151958" lon="128.023826525"></trkpt>
    <trkpt lat="34.917163508" lon="128.023421349"></trkpt>
    <trkpt lat="34.917182977" lon="128.023164351"></trkpt>
    <trkpt lat="34.917262053" lon="128.022881822"></trkpt>
    <trkpt lat="34.917390634" lon="128.022559221"></trkpt>
    <trkpt lat="34.917456302" lon="128.02242476"></trkpt>
    <trkpt lat="34.917474727" lon="128.022272412"></trkpt>
    <trkpt lat="34.9175034" lon="128.022101678"></trkpt>
    <trkpt lat="34.917536747" lon="128.021839498"></trkpt>
    <trkpt lat="34.917536819" lon="128.021649411"></trkpt>
    <trkpt lat="34.917565849" lon="128.021405991"></trkpt>
    <trkpt lat="34.917586478" lon="128.021306922"></trkpt>
    <trkpt lat="34.917586307" lon="128.021253766"></trkpt>
    <trkpt lat="34.917624248" lon="128.020999087"></trkpt>
    <trkpt lat="34.917633426" lon="128.020836953"></trkpt>
    <trkpt lat="34.917624892" lon="128.020639419"></trkpt>
    <trkpt lat="34.917587699" lon="128.020378384"></trkpt>
    <trkpt lat="34.917540675" lon="128.020081025"></trkpt>
    <trkpt lat="34.917504637" lon="128.019814524"></trkpt>
    <trkpt lat="34.917511426" lon="128.019656132"></trkpt>
    <trkpt lat="34.917528105" lon="128.019509673"></trkpt>
    <trkpt lat="34.917570656" lon="128.019199958"></trkpt>
    <trkpt lat="34.917627661" lon="128.01887453"></trkpt>
    <trkpt lat="34.917675751" lon="128.018620509"></trkpt>
    <trkpt lat="34.917708495" lon="128.01831565"></trkpt>
    <trkpt lat="34.917723323" lon="128.018024003"></trkpt>
    <trkpt lat="34.91770017" lon="128.017680964"></trkpt>
    <trkpt lat="34.917676091" lon="128.017414849"></trkpt>
    <trkpt lat="34.917629655" lon="128.017095199"></trkpt>
    <trkpt lat="34.917600187" lon="128.016751734"></trkpt>
    <trkpt lat="34.917582856" lon="128.01662435"></trkpt>
    <trkpt lat="34.917556573" lon="128.016470736"></trkpt>
    <trkpt lat="34.917495632" lon="128.016265145"></trkpt>
    <trkpt lat="34.917418348" lon="128.016060025"></trkpt>
    <trkpt lat="34.917405143" lon="128.015956129"></trkpt>
    <trkpt lat="34.917525445" lon="128.015788958"></trkpt>
    <trkpt lat="34.91764431" lon="128.015614696"></trkpt>
    <trkpt lat="34.917723351" lon="128.015540973"></trkpt>
    <trkpt lat="34.91780032" lon="128.015502801"></trkpt>
    <trkpt lat="34.918060395" lon="128.015487438"></trkpt>
    <trkpt lat="34.918266356" lon="128.01548235"></trkpt>
    <trkpt lat="34.918459127" lon="128.015458194"></trkpt>
    <trkpt lat="34.918602338" lon="128.015382561"></trkpt>
    <trkpt lat="34.918731879" lon="128.015343351"></trkpt>
    <trkpt lat="34.919006614" lon="128.015305295"></trkpt>
    <trkpt lat="34.919177219" lon="128.015255573"></trkpt>
    <trkpt lat="34.919445" lon="128.015106426"></trkpt>
    <trkpt lat="34.919362183" lon="128.014874724"></trkpt>
    <trkpt lat="34.919264642" lon="128.014685168"></trkpt>
    <trkpt lat="34.91913754" lon="128.014445758"></trkpt>
    <trkpt lat="34.919036304" lon="128.014165905"></trkpt>
    <trkpt lat="34.918950111" lon="128.013865128"></trkpt>
    <trkpt lat="34.918879979" lon="128.01351762"></trkpt>
    <trkpt lat="34.91878962" lon="128.013123939"></trkpt>
    <trkpt lat="34.91872133" lon="128.012868718"></trkpt>
    <trkpt lat="34.918682709" lon="128.012621557"></trkpt>
    <trkpt lat="34.918679703" lon="128.012531287"></trkpt>
    <trkpt lat="34.91856045" lon="128.012497602"></trkpt>
    <trkpt lat="34.918429793" lon="128.012465266"></trkpt>
    <trkpt lat="34.918279616" lon="128.012444802"></trkpt>
    <trkpt lat="34.918095355" lon="128.012440448"></trkpt>
    <trkpt lat="34.917967927" lon="128.012389832"></trkpt>
    <trkpt lat="34.917883374" lon="128.012374282"></trkpt>
    <trkpt lat="34.917685918" lon="128.012375434"></trkpt>
    <trkpt lat="34.917506301" lon="128.012440168"></trkpt>
    <trkpt lat="34.917228668" lon="128.012526474"></trkpt>
    <trkpt lat="34.917098249" lon="128.0124999"></trkpt>
    <trkpt lat="34.916990656" lon="128.012432603"></trkpt>
    <trkpt lat="34.916766446" lon="128.012380145"></trkpt>
    <trkpt lat="34.916743477" lon="128.012130392"></trkpt>
    <trkpt lat="34.916695932" lon="128.011728032"></trkpt>
    <trkpt lat="34.916663549" lon="128.011596993"></trkpt>
    <trkpt lat="34.916586442" lon="128.011388503"></trkpt>
    <trkpt lat="34.916558801" lon="128.011373634"></trkpt>
    <trkpt lat="34.916478258" lon="128.011331358"></trkpt>
    <trkpt lat="34.916463683" lon="128.011250709"></trkpt>
    <trkpt lat="34.916264211" lon="128.011076124"></trkpt>
    <trkpt lat="34.916120199" lon="128.010946426"></trkpt>
    <trkpt lat="34.916057198" lon="128.010861949"></trkpt>
    <trkpt lat="34.916034029" lon="128.010812978"></trkpt>
    <trkpt lat="34.916040208" lon="128.010710001"></trkpt>
    <trkpt lat="34.916087305" lon="128.010663684"></trkpt>
    <trkpt lat="34.916171361" lon="128.010676516"></trkpt>
    <trkpt lat="34.91623961" lon="128.010662378"></trkpt>
    <trkpt lat="34.916303402" lon="128.010542487"></trkpt>
    <trkpt lat="34.916423336" lon="128.010299392"></trkpt>
    <trkpt lat="34.916526316" lon="128.009953933"></trkpt>
    <trkpt lat="34.916549456" lon="128.009798567"></trkpt>
    <trkpt lat="34.916643224" lon="128.009536888"></trkpt>
    <trkpt lat="34.916726347" lon="128.009143033"></trkpt>
    <trkpt lat="34.916807868" lon="128.008635008"></trkpt>
    <trkpt lat="34.91682947" lon="128.008526758"></trkpt>
    <trkpt lat="34.916381527" lon="128.008088757"></trkpt>
    <trkpt lat="34.916127542" lon="128.007852626"></trkpt>
    <trkpt lat="34.91597021" lon="128.007539863"></trkpt>
    <trkpt lat="34.915838646" lon="128.007219472"></trkpt>
    <trkpt lat="34.91568616" lon="128.006985137"></trkpt>
    <trkpt lat="34.915608792" lon="128.006940522"></trkpt>
    <trkpt lat="34.915519736" lon="128.006913573"></trkpt>
    <trkpt lat="34.915415342" lon="128.006926823"></trkpt>
    <trkpt lat="34.915214698" lon="128.007045243"></trkpt>
    <trkpt lat="34.915027949" lon="128.007197913"></trkpt>
    <trkpt lat="34.914919648" lon="128.007269909"></trkpt>
    <trkpt lat="34.914788518" lon="128.007250145"></trkpt>
    <trkpt lat="34.914553555" lon="128.007145451"></trkpt>
    <trkpt lat="34.914506254" lon="128.007113475"></trkpt>
    <trkpt lat="34.914411596" lon="128.006942112"></trkpt>
    <trkpt lat="34.91434632" lon="128.006906815"></trkpt>
    <trkpt lat="34.914242606" lon="128.006851301"></trkpt>
    <trkpt lat="34.914139149" lon="128.006797679"></trkpt>
    <trkpt lat="34.914050073" lon="128.006748904"></trkpt>
    <trkpt lat="34.913759405" lon="128.006661556"></trkpt>
    <trkpt lat="34.913622019" lon="128.006634731"></trkpt>
    <trkpt lat="34.913504659" lon="128.006630618"></trkpt>
    <trkpt lat="34.913425324" lon="128.00663698"></trkpt>
    <trkpt lat="34.913358032" lon="128.006559882"></trkpt>
    <trkpt lat="34.913271356" lon="128.006357438"></trkpt>
    <trkpt lat="34.913165678" lon="128.006160132"></trkpt>
    <trkpt lat="34.913088342" lon="128.006105261"></trkpt>
    <trkpt lat="34.913038635" lon="128.006010641"></trkpt>
    <trkpt lat="34.912950595" lon="128.005827425"></trkpt>
    <trkpt lat="34.912840026" lon="128.00562406"></trkpt>
    <trkpt lat="34.912754926" lon="128.005685277"></trkpt>
    <trkpt lat="34.912688498" lon="128.005798521"></trkpt>
    <trkpt lat="34.912612698" lon="128.00597325"></trkpt>
    <trkpt lat="34.912562289" lon="128.006050541"></trkpt>
    <trkpt lat="34.912525089" lon="128.006084901"></trkpt>
    <trkpt lat="34.912487077" lon="128.006103068"></trkpt>
    <trkpt lat="34.912367096" lon="128.006092786"></trkpt>
    <trkpt lat="34.912297246" lon="128.006098524"></trkpt>
    <trkpt lat="34.912155806" lon="128.006159903"></trkpt>
    <trkpt lat="34.91198656" lon="128.006217284"></trkpt>
    <trkpt lat="34.911899045" lon="128.00622079"></trkpt>
    <trkpt lat="34.911800372" lon="128.006170013"></trkpt>
    <trkpt lat="34.911656006" lon="128.00603695"></trkpt>
    <trkpt lat="34.911566918" lon="128.005958685"></trkpt>
    <trkpt lat="34.911441551" lon="128.005887249"></trkpt>
    <trkpt lat="34.911335728" lon="128.005852959"></trkpt>
    <trkpt lat="34.911225949" lon="128.005841456"></trkpt>
    <trkpt lat="34.911166459" lon="128.005851626"></trkpt>
    <trkpt lat="34.911128036" lon="128.005894047"></trkpt>
    <trkpt lat="34.911101118" lon="128.005970544"></trkpt>
    <trkpt lat="34.911119346" lon="128.006063469"></trkpt>
    <trkpt lat="34.9112015" lon="128.006197846"></trkpt>
    <trkpt lat="34.911243093" lon="128.006274143"></trkpt>
    <trkpt lat="34.911337432" lon="128.006436491"></trkpt>
    <trkpt lat="34.911422406" lon="128.006529297"></trkpt>
    <trkpt lat="34.911428229" lon="128.006564711"></trkpt>
    <trkpt lat="34.91139369" lon="128.006577385"></trkpt>
    <trkpt lat="34.911341093" lon="128.006571535"></trkpt>
    <trkpt lat="34.911239703" lon="128.006554115"></trkpt>
    <trkpt lat="34.911098776" lon="128.006531396"></trkpt>
    <trkpt lat="34.910921757" lon="128.00649412"></trkpt>
    <trkpt lat="34.910767137" lon="128.006403486"></trkpt>
    <trkpt lat="34.910645462" lon="128.006333167"></trkpt>
    <trkpt lat="34.910525334" lon="128.00625762"></trkpt>
    <trkpt lat="34.910442133" lon="128.006074009"></trkpt>
    <trkpt lat="34.910357901" lon="128.005908419"></trkpt>
    <trkpt lat="34.910273222" lon="128.005802694"></trkpt>
    <trkpt lat="34.910053976" lon="128.005714032"></trkpt>
    <trkpt lat="34.909871574" lon="128.005598592"></trkpt>
    <trkpt lat="34.909615805" lon="128.005473712"></trkpt>
    <trkpt lat="34.90943115" lon="128.005344269"></trkpt>
    <trkpt lat="34.909236083" lon="128.005267898"></trkpt>
    <trkpt lat="34.909038615" lon="128.005211064"></trkpt>
    <trkpt lat="34.908829203" lon="128.005151522"></trkpt>
    <trkpt lat="34.908562267" lon="128.005097132"></trkpt>
    <trkpt lat="34.908315381" lon="128.005133436"></trkpt>
    <trkpt lat="34.908088891" lon="128.005186982"></trkpt>
    <trkpt lat="34.9078696" lon="128.005248931"></trkpt>
    <trkpt lat="34.907666159" lon="128.005358197"></trkpt>
    <trkpt lat="34.907578159" lon="128.005458846"></trkpt>
    <trkpt lat="34.907474959" lon="128.005557928"></trkpt>
    <trkpt lat="34.907347888" lon="128.005679937"></trkpt>
    <trkpt lat="34.907141234" lon="128.005818383"></trkpt>
    <trkpt lat="34.906880111" lon="128.006037034"></trkpt>
    <trkpt lat="34.906666327" lon="128.006250762"></trkpt>
    <trkpt lat="34.906546384" lon="128.006357802"></trkpt>
    <trkpt lat="34.9063462" lon="128.006550713"></trkpt>
    <trkpt lat="34.906344644" lon="128.006552614"></trkpt>
    <trkpt lat="34.906235605" lon="128.006622657"></trkpt>
    <trkpt lat="34.906148512" lon="128.00668254"></trkpt>
    <trkpt lat="34.906047416" lon="128.006794425"></trkpt>
    <trkpt lat="34.905755957" lon="128.006997927"></trkpt>
    <trkpt lat="34.905544555" lon="128.007128806"></trkpt>
    <trkpt lat="34.90544105" lon="128.007187175"></trkpt>
    <trkpt lat="34.905351248" lon="128.007382996"></trkpt>
    <trkpt lat="34.905235138" lon="128.00757964"></trkpt>
    <trkpt lat="34.905004354" lon="128.007840042"></trkpt>
    <trkpt lat="34.904861323" lon="128.007975521"></trkpt>
    <trkpt lat="34.904762454" lon="128.00803652"></trkpt>
    <trkpt lat="34.904550441" lon="128.008087715"></trkpt>
    <trkpt lat="34.904212894" lon="128.00812361"></trkpt>
    <trkpt lat="34.904090235" lon="128.008137536"></trkpt>
    <trkpt lat="34.903982628" lon="128.008130468"></trkpt>
    <trkpt lat="34.903940136" lon="128.008125075"></trkpt>
    <trkpt lat="34.903821795" lon="128.008109284"></trkpt>
    <trkpt lat="34.903744032" lon="128.008120094"></trkpt>
    <trkpt lat="34.90368628" lon="128.008132355"></trkpt>
    <trkpt lat="34.903629969" lon="128.008175125"></trkpt>
    <trkpt lat="34.903639443" lon="128.008199408"></trkpt>
    <trkpt lat="34.903681902" lon="128.008261441"></trkpt>
    <trkpt lat="34.903728902" lon="128.008299791"></trkpt>
    <trkpt lat="34.90375657" lon="128.008343196"></trkpt>
    <trkpt lat="34.903766592" lon="128.008439203"></trkpt>
    <trkpt lat="34.90374574" lon="128.00855172"></trkpt>
    <trkpt lat="34.903694601" lon="128.008629986"></trkpt>
    <trkpt lat="34.903628188" lon="128.008677229"></trkpt>
    <trkpt lat="34.903510262" lon="128.008795156"></trkpt>
    <trkpt lat="34.903406182" lon="128.00892594"></trkpt>
    <trkpt lat="34.903348571" lon="128.009011299"></trkpt>
    <trkpt lat="34.903333909" lon="128.00908984"></trkpt>
    <trkpt lat="34.903327939" lon="128.009188469"></trkpt>
    <trkpt lat="34.90332474" lon="128.009297541"></trkpt>
    <trkpt lat="34.903278501" lon="128.009388876"></trkpt>
    <trkpt lat="34.903193939" lon="128.00952029"></trkpt>
    <trkpt lat="34.903132311" lon="128.009593075"></trkpt>
    <trkpt lat="34.903001478" lon="128.00968906"></trkpt>
    <trkpt lat="34.902866392" lon="128.009747921"></trkpt>
    <trkpt lat="34.902707472" lon="128.009861264"></trkpt>
    <trkpt lat="34.902588679" lon="128.009956556"></trkpt>
    <trkpt lat="34.902523914" lon="128.010022024"></trkpt>
    <trkpt lat="34.902443905" lon="128.010071717"></trkpt>
    <trkpt lat="34.902388513" lon="128.0101547"></trkpt>
    <trkpt lat="34.902360477" lon="128.010243792"></trkpt>
    <trkpt lat="34.902281902" lon="128.01047123"></trkpt>
    <trkpt lat="34.902192803" lon="128.010626127"></trkpt>
    <trkpt lat="34.902096033" lon="128.010875283"></trkpt>
    <trkpt lat="34.901984672" lon="128.011073972"></trkpt>
    <trkpt lat="34.901940204" lon="128.011263879"></trkpt>
    <trkpt lat="34.901903855" lon="128.011501803"></trkpt>
    <trkpt lat="34.901922392" lon="128.011818297"></trkpt>
    <trkpt lat="34.901900647" lon="128.012028002"></trkpt>
    <trkpt lat="34.901838561" lon="128.012416284"></trkpt>
    <trkpt lat="34.901642802" lon="128.012660432"></trkpt>
    <trkpt lat="34.901480456" lon="128.012834601"></trkpt>
    <trkpt lat="34.901381952" lon="128.012973971"></trkpt>
    <trkpt lat="34.901287079" lon="128.01302626"></trkpt>
    <trkpt lat="34.901238193" lon="128.013080167"></trkpt>
    <trkpt lat="34.901153855" lon="128.013157504"></trkpt>
    <trkpt lat="34.900941557" lon="128.013406472"></trkpt>
    <trkpt lat="34.900828995" lon="128.01352955"></trkpt>
    <trkpt lat="34.900666754" lon="128.013651653"></trkpt>
    <trkpt lat="34.900532878" lon="128.013743142"></trkpt>
    <trkpt lat="34.900460114" lon="128.013800362"></trkpt>
    <trkpt lat="34.900389659" lon="128.01394187"></trkpt>
    <trkpt lat="34.900357804" lon="128.014049403"></trkpt>
    <trkpt lat="34.900301727" lon="128.014196234"></trkpt>
    <trkpt lat="34.900239641" lon="128.014348581"></trkpt>
    <trkpt lat="34.900197017" lon="128.014469055"></trkpt>
    <trkpt lat="34.900161891" lon="128.014510961"></trkpt>
    <trkpt lat="34.900099229" lon="128.014509108"></trkpt>
    <trkpt lat="34.900030346" lon="128.014515144"></trkpt>
    <trkpt lat="34.899981513" lon="128.014598554"></trkpt>
    <trkpt lat="34.899905072" lon="128.014680328"></trkpt>
    <trkpt lat="34.899809516" lon="128.014760257"></trkpt>
    <trkpt lat="34.899748129" lon="128.014824724"></trkpt>
    <trkpt lat="34.899693629" lon="128.014881471"></trkpt>
    <trkpt lat="34.899510394" lon="128.01493637"></trkpt>
    <trkpt lat="34.899431606" lon="128.015003602"></trkpt>
    <trkpt lat="34.899273646" lon="128.015070413"></trkpt>
    <trkpt lat="34.899036278" lon="128.015234999"></trkpt>
    <trkpt lat="34.898881578" lon="128.015322565"></trkpt>
    <trkpt lat="34.898678797" lon="128.015322435"></trkpt>
    <trkpt lat="34.898399954" lon="128.015473438"></trkpt>
    <trkpt lat="34.898343953" lon="128.01550657"></trkpt>
    <trkpt lat="34.898273204" lon="128.015512719"></trkpt>
    <trkpt lat="34.898127892" lon="128.015514753"></trkpt>
    <trkpt lat="34.89797591" lon="128.015545845"></trkpt>
    <trkpt lat="34.897891487" lon="128.015597895"></trkpt>
    <trkpt lat="34.897749868" lon="128.015646079"></trkpt>
    <trkpt lat="34.897637697" lon="128.015683748"></trkpt>
    <trkpt lat="34.89753673" lon="128.015723528"></trkpt>
    <trkpt lat="34.897434766" lon="128.015796605"></trkpt>
    <trkpt lat="34.897361313" lon="128.015835503"></trkpt>
    <trkpt lat="34.897251801" lon="128.015850675"></trkpt>
    <trkpt lat="34.897165683" lon="128.015851616"></trkpt>
    <trkpt lat="34.897080958" lon="128.015863567"></trkpt>
    <trkpt lat="34.896971763" lon="128.015874089"></trkpt>
    <trkpt lat="34.896870481" lon="128.015881437"></trkpt>
    <trkpt lat="34.896721716" lon="128.015835991"></trkpt>
    <trkpt lat="34.896625226" lon="128.015780461"></trkpt>
    <trkpt lat="34.896497276" lon="128.015689268"></trkpt>
    <trkpt lat="34.896367502" lon="128.01560593"></trkpt>
    <trkpt lat="34.896237794" lon="128.015486378"></trkpt>
    <trkpt lat="34.896108339" lon="128.015339824"></trkpt>
    <trkpt lat="34.895856852" lon="128.015074183"></trkpt>
    <trkpt lat="34.895648234" lon="128.014915807"></trkpt>
    <trkpt lat="34.895502423" lon="128.014793471"></trkpt>
    <trkpt lat="34.895447489" lon="128.014585273"></trkpt>
    <trkpt lat="34.895501965" lon="128.014374231"></trkpt>
    <trkpt lat="34.895555047" lon="128.014241796"></trkpt>
    <trkpt lat="34.895580405" lon="128.014124434"></trkpt>
    <trkpt lat="34.895536638" lon="128.014021649"></trkpt>
    <trkpt lat="34.895481348" lon="128.013912165"></trkpt>
    <trkpt lat="34.895432468" lon="128.013823377"></trkpt>
    <trkpt lat="34.895381265" lon="128.013713105"></trkpt>
    <trkpt lat="34.895320886" lon="128.013663219"></trkpt>
    <trkpt lat="34.895267859" lon="128.013606333"></trkpt>
    <trkpt lat="34.895208121" lon="128.013519566"></trkpt>
    <trkpt lat="34.895183464" lon="128.013450357"></trkpt>
    <trkpt lat="34.895160513" lon="128.0132572"></trkpt>
    <trkpt lat="34.895130267" lon="128.01302922"></trkpt>
    <trkpt lat="34.89527581" lon="128.013010544"></trkpt>
    <trkpt lat="34.895347448" lon="128.012993978"></trkpt>
    <trkpt lat="34.895349776" lon="128.012911692"></trkpt>
    <trkpt lat="34.895308149" lon="128.01274155"></trkpt>
    <trkpt lat="34.895231343" lon="128.012487438"></trkpt>
    <trkpt lat="34.8951885" lon="128.012324036"></trkpt>
    <trkpt lat="34.895176817" lon="128.011906896"></trkpt>
    <trkpt lat="34.895265025" lon="128.011607207"></trkpt>
    <trkpt lat="34.895296053" lon="128.011402272"></trkpt>
    <trkpt lat="34.895313248" lon="128.011214927"></trkpt>
    <trkpt lat="34.895299012" lon="128.010977203"></trkpt>
    <trkpt lat="34.895271522" lon="128.010656899"></trkpt>
    <trkpt lat="34.895248699" lon="128.010452755"></trkpt>
    <trkpt lat="34.895274924" lon="128.010247425"></trkpt>
    <trkpt lat="34.895357616" lon="128.010069486"></trkpt>
    <trkpt lat="34.895429665" lon="128.009958074"></trkpt>
    <trkpt lat="34.895461633" lon="128.009872948"></trkpt>
    <trkpt lat="34.895443838" lon="128.00973411"></trkpt>
    <trkpt lat="34.895431154" lon="128.00958049"></trkpt>
    <trkpt lat="34.895411162" lon="128.009403092"></trkpt>
    <trkpt lat="34.895376471" lon="128.009179641"></trkpt>
    <trkpt lat="34.895350947" lon="128.008980125"></trkpt>
    <trkpt lat="34.89527636" lon="128.008692256"></trkpt>
    <trkpt lat="34.895235083" lon="128.008495298"></trkpt>
    <trkpt lat="34.895208453" lon="128.008294594"></trkpt>
    <trkpt lat="34.895164926" lon="128.008144948"></trkpt>
    <trkpt lat="34.895127494" lon="128.007994277"></trkpt>
    <trkpt lat="34.895121198" lon="128.007811494"></trkpt>
    <trkpt lat="34.895121535" lon="128.007639586"></trkpt>
    <trkpt lat="34.895147941" lon="128.007553245"></trkpt>
    <trkpt lat="34.895142737" lon="128.007488911"></trkpt>
    <trkpt lat="34.895097781" lon="128.007330909"></trkpt>
    <trkpt lat="34.895063172" lon="128.007203047"></trkpt>
    <trkpt lat="34.895013619" lon="128.007025922"></trkpt>
    <trkpt lat="34.894994379" lon="128.006828799"></trkpt>
    <trkpt lat="34.894988906" lon="128.00672079"></trkpt>
    <trkpt lat="34.894985891" lon="128.006412945"></trkpt>
    <trkpt lat="34.894976166" lon="128.006184807"></trkpt>
    <trkpt lat="34.894989709" lon="128.006052595"></trkpt>
    <trkpt lat="34.895025793" lon="128.005968691"></trkpt>
    <trkpt lat="34.895057099" lon="128.005822496"></trkpt>
    <trkpt lat="34.895089419" lon="128.005663048"></trkpt>
    <trkpt lat="34.8951192" lon="128.005600635"></trkpt>
    <trkpt lat="34.895133161" lon="128.005547268"></trkpt>
    <trkpt lat="34.895126995" lon="128.005401748"></trkpt>
    <trkpt lat="34.895131368" lon="128.005308569"></trkpt>
    <trkpt lat="34.895133814" lon="128.005205154"></trkpt>
    <trkpt lat="34.895133557" lon="128.005140208"></trkpt>
    <trkpt lat="34.895117921" lon="128.005030166"></trkpt>
    <trkpt lat="34.895100609" lon="128.004918877"></trkpt>
    <trkpt lat="34.895116255" lon="128.004745575"></trkpt>
    <trkpt lat="34.895128446" lon="128.004632681"></trkpt>
    <trkpt lat="34.895135904" lon="128.004515003"></trkpt>
    <trkpt lat="34.895121981" lon="128.004412951"></trkpt>
    <trkpt lat="34.895111553" lon="128.004323989"></trkpt>
    <trkpt lat="34.895075979" lon="128.004243585"></trkpt>
    <trkpt lat="34.895036662" lon="128.004218116"></trkpt>
    <trkpt lat="34.894970877" lon="128.004186905"></trkpt>
    <trkpt lat="34.894892151" lon="128.0041533"></trkpt>
    <trkpt lat="34.894841279" lon="128.004189756"></trkpt>
    <trkpt lat="34.894687953" lon="128.004464321"></trkpt>
    <trkpt lat="34.894471422" lon="128.004838727"></trkpt>
    <trkpt lat="34.894284095" lon="128.005122299"></trkpt>
    <trkpt lat="34.894159899" lon="128.00533013"></trkpt>
    <trkpt lat="34.894098517" lon="128.005262318"></trkpt>
    <trkpt lat="34.894039823" lon="128.005099858"></trkpt>
    <trkpt lat="34.893975371" lon="128.004906378"></trkpt>
    <trkpt lat="34.893920992" lon="128.004797015"></trkpt>
    <trkpt lat="34.893885216" lon="128.004762503"></trkpt>
    <trkpt lat="34.8938455" lon="128.004758501"></trkpt>
    <trkpt lat="34.893800049" lon="128.004782025"></trkpt>
    <trkpt lat="34.893707901" lon="128.004849196"></trkpt>
    <trkpt lat="34.893608129" lon="128.0049151"></trkpt>
    <trkpt lat="34.893556374" lon="128.004975429"></trkpt>
    <trkpt lat="34.893465224" lon="128.005124261"></trkpt>
    <trkpt lat="34.893287174" lon="128.005438375"></trkpt>
    <trkpt lat="34.893153426" lon="128.005615363"></trkpt>
    <trkpt lat="34.893052919" lon="128.005733103"></trkpt>
    <trkpt lat="34.892983796" lon="128.005775489"></trkpt>
    <trkpt lat="34.89291229" lon="128.005803791"></trkpt>
    <trkpt lat="34.892847992" lon="128.005797201"></trkpt>
    <trkpt lat="34.892805696" lon="128.005786141"></trkpt>
    <trkpt lat="34.892741458" lon="128.005758981"></trkpt>
    <trkpt lat="34.892691309" lon="128.00573181"></trkpt>
    <trkpt lat="34.892534229" lon="128.00564548"></trkpt>
    <trkpt lat="34.892393491" lon="128.005582604"></trkpt>
    <trkpt lat="34.892240768" lon="128.005515947"></trkpt>
    <trkpt lat="34.892158684" lon="128.005448011"></trkpt>
    <trkpt lat="34.892140421" lon="128.005426564"></trkpt>
    <trkpt lat="34.892164514" lon="128.005391158"></trkpt>
    <trkpt lat="34.892203666" lon="128.005377274"></trkpt>
    <trkpt lat="34.892239086" lon="128.005366093"></trkpt>
    <trkpt lat="34.892284345" lon="128.005371434"></trkpt>
    <trkpt lat="34.892340084" lon="128.005398193"></trkpt>
    <trkpt lat="34.892372986" lon="128.005418621"></trkpt>
    <trkpt lat="34.892427472" lon="128.00542526"></trkpt>
    <trkpt lat="34.892465224" lon="128.005427558"></trkpt>
    <trkpt lat="34.892495156" lon="128.005423462"></trkpt>
    <trkpt lat="34.892550198" lon="128.005407875"></trkpt>
    <trkpt lat="34.892598969" lon="128.0053885"></trkpt>
    <trkpt lat="34.892622545" lon="128.005374107"></trkpt>
    <trkpt lat="34.892681364" lon="128.005330449"></trkpt>
    <trkpt lat="34.892736869" lon="128.005293201"></trkpt>
    <trkpt lat="34.89278075" lon="128.005254955"></trkpt>
    <trkpt lat="34.892819947" lon="128.005205325"></trkpt>
    <trkpt lat="34.892861577" lon="128.005118313"></trkpt>
    <trkpt lat="34.892887707" lon="128.005043699"></trkpt>
    <trkpt lat="34.892908138" lon="128.004991111"></trkpt>
    <trkpt lat="34.892945412" lon="128.004855473"></trkpt>
    <trkpt lat="34.892966524" lon="128.004740651"></trkpt>
    <trkpt lat="34.892977323" lon="128.004605823"></trkpt>
    <trkpt lat="34.89299243" lon="128.004489911"></trkpt>
    <trkpt lat="34.893004604" lon="128.004358136"></trkpt>
    <trkpt lat="34.893012768" lon="128.004140764"></trkpt>
    <trkpt lat="34.893013559" lon="128.004002207"></trkpt>
    <trkpt lat="34.893008411" lon="128.003887978"></trkpt>
    <trkpt lat="34.893015021" lon="128.003797229"></trkpt>
    <trkpt lat="34.893041744" lon="128.003701658"></trkpt>
    <trkpt lat="34.893062654" lon="128.003595045"></trkpt>
    <trkpt lat="34.893073535" lon="128.003499282"></trkpt>
    <trkpt lat="34.893061133" lon="128.003417008"></trkpt>
    <trkpt lat="34.893052326" lon="128.003342171"></trkpt>
    <trkpt lat="34.893045113" lon="128.003303791"></trkpt>
    <trkpt lat="34.893003786" lon="128.003191197"></trkpt>
    <trkpt lat="34.892972723" lon="128.003121456"></trkpt>
    <trkpt lat="34.892945288" lon="128.003069161"></trkpt>
    <trkpt lat="34.892918599" lon="128.003016065"></trkpt>
    <trkpt lat="34.892827566" lon="128.002866751"></trkpt>
    <trkpt lat="34.892811647" lon="128.002839729"></trkpt>
    <trkpt lat="34.892763718" lon="128.002772627"></trkpt>
    <trkpt lat="34.892705595" lon="128.00270358"></trkpt>
    <trkpt lat="34.89267535" lon="128.002663007"></trkpt>
    <trkpt lat="34.89263368" lon="128.002593263"></trkpt>
    <trkpt lat="34.892610294" lon="128.002555055"></trkpt>
    <trkpt lat="34.892607994" lon="128.002547973"></trkpt>
    <trkpt lat="34.892598976" lon="128.002513166"></trkpt>
    <trkpt lat="34.892608761" lon="128.002454612"></trkpt>
    <trkpt lat="34.892626737" lon="128.002383356"></trkpt>
    <trkpt lat="34.89267217" lon="128.002211371"></trkpt>
    <trkpt lat="34.89271278" lon="128.002047407"></trkpt>
    <trkpt lat="34.892739097" lon="128.001963214"></trkpt>
    <trkpt lat="34.892750673" lon="128.001854071"></trkpt>
    <trkpt lat="34.892734632" lon="128.001649374"></trkpt>
    <trkpt lat="34.892716231" lon="128.001444834"></trkpt>
    <trkpt lat="34.892682171" lon="128.001282826"></trkpt>
    <trkpt lat="34.892641749" lon="128.001072228"></trkpt>
    <trkpt lat="34.892596126" lon="128.000910074"></trkpt>
    <trkpt lat="34.892524578" lon="128.00071452"></trkpt>
    <trkpt lat="34.89247279" lon="128.000586305"></trkpt>
    <trkpt lat="34.892432492" lon="128.000521984"></trkpt>
    <trkpt lat="34.892393102" lon="128.000502201"></trkpt>
    <trkpt lat="34.892347193" lon="128.000502172"></trkpt>
    <trkpt lat="34.89227772" lon="128.000529545"></trkpt>
    <trkpt lat="34.89223783" lon="128.000542081"></trkpt>
    <trkpt lat="34.892131155" lon="128.000577184"></trkpt>
    <trkpt lat="34.892046491" lon="128.000601322"></trkpt>
    <trkpt lat="34.892004978" lon="128.000611478"></trkpt>
    <trkpt lat="34.891897967" lon="128.000635615"></trkpt>
    <trkpt lat="34.891784385" lon="128.000672873"></trkpt>
    <trkpt lat="34.891703341" lon="128.000695356"></trkpt>
    <trkpt lat="34.891605935" lon="128.000704803"></trkpt>
    <trkpt lat="34.891574978" lon="128.000705212"></trkpt>
    <trkpt lat="34.891494413" lon="128.000686353"></trkpt>
    <trkpt lat="34.891431063" lon="128.00067789"></trkpt>
    <trkpt lat="34.891270551" lon="128.000625035"></trkpt>
    <trkpt lat="34.891132539" lon="128.000552578"></trkpt>
    <trkpt lat="34.890997819" lon="128.000447327"></trkpt>
    <trkpt lat="34.890933372" lon="128.000389005"></trkpt>
    <trkpt lat="34.890885314" lon="128.000301238"></trkpt>
    <trkpt lat="34.890844201" lon="128.000224773"></trkpt>
    <trkpt lat="34.890829771" lon="128.000183835"></trkpt>
    <trkpt lat="34.890820437" lon="128.000131652"></trkpt>
    <trkpt lat="34.890822403" lon="127.999979211"></trkpt>
    <trkpt lat="34.890817476" lon="127.999867055"></trkpt>
    <trkpt lat="34.890788031" lon="127.999764938"></trkpt>
    <trkpt lat="34.890739474" lon="127.999640655"></trkpt>
    <trkpt lat="34.890657178" lon="127.999540403"></trkpt>
    <trkpt lat="34.89047132" lon="127.999523454"></trkpt>
    <trkpt lat="34.890306986" lon="127.999517869"></trkpt>
    <trkpt lat="34.890200557" lon="127.999500193"></trkpt>
    <trkpt lat="34.890146597" lon="127.999480616"></trkpt>
    <trkpt lat="34.890095796" lon="127.999441321"></trkpt>
    <trkpt lat="34.890060813" lon="127.999399151"></trkpt>
    <trkpt lat="34.890031862" lon="127.999335074"></trkpt>
    <trkpt lat="34.89002514" lon="127.999285047"></trkpt>
    <trkpt lat="34.890029734" lon="127.999250948"></trkpt>
    <trkpt lat="34.890050707" lon="127.999183614"></trkpt>
    <trkpt lat="34.890061298" lon="127.999112841"></trkpt>
    <trkpt lat="34.890061683" lon="127.999025502"></trkpt>
    <trkpt lat="34.890058807" lon="127.998975824"></trkpt>
    <trkpt lat="34.890045986" lon="127.998930655"></trkpt>
    <trkpt lat="34.889981921" lon="127.998817956"></trkpt>
    <trkpt lat="34.88992982" lon="127.998762402"></trkpt>
    <trkpt lat="34.889885045" lon="127.998739329"></trkpt>
    <trkpt lat="34.889810681" lon="127.998719249"></trkpt>
    <trkpt lat="34.889704209" lon="127.998703899"></trkpt>
    <trkpt lat="34.889594937" lon="127.998704024"></trkpt>
    <trkpt lat="34.88951755" lon="127.998703075"></trkpt>
    <trkpt lat="34.889472403" lon="127.998697653"></trkpt>
    <trkpt lat="34.889400381" lon="127.998663431"></trkpt>
    <trkpt lat="34.889356209" lon="127.998642379"></trkpt>
    <trkpt lat="34.889305107" lon="127.998601549"></trkpt>
    <trkpt lat="34.889152427" lon="127.998496092"></trkpt>
    <trkpt lat="34.888902396" lon="127.998279305"></trkpt>
    <trkpt lat="34.888732969" lon="127.998032334"></trkpt>
    <trkpt lat="34.888605731" lon="127.997933043"></trkpt>
    <trkpt lat="34.888437238" lon="127.997789397"></trkpt>
    <trkpt lat="34.88830874" lon="127.997657278"></trkpt>
    <trkpt lat="34.888255038" lon="127.997598334"></trkpt>
    <trkpt lat="34.888209065" lon="127.997551689"></trkpt>
    <trkpt lat="34.88815792" lon="127.997530326"></trkpt>
    <trkpt lat="34.888124354" lon="127.997531368"></trkpt>
    <trkpt lat="34.888073812" lon="127.997537282"></trkpt>
    <trkpt lat="34.88800684" lon="127.997561844"></trkpt>
    <trkpt lat="34.88793519" lon="127.997594328"></trkpt>
    <trkpt lat="34.887799245" lon="127.997688339"></trkpt>
    <trkpt lat="34.887687006" lon="127.997784245"></trkpt>
    <trkpt lat="34.88756834" lon="127.997878361"></trkpt>
    <trkpt lat="34.887447492" lon="127.99798381"></trkpt>
    <trkpt lat="34.887336395" lon="127.998079326"></trkpt>
    <trkpt lat="34.887250153" lon="127.998175458"></trkpt>
    <trkpt lat="34.887166665" lon="127.998232591"></trkpt>
    <trkpt lat="34.887119726" lon="127.998249295"></trkpt>
    <trkpt lat="34.887025359" lon="127.998294731"></trkpt>
    <trkpt lat="34.886943136" lon="127.998331414"></trkpt>
    <trkpt lat="34.886877832" lon="127.998365157"></trkpt>
    <trkpt lat="34.886828899" lon="127.99840119"></trkpt>
    <trkpt lat="34.886775614" lon="127.998450117"></trkpt>
    <trkpt lat="34.88673499" lon="127.998489567"></trkpt>
    <trkpt lat="34.886695691" lon="127.998549422"></trkpt>
    <trkpt lat="34.886650041" lon="127.998620427"></trkpt>
    <trkpt lat="34.886624545" lon="127.998672669"></trkpt>
    <trkpt lat="34.886580735" lon="127.998780544"></trkpt>
    <trkpt lat="34.886551437" lon="127.998872105"></trkpt>
    <trkpt lat="34.886531517" lon="127.998952467"></trkpt>
    <trkpt lat="34.886501527" lon="127.999010326"></trkpt>
    <trkpt lat="34.886449169" lon="127.99909463"></trkpt>
    <trkpt lat="34.886400913" lon="127.999181655"></trkpt>
    <trkpt lat="34.886364713" lon="127.99924743"></trkpt>
    <trkpt lat="34.8863306" lon="127.999319612"></trkpt>
    <trkpt lat="34.886309567" lon="127.999390209"></trkpt>
    <trkpt lat="34.886282007" lon="127.999430609"></trkpt>
    <trkpt lat="34.886251804" lon="127.999451493"></trkpt>
    <trkpt lat="34.886228576" lon="127.999439008"></trkpt>
    <trkpt lat="34.886186314" lon="127.999409112"></trkpt>
    <trkpt lat="34.886147224" lon="127.999376053"></trkpt>
    <trkpt lat="34.886110414" lon="127.999338749"></trkpt>
    <trkpt lat="34.886072304" lon="127.999299042"></trkpt>
    <trkpt lat="34.886017438" lon="127.999238618"></trkpt>
    <trkpt lat="34.885972822" lon="127.999197731"></trkpt>
    <trkpt lat="34.885913688" lon="127.999142817"></trkpt>
    <trkpt lat="34.8858606" lon="127.99907004"></trkpt>
    <trkpt lat="34.885802886" lon="127.99894753"></trkpt>
    <trkpt lat="34.885757102" lon="127.998824089"></trkpt>
    <trkpt lat="34.885729216" lon="127.998744082"></trkpt>
    <trkpt lat="34.88567963" lon="127.998600409"></trkpt>
    <trkpt lat="34.88561033" lon="127.998455522"></trkpt>
    <trkpt lat="34.885587407" lon="127.998406218"></trkpt>
    <trkpt lat="34.885559209" lon="127.998361574"></trkpt>
    <trkpt lat="34.885534902" lon="127.998329219"></trkpt>
    <trkpt lat="34.885477229" lon="127.998287486"></trkpt>
    <trkpt lat="34.885429611" lon="127.998254227"></trkpt>
    <trkpt lat="34.885377074" lon="127.998243372"></trkpt>
    <trkpt lat="34.885336118" lon="127.998236353"></trkpt>
    <trkpt lat="34.885281076" lon="127.99823325"></trkpt>
    <trkpt lat="34.885239701" lon="127.998230028"></trkpt>
    <trkpt lat="34.885202662" lon="127.998225557"></trkpt>
    <trkpt lat="34.885160927" lon="127.998216281"></trkpt>
    <trkpt lat="34.885132236" lon="127.99820074"></trkpt>
    <trkpt lat="34.885083579" lon="127.998153404"></trkpt>
    <trkpt lat="34.885021411" lon="127.998085957"></trkpt>
    <trkpt lat="34.884993116" lon="127.99804657"></trkpt>
    <trkpt lat="34.884934622" lon="127.997979061"></trkpt>
    <trkpt lat="34.884838266" lon="127.997815238"></trkpt>
    <trkpt lat="34.884737539" lon="127.997677258"></trkpt>
    <trkpt lat="34.884653409" lon="127.997588416"></trkpt>
    <trkpt lat="34.884541987" lon="127.997484185"></trkpt>
    <trkpt lat="34.884462515" lon="127.997402539"></trkpt>
    <trkpt lat="34.884350738" lon="127.997298407"></trkpt>
    <trkpt lat="34.884312622" lon="127.997262878"></trkpt>
    <trkpt lat="34.884271311" lon="127.997240494"></trkpt>
    <trkpt lat="34.884077784" lon="127.99715502"></trkpt>
    <trkpt lat="34.883869793" lon="127.997083152"></trkpt>
    <trkpt lat="34.8838036" lon="127.997032382"></trkpt>
    <trkpt lat="34.88369968" lon="127.996912745"></trkpt>
    <trkpt lat="34.88361437" lon="127.996797865"></trkpt>
    <trkpt lat="34.883477797" lon="127.996718516"></trkpt>
    <trkpt lat="34.883353941" lon="127.996595318"></trkpt>
    <trkpt lat="34.883205958" lon="127.996520179"></trkpt>
    <trkpt lat="34.883108663" lon="127.996508997"></trkpt>
    <trkpt lat="34.882938181" lon="127.996523742"></trkpt>
    <trkpt lat="34.882850243" lon="127.996488993"></trkpt>
    <trkpt lat="34.882719315" lon="127.996317133"></trkpt>
    <trkpt lat="34.88263498" lon="127.99609061"></trkpt>
    <trkpt lat="34.882514024" lon="127.995920975"></trkpt>
    <trkpt lat="34.882381391" lon="127.995749189"></trkpt>
    <trkpt lat="34.882203993" lon="127.995599013"></trkpt>
    <trkpt lat="34.882065762" lon="127.995518275"></trkpt>
    <trkpt lat="34.881855244" lon="127.995439398"></trkpt>
    <trkpt lat="34.881694058" lon="127.995370844"></trkpt>
    <trkpt lat="34.8814764" lon="127.995195315"></trkpt>
    <trkpt lat="34.881314474" lon="127.995208269"></trkpt>
    <trkpt lat="34.881146745" lon="127.995251062"></trkpt>
    <trkpt lat="34.881038978" lon="127.995233695"></trkpt>
    <trkpt lat="34.880943412" lon="127.99519755"></trkpt>
    <trkpt lat="34.880851726" lon="127.995108876"></trkpt>
    <trkpt lat="34.880754709" lon="127.994979321"></trkpt>
    <trkpt lat="34.880648478" lon="127.994800681"></trkpt>
    <trkpt lat="34.880509462" lon="127.994611871"></trkpt>
    <trkpt lat="34.880377565" lon="127.994456725"></trkpt>
    <trkpt lat="34.880308084" lon="127.994346989"></trkpt>
    <trkpt lat="34.880210784" lon="127.994297163"></trkpt>
    <trkpt lat="34.880145917" lon="127.994285884"></trkpt>
    <trkpt lat="34.880076833" lon="127.994297106"></trkpt>
    <trkpt lat="34.880029759" lon="127.994294735"></trkpt>
    <trkpt lat="34.879989484" lon="127.994297399"></trkpt>
    <trkpt lat="34.879942889" lon="127.994305447"></trkpt>
    <trkpt lat="34.879889632" lon="127.994317554"></trkpt>
    <trkpt lat="34.879838557" lon="127.994321412"></trkpt>
    <trkpt lat="34.879784042" lon="127.99431345"></trkpt>
    <trkpt lat="34.879739916" lon="127.994285093"></trkpt>
    <trkpt lat="34.879697432" lon="127.994259024"></trkpt>
    <trkpt lat="34.879657906" lon="127.99418103"></trkpt>
    <trkpt lat="34.879643468" lon="127.994126729"></trkpt>
    <trkpt lat="34.879623476" lon="127.994069304"></trkpt>
    <trkpt lat="34.879592805" lon="127.994023315"></trkpt>
    <trkpt lat="34.879565532" lon="127.993996902"></trkpt>
    <trkpt lat="34.879525195" lon="127.993979059"></trkpt>
    <trkpt lat="34.879474374" lon="127.993963852"></trkpt>
    <trkpt lat="34.879433436" lon="127.993945763"></trkpt>
    <trkpt lat="34.879399023" lon="127.99393163"></trkpt>
    <trkpt lat="34.879355296" lon="127.993928682"></trkpt>
    <trkpt lat="34.879257177" lon="127.993896169"></trkpt>
    <trkpt lat="34.879192941" lon="127.993878168"></trkpt>
    <trkpt lat="34.879137776" lon="127.993865454"></trkpt>
    <trkpt lat="34.879094644" lon="127.993855067"></trkpt>
    <trkpt lat="34.879037141" lon="127.99383587"></trkpt>
    <trkpt lat="34.878989921" lon="127.993806623"></trkpt>
    <trkpt lat="34.878925248" lon="127.993774237"></trkpt>
    <trkpt lat="34.8788573" lon="127.993743591"></trkpt>
    <trkpt lat="34.87880554" lon="127.993706954"></trkpt>
    <trkpt lat="34.878756966" lon="127.99366332"></trkpt>
    <trkpt lat="34.87870689" lon="127.993627769"></trkpt>
    <trkpt lat="34.878644127" lon="127.99359279"></trkpt>
    <trkpt lat="34.878586243" lon="127.99358783"></trkpt>
    <trkpt lat="34.878531749" lon="127.993588349"></trkpt>
    <trkpt lat="34.878448538" lon="127.993605188"></trkpt>
    <trkpt lat="34.878362764" lon="127.993626426"></trkpt>
    <trkpt lat="34.87828047" lon="127.99365104"></trkpt>
    <trkpt lat="34.878172371" lon="127.9936709"></trkpt>
    <trkpt lat="34.878094579" lon="127.993688303"></trkpt>
    <trkpt lat="34.878002254" lon="127.993722604"></trkpt>
    <trkpt lat="34.877942265" lon="127.993746371"></trkpt>
    <trkpt lat="34.877892365" lon="127.993786509"></trkpt>
    <trkpt lat="34.877847687" lon="127.993821568"></trkpt>
    <trkpt lat="34.877807819" lon="127.993843392"></trkpt>
    <trkpt lat="34.877761356" lon="127.993858906"></trkpt>
    <trkpt lat="34.877718605" lon="127.993855022"></trkpt>
    <trkpt lat="34.877668918" lon="127.993841303"></trkpt>
    <trkpt lat="34.877622956" lon="127.993827308"></trkpt>
    <trkpt lat="34.877584088" lon="127.993829788"></trkpt>
    <trkpt lat="34.877543957" lon="127.993832296"></trkpt>
    <trkpt lat="34.877484187" lon="127.993849538"></trkpt>
    <trkpt lat="34.877430447" lon="127.993863092"></trkpt>
    <trkpt lat="34.877365414" lon="127.993907169"></trkpt>
    <trkpt lat="34.877309752" lon="127.993944972"></trkpt>
    <trkpt lat="34.877253493" lon="127.993969827"></trkpt>
    <trkpt lat="34.877201233" lon="127.993988741"></trkpt>
    <trkpt lat="34.87713976" lon="127.99399058"></trkpt>
    <trkpt lat="34.87705499" lon="127.993961219"></trkpt>
    <trkpt lat="34.876971789" lon="127.993923639"></trkpt>
    <trkpt lat="34.876913411" lon="127.993894146"></trkpt>
    <trkpt lat="34.876851936" lon="127.993873295"></trkpt>
    <trkpt lat="34.876818682" lon="127.993853183"></trkpt>
    <trkpt lat="34.876767402" lon="127.993831916"></trkpt>
    <trkpt lat="34.876720494" lon="127.993831147"></trkpt>
    <trkpt lat="34.876680278" lon="127.993836105"></trkpt>
    <trkpt lat="34.87662999" lon="127.993858681"></trkpt>
    <trkpt lat="34.876599365" lon="127.993892796"></trkpt>
    <trkpt lat="34.876555193" lon="127.99393775"></trkpt>
    <trkpt lat="34.876500053" lon="127.993991321"></trkpt>
    <trkpt lat="34.876430236" lon="127.994063264"></trkpt>
    <trkpt lat="34.87636622" lon="127.994123555"></trkpt>
    <trkpt lat="34.876295893" lon="127.99417827"></trkpt>
    <trkpt lat="34.876233626" lon="127.994233677"></trkpt>
    <trkpt lat="34.876172892" lon="127.994297645"></trkpt>
    <trkpt lat="34.87610647" lon="127.994392316"></trkpt>
    <trkpt lat="34.876042815" lon="127.994480952"></trkpt>
    <trkpt lat="34.875987565" lon="127.994581657"></trkpt>
    <trkpt lat="34.875954478" lon="127.994669177"></trkpt>
    <trkpt lat="34.875940343" lon="127.994722016"></trkpt>
    <trkpt lat="34.875932705" lon="127.994785844"></trkpt>
    <trkpt lat="34.87592273" lon="127.994915214"></trkpt>
    <trkpt lat="34.875914021" lon="127.995005409"></trkpt>
    <trkpt lat="34.875885664" lon="127.995077242"></trkpt>
    <trkpt lat="34.875847108" lon="127.995140244"></trkpt>
    <trkpt lat="34.875797868" lon="127.99521352"></trkpt>
    <trkpt lat="34.875767019" lon="127.995261194"></trkpt>
    <trkpt lat="34.875716987" lon="127.995308581"></trkpt>
    <trkpt lat="34.875663093" lon="127.99533669"></trkpt>
    <trkpt lat="34.875606764" lon="127.995360135"></trkpt>
    <trkpt lat="34.875548663" lon="127.995390944"></trkpt>
    <trkpt lat="34.87549748" lon="127.995416617"></trkpt>
    <trkpt lat="34.875428475" lon="127.995434187"></trkpt>
    <trkpt lat="34.875367796" lon="127.9954311"></trkpt>
    <trkpt lat="34.875299419" lon="127.995403762"></trkpt>
    <trkpt lat="34.875230888" lon="127.995360283"></trkpt>
    <trkpt lat="34.875193389" lon="127.995344148"></trkpt>
    <trkpt lat="34.875122396" lon="127.995318847"></trkpt>
    <trkpt lat="34.875069655" lon="127.995318798"></trkpt>
    <trkpt lat="34.874990846" lon="127.995335545"></trkpt>
    <trkpt lat="34.874884593" lon="127.995384477"></trkpt>
    <trkpt lat="34.874805531" lon="127.995402822"></trkpt>
    <trkpt lat="34.874744091" lon="127.995438941"></trkpt>
    <trkpt lat="34.874678976" lon="127.995505637"></trkpt>
    <trkpt lat="34.874609543" lon="127.995560491"></trkpt>
    <trkpt lat="34.874481643" lon="127.995721956"></trkpt>
    <trkpt lat="34.874321338" lon="127.995941297"></trkpt>
    <trkpt lat="34.874240743" lon="127.99604458"></trkpt>
    <trkpt lat="34.874165099" lon="127.996138516"></trkpt>
    <trkpt lat="34.874097724" lon="127.996210531"></trkpt>
    <trkpt lat="34.874026602" lon="127.996245096"></trkpt>
    <trkpt lat="34.873962865" lon="127.99625205"></trkpt>
    <trkpt lat="34.873878393" lon="127.996233086"></trkpt>
    <trkpt lat="34.87381041" lon="127.996194197"></trkpt>
    <trkpt lat="34.873726109" lon="127.996120413"></trkpt>
    <trkpt lat="34.873633446" lon="127.996019845"></trkpt>
    <trkpt lat="34.873572716" lon="127.995915253"></trkpt>
    <trkpt lat="34.873547333" lon="127.995853978"></trkpt>
    <trkpt lat="34.873538835" lon="127.995775816"></trkpt>
    <trkpt lat="34.873530239" lon="127.995603813"></trkpt>
    <trkpt lat="34.873521699" lon="127.995483193"></trkpt>
    <trkpt lat="34.873507994" lon="127.995384429"></trkpt>
    <trkpt lat="34.873418881" lon="127.995191378"></trkpt>
    <trkpt lat="34.873362007" lon="127.995088148"></trkpt>
    <trkpt lat="34.873297198" lon="127.994966457"></trkpt>
    <trkpt lat="34.873234636" lon="127.994848261"></trkpt>
    <trkpt lat="34.873141016" lon="127.994709681"></trkpt>
    <trkpt lat="34.873067508" lon="127.994599267"></trkpt>
    <trkpt lat="34.873025406" lon="127.994535174"></trkpt>
    <trkpt lat="34.872982938" lon="127.9944622"></trkpt>
    <trkpt lat="34.872977598" lon="127.99436059"></trkpt>
    <trkpt lat="34.872982129" lon="127.994262908"></trkpt>
    <trkpt lat="34.872973242" lon="127.994001174"></trkpt>
    <trkpt lat="34.872987469" lon="127.993862155"></trkpt>
    <trkpt lat="34.87298205" lon="127.993773166"></trkpt>
    <trkpt lat="34.872971564" lon="127.99371747"></trkpt>
    <trkpt lat="34.872935638" lon="127.993663582"></trkpt>
    <trkpt lat="34.872880668" lon="127.993578391"></trkpt>
    <trkpt lat="34.872806116" lon="127.99350005"></trkpt>
    <trkpt lat="34.872746166" lon="127.993449833"></trkpt>
    <trkpt lat="34.872691516" lon="127.993453488"></trkpt>
    <trkpt lat="34.872658198" lon="127.993434216"></trkpt>
    <trkpt lat="34.87253577" lon="127.993271542"></trkpt>
    <trkpt lat="34.872462515" lon="127.993166354"></trkpt>
    <trkpt lat="34.872439462" lon="127.993128333"></trkpt>
    <trkpt lat="34.872518126" lon="127.993020565"></trkpt>
    <trkpt lat="34.872583998" lon="127.992884828"></trkpt>
    <trkpt lat="34.872640443" lon="127.992746994"></trkpt>
    <trkpt lat="34.872686646" lon="127.992609869"></trkpt>
    <trkpt lat="34.872714233" lon="127.992464168"></trkpt>
    <trkpt lat="34.872723685" lon="127.99235991"></trkpt>
    <trkpt lat="34.872724475" lon="127.992315081"></trkpt>
    <trkpt lat="34.872709867" lon="127.992272851"></trkpt>
    <trkpt lat="34.872674009" lon="127.992210119"></trkpt>
    <trkpt lat="34.872627433" lon="127.992155383"></trkpt>
    <trkpt lat="34.872579541" lon="127.992080015"></trkpt>
    <trkpt lat="34.872483361" lon="127.992042829"></trkpt>
    <trkpt lat="34.872416102" lon="127.992029963"></trkpt>
    <trkpt lat="34.872315408" lon="127.991994126"></trkpt>
    <trkpt lat="34.872225875" lon="127.991955375"></trkpt>
    <trkpt lat="34.872158413" lon="127.991926022"></trkpt>
    <trkpt lat="34.872073222" lon="127.99190605"></trkpt>
    <trkpt lat="34.871959903" lon="127.991894729"></trkpt>
    <trkpt lat="34.871916639" lon="127.991892674"></trkpt>
    <trkpt lat="34.871873542" lon="127.991886519"></trkpt>
    <trkpt lat="34.871817882" lon="127.991883887"></trkpt>
    <trkpt lat="34.871770917" lon="127.991898503"></trkpt>
    <trkpt lat="34.871735526" lon="127.991904051"></trkpt>
    <trkpt lat="34.871700604" lon="127.991905533"></trkpt>
    <trkpt lat="34.871647274" lon="127.991907795"></trkpt>
    <trkpt lat="34.871592546" lon="127.991923215"></trkpt>
    <trkpt lat="34.871560273" lon="127.991921913"></trkpt>
    <trkpt lat="34.871509285" lon="127.991923992"></trkpt>
    <trkpt lat="34.871466383" lon="127.99191804"></trkpt>
    <trkpt lat="34.871431211" lon="127.991910574"></trkpt>
    <trkpt lat="34.871387366" lon="127.991896393"></trkpt>
    <trkpt lat="34.871355928" lon="127.991873175"></trkpt>
    <trkpt lat="34.871329999" lon="127.991843704"></trkpt>
    <trkpt lat="34.8712888" lon="127.991783536"></trkpt>
    <trkpt lat="34.871273361" lon="127.991749188"></trkpt>
    <trkpt lat="34.871246861" lon="127.991647457"></trkpt>
    <trkpt lat="34.871223282" lon="127.99159243"></trkpt>
    <trkpt lat="34.8712008" lon="127.991536182"></trkpt>
    <trkpt lat="34.871173309" lon="127.991489669"></trkpt>
    <trkpt lat="34.871150168" lon="127.991500208"></trkpt>
    <trkpt lat="34.871132524" lon="127.991572789"></trkpt>
    <trkpt lat="34.871109423" lon="127.991651903"></trkpt>
    <trkpt lat="34.871088713" lon="127.991724271"></trkpt>
    <trkpt lat="34.871073068" lon="127.991786549"></trkpt>
    <trkpt lat="34.871045536" lon="127.9918412"></trkpt>
    <trkpt lat="34.871020012" lon="127.991889725"></trkpt>
    <trkpt lat="34.870978789" lon="127.991961807"></trkpt>
    <trkpt lat="34.87094237" lon="127.992036216"></trkpt>
    <trkpt lat="34.870891939" lon="127.992101721"></trkpt>
    <trkpt lat="34.870860933" lon="127.992164874"></trkpt>
    <trkpt lat="34.870845697" lon="127.992240126"></trkpt>
    <trkpt lat="34.87083501" lon="127.99228958"></trkpt>
    <trkpt lat="34.870822627" lon="127.992369487"></trkpt>
    <trkpt lat="34.870816501" lon="127.992456107"></trkpt>
    <trkpt lat="34.870816504" lon="127.992458306"></trkpt>
    <trkpt lat="34.870822877" lon="127.992532424"></trkpt>
    <trkpt lat="34.87082288" lon="127.992534633"></trkpt>
    <trkpt lat="34.870840123" lon="127.992614311"></trkpt>
    <trkpt lat="34.870844714" lon="127.992648019"></trkpt>
    <trkpt lat="34.870808552" lon="127.992694203"></trkpt>
    <trkpt lat="34.870806686" lon="127.992696331"></trkpt>
    <trkpt lat="34.870754725" lon="127.992724698"></trkpt>
    <trkpt lat="34.870710949" lon="127.992745329"></trkpt>
    <trkpt lat="34.870676761" lon="127.992753196"></trkpt>
    <trkpt lat="34.870608825" lon="127.992761114"></trkpt>
    <trkpt lat="34.870557167" lon="127.992773635"></trkpt>
    <trkpt lat="34.870463481" lon="127.992800185"></trkpt>
    <trkpt lat="34.870404356" lon="127.992812641"></trkpt>
    <trkpt lat="34.870332562" lon="127.992827827"></trkpt>
    <trkpt lat="34.870282866" lon="127.992840209"></trkpt>
    <trkpt lat="34.870237183" lon="127.992870062"></trkpt>
    <trkpt lat="34.870182314" lon="127.992904228"></trkpt>
    <trkpt lat="34.870141993" lon="127.992931683"></trkpt>
    <trkpt lat="34.870102185" lon="127.992958789"></trkpt>
    <trkpt lat="34.87008487" lon="127.992992369"></trkpt>
    <trkpt lat="34.870065999" lon="127.993049907"></trkpt>
    <trkpt lat="34.870053378" lon="127.993093102"></trkpt>
    <trkpt lat="34.870033544" lon="127.993170348"></trkpt>
    <trkpt lat="34.870027816" lon="127.993229437"></trkpt>
    <trkpt lat="34.869999233" lon="127.993265975"></trkpt>
    <trkpt lat="34.869957928" lon="127.993311007"></trkpt>
    <trkpt lat="34.86992089" lon="127.993342124"></trkpt>
    <trkpt lat="34.869866495" lon="127.993390717"></trkpt>
    <trkpt lat="34.8698169" lon="127.99344527"></trkpt>
    <trkpt lat="34.869775169" lon="127.99348434"></trkpt>
    <trkpt lat="34.869711865" lon="127.993559381"></trkpt>
    <trkpt lat="34.869645302" lon="127.993634349"></trkpt>
    <trkpt lat="34.869577756" lon="127.99369985"></trkpt>
    <trkpt lat="34.869530716" lon="127.99374564"></trkpt>
    <trkpt lat="34.869502379" lon="127.993759244"></trkpt>
    <trkpt lat="34.869485" lon="127.993752381"></trkpt>
    <trkpt lat="34.869475452" lon="127.993732059"></trkpt>
    <trkpt lat="34.869468181" lon="127.993690414"></trkpt>
    <trkpt lat="34.869456779" lon="127.993567913"></trkpt>
    <trkpt lat="34.86944351" lon="127.993439492"></trkpt>
    <trkpt lat="34.869429276" lon="127.993331677"></trkpt>
    <trkpt lat="34.869411879" lon="127.993228876"></trkpt>
    <trkpt lat="34.869408477" lon="127.993107571"></trkpt>
    <trkpt lat="34.869406562" lon="127.992995033"></trkpt>
    <trkpt lat="34.869412621" lon="127.992917965"></trkpt>
    <trkpt lat="34.869417374" lon="127.9928772"></trkpt>
    <trkpt lat="34.869424147" lon="127.992812132"></trkpt>
    <trkpt lat="34.869390662" lon="127.992819286"></trkpt>
    <trkpt lat="34.869332533" lon="127.992853087"></trkpt>
    <trkpt lat="34.869267377" lon="127.992899453"></trkpt>
    <trkpt lat="34.869209191" lon="127.992965327"></trkpt>
    <trkpt lat="34.869148759" lon="127.993016631"></trkpt>
    <trkpt lat="34.869046218" lon="127.993107384"></trkpt>
    <trkpt lat="34.868981922" lon="127.993171076"></trkpt>
    <trkpt lat="34.868933801" lon="127.993261488"></trkpt>
    <trkpt lat="34.868890847" lon="127.993353562"></trkpt>
    <trkpt lat="34.868866116" lon="127.993481452"></trkpt>
    <trkpt lat="34.868869142" lon="127.993582877"></trkpt>
    <trkpt lat="34.868860346" lon="127.993634483"></trkpt>
    <trkpt lat="34.868839518" lon="127.993662192"></trkpt>
    <trkpt lat="34.86878418" lon="127.9936982"></trkpt>
    <trkpt lat="34.868738944" lon="127.993714366"></trkpt>
    <trkpt lat="34.868690557" lon="127.99372724"></trkpt>
    <trkpt lat="34.868639619" lon="127.993734894"></trkpt>
    <trkpt lat="34.868573792" lon="127.993723417"></trkpt>
    <trkpt lat="34.868504746" lon="127.993700918"></trkpt>
    <trkpt lat="34.868439994" lon="127.993682918"></trkpt>
    <trkpt lat="34.868378166" lon="127.993661955"></trkpt>
    <trkpt lat="34.868297833" lon="127.9936653"></trkpt>
    <trkpt lat="34.86817676" lon="127.993692037"></trkpt>
    <trkpt lat="34.868106185" lon="127.993711843"></trkpt>
    <trkpt lat="34.868030213" lon="127.993741148"></trkpt>
    <trkpt lat="34.867926661" lon="127.993780218"></trkpt>
    <trkpt lat="34.867868666" lon="127.993810055"></trkpt>
    <trkpt lat="34.867800161" lon="127.99383844"></trkpt>
    <trkpt lat="34.867695928" lon="127.993871314"></trkpt>
    <trkpt lat="34.867641454" lon="127.993895044"></trkpt>
    <trkpt lat="34.867554972" lon="127.993920944"></trkpt>
    <trkpt lat="34.867502663" lon="127.993946018"></trkpt>
    <trkpt lat="34.867375099" lon="127.99396651"></trkpt>
    <trkpt lat="34.867297601" lon="127.993961719"></trkpt>
    <trkpt lat="34.867257137" lon="127.993924369"></trkpt>
    <trkpt lat="34.867204835" lon="127.993833059"></trkpt>
    <trkpt lat="34.867179889" lon="127.99374308"></trkpt>
    <trkpt lat="34.867142078" lon="127.99363251"></trkpt>
    <trkpt lat="34.867111267" lon="127.993521079"></trkpt>
    <trkpt lat="34.867094582" lon="127.993410239"></trkpt>
    <trkpt lat="34.867086693" lon="127.99333372"></trkpt>
    <trkpt lat="34.867070031" lon="127.993319441"></trkpt>
    <trkpt lat="34.867020024" lon="127.993338237"></trkpt>
    <trkpt lat="34.866946552" lon="127.993360231"></trkpt>
    <trkpt lat="34.866891365" lon="127.993390679"></trkpt>
    <trkpt lat="34.866853768" lon="127.993434886"></trkpt>
    <trkpt lat="34.866753264" lon="127.993566455"></trkpt>
    <trkpt lat="34.86665767" lon="127.993687533"></trkpt>
    <trkpt lat="34.866586733" lon="127.993805529"></trkpt>
    <trkpt lat="34.866510542" lon="127.993935135"></trkpt>
    <trkpt lat="34.866420203" lon="127.994041508"></trkpt>
    <trkpt lat="34.866277134" lon="127.994159583"></trkpt>
    <trkpt lat="34.866160743" lon="127.994219515"></trkpt>
    <trkpt lat="34.866030877" lon="127.994300012"></trkpt>
    <trkpt lat="34.865923986" lon="127.994361326"></trkpt>
    <trkpt lat="34.865784029" lon="127.994470027"></trkpt>
    <trkpt lat="34.865685331" lon="127.994594243"></trkpt>
    <trkpt lat="34.865624605" lon="127.994662109"></trkpt>
    <trkpt lat="34.865489607" lon="127.994723044"></trkpt>
    <trkpt lat="34.865382866" lon="127.994779308"></trkpt>
    <trkpt lat="34.865311841" lon="127.994831752"></trkpt>
    <trkpt lat="34.865220636" lon="127.994910884"></trkpt>
    <trkpt lat="34.865080151" lon="127.995049447"></trkpt>
    <trkpt lat="34.864996899" lon="127.99515216"></trkpt>
    <trkpt lat="34.864917979" lon="127.995248463"></trkpt>
    <trkpt lat="34.864820468" lon="127.995338573"></trkpt>
    <trkpt lat="34.864758342" lon="127.995376743"></trkpt>
    <trkpt lat="34.864598868" lon="127.995467404"></trkpt>
    <trkpt lat="34.864477022" lon="127.995540073"></trkpt>
    <trkpt lat="34.864381535" lon="127.995617492"></trkpt>
    <trkpt lat="34.864269308" lon="127.995723358"></trkpt>
    <trkpt lat="34.864186043" lon="127.995825112"></trkpt>
    <trkpt lat="34.864154326" lon="127.995923803"></trkpt>
    <trkpt lat="34.864180799" lon="127.996135926"></trkpt>
    <trkpt lat="34.864185806" lon="127.996234257"></trkpt>
    <trkpt lat="34.864190329" lon="127.99633695"></trkpt>
    <trkpt lat="34.864179886" lon="127.996395877"></trkpt>
    <trkpt lat="34.864136134" lon="127.996431351"></trkpt>
    <trkpt lat="34.864065953" lon="127.996469532"></trkpt>
    <trkpt lat="34.863908867" lon="127.996528969"></trkpt>
    <trkpt lat="34.863819573" lon="127.996535059"></trkpt>
    <trkpt lat="34.863691588" lon="127.996548365"></trkpt>
    <trkpt lat="34.863563226" lon="127.996578083"></trkpt>
    <trkpt lat="34.863468956" lon="127.996634819"></trkpt>
    <trkpt lat="34.863350091" lon="127.996809816"></trkpt>
    <trkpt lat="34.863240705" lon="127.997048639"></trkpt>
    <trkpt lat="34.863147076" lon="127.997340851"></trkpt>
    <trkpt lat="34.863119357" lon="127.997639987"></trkpt>
    <trkpt lat="34.863086198" lon="127.997902782"></trkpt>
    <trkpt lat="34.863047415" lon="127.998073117"></trkpt>
    <trkpt lat="34.862994327" lon="127.99824976"></trkpt>
    <trkpt lat="34.862894779" lon="127.998507725"></trkpt>
    <trkpt lat="34.86271803" lon="127.998844487"></trkpt>
    <trkpt lat="34.86255722" lon="127.999194149"></trkpt>
    <trkpt lat="34.862466921" lon="127.999363646"></trkpt>
    <trkpt lat="34.862423349" lon="127.999413134"></trkpt>
    <trkpt lat="34.862336376" lon="127.999435"></trkpt>
    <trkpt lat="34.862270616" lon="127.999437394"></trkpt>
    <trkpt lat="34.862193857" lon="127.99943766"></trkpt>
    <trkpt lat="34.862122586" lon="127.999453808"></trkpt>
    <trkpt lat="34.862030508" lon="127.999550482"></trkpt>
    <trkpt lat="34.861913059" lon="127.999660836"></trkpt>
    <trkpt lat="34.861800268" lon="127.999787315"></trkpt>
    <trkpt lat="34.861670948" lon="127.999896908"></trkpt>
    <trkpt lat="34.861613058" lon="127.999956076"></trkpt>
    <trkpt lat="34.861593535" lon="128.00007101"></trkpt>
    <trkpt lat="34.861584382" lon="128.000263206"></trkpt>
    <trkpt lat="34.861565581" lon="128.000397309"></trkpt>
    <trkpt lat="34.861517452" lon="128.000570826"></trkpt>
    <trkpt lat="34.861495354" lon="128.000740963"></trkpt>
    <trkpt lat="34.861493103" lon="128.000982269"></trkpt>
    <trkpt lat="34.861535748" lon="128.001299361"></trkpt>
    <trkpt lat="34.861651463" lon="128.001527641"></trkpt>
    <trkpt lat="34.861832854" lon="128.001650058"></trkpt>
    <trkpt lat="34.862020546" lon="128.001784511"></trkpt>
    <trkpt lat="34.862119619" lon="128.001921142"></trkpt>
    <trkpt lat="34.862146333" lon="128.002111986"></trkpt>
    <trkpt lat="34.862065571" lon="128.002370553"></trkpt>
    <trkpt lat="34.861992942" lon="128.002605494"></trkpt>
    <trkpt lat="34.861905612" lon="128.002765266"></trkpt>
    <trkpt lat="34.86183018" lon="128.00290497"></trkpt>
    <trkpt lat="34.861774578" lon="128.003087735"></trkpt>
    <trkpt lat="34.861739517" lon="128.003271491"></trkpt>
    <trkpt lat="34.861723753" lon="128.003402947"></trkpt>
    <trkpt lat="34.861680728" lon="128.003736442"></trkpt>
    <trkpt lat="34.861683699" lon="128.003928482"></trkpt>
    <trkpt lat="34.86171705" lon="128.003976983"></trkpt>
    <trkpt lat="34.861752433" lon="128.003980687"></trkpt>
    <trkpt lat="34.86180971" lon="128.003845237"></trkpt>
    <trkpt lat="34.861848302" lon="128.003700457"></trkpt>
    <trkpt lat="34.861940482" lon="128.00346233"></trkpt>
    <trkpt lat="34.861973796" lon="128.003367253"></trkpt>
    <trkpt lat="34.862099854" lon="128.003145563"></trkpt>
    <trkpt lat="34.862202217" lon="128.003089979"></trkpt>
    <trkpt lat="34.862254645" lon="128.003078387"></trkpt>
    <trkpt lat="34.862266347" lon="128.003132925"></trkpt>
    <trkpt lat="34.862210782" lon="128.003276035"></trkpt>
    <trkpt lat="34.862147883" lon="128.003480151"></trkpt>
    <trkpt lat="34.862125021" lon="128.003687553"></trkpt>
    <trkpt lat="34.862131467" lon="128.003955081"></trkpt>
    <trkpt lat="34.862132066" lon="128.004139718"></trkpt>
    <trkpt lat="34.862143805" lon="128.004307887"></trkpt>
    <trkpt lat="34.862208132" lon="128.004482308"></trkpt>
    <trkpt lat="34.862317981" lon="128.00451698"></trkpt>
    <trkpt lat="34.862326067" lon="128.004642703"></trkpt>
    <trkpt lat="34.862350558" lon="128.004749716"></trkpt>
    <trkpt lat="34.862431999" lon="128.004907342"></trkpt>
    <trkpt lat="34.862525236" lon="128.005052663"></trkpt>
    <trkpt lat="34.862613866" lon="128.005281702"></trkpt>
    <trkpt lat="34.862628605" lon="128.00548263"></trkpt>
    <trkpt lat="34.86253082" lon="128.005711158"></trkpt>
    <trkpt lat="34.862461" lon="128.005910529"></trkpt>
    <trkpt lat="34.862337388" lon="128.006186495"></trkpt>
    <trkpt lat="34.862176716" lon="128.006483099"></trkpt>
    <trkpt lat="34.862007245" lon="128.006806249"></trkpt>
    <trkpt lat="34.861805055" lon="128.007150195"></trkpt>
    <trkpt lat="34.861647851" lon="128.00736922"></trkpt>
    <trkpt lat="34.861483319" lon="128.00756051"></trkpt>
    <trkpt lat="34.861367357" lon="128.007724965"></trkpt>
    <trkpt lat="34.861326798" lon="128.007849677"></trkpt>
    <trkpt lat="34.861306715" lon="128.008095622"></trkpt>
    <trkpt lat="34.861305143" lon="128.008276597"></trkpt>
    <trkpt lat="34.861326652" lon="128.008432294"></trkpt>
    <trkpt lat="34.861382338" lon="128.008669673"></trkpt>
    <trkpt lat="34.86145973" lon="128.008953298"></trkpt>
    <trkpt lat="34.861518526" lon="128.009175221"></trkpt>
    <trkpt lat="34.861596011" lon="128.009396426"></trkpt>
    <trkpt lat="34.861653151" lon="128.009598961"></trkpt>
    <trkpt lat="34.861610611" lon="128.009610954"></trkpt>
    <trkpt lat="34.861470696" lon="128.009690558"></trkpt>
    <trkpt lat="34.86127652" lon="128.009768534"></trkpt>
    <trkpt lat="34.861148502" lon="128.009842318"></trkpt>
    <trkpt lat="34.861069459" lon="128.009926044"></trkpt>
    <trkpt lat="34.861019967" lon="128.009993089"></trkpt>
    <trkpt lat="34.860911138" lon="128.010083139"></trkpt>
    <trkpt lat="34.860764283" lon="128.010258639"></trkpt>
    <trkpt lat="34.860644451" lon="128.010407921"></trkpt>
    <trkpt lat="34.860580095" lon="128.010500498"></trkpt>
    <trkpt lat="34.860489254" lon="128.010644923"></trkpt>
    <trkpt lat="34.860406925" lon="128.010759338"></trkpt>
    <trkpt lat="34.860316015" lon="128.010879066"></trkpt>
    <trkpt lat="34.860252788" lon="128.010965005"></trkpt>
    <trkpt lat="34.860157819" lon="128.01104727"></trkpt>
    <trkpt lat="34.860019934" lon="128.011159948"></trkpt>
    <trkpt lat="34.85988666" lon="128.011256565"></trkpt>
    <trkpt lat="34.859668564" lon="128.011394868"></trkpt>
    <trkpt lat="34.859467653" lon="128.011525666"></trkpt>
    <trkpt lat="34.859304154" lon="128.011634454"></trkpt>
    <trkpt lat="34.859142784" lon="128.011788883"></trkpt>
    <trkpt lat="34.858926426" lon="128.01197138"></trkpt>
    <trkpt lat="34.858775354" lon="128.012126113"></trkpt>
    <trkpt lat="34.858658765" lon="128.012235415"></trkpt>
    <trkpt lat="34.858480843" lon="128.012381982"></trkpt>
    <trkpt lat="34.858346173" lon="128.012473744"></trkpt>
    <trkpt lat="34.858234812" lon="128.012548429"></trkpt>
    <trkpt lat="34.858087497" lon="128.012608501"></trkpt>
    <trkpt lat="34.857913338" lon="128.012664959"></trkpt>
    <trkpt lat="34.857749763" lon="128.012713957"></trkpt>
    <trkpt lat="34.85765396" lon="128.012723728"></trkpt>
  </trkseg>
</trk>
</gpx>
