<?xml version="1.0" encoding="utf-8" standalone="yes"?>
<gpx version="1.1" creator="GPS Visualizer https://www.gpsvisualizer.com/" xmlns="http://www.topografix.com/GPX/1/1" xmlns:xsi="http://www.w3.org/2001/XMLSchema-instance" xsi:schemaLocation="http://www.topografix.com/GPX/1/1 http://www.topografix.com/GPX/1/1/gpx.xsd">
<trk>
  <name>남파랑길 43코스 (남해바래길 11코스 다랭이지겟길) 20200906</name>
  <trkseg>
    <trkpt lat="34.727079586" lon="127.892723556"></trkpt>
    <trkpt lat="34.726930786" lon="127.892710474"></trkpt>
    <trkpt lat="34.726800776" lon="127.89272599"></trkpt>
    <trkpt lat="34.726630735" lon="127.892781776"></trkpt>
    <trkpt lat="34.726492525" lon="127.892818005"></trkpt>
    <trkpt lat="34.726384213" lon="127.892833969"></trkpt>
    <trkpt lat="34.726253488" lon="127.892861765"></trkpt>
    <trkpt lat="34.726133732" lon="127.892901631"></trkpt>
    <trkpt lat="34.726127075" lon="127.892905657"></trkpt>
    <trkpt lat="34.726026437" lon="127.892982537"></trkpt>
    <trkpt lat="34.725899827" lon="127.89304672"></trkpt>
    <trkpt lat="34.725794872" lon="127.893123904"></trkpt>
    <trkpt lat="34.725699968" lon="127.893205293"></trkpt>
    <trkpt lat="34.725687138" lon="127.893209034"></trkpt>
    <trkpt lat="34.725622535" lon="127.893248242"></trkpt>
    <trkpt lat="34.725478252" lon="127.893274979"></trkpt>
    <trkpt lat="34.725352148" lon="127.893260788"></trkpt>
    <trkpt lat="34.725266704" lon="127.89311841"></trkpt>
    <trkpt lat="34.72521801" lon="127.892945701"></trkpt>
    <trkpt lat="34.725189378" lon="127.892761607"></trkpt>
    <trkpt lat="34.725128092" lon="127.892550603"></trkpt>
    <trkpt lat="34.725079646" lon="127.892443337"></trkpt>
    <trkpt lat="34.725023601" lon="127.892354023"></trkpt>
    <trkpt lat="34.724984222" lon="127.892265368"></trkpt>
    <trkpt lat="34.724921663" lon="127.892117947"></trkpt>
    <trkpt lat="34.724871979" lon="127.891917012"></trkpt>
    <trkpt lat="34.724837704" lon="127.891697248"></trkpt>
    <trkpt lat="34.724770905" lon="127.891471049"></trkpt>
    <trkpt lat="34.724711336" lon="127.891208265"></trkpt>
    <trkpt lat="34.724676967" lon="127.890976404"></trkpt>
    <trkpt lat="34.724624231" lon="127.89077047"></trkpt>
    <trkpt lat="34.724582715" lon="127.890575917"></trkpt>
    <trkpt lat="34.72455095" lon="127.890424369"></trkpt>
    <trkpt lat="34.724444613" lon="127.890085976"></trkpt>
    <trkpt lat="34.724376703" lon="127.889907823"></trkpt>
    <trkpt lat="34.724347937" lon="127.889737969"></trkpt>
    <trkpt lat="34.724348202" lon="127.889661222"></trkpt>
    <trkpt lat="34.72434911" lon="127.889567227"></trkpt>
    <trkpt lat="34.724412958" lon="127.889517302"></trkpt>
    <trkpt lat="34.724431195" lon="127.889501308"></trkpt>
    <trkpt lat="34.724404247" lon="127.88941748"></trkpt>
    <trkpt lat="34.7243132" lon="127.8890741"></trkpt>
    <trkpt lat="34.7242559" lon="127.8887951"></trkpt>
    <trkpt lat="34.724246" lon="127.888654"></trkpt>
    <trkpt lat="34.724264" lon="127.888552"></trkpt>
    <trkpt lat="34.724272" lon="127.8884137"></trkpt>
    <trkpt lat="34.7243444" lon="127.8881976"></trkpt>
    <trkpt lat="34.724439" lon="127.8880143"></trkpt>
    <trkpt lat="34.7245735" lon="127.8877952"></trkpt>
    <trkpt lat="34.7246657" lon="127.8876536"></trkpt>
    <trkpt lat="34.7247482" lon="127.8874921"></trkpt>
    <trkpt lat="34.7248104" lon="127.8873565"></trkpt>
    <trkpt lat="34.7248344" lon="127.8872648"></trkpt>
    <trkpt lat="34.7248664" lon="127.8871784"></trkpt>
    <trkpt lat="34.7249279" lon="127.8870819"></trkpt>
    <trkpt lat="34.7249408" lon="127.887017"></trkpt>
    <trkpt lat="34.7249352" lon="127.8869472"></trkpt>
    <trkpt lat="34.7249174" lon="127.8867787"></trkpt>
    <trkpt lat="34.7248826" lon="127.8865249"></trkpt>
    <trkpt lat="34.7248574" lon="127.8863034"></trkpt>
    <trkpt lat="34.7248422" lon="127.8861643"></trkpt>
    <trkpt lat="34.7249073" lon="127.8860543"></trkpt>
    <trkpt lat="34.7250085" lon="127.8858991"></trkpt>
    <trkpt lat="34.7250919" lon="127.885807"></trkpt>
    <trkpt lat="34.7251952" lon="127.8857531"></trkpt>
    <trkpt lat="34.7252737" lon="127.8857152"></trkpt>
    <trkpt lat="34.7254234" lon="127.8856434"></trkpt>
    <trkpt lat="34.7255337" lon="127.8855651"></trkpt>
    <trkpt lat="34.7256494" lon="127.8854891"></trkpt>
    <trkpt lat="34.7257632" lon="127.8854031"></trkpt>
    <trkpt lat="34.7258546" lon="127.8852947"></trkpt>
    <trkpt lat="34.725921266" lon="127.885187982"></trkpt>
    <trkpt lat="34.7259938" lon="127.8851005"></trkpt>
    <trkpt lat="34.726039995" lon="127.88497393"></trkpt>
    <trkpt lat="34.7261133" lon="127.8848932"></trkpt>
    <trkpt lat="34.72617399" lon="127.884827394"></trkpt>
    <trkpt lat="34.726235249" lon="127.884752957"></trkpt>
    <trkpt lat="34.726265906" lon="127.88466453"></trkpt>
    <trkpt lat="34.7263191" lon="127.8844939"></trkpt>
    <trkpt lat="34.726371" lon="127.8843271"></trkpt>
    <trkpt lat="34.7263978" lon="127.8841632"></trkpt>
    <trkpt lat="34.7264201" lon="127.8839225"></trkpt>
    <trkpt lat="34.726418" lon="127.8837773"></trkpt>
    <trkpt lat="34.7263946" lon="127.8836405"></trkpt>
    <trkpt lat="34.7263653" lon="127.8835801"></trkpt>
    <trkpt lat="34.7263265" lon="127.8834931"></trkpt>
    <trkpt lat="34.7263116" lon="127.8833843"></trkpt>
    <trkpt lat="34.7263533" lon="127.8832813"></trkpt>
    <trkpt lat="34.7264105" lon="127.8831087"></trkpt>
    <trkpt lat="34.7264475" lon="127.882987"></trkpt>
    <trkpt lat="34.7265005" lon="127.8828932"></trkpt>
    <trkpt lat="34.7265702" lon="127.8828174"></trkpt>
    <trkpt lat="34.7266264" lon="127.8827798"></trkpt>
    <trkpt lat="34.7267245" lon="127.8827845"></trkpt>
    <trkpt lat="34.7267849" lon="127.882799"></trkpt>
    <trkpt lat="34.7268014" lon="127.882827"></trkpt>
    <trkpt lat="34.726942" lon="127.8827984"></trkpt>
    <trkpt lat="34.7270906" lon="127.8827198"></trkpt>
    <trkpt lat="34.7272308" lon="127.8825067"></trkpt>
    <trkpt lat="34.727281" lon="127.8823116"></trkpt>
    <trkpt lat="34.7273191" lon="127.8821402"></trkpt>
    <trkpt lat="34.7273206" lon="127.8820042"></trkpt>
    <trkpt lat="34.7273097" lon="127.88172"></trkpt>
    <trkpt lat="34.7272777" lon="127.8815588"></trkpt>
    <trkpt lat="34.7272981" lon="127.881362"></trkpt>
    <trkpt lat="34.7273091" lon="127.8812275"></trkpt>
    <trkpt lat="34.72721" lon="127.8810206"></trkpt>
    <trkpt lat="34.7271429" lon="127.8808561"></trkpt>
    <trkpt lat="34.7270989" lon="127.8806963"></trkpt>
    <trkpt lat="34.72707" lon="127.8804997"></trkpt>
    <trkpt lat="34.7270914" lon="127.8803521"></trkpt>
    <trkpt lat="34.7272054" lon="127.8802246"></trkpt>
    <trkpt lat="34.7272558" lon="127.8800324"></trkpt>
    <trkpt lat="34.7273978" lon="127.8798401"></trkpt>
    <trkpt lat="34.7274769" lon="127.8797178"></trkpt>
    <trkpt lat="34.7275604" lon="127.8795344"></trkpt>
    <trkpt lat="34.7275659" lon="127.8793351"></trkpt>
    <trkpt lat="34.7276078" lon="127.8791615"></trkpt>
    <trkpt lat="34.7277133" lon="127.8789724"></trkpt>
    <trkpt lat="34.727831" lon="127.8788155"></trkpt>
    <trkpt lat="34.7279963" lon="127.8787408"></trkpt>
    <trkpt lat="34.7281679" lon="127.8786626"></trkpt>
    <trkpt lat="34.7283127" lon="127.8785381"></trkpt>
    <trkpt lat="34.7283724" lon="127.8784452"></trkpt>
    <trkpt lat="34.7283585" lon="127.8783657"></trkpt>
    <trkpt lat="34.7283082" lon="127.878197"></trkpt>
    <trkpt lat="34.7282848" lon="127.8780012"></trkpt>
    <trkpt lat="34.7282315" lon="127.8778762"></trkpt>
    <trkpt lat="34.7282046" lon="127.8776865"></trkpt>
    <trkpt lat="34.7282019" lon="127.8775154"></trkpt>
    <trkpt lat="34.7282183" lon="127.8774041"></trkpt>
    <trkpt lat="34.7282123" lon="127.8772873"></trkpt>
    <trkpt lat="34.7282215" lon="127.8772049"></trkpt>
    <trkpt lat="34.7284186" lon="127.8771021"></trkpt>
    <trkpt lat="34.7285771" lon="127.8771007"></trkpt>
    <trkpt lat="34.7287155" lon="127.8770263"></trkpt>
    <trkpt lat="34.7287577" lon="127.8768228"></trkpt>
    <trkpt lat="34.7287613" lon="127.8767509"></trkpt>
    <trkpt lat="34.7288205" lon="127.8765703"></trkpt>
    <trkpt lat="34.7288474" lon="127.8764"></trkpt>
    <trkpt lat="34.7288749" lon="127.8761289"></trkpt>
    <trkpt lat="34.7289342" lon="127.8758516"></trkpt>
    <trkpt lat="34.7289721" lon="127.8755886"></trkpt>
    <trkpt lat="34.729009" lon="127.875341"></trkpt>
    <trkpt lat="34.7290689" lon="127.8752157"></trkpt>
    <trkpt lat="34.7291309" lon="127.8750771"></trkpt>
    <trkpt lat="34.7292475" lon="127.8749341"></trkpt>
    <trkpt lat="34.7293138" lon="127.8748539"></trkpt>
    <trkpt lat="34.7293903" lon="127.874718"></trkpt>
    <trkpt lat="34.7294546" lon="127.8745921"></trkpt>
    <trkpt lat="34.7294778" lon="127.8744632"></trkpt>
    <trkpt lat="34.7294783" lon="127.8743157"></trkpt>
    <trkpt lat="34.7295138" lon="127.8741135"></trkpt>
    <trkpt lat="34.7295894" lon="127.8738913"></trkpt>
    <trkpt lat="34.7296111" lon="127.8737728"></trkpt>
    <trkpt lat="34.729584" lon="127.8736582"></trkpt>
    <trkpt lat="34.7295121" lon="127.8735711"></trkpt>
    <trkpt lat="34.7294771" lon="127.8734803"></trkpt>
    <trkpt lat="34.7294133" lon="127.8734033"></trkpt>
    <trkpt lat="34.7293279" lon="127.8732308"></trkpt>
    <trkpt lat="34.7292964" lon="127.8730463"></trkpt>
    <trkpt lat="34.7293495" lon="127.8728708"></trkpt>
    <trkpt lat="34.7293964" lon="127.8727597"></trkpt>
    <trkpt lat="34.7293928" lon="127.8726682"></trkpt>
    <trkpt lat="34.729364" lon="127.8725752"></trkpt>
    <trkpt lat="34.7293423" lon="127.8725218"></trkpt>
    <trkpt lat="34.7292852" lon="127.8724408"></trkpt>
    <trkpt lat="34.7292494" lon="127.8723264"></trkpt>
    <trkpt lat="34.7292477" lon="127.8722098"></trkpt>
    <trkpt lat="34.7292847" lon="127.8720326"></trkpt>
    <trkpt lat="34.7293779" lon="127.8717879"></trkpt>
    <trkpt lat="34.7294419" lon="127.8716237"></trkpt>
    <trkpt lat="34.7294585" lon="127.87156"></trkpt>
    <trkpt lat="34.729422" lon="127.8714923"></trkpt>
    <trkpt lat="34.7294049" lon="127.8714245"></trkpt>
    <trkpt lat="34.7293797" lon="127.8712543"></trkpt>
    <trkpt lat="34.7293318" lon="127.8709671"></trkpt>
    <trkpt lat="34.7293282" lon="127.8708313"></trkpt>
    <trkpt lat="34.7293573" lon="127.8706927"></trkpt>
    <trkpt lat="34.7294596" lon="127.8704734"></trkpt>
    <trkpt lat="34.7295359" lon="127.8703708"></trkpt>
    <trkpt lat="34.7295745" lon="127.8702885"></trkpt>
    <trkpt lat="34.7295596" lon="127.8702339"></trkpt>
    <trkpt lat="34.7295326" lon="127.8701888"></trkpt>
    <trkpt lat="34.7294884" lon="127.8701439"></trkpt>
    <trkpt lat="34.7294359" lon="127.8700995"></trkpt>
    <trkpt lat="34.7293849" lon="127.8700527"></trkpt>
    <trkpt lat="34.7293506" lon="127.8699927"></trkpt>
    <trkpt lat="34.7293117" lon="127.8698601"></trkpt>
    <trkpt lat="34.7292888" lon="127.8697216"></trkpt>
    <trkpt lat="34.7292836" lon="127.8696047"></trkpt>
    <trkpt lat="34.7292557" lon="127.8694871"></trkpt>
    <trkpt lat="34.7292263" lon="127.8694174"></trkpt>
    <trkpt lat="34.7292" lon="127.8693685"></trkpt>
    <trkpt lat="34.7291667" lon="127.86927"></trkpt>
    <trkpt lat="34.7291346" lon="127.8691602"></trkpt>
    <trkpt lat="34.7291201" lon="127.8690217"></trkpt>
    <trkpt lat="34.7291289" lon="127.8689296"></trkpt>
    <trkpt lat="34.7291743" lon="127.8688162"></trkpt>
    <trkpt lat="34.7292582" lon="127.8686149"></trkpt>
    <trkpt lat="34.7293441" lon="127.8685165"></trkpt>
    <trkpt lat="34.7294252" lon="127.868441"></trkpt>
    <trkpt lat="34.7295782" lon="127.8683326"></trkpt>
    <trkpt lat="34.7296873" lon="127.868275"></trkpt>
    <trkpt lat="34.7298203" lon="127.8681577"></trkpt>
    <trkpt lat="34.7299835" lon="127.8680361"></trkpt>
    <trkpt lat="34.7300906" lon="127.8679765"></trkpt>
    <trkpt lat="34.7301694" lon="127.8679294"></trkpt>
    <trkpt lat="34.7302436" lon="127.8678633"></trkpt>
    <trkpt lat="34.7302964" lon="127.8677918"></trkpt>
    <trkpt lat="34.7303763" lon="127.8676912"></trkpt>
    <trkpt lat="34.7304436" lon="127.8675796"></trkpt>
    <trkpt lat="34.7305092" lon="127.8674285"></trkpt>
    <trkpt lat="34.7305579" lon="127.8672661"></trkpt>
    <trkpt lat="34.7305961" lon="127.8671892"></trkpt>
    <trkpt lat="34.7305573" lon="127.8671314"></trkpt>
    <trkpt lat="34.7305767" lon="127.8670397"></trkpt>
    <trkpt lat="34.7305715" lon="127.8669825"></trkpt>
    <trkpt lat="34.7305417" lon="127.8668526"></trkpt>
    <trkpt lat="34.7305029" lon="127.8667413"></trkpt>
    <trkpt lat="34.7304804" lon="127.8666841"></trkpt>
    <trkpt lat="34.7304343" lon="127.8664431"></trkpt>
    <trkpt lat="34.7304082" lon="127.8663692"></trkpt>
    <trkpt lat="34.7303203" lon="127.8662691"></trkpt>
    <trkpt lat="34.7301956" lon="127.8661052"></trkpt>
    <trkpt lat="34.7300866" lon="127.8659653"></trkpt>
    <trkpt lat="34.73002" lon="127.8658701"></trkpt>
    <trkpt lat="34.7299622" lon="127.8658204"></trkpt>
    <trkpt lat="34.7300183" lon="127.8656859"></trkpt>
    <trkpt lat="34.7300374" lon="127.8655702"></trkpt>
    <trkpt lat="34.7300176" lon="127.8654375"></trkpt>
    <trkpt lat="34.7299767" lon="127.8652876"></trkpt>
    <trkpt lat="34.7299062" lon="127.8651756"></trkpt>
    <trkpt lat="34.7298218" lon="127.8651058"></trkpt>
    <trkpt lat="34.729782" lon="127.8650179"></trkpt>
    <trkpt lat="34.7297426" lon="127.8649499"></trkpt>
    <trkpt lat="34.729665052" lon="127.864487055"></trkpt>
    <trkpt lat="34.729624135" lon="127.864243016"></trkpt>
    <trkpt lat="34.729605123" lon="127.864172178"></trkpt>
    <trkpt lat="34.729604557" lon="127.864087914"></trkpt>
    <trkpt lat="34.729595043" lon="127.864014243"></trkpt>
    <trkpt lat="34.729584138" lon="127.86395348"></trkpt>
    <trkpt lat="34.729567735" lon="127.863866189"></trkpt>
    <trkpt lat="34.729556701" lon="127.863730735"></trkpt>
    <trkpt lat="34.729555326" lon="127.863724093"></trkpt>
    <trkpt lat="34.729589594" lon="127.863502452"></trkpt>
    <trkpt lat="34.729680988" lon="127.863312257"></trkpt>
    <trkpt lat="34.729788683" lon="127.863182682"></trkpt>
    <trkpt lat="34.729886385" lon="127.863150232"></trkpt>
    <trkpt lat="34.730014997" lon="127.86311795"></trkpt>
    <trkpt lat="34.730160831" lon="127.863053086"></trkpt>
    <trkpt lat="34.730232711" lon="127.862962648"></trkpt>
    <trkpt lat="34.730334748" lon="127.862753236"></trkpt>
    <trkpt lat="34.730377842" lon="127.862635913"></trkpt>
    <trkpt lat="34.730394023" lon="127.862576448"></trkpt>
    <trkpt lat="34.730285345" lon="127.86249876"></trkpt>
    <trkpt lat="34.730185513" lon="127.862446411"></trkpt>
    <trkpt lat="34.730099881" lon="127.86238205"></trkpt>
    <trkpt lat="34.730089053" lon="127.862353792"></trkpt>
    <trkpt lat="34.730126273" lon="127.862237173"></trkpt>
    <trkpt lat="34.730136345" lon="127.862197156"></trkpt>
    <trkpt lat="34.7301476" lon="127.8621562"></trkpt>
    <trkpt lat="34.7302521" lon="127.8620206"></trkpt>
    <trkpt lat="34.7303866" lon="127.8618558"></trkpt>
    <trkpt lat="34.7305079" lon="127.8617299"></trkpt>
    <trkpt lat="34.7305502" lon="127.8617066"></trkpt>
    <trkpt lat="34.7306089" lon="127.8618039"></trkpt>
    <trkpt lat="34.7306595" lon="127.8618444"></trkpt>
    <trkpt lat="34.7307034" lon="127.8618688"></trkpt>
    <trkpt lat="34.7308601" lon="127.862033"></trkpt>
    <trkpt lat="34.731018" lon="127.8621941"></trkpt>
    <trkpt lat="34.7310708" lon="127.8622086"></trkpt>
    <trkpt lat="34.7313141" lon="127.8623562"></trkpt>
    <trkpt lat="34.7315346" lon="127.862465"></trkpt>
    <trkpt lat="34.7317582" lon="127.8625646"></trkpt>
    <trkpt lat="34.7320371" lon="127.8626156"></trkpt>
    <trkpt lat="34.732313" lon="127.862638"></trkpt>
    <trkpt lat="34.7326283" lon="127.8626399"></trkpt>
    <trkpt lat="34.7329591" lon="127.8626022"></trkpt>
    <trkpt lat="34.733216" lon="127.8625508"></trkpt>
    <trkpt lat="34.7335017" lon="127.8624893"></trkpt>
    <trkpt lat="34.7337698" lon="127.8623976"></trkpt>
    <trkpt lat="34.7339786" lon="127.8622857"></trkpt>
    <trkpt lat="34.7341777" lon="127.8621783"></trkpt>
    <trkpt lat="34.7342935" lon="127.8620374"></trkpt>
    <trkpt lat="34.7344477" lon="127.8618638"></trkpt>
    <trkpt lat="34.7345176" lon="127.8617505"></trkpt>
    <trkpt lat="34.7346291" lon="127.8615532"></trkpt>
    <trkpt lat="34.7347485" lon="127.8614133"></trkpt>
    <trkpt lat="34.7348781" lon="127.8612509"></trkpt>
    <trkpt lat="34.7349878" lon="127.8611322"></trkpt>
    <trkpt lat="34.7350804" lon="127.8610798"></trkpt>
    <trkpt lat="34.7351917" lon="127.8610624"></trkpt>
    <trkpt lat="34.7352723" lon="127.8610509"></trkpt>
    <trkpt lat="34.73541" lon="127.8610249"></trkpt>
    <trkpt lat="34.7354873" lon="127.8609905"></trkpt>
    <trkpt lat="34.7355806" lon="127.8609149"></trkpt>
    <trkpt lat="34.7356511" lon="127.8608234"></trkpt>
    <trkpt lat="34.7357351" lon="127.8607161"></trkpt>
    <trkpt lat="34.7358932" lon="127.860481"></trkpt>
    <trkpt lat="34.7360403" lon="127.8602474"></trkpt>
    <trkpt lat="34.7361153" lon="127.8601373"></trkpt>
    <trkpt lat="34.7362424" lon="127.8599592"></trkpt>
    <trkpt lat="34.7363768" lon="127.859762"></trkpt>
    <trkpt lat="34.7365322" lon="127.8595577"></trkpt>
    <trkpt lat="34.7366575" lon="127.8593647"></trkpt>
    <trkpt lat="34.7367416" lon="127.8592064"></trkpt>
    <trkpt lat="34.7368004" lon="127.859032"></trkpt>
    <trkpt lat="34.736855" lon="127.8588689"></trkpt>
    <trkpt lat="34.7369258" lon="127.8586467"></trkpt>
    <trkpt lat="34.7369715" lon="127.8585002"></trkpt>
    <trkpt lat="34.7370314" lon="127.8583156"></trkpt>
    <trkpt lat="34.7370581" lon="127.858209"></trkpt>
    <trkpt lat="34.7370798" lon="127.858104"></trkpt>
    <trkpt lat="34.7370926" lon="127.8578437"></trkpt>
    <trkpt lat="34.7370939" lon="127.8576203"></trkpt>
    <trkpt lat="34.7370755" lon="127.8573687"></trkpt>
    <trkpt lat="34.7370507" lon="127.8571528"></trkpt>
    <trkpt lat="34.7370212" lon="127.8569821"></trkpt>
    <trkpt lat="34.7369835" lon="127.8567562"></trkpt>
    <trkpt lat="34.736946" lon="127.8566546"></trkpt>
    <trkpt lat="34.7369441" lon="127.8566059"></trkpt>
    <trkpt lat="34.7369994" lon="127.8565636"></trkpt>
    <trkpt lat="34.7370429" lon="127.85652"></trkpt>
    <trkpt lat="34.7370619" lon="127.8564718"></trkpt>
    <trkpt lat="34.7370539" lon="127.8564569"></trkpt>
    <trkpt lat="34.7369585" lon="127.856418"></trkpt>
    <trkpt lat="34.7368648" lon="127.8564084"></trkpt>
    <trkpt lat="34.7367204" lon="127.8563613"></trkpt>
    <trkpt lat="34.7366361" lon="127.8563352"></trkpt>
    <trkpt lat="34.7364854" lon="127.8562198"></trkpt>
    <trkpt lat="34.7363267" lon="127.8559841"></trkpt>
    <trkpt lat="34.7362606" lon="127.8558004"></trkpt>
    <trkpt lat="34.7362297" lon="127.8556619"></trkpt>
    <trkpt lat="34.7361923" lon="127.8555244"></trkpt>
    <trkpt lat="34.7361768" lon="127.8554051"></trkpt>
    <trkpt lat="34.7361811" lon="127.8552971"></trkpt>
    <trkpt lat="34.7361262" lon="127.8551714"></trkpt>
    <trkpt lat="34.7360493" lon="127.8549808"></trkpt>
    <trkpt lat="34.7359987" lon="127.8547549"></trkpt>
    <trkpt lat="34.7359853" lon="127.8545985"></trkpt>
    <trkpt lat="34.7359778" lon="127.8544771"></trkpt>
    <trkpt lat="34.7359447" lon="127.8544312"></trkpt>
    <trkpt lat="34.7359461" lon="127.854262"></trkpt>
    <trkpt lat="34.7359665" lon="127.8540643"></trkpt>
    <trkpt lat="34.7359863" lon="127.8539533"></trkpt>
    <trkpt lat="34.7360045" lon="127.853827"></trkpt>
    <trkpt lat="34.7359949" lon="127.8537036"></trkpt>
    <trkpt lat="34.7359987" lon="127.8536254"></trkpt>
    <trkpt lat="34.7360654" lon="127.8536242"></trkpt>
    <trkpt lat="34.7361218" lon="127.8536355"></trkpt>
    <trkpt lat="34.7361727" lon="127.8536316"></trkpt>
    <trkpt lat="34.7362105" lon="127.8536503"></trkpt>
    <trkpt lat="34.7362644" lon="127.8536631"></trkpt>
    <trkpt lat="34.7362854" lon="127.8537555"></trkpt>
    <trkpt lat="34.7363287" lon="127.8538993"></trkpt>
    <trkpt lat="34.7363537" lon="127.8540586"></trkpt>
    <trkpt lat="34.7363957" lon="127.8541986"></trkpt>
    <trkpt lat="34.7364596" lon="127.8543121"></trkpt>
    <trkpt lat="34.7364959" lon="127.8544472"></trkpt>
    <trkpt lat="34.7365416" lon="127.8545542"></trkpt>
    <trkpt lat="34.7366712" lon="127.8546683"></trkpt>
    <trkpt lat="34.7367955" lon="127.8548527"></trkpt>
    <trkpt lat="34.73696" lon="127.8550076"></trkpt>
    <trkpt lat="34.7371159" lon="127.855052"></trkpt>
    <trkpt lat="34.7372755" lon="127.8550535"></trkpt>
    <trkpt lat="34.7373887" lon="127.8550779"></trkpt>
    <trkpt lat="34.7374905" lon="127.8551232"></trkpt>
    <trkpt lat="34.7375633" lon="127.855116"></trkpt>
    <trkpt lat="34.7376366" lon="127.8550906"></trkpt>
    <trkpt lat="34.7377515" lon="127.8550476"></trkpt>
    <trkpt lat="34.7378482" lon="127.8549715"></trkpt>
    <trkpt lat="34.7379373" lon="127.8548917"></trkpt>
    <trkpt lat="34.7379971" lon="127.8548524"></trkpt>
    <trkpt lat="34.7380706" lon="127.8548544"></trkpt>
    <trkpt lat="34.7382377" lon="127.8549352"></trkpt>
    <trkpt lat="34.7384217" lon="127.8550404"></trkpt>
    <trkpt lat="34.7385928" lon="127.8551465"></trkpt>
    <trkpt lat="34.7387312" lon="127.8552309"></trkpt>
    <trkpt lat="34.7387344" lon="127.8552384"></trkpt>
    <trkpt lat="34.7388357" lon="127.8553303"></trkpt>
    <trkpt lat="34.7388669" lon="127.8553805"></trkpt>
    <trkpt lat="34.7388787" lon="127.8554422"></trkpt>
    <trkpt lat="34.7389231" lon="127.8555743"></trkpt>
    <trkpt lat="34.7390112" lon="127.8556661"></trkpt>
    <trkpt lat="34.7390554" lon="127.8557202"></trkpt>
    <trkpt lat="34.7391105" lon="127.8556701"></trkpt>
    <trkpt lat="34.7391571" lon="127.8557178"></trkpt>
    <trkpt lat="34.7393515" lon="127.8559159"></trkpt>
    <trkpt lat="34.7394547" lon="127.8560385"></trkpt>
    <trkpt lat="34.7394814" lon="127.856074"></trkpt>
    <trkpt lat="34.7395439" lon="127.8561913"></trkpt>
    <trkpt lat="34.7395734" lon="127.8562899"></trkpt>
    <trkpt lat="34.739616" lon="127.8564482"></trkpt>
    <trkpt lat="34.7396307" lon="127.8566592"></trkpt>
    <trkpt lat="34.739634" lon="127.8568462"></trkpt>
    <trkpt lat="34.7396259" lon="127.8569883"></trkpt>
    <trkpt lat="34.7396662" lon="127.8571448"></trkpt>
    <trkpt lat="34.7397" lon="127.8571362"></trkpt>
    <trkpt lat="34.739745" lon="127.8571504"></trkpt>
    <trkpt lat="34.7398788" lon="127.8572191"></trkpt>
    <trkpt lat="34.7399146" lon="127.8572923"></trkpt>
    <trkpt lat="34.7399345" lon="127.8573403"></trkpt>
    <trkpt lat="34.7399407" lon="127.8573933"></trkpt>
    <trkpt lat="34.7399496" lon="127.8574874"></trkpt>
    <trkpt lat="34.7399676" lon="127.8576175"></trkpt>
    <trkpt lat="34.7400379" lon="127.8577734"></trkpt>
    <trkpt lat="34.7401655" lon="127.8579097"></trkpt>
    <trkpt lat="34.7402805" lon="127.8580137"></trkpt>
    <trkpt lat="34.7403932" lon="127.8581066"></trkpt>
    <trkpt lat="34.7405033" lon="127.8582042"></trkpt>
    <trkpt lat="34.7405623" lon="127.85827"></trkpt>
    <trkpt lat="34.7406538" lon="127.8584001"></trkpt>
    <trkpt lat="34.7407544" lon="127.8585145"></trkpt>
    <trkpt lat="34.740798" lon="127.8585596"></trkpt>
    <trkpt lat="34.7409096" lon="127.8586618"></trkpt>
    <trkpt lat="34.7410313" lon="127.8587691"></trkpt>
    <trkpt lat="34.74116" lon="127.8588952"></trkpt>
    <trkpt lat="34.7412704" lon="127.8590134"></trkpt>
    <trkpt lat="34.7413632" lon="127.8591155"></trkpt>
    <trkpt lat="34.7414361" lon="127.8591725"></trkpt>
    <trkpt lat="34.7414691" lon="127.8591668"></trkpt>
    <trkpt lat="34.7414808" lon="127.8591391"></trkpt>
    <trkpt lat="34.7414614" lon="127.8591014"></trkpt>
    <trkpt lat="34.7414232" lon="127.8590468"></trkpt>
    <trkpt lat="34.7414095" lon="127.8589078"></trkpt>
    <trkpt lat="34.7413902" lon="127.8587712"></trkpt>
    <trkpt lat="34.7414052" lon="127.8586845"></trkpt>
    <trkpt lat="34.7415137" lon="127.8586596"></trkpt>
    <trkpt lat="34.7416047" lon="127.8586871"></trkpt>
    <trkpt lat="34.7416709" lon="127.8586193"></trkpt>
    <trkpt lat="34.7417185" lon="127.8585322"></trkpt>
    <trkpt lat="34.7417331" lon="127.8584915"></trkpt>
    <trkpt lat="34.7418353" lon="127.8584952"></trkpt>
    <trkpt lat="34.741922" lon="127.8585286"></trkpt>
    <trkpt lat="34.7419977" lon="127.8584949"></trkpt>
    <trkpt lat="34.7419961" lon="127.8584203"></trkpt>
    <trkpt lat="34.7420333" lon="127.8583591"></trkpt>
    <trkpt lat="34.7421582" lon="127.8583955"></trkpt>
    <trkpt lat="34.7422105" lon="127.858414"></trkpt>
    <trkpt lat="34.7422999" lon="127.8584308"></trkpt>
    <trkpt lat="34.7424225" lon="127.8584783"></trkpt>
    <trkpt lat="34.7425282" lon="127.8585591"></trkpt>
    <trkpt lat="34.7426201" lon="127.8586851"></trkpt>
    <trkpt lat="34.7426706" lon="127.8587747"></trkpt>
    <trkpt lat="34.7426983" lon="127.8588085"></trkpt>
    <trkpt lat="34.7426977" lon="127.8587741"></trkpt>
    <trkpt lat="34.7426643" lon="127.8586568"></trkpt>
    <trkpt lat="34.7426276" lon="127.8585228"></trkpt>
    <trkpt lat="34.7425703" lon="127.8583458"></trkpt>
    <trkpt lat="34.7424817" lon="127.8581014"></trkpt>
    <trkpt lat="34.7424243" lon="127.8579629"></trkpt>
    <trkpt lat="34.7423747" lon="127.8578797"></trkpt>
    <trkpt lat="34.7422959" lon="127.8577853"></trkpt>
    <trkpt lat="34.7421596" lon="127.8576392"></trkpt>
    <trkpt lat="34.7420618" lon="127.8575129"></trkpt>
    <trkpt lat="34.7419681" lon="127.8573716"></trkpt>
    <trkpt lat="34.7419551" lon="127.8573046"></trkpt>
    <trkpt lat="34.7419137" lon="127.8571375"></trkpt>
    <trkpt lat="34.7418521" lon="127.8569097"></trkpt>
    <trkpt lat="34.7417983" lon="127.8566967"></trkpt>
    <trkpt lat="34.7417359" lon="127.8564652"></trkpt>
    <trkpt lat="34.7417802" lon="127.8564487"></trkpt>
    <trkpt lat="34.7419579" lon="127.856383"></trkpt>
    <trkpt lat="34.7422116" lon="127.8563038"></trkpt>
    <trkpt lat="34.7424453" lon="127.8562609"></trkpt>
    <trkpt lat="34.7427835" lon="127.8562143"></trkpt>
    <trkpt lat="34.7430171" lon="127.8561909"></trkpt>
    <trkpt lat="34.7433578" lon="127.8561743"></trkpt>
    <trkpt lat="34.743638" lon="127.8561491"></trkpt>
    <trkpt lat="34.7439549" lon="127.856077"></trkpt>
    <trkpt lat="34.7441074" lon="127.8559997"></trkpt>
    <trkpt lat="34.7442411" lon="127.8559168"></trkpt>
    <trkpt lat="34.744393" lon="127.8558246"></trkpt>
    <trkpt lat="34.7444928" lon="127.8557086"></trkpt>
    <trkpt lat="34.7446287" lon="127.8555766"></trkpt>
    <trkpt lat="34.7447024" lon="127.855577"></trkpt>
    <trkpt lat="34.7449422" lon="127.8554865"></trkpt>
    <trkpt lat="34.7451769" lon="127.855367"></trkpt>
    <trkpt lat="34.7454221" lon="127.8551563"></trkpt>
    <trkpt lat="34.7456113" lon="127.8550389"></trkpt>
    <trkpt lat="34.7458232" lon="127.8547703"></trkpt>
    <trkpt lat="34.7459988" lon="127.854579"></trkpt>
    <trkpt lat="34.7461385" lon="127.8545139"></trkpt>
    <trkpt lat="34.7462521" lon="127.8544275"></trkpt>
    <trkpt lat="34.7464174" lon="127.8543997"></trkpt>
    <trkpt lat="34.7464984" lon="127.8543842"></trkpt>
    <trkpt lat="34.7466131" lon="127.8543624"></trkpt>
    <trkpt lat="34.7466962" lon="127.854421"></trkpt>
    <trkpt lat="34.7467657" lon="127.854463"></trkpt>
    <trkpt lat="34.7468689" lon="127.8544472"></trkpt>
    <trkpt lat="34.7469672" lon="127.8544216"></trkpt>
    <trkpt lat="34.7470348" lon="127.8544024"></trkpt>
    <trkpt lat="34.7470825" lon="127.8543636"></trkpt>
    <trkpt lat="34.7471412" lon="127.854318"></trkpt>
    <trkpt lat="34.7472101" lon="127.8542854"></trkpt>
    <trkpt lat="34.7472878" lon="127.8542488"></trkpt>
    <trkpt lat="34.747385" lon="127.8541242"></trkpt>
    <trkpt lat="34.7474482" lon="127.8540458"></trkpt>
    <trkpt lat="34.7475667" lon="127.8539331"></trkpt>
    <trkpt lat="34.7476066" lon="127.8539269"></trkpt>
    <trkpt lat="34.7476584" lon="127.8539208"></trkpt>
    <trkpt lat="34.747775" lon="127.8539759"></trkpt>
    <trkpt lat="34.7478743" lon="127.8539934"></trkpt>
    <trkpt lat="34.7479464" lon="127.853987"></trkpt>
    <trkpt lat="34.747957" lon="127.8539836"></trkpt>
    <trkpt lat="34.7480317" lon="127.8539706"></trkpt>
    <trkpt lat="34.7481038" lon="127.8540281"></trkpt>
    <trkpt lat="34.7481886" lon="127.8540787"></trkpt>
    <trkpt lat="34.7482467" lon="127.854109"></trkpt>
    <trkpt lat="34.7483537" lon="127.8542021"></trkpt>
    <trkpt lat="34.7484254" lon="127.8543222"></trkpt>
    <trkpt lat="34.7484859" lon="127.8544659"></trkpt>
    <trkpt lat="34.7484982" lon="127.8546017"></trkpt>
    <trkpt lat="34.748474825" lon="127.854691396"></trkpt>
    <trkpt lat="34.748471638" lon="127.854748954"></trkpt>
    <trkpt lat="34.748475959" lon="127.854814343"></trkpt>
    <trkpt lat="34.74852102" lon="127.85481428"></trkpt>
    <trkpt lat="34.748552168" lon="127.854814236"></trkpt>
    <trkpt lat="34.748607007" lon="127.854802364"></trkpt>
    <trkpt lat="34.748665127" lon="127.854710464"></trkpt>
    <trkpt lat="34.748714677" lon="127.854559385"></trkpt>
    <trkpt lat="34.748747011" lon="127.85442266"></trkpt>
    <trkpt lat="34.748750206" lon="127.854329403"></trkpt>
    <trkpt lat="34.748759721" lon="127.854273295"></trkpt>
    <trkpt lat="34.748782984" lon="127.854226615"></trkpt>
    <trkpt lat="34.7488218" lon="127.8542053"></trkpt>
    <trkpt lat="34.7488958" lon="127.8541778"></trkpt>
    <trkpt lat="34.7489651" lon="127.8541537"></trkpt>
    <trkpt lat="34.749031349" lon="127.854030793"></trkpt>
    <trkpt lat="34.749104864" lon="127.853879994"></trkpt>
    <trkpt lat="34.749146653" lon="127.853743474"></trkpt>
    <trkpt lat="34.74919855" lon="127.853641345"></trkpt>
    <trkpt lat="34.7492857" lon="127.8536125"></trkpt>
    <trkpt lat="34.7494078" lon="127.8533626"></trkpt>
    <trkpt lat="34.7494677" lon="127.8532043"></trkpt>
    <trkpt lat="34.7495912" lon="127.8530988"></trkpt>
    <trkpt lat="34.7497175" lon="127.8530036"></trkpt>
    <trkpt lat="34.7498611" lon="127.8529206"></trkpt>
    <trkpt lat="34.7499985" lon="127.8528452"></trkpt>
    <trkpt lat="34.7501432" lon="127.8527683"></trkpt>
    <trkpt lat="34.7502364" lon="127.852713"></trkpt>
    <trkpt lat="34.7502913" lon="127.8526813"></trkpt>
    <trkpt lat="34.7503085" lon="127.8526212"></trkpt>
    <trkpt lat="34.7503765" lon="127.8524469"></trkpt>
    <trkpt lat="34.7504561" lon="127.8523012"></trkpt>
    <trkpt lat="34.7506427" lon="127.8521342"></trkpt>
    <trkpt lat="34.750926723" lon="127.851903828"></trkpt>
    <trkpt lat="34.751136709" lon="127.851689419"></trkpt>
    <trkpt lat="34.751327965" lon="127.851495359"></trkpt>
    <trkpt lat="34.751403323" lon="127.85141916"></trkpt>
    <trkpt lat="34.751448556" lon="127.851332642"></trkpt>
    <trkpt lat="34.751470108" lon="127.851295902"></trkpt>
    <trkpt lat="34.7514577" lon="127.8512345"></trkpt>
    <trkpt lat="34.7513883" lon="127.8510461"></trkpt>
    <trkpt lat="34.7513544" lon="127.8508338"></trkpt>
    <trkpt lat="34.7513756" lon="127.8506994"></trkpt>
    <trkpt lat="34.7514312" lon="127.8505852"></trkpt>
    <trkpt lat="34.7514333" lon="127.8504912"></trkpt>
    <trkpt lat="34.7514122" lon="127.8504094"></trkpt>
    <trkpt lat="34.7513079" lon="127.8503167"></trkpt>
    <trkpt lat="34.7512208" lon="127.8501911"></trkpt>
    <trkpt lat="34.7510849" lon="127.8500056"></trkpt>
    <trkpt lat="34.7509686" lon="127.8499322"></trkpt>
    <trkpt lat="34.750847" lon="127.84982"></trkpt>
    <trkpt lat="34.7506688" lon="127.849819"></trkpt>
    <trkpt lat="34.7505684" lon="127.8497334"></trkpt>
    <trkpt lat="34.7504257" lon="127.8496134"></trkpt>
    <trkpt lat="34.750356" lon="127.8495952"></trkpt>
    <trkpt lat="34.750259" lon="127.8495484"></trkpt>
    <trkpt lat="34.7502377" lon="127.8495046"></trkpt>
    <trkpt lat="34.7502796" lon="127.8492242"></trkpt>
    <trkpt lat="34.750266" lon="127.8488902"></trkpt>
    <trkpt lat="34.7502025" lon="127.84853"></trkpt>
    <trkpt lat="34.7501632" lon="127.8483571"></trkpt>
    <trkpt lat="34.7500915" lon="127.8482149"></trkpt>
    <trkpt lat="34.750002" lon="127.8480696"></trkpt>
    <trkpt lat="34.7499032" lon="127.8479326"></trkpt>
    <trkpt lat="34.7497222" lon="127.84777"></trkpt>
    <trkpt lat="34.7495554" lon="127.8476594"></trkpt>
    <trkpt lat="34.7495368" lon="127.8475726"></trkpt>
    <trkpt lat="34.749388" lon="127.8474463"></trkpt>
    <trkpt lat="34.7492379" lon="127.8473094"></trkpt>
    <trkpt lat="34.7491053" lon="127.8472323"></trkpt>
    <trkpt lat="34.7491695" lon="127.8469573"></trkpt>
    <trkpt lat="34.7491238" lon="127.8467327"></trkpt>
    <trkpt lat="34.7490721" lon="127.8465011"></trkpt>
    <trkpt lat="34.7490684" lon="127.8463"></trkpt>
    <trkpt lat="34.7491748" lon="127.8459473"></trkpt>
    <trkpt lat="34.7492644" lon="127.8456201"></trkpt>
    <trkpt lat="34.7493105" lon="127.8453793"></trkpt>
    <trkpt lat="34.7493155" lon="127.8450785"></trkpt>
    <trkpt lat="34.7492537" lon="127.8447905"></trkpt>
    <trkpt lat="34.7492215" lon="127.8445394"></trkpt>
    <trkpt lat="34.7491909" lon="127.8443258"></trkpt>
    <trkpt lat="34.7493694" lon="127.8444096"></trkpt>
    <trkpt lat="34.7495725" lon="127.8445241"></trkpt>
    <trkpt lat="34.7497104" lon="127.8445895"></trkpt>
    <trkpt lat="34.7498306" lon="127.8446235"></trkpt>
    <trkpt lat="34.7499708" lon="127.8445962"></trkpt>
    <trkpt lat="34.7501601" lon="127.8445351"></trkpt>
    <trkpt lat="34.7503277" lon="127.8444362"></trkpt>
    <trkpt lat="34.7505269" lon="127.8442818"></trkpt>
    <trkpt lat="34.7506697" lon="127.8442732"></trkpt>
    <trkpt lat="34.7507572" lon="127.8441842"></trkpt>
    <trkpt lat="34.750752" lon="127.8440457"></trkpt>
    <trkpt lat="34.7507241" lon="127.8438657"></trkpt>
    <trkpt lat="34.7506966" lon="127.8435721"></trkpt>
    <trkpt lat="34.7506926" lon="127.8434025"></trkpt>
    <trkpt lat="34.750597" lon="127.8432736"></trkpt>
    <trkpt lat="34.7505283" lon="127.8431905"></trkpt>
    <trkpt lat="34.7504472" lon="127.8429651"></trkpt>
    <trkpt lat="34.7503833" lon="127.8428035"></trkpt>
    <trkpt lat="34.7502848" lon="127.8426533"></trkpt>
    <trkpt lat="34.7502072" lon="127.8425274"></trkpt>
    <trkpt lat="34.7501602" lon="127.8424032"></trkpt>
    <trkpt lat="34.750093" lon="127.8422372"></trkpt>
    <trkpt lat="34.750188" lon="127.8422034"></trkpt>
    <trkpt lat="34.7501605" lon="127.8420887"></trkpt>
    <trkpt lat="34.7500999" lon="127.8419863"></trkpt>
    <trkpt lat="34.7500976" lon="127.8418767"></trkpt>
    <trkpt lat="34.7502003" lon="127.8417991"></trkpt>
    <trkpt lat="34.7503093" lon="127.8416464"></trkpt>
    <trkpt lat="34.7504525" lon="127.8415552"></trkpt>
    <trkpt lat="34.7506056" lon="127.8415249"></trkpt>
    <trkpt lat="34.7506641" lon="127.8414714"></trkpt>
    <trkpt lat="34.7506985" lon="127.8413726"></trkpt>
    <trkpt lat="34.750644" lon="127.8412414"></trkpt>
    <trkpt lat="34.7505511" lon="127.8412342"></trkpt>
    <trkpt lat="34.7504433" lon="127.8412257"></trkpt>
    <trkpt lat="34.7503941" lon="127.8410853"></trkpt>
    <trkpt lat="34.7502732" lon="127.8408921"></trkpt>
    <trkpt lat="34.75018" lon="127.8407539"></trkpt>
    <trkpt lat="34.7500937" lon="127.8406297"></trkpt>
    <trkpt lat="34.7500142" lon="127.8404661"></trkpt>
    <trkpt lat="34.7499568" lon="127.8403118"></trkpt>
    <trkpt lat="34.7499044" lon="127.8401177"></trkpt>
    <trkpt lat="34.7498665" lon="127.8399196"></trkpt>
    <trkpt lat="34.7498672" lon="127.8398435"></trkpt>
    <trkpt lat="34.74997" lon="127.8399716"></trkpt>
    <trkpt lat="34.7500507" lon="127.8401251"></trkpt>
    <trkpt lat="34.750177" lon="127.8402474"></trkpt>
    <trkpt lat="34.7502813" lon="127.840324"></trkpt>
    <trkpt lat="34.750326928" lon="127.840360341"></trkpt>
    <trkpt lat="34.750329222" lon="127.840303639"></trkpt>
    <trkpt lat="34.750310535" lon="127.840210235"></trkpt>
    <trkpt lat="34.750289562" lon="127.840179212"></trkpt>
    <trkpt lat="34.750289534" lon="127.840133873"></trkpt>
    <trkpt lat="34.750303478" lon="127.840094093"></trkpt>
    <trkpt lat="34.750319767" lon="127.840076961"></trkpt>
    <trkpt lat="34.7503343" lon="127.8400693"></trkpt>
    <trkpt lat="34.7503676" lon="127.8400482"></trkpt>
    <trkpt lat="34.7504654" lon="127.840094"></trkpt>
    <trkpt lat="34.750510981" lon="127.840098152"></trkpt>
    <trkpt lat="34.750549194" lon="127.840075173"></trkpt>
    <trkpt lat="34.750706724" lon="127.840042909"></trkpt>
    <trkpt lat="34.750866118" lon="127.840066824"></trkpt>
    <trkpt lat="34.751107454" lon="127.840175685"></trkpt>
    <trkpt lat="34.751456604" lon="127.840399202"></trkpt>
    <trkpt lat="34.75173834" lon="127.840605246"></trkpt>
    <trkpt lat="34.751930424" lon="127.840775176"></trkpt>
    <trkpt lat="34.75204526" lon="127.84088188"></trkpt>
    <trkpt lat="34.752211527" lon="127.841017596"></trkpt>
    <trkpt lat="34.752307463" lon="127.841128381"></trkpt>
    <trkpt lat="34.752475701" lon="127.841309067"></trkpt>
    <trkpt lat="34.752691492" lon="127.841474348"></trkpt>
    <trkpt lat="34.752811599" lon="127.841626896"></trkpt>
    <trkpt lat="34.753083883" lon="127.841850043"></trkpt>
    <trkpt lat="34.753312415" lon="127.841956319"></trkpt>
    <trkpt lat="34.753537092" lon="127.842059673"></trkpt>
    <trkpt lat="34.753664973" lon="127.842148502"></trkpt>
    <trkpt lat="34.75375648" lon="127.842230048"></trkpt>
    <trkpt lat="34.753785026" lon="127.842341227"></trkpt>
    <trkpt lat="34.75380543" lon="127.842430198"></trkpt>
    <trkpt lat="34.753825848" lon="127.84253402"></trkpt>
    <trkpt lat="34.753848289" lon="127.842603289"></trkpt>
    <trkpt lat="34.753886774" lon="127.842655156"></trkpt>
    <trkpt lat="34.753894854" lon="127.842657624"></trkpt>
    <trkpt lat="34.754028348" lon="127.84275873"></trkpt>
    <trkpt lat="34.754107345" lon="127.84279583"></trkpt>
    <trkpt lat="34.754174269" lon="127.842837879"></trkpt>
    <trkpt lat="34.754411931" lon="127.842932548"></trkpt>
    <trkpt lat="34.75457361" lon="127.843009372"></trkpt>
    <trkpt lat="34.75459256" lon="127.843031668"></trkpt>
    <trkpt lat="34.754717847" lon="127.843090847"></trkpt>
    <trkpt lat="34.754812474" lon="127.843148795"></trkpt>
    <trkpt lat="34.754909845" lon="127.843237763"></trkpt>
    <trkpt lat="34.754996651" lon="127.843367892"></trkpt>
    <trkpt lat="34.755024986" lon="127.843490862"></trkpt>
    <trkpt lat="34.755059353" lon="127.843544975"></trkpt>
    <trkpt lat="34.755140214" lon="127.843549861"></trkpt>
    <trkpt lat="34.755198859" lon="127.843480852"></trkpt>
    <trkpt lat="34.755270272" lon="127.843288177"></trkpt>
    <trkpt lat="34.755435866" lon="127.842986987"></trkpt>
    <trkpt lat="34.755559779" lon="127.842736877"></trkpt>
    <trkpt lat="34.755701013" lon="127.8424148"></trkpt>
    <trkpt lat="34.755914704" lon="127.842003105"></trkpt>
    <trkpt lat="34.755965643" lon="127.841835008"></trkpt>
    <trkpt lat="34.756053388" lon="127.84160738"></trkpt>
    <trkpt lat="34.75608802" lon="127.841367135"></trkpt>
    <trkpt lat="34.756059277" lon="127.841148085"></trkpt>
    <trkpt lat="34.755936618" lon="127.840993851"></trkpt>
    <trkpt lat="34.755813876" lon="127.840913257"></trkpt>
    <trkpt lat="34.75580947" lon="127.840913527"></trkpt>
    <trkpt lat="34.755730777" lon="127.840747984"></trkpt>
    <trkpt lat="34.75571818" lon="127.840529672"></trkpt>
    <trkpt lat="34.755670335" lon="127.840437087"></trkpt>
    <trkpt lat="34.755660883" lon="127.84032876"></trkpt>
    <trkpt lat="34.755671175" lon="127.840168858"></trkpt>
    <trkpt lat="34.75578752" lon="127.839894832"></trkpt>
    <trkpt lat="34.755890749" lon="127.839536682"></trkpt>
    <trkpt lat="34.755992698" lon="127.83931635"></trkpt>
    <trkpt lat="34.756055986" lon="127.839180018"></trkpt>
    <trkpt lat="34.756141812" lon="127.838969121"></trkpt>
    <trkpt lat="34.756200828" lon="127.838787714"></trkpt>
    <trkpt lat="34.756247311" lon="127.838536511"></trkpt>
    <trkpt lat="34.756269467" lon="127.838280107"></trkpt>
    <trkpt lat="34.756285567" lon="127.838065543"></trkpt>
    <trkpt lat="34.756293588" lon="127.837910133"></trkpt>
    <trkpt lat="34.756317924" lon="127.83786327"></trkpt>
    <trkpt lat="34.756358555" lon="127.837868224"></trkpt>
    <trkpt lat="34.7564412" lon="127.8379222"></trkpt>
    <trkpt lat="34.7565127" lon="127.8379978"></trkpt>
    <trkpt lat="34.7565809" lon="127.8380765"></trkpt>
    <trkpt lat="34.7566489" lon="127.8381759"></trkpt>
    <trkpt lat="34.756718" lon="127.8382968"></trkpt>
    <trkpt lat="34.7567705" lon="127.8384088"></trkpt>
    <trkpt lat="34.7568352" lon="127.8385295"></trkpt>
    <trkpt lat="34.7568962" lon="127.8386628"></trkpt>
    <trkpt lat="34.7569355" lon="127.8387886"></trkpt>
    <trkpt lat="34.7569518" lon="127.8389038"></trkpt>
    <trkpt lat="34.7569485" lon="127.8389977"></trkpt>
    <trkpt lat="34.756943" lon="127.8391681"></trkpt>
    <trkpt lat="34.7569485" lon="127.83934"></trkpt>
    <trkpt lat="34.7569671" lon="127.8395137"></trkpt>
    <trkpt lat="34.7569756" lon="127.8397321"></trkpt>
    <trkpt lat="34.7569692" lon="127.839861"></trkpt>
    <trkpt lat="34.7569614" lon="127.8399474"></trkpt>
    <trkpt lat="34.7569448" lon="127.8401377"></trkpt>
    <trkpt lat="34.7569396" lon="127.840333"></trkpt>
    <trkpt lat="34.7569334" lon="127.8404985"></trkpt>
    <trkpt lat="34.756908992" lon="127.840687332"></trkpt>
    <trkpt lat="34.756928412" lon="127.840797148"></trkpt>
    <trkpt lat="34.75697689" lon="127.840905056"></trkpt>
    <trkpt lat="34.7570392" lon="127.8410173"></trkpt>
    <trkpt lat="34.7570805" lon="127.8411636"></trkpt>
    <trkpt lat="34.757075702" lon="127.841290109"></trkpt>
    <trkpt lat="34.757059609" lon="127.84142163"></trkpt>
    <trkpt lat="34.757064569" lon="127.841600389"></trkpt>
    <trkpt lat="34.757066284" lon="127.841761459"></trkpt>
    <trkpt lat="34.757056662" lon="127.841894923"></trkpt>
    <trkpt lat="34.75705188" lon="127.842008779"></trkpt>
    <trkpt lat="34.757069699" lon="127.842060045"></trkpt>
    <trkpt lat="34.757097213" lon="127.842080009"></trkpt>
    <trkpt lat="34.757108513" lon="127.842032984"></trkpt>
    <trkpt lat="34.757144088" lon="127.841956728"></trkpt>
    <trkpt lat="34.757166714" lon="127.841868496"></trkpt>
    <trkpt lat="34.75720391" lon="127.841727254"></trkpt>
    <trkpt lat="34.7572388" lon="127.8415601"></trkpt>
    <trkpt lat="34.7572695" lon="127.8414755"></trkpt>
    <trkpt lat="34.7573064" lon="127.841399"></trkpt>
    <trkpt lat="34.7573553" lon="127.841339"></trkpt>
    <trkpt lat="34.7574002" lon="127.8413066"></trkpt>
    <trkpt lat="34.7574174" lon="127.8413488"></trkpt>
    <trkpt lat="34.7574127" lon="127.8414071"></trkpt>
    <trkpt lat="34.757395" lon="127.8414612"></trkpt>
    <trkpt lat="34.7573739" lon="127.8415516"></trkpt>
    <trkpt lat="34.7573839" lon="127.841728"></trkpt>
    <trkpt lat="34.7573952" lon="127.8418323"></trkpt>
    <trkpt lat="34.7574294" lon="127.8419531"></trkpt>
    <trkpt lat="34.7574838" lon="127.842032"></trkpt>
    <trkpt lat="34.7575446" lon="127.8421086"></trkpt>
    <trkpt lat="34.7576098" lon="127.8421491"></trkpt>
    <trkpt lat="34.7577549" lon="127.84222"></trkpt>
    <trkpt lat="34.7578922" lon="127.8422727"></trkpt>
    <trkpt lat="34.7580073" lon="127.8423247"></trkpt>
    <trkpt lat="34.7580903" lon="127.8423666"></trkpt>
    <trkpt lat="34.7580944" lon="127.8425121"></trkpt>
    <trkpt lat="34.7580876" lon="127.8426288"></trkpt>
    <trkpt lat="34.7580543" lon="127.8428054"></trkpt>
    <trkpt lat="34.7580086" lon="127.8430296"></trkpt>
    <trkpt lat="34.7579572" lon="127.8431707"></trkpt>
    <trkpt lat="34.7579408" lon="127.8432636"></trkpt>
    <trkpt lat="34.7579353" lon="127.8433758"></trkpt>
    <trkpt lat="34.7579358" lon="127.8434798"></trkpt>
    <trkpt lat="34.757913" lon="127.8435535"></trkpt>
    <trkpt lat="34.7578841" lon="127.843577"></trkpt>
    <trkpt lat="34.7578323" lon="127.8437467"></trkpt>
    <trkpt lat="34.757833" lon="127.8438146"></trkpt>
    <trkpt lat="34.7578297" lon="127.8439251"></trkpt>
    <trkpt lat="34.7578265" lon="127.8440326"></trkpt>
    <trkpt lat="34.7578295" lon="127.8441092"></trkpt>
    <trkpt lat="34.7578301" lon="127.8441883"></trkpt>
    <trkpt lat="34.7578395" lon="127.8442142"></trkpt>
    <trkpt lat="34.7578603" lon="127.8440488"></trkpt>
    <trkpt lat="34.7578858" lon="127.8439134"></trkpt>
    <trkpt lat="34.7579211" lon="127.8437335"></trkpt>
    <trkpt lat="34.7580057" lon="127.8434872"></trkpt>
    <trkpt lat="34.7580869" lon="127.843301"></trkpt>
    <trkpt lat="34.7581522" lon="127.8431038"></trkpt>
    <trkpt lat="34.7582704" lon="127.8429171"></trkpt>
    <trkpt lat="34.7583668" lon="127.8427185"></trkpt>
    <trkpt lat="34.758461" lon="127.8425892"></trkpt>
    <trkpt lat="34.7585662" lon="127.8424538"></trkpt>
    <trkpt lat="34.7586515" lon="127.8423776"></trkpt>
    <trkpt lat="34.758755" lon="127.842269"></trkpt>
    <trkpt lat="34.7588447" lon="127.8421893"></trkpt>
    <trkpt lat="34.7589656" lon="127.8420628"></trkpt>
    <trkpt lat="34.7591414" lon="127.8419104"></trkpt>
    <trkpt lat="34.7592709" lon="127.8417944"></trkpt>
    <trkpt lat="34.7593106" lon="127.8416855"></trkpt>
    <trkpt lat="34.7593344" lon="127.8415592"></trkpt>
    <trkpt lat="34.7593939" lon="127.8415027"></trkpt>
    <trkpt lat="34.7595111" lon="127.8414906"></trkpt>
    <trkpt lat="34.7596794" lon="127.8414773"></trkpt>
    <trkpt lat="34.7597576" lon="127.8414768"></trkpt>
    <trkpt lat="34.7598153" lon="127.841498"></trkpt>
    <trkpt lat="34.7598969" lon="127.8414896"></trkpt>
    <trkpt lat="34.7599249" lon="127.8414556"></trkpt>
    <trkpt lat="34.759941" lon="127.84139"></trkpt>
    <trkpt lat="34.7599696" lon="127.8412519"></trkpt>
    <trkpt lat="34.7600047" lon="127.841128"></trkpt>
    <trkpt lat="34.7601285" lon="127.841013"></trkpt>
    <trkpt lat="34.7603218" lon="127.8413405"></trkpt>
    <trkpt lat="34.7604531" lon="127.8415851"></trkpt>
    <trkpt lat="34.7605779" lon="127.8417739"></trkpt>
    <trkpt lat="34.7607108" lon="127.8419743"></trkpt>
    <trkpt lat="34.760882" lon="127.842211"></trkpt>
    <trkpt lat="34.7610625" lon="127.8424566"></trkpt>
    <trkpt lat="34.7612123" lon="127.8426234"></trkpt>
    <trkpt lat="34.7614178" lon="127.8428121"></trkpt>
    <trkpt lat="34.7616141" lon="127.8430137"></trkpt>
    <trkpt lat="34.761914" lon="127.8432594"></trkpt>
    <trkpt lat="34.7621053" lon="127.8434462"></trkpt>
    <trkpt lat="34.7623253" lon="127.8436224"></trkpt>
    <trkpt lat="34.7625121" lon="127.8437987"></trkpt>
    <trkpt lat="34.7625909" lon="127.8438333"></trkpt>
    <trkpt lat="34.7626469" lon="127.8438493"></trkpt>
    <trkpt lat="34.7626917" lon="127.8438669"></trkpt>
    <trkpt lat="34.7628841" lon="127.843856"></trkpt>
    <trkpt lat="34.7630036" lon="127.8438228"></trkpt>
    <trkpt lat="34.763085" lon="127.8437954"></trkpt>
    <trkpt lat="34.7631558" lon="127.8437376"></trkpt>
    <trkpt lat="34.7632361" lon="127.843715"></trkpt>
    <trkpt lat="34.7633487" lon="127.8437318"></trkpt>
    <trkpt lat="34.7634953" lon="127.8438009"></trkpt>
    <trkpt lat="34.7636069" lon="127.8438313"></trkpt>
    <trkpt lat="34.7636902" lon="127.8438765"></trkpt>
    <trkpt lat="34.7637639" lon="127.8438837"></trkpt>
    <trkpt lat="34.7638435" lon="127.8438662"></trkpt>
    <trkpt lat="34.7640128" lon="127.8437735"></trkpt>
    <trkpt lat="34.7641677" lon="127.8436644"></trkpt>
    <trkpt lat="34.764231" lon="127.8436071"></trkpt>
    <trkpt lat="34.7642904" lon="127.8435366"></trkpt>
    <trkpt lat="34.7643454" lon="127.8435073"></trkpt>
    <trkpt lat="34.7644037" lon="127.8435162"></trkpt>
    <trkpt lat="34.7644748" lon="127.8435266"></trkpt>
    <trkpt lat="34.764549" lon="127.8434988"></trkpt>
    <trkpt lat="34.7646333" lon="127.843453"></trkpt>
    <trkpt lat="34.7647306" lon="127.8433948"></trkpt>
    <trkpt lat="34.7647762" lon="127.8433649"></trkpt>
    <trkpt lat="34.7648103" lon="127.8432698"></trkpt>
    <trkpt lat="34.7648389" lon="127.8431572"></trkpt>
    <trkpt lat="34.7648392" lon="127.8430816"></trkpt>
    <trkpt lat="34.7648592" lon="127.8429968"></trkpt>
    <trkpt lat="34.764869" lon="127.8428995"></trkpt>
    <trkpt lat="34.7648538" lon="127.8428461"></trkpt>
    <trkpt lat="34.7648295" lon="127.8427636"></trkpt>
    <trkpt lat="34.7647973" lon="127.8426458"></trkpt>
    <trkpt lat="34.7647665" lon="127.8425853"></trkpt>
    <trkpt lat="34.7647588" lon="127.8425313"></trkpt>
    <trkpt lat="34.7647827" lon="127.8424982"></trkpt>
    <trkpt lat="34.7648104" lon="127.8424912"></trkpt>
    <trkpt lat="34.7648709" lon="127.842502"></trkpt>
    <trkpt lat="34.7648984" lon="127.8425789"></trkpt>
    <trkpt lat="34.7649231" lon="127.8426943"></trkpt>
    <trkpt lat="34.7649292" lon="127.842796"></trkpt>
    <trkpt lat="34.7649568" lon="127.8428831"></trkpt>
    <trkpt lat="34.7649637" lon="127.8430084"></trkpt>
    <trkpt lat="34.7649761" lon="127.8430945"></trkpt>
    <trkpt lat="34.7650126" lon="127.8432325"></trkpt>
    <trkpt lat="34.7650454" lon="127.843322"></trkpt>
    <trkpt lat="34.7651476" lon="127.8434603"></trkpt>
    <trkpt lat="34.7652041" lon="127.8435246"></trkpt>
    <trkpt lat="34.7652547" lon="127.843585"></trkpt>
    <trkpt lat="34.7653338" lon="127.8436424"></trkpt>
    <trkpt lat="34.7654013" lon="127.8436501"></trkpt>
    <trkpt lat="34.7654466" lon="127.843644"></trkpt>
    <trkpt lat="34.7655416" lon="127.8435961"></trkpt>
    <trkpt lat="34.7656201" lon="127.8435402"></trkpt>
    <trkpt lat="34.7657165" lon="127.8434598"></trkpt>
    <trkpt lat="34.7657902" lon="127.8433523"></trkpt>
    <trkpt lat="34.7658657" lon="127.8432657"></trkpt>
    <trkpt lat="34.7660175" lon="127.8431973"></trkpt>
    <trkpt lat="34.7660798" lon="127.8431648"></trkpt>
    <trkpt lat="34.7662418" lon="127.8431339"></trkpt>
    <trkpt lat="34.7663464" lon="127.8430641"></trkpt>
    <trkpt lat="34.766404" lon="127.8429763"></trkpt>
    <trkpt lat="34.7664523" lon="127.8428519"></trkpt>
    <trkpt lat="34.7665115" lon="127.8427662"></trkpt>
    <trkpt lat="34.7666256" lon="127.8426719"></trkpt>
    <trkpt lat="34.7667494" lon="127.842578"></trkpt>
    <trkpt lat="34.7667925" lon="127.8425428"></trkpt>
    <trkpt lat="34.7669554" lon="127.8425147"></trkpt>
    <trkpt lat="34.7670527" lon="127.8425245"></trkpt>
    <trkpt lat="34.7670993" lon="127.8425429"></trkpt>
    <trkpt lat="34.7671265" lon="127.8425829"></trkpt>
    <trkpt lat="34.7670828" lon="127.8427272"></trkpt>
    <trkpt lat="34.7670523" lon="127.8428437"></trkpt>
    <trkpt lat="34.7669896" lon="127.8429651"></trkpt>
    <trkpt lat="34.7669483" lon="127.8430491"></trkpt>
    <trkpt lat="34.7669134" lon="127.8431683"></trkpt>
    <trkpt lat="34.7669048" lon="127.843278"></trkpt>
    <trkpt lat="34.7669042" lon="127.8433702"></trkpt>
    <trkpt lat="34.7668741" lon="127.8435049"></trkpt>
    <trkpt lat="34.7668521" lon="127.8436291"></trkpt>
    <trkpt lat="34.7668362" lon="127.8437026"></trkpt>
    <trkpt lat="34.7668393" lon="127.8437968"></trkpt>
    <trkpt lat="34.7668813" lon="127.8439066"></trkpt>
    <trkpt lat="34.766928" lon="127.8440578"></trkpt>
    <trkpt lat="34.7669568" lon="127.8441512"></trkpt>
    <trkpt lat="34.7669838" lon="127.8442825"></trkpt>
    <trkpt lat="34.7670586" lon="127.8444229"></trkpt>
    <trkpt lat="34.7670933" lon="127.8445053"></trkpt>
    <trkpt lat="34.7671459" lon="127.8446407"></trkpt>
    <trkpt lat="34.767185" lon="127.8447317"></trkpt>
    <trkpt lat="34.7672284" lon="127.8448138"></trkpt>
    <trkpt lat="34.7672982" lon="127.8449303"></trkpt>
    <trkpt lat="34.767331" lon="127.8450135"></trkpt>
    <trkpt lat="34.7673546" lon="127.8451071"></trkpt>
    <trkpt lat="34.7673996" lon="127.8452295"></trkpt>
    <trkpt lat="34.7674389" lon="127.845326"></trkpt>
    <trkpt lat="34.7674862" lon="127.8454276"></trkpt>
    <trkpt lat="34.7675336" lon="127.8454934"></trkpt>
    <trkpt lat="34.7675834" lon="127.8455575"></trkpt>
    <trkpt lat="34.7676175" lon="127.8456361"></trkpt>
    <trkpt lat="34.7676556" lon="127.845745"></trkpt>
    <trkpt lat="34.7676778" lon="127.8458503"></trkpt>
    <trkpt lat="34.7676993" lon="127.8459436"></trkpt>
    <trkpt lat="34.7677163" lon="127.8460332"></trkpt>
    <trkpt lat="34.7677333" lon="127.8461388"></trkpt>
    <trkpt lat="34.7677587" lon="127.8462309"></trkpt>
    <trkpt lat="34.7677595" lon="127.8463722"></trkpt>
    <trkpt lat="34.767749" lon="127.8464055"></trkpt>
    <trkpt lat="34.7677089" lon="127.8464989"></trkpt>
    <trkpt lat="34.7676904" lon="127.8465695"></trkpt>
    <trkpt lat="34.767649" lon="127.8466604"></trkpt>
    <trkpt lat="34.7676098" lon="127.8467439"></trkpt>
    <trkpt lat="34.7675658" lon="127.8467713"></trkpt>
    <trkpt lat="34.7675304" lon="127.8468039"></trkpt>
    <trkpt lat="34.7674704" lon="127.8468712"></trkpt>
    <trkpt lat="34.7674287" lon="127.8469594"></trkpt>
    <trkpt lat="34.7673833" lon="127.8470271"></trkpt>
    <trkpt lat="34.7673404" lon="127.8470872"></trkpt>
    <trkpt lat="34.7672926" lon="127.8471909"></trkpt>
    <trkpt lat="34.7672534" lon="127.8472589"></trkpt>
    <trkpt lat="34.7672452" lon="127.8473194"></trkpt>
    <trkpt lat="34.7672557" lon="127.8473975"></trkpt>
    <trkpt lat="34.7672643" lon="127.8474988"></trkpt>
    <trkpt lat="34.7672666" lon="127.8475829"></trkpt>
    <trkpt lat="34.7672837" lon="127.8476343"></trkpt>
    <trkpt lat="34.7673136" lon="127.8477045"></trkpt>
  </trkseg>
</trk>
</gpx>
