<?xml version="1.0" encoding="UTF-8"?>
<gpx version="1.1" creator="GPS Track Editor" xmlns="http://www.topografix.com/GPX/1/1" xmlns:xsi="http://www.w3.org/2001/XMLSchema-instance" xmlns:gte="http://www.gpstrackeditor.com/xmlschemas/General/1" xmlns:gpxtpx="http://www.garmin.com/xmlschemas/TrackPointExtension/v1" xmlns:gpxx="http://www.garmin.com/xmlschemas/GpxExtensions/v3" targetNamespace="http://www.topografix.com/GPX/1/1" elementFormDefault="qualified" xsi:schemaLocation="http://www.topografix.com/GPX/1/1 http://www.topografix.com/GPX/1/1/gpx.xsd">
<metadata>
	<name>GPS_2020-01-20_014240</name>
</metadata>
<trk>
	<name>076-고흥군 대서면 안남리 신기수문동버스정류장~보성군 득량면 비봉리 득량만바다낚시공원 입구</name>
	<trkseg>
		<trkpt lat="34.733376" lon="127.264878">
			<ele>0.00</ele>
			<time>2020-01-20T01:42:40.61Z</time>
		</trkpt>
		<trkpt lat="34.733376" lon="127.264878">
			<ele>0.00</ele>
			<time>2020-01-20T01:42:40.67Z</time>
		</trkpt>
		<trkpt lat="34.733349" lon="127.264867">
			<ele>0.00</ele>
			<time>2020-01-20T01:42:40.86Z</time>
		</trkpt>
		<trkpt lat="34.733326" lon="127.264939">
			<ele>0.00</ele>
			<time>2020-01-20T01:42:41.28Z</time>
		</trkpt>
		<trkpt lat="34.733292" lon="127.265027">
			<ele>0.00</ele>
			<time>2020-01-20T01:42:41.81Z</time>
		</trkpt>
		<trkpt lat="34.733267" lon="127.265074">
			<ele>0.00</ele>
			<time>2020-01-20T01:42:42.12Z</time>
		</trkpt>
		<trkpt lat="34.733224" lon="127.265052">
			<ele>0.00</ele>
			<time>2020-01-20T01:42:42.43Z</time>
		</trkpt>
		<trkpt lat="34.733158" lon="127.265016">
			<ele>0.00</ele>
			<time>2020-01-20T01:42:42.91Z</time>
		</trkpt>
		<trkpt lat="34.732977" lon="127.264870">
			<ele>0.00</ele>
			<time>2020-01-20T01:42:44.37Z</time>
		</trkpt>
		<trkpt lat="34.732834" lon="127.264781">
			<ele>0.00</ele>
			<time>2020-01-20T01:42:45.44Z</time>
		</trkpt>
		<trkpt lat="34.732802" lon="127.264704">
			<ele>0.00</ele>
			<time>2020-01-20T01:42:45.91Z</time>
		</trkpt>
		<trkpt lat="34.732777" lon="127.264621">
			<ele>0.00</ele>
			<time>2020-01-20T01:42:46.39Z</time>
		</trkpt>
		<trkpt lat="34.732754" lon="127.264559">
			<ele>0.00</ele>
			<time>2020-01-20T01:42:46.77Z</time>
		</trkpt>
		<trkpt lat="34.732749" lon="127.264510">
			<ele>0.00</ele>
			<time>2020-01-20T01:42:47.03Z</time>
		</trkpt>
		<trkpt lat="34.732584" lon="127.264439">
			<ele>0.00</ele>
			<time>2020-01-20T01:42:48.21Z</time>
		</trkpt>
		<trkpt lat="34.732409" lon="127.264342">
			<ele>0.00</ele>
			<time>2020-01-20T01:42:49.49Z</time>
		</trkpt>
		<trkpt lat="34.732232" lon="127.264248">
			<ele>0.00</ele>
			<time>2020-01-20T01:42:50.78Z</time>
		</trkpt>
		<trkpt lat="34.732096" lon="127.264182">
			<ele>0.00</ele>
			<time>2020-01-20T01:42:51.75Z</time>
		</trkpt>
		<trkpt lat="34.732030" lon="127.264157">
			<ele>0.00</ele>
			<time>2020-01-20T01:42:52.21Z</time>
		</trkpt>
		<trkpt lat="34.731946" lon="127.264140">
			<ele>0.00</ele>
			<time>2020-01-20T01:42:52.78Z</time>
		</trkpt>
		<trkpt lat="34.731889" lon="127.264140">
			<ele>0.00</ele>
			<time>2020-01-20T01:42:53.16Z</time>
		</trkpt>
		<trkpt lat="34.731825" lon="127.264143">
			<ele>0.00</ele>
			<time>2020-01-20T01:42:53.58Z</time>
		</trkpt>
		<trkpt lat="34.731787" lon="127.264143">
			<ele>0.00</ele>
			<time>2020-01-20T01:42:53.84Z</time>
		</trkpt>
		<trkpt lat="34.731803" lon="127.264035">
			<ele>0.00</ele>
			<time>2020-01-20T01:42:54.44Z</time>
		</trkpt>
		<trkpt lat="34.731825" lon="127.263941">
			<ele>0.00</ele>
			<time>2020-01-20T01:42:54.98Z</time>
		</trkpt>
		<trkpt lat="34.731859" lon="127.263894">
			<ele>0.00</ele>
			<time>2020-01-20T01:42:55.32Z</time>
		</trkpt>
		<trkpt lat="34.731882" lon="127.263867">
			<ele>0.00</ele>
			<time>2020-01-20T01:42:55.53Z</time>
		</trkpt>
		<trkpt lat="34.731934" lon="127.263786">
			<ele>0.00</ele>
			<time>2020-01-20T01:42:56.09Z</time>
		</trkpt>
		<trkpt lat="34.732009" lon="127.263709">
			<ele>0.00</ele>
			<time>2020-01-20T01:42:56.75Z</time>
		</trkpt>
		<trkpt lat="34.732084" lon="127.263615">
			<ele>0.00</ele>
			<time>2020-01-20T01:42:57.47Z</time>
		</trkpt>
		<trkpt lat="34.732166" lon="127.263541">
			<ele>0.00</ele>
			<time>2020-01-20T01:42:58.15Z</time>
		</trkpt>
		<trkpt lat="34.732145" lon="127.263545">
			<ele>0.00</ele>
			<time>2020-01-20T01:42:58.29Z</time>
		</trkpt>
		<trkpt lat="34.732180" lon="127.263476">
			<ele>0.00</ele>
			<time>2020-01-20T01:42:58.73Z</time>
		</trkpt>
		<trkpt lat="34.732230" lon="127.263394">
			<ele>0.00</ele>
			<time>2020-01-20T01:42:59.29Z</time>
		</trkpt>
		<trkpt lat="34.732254" lon="127.263300">
			<ele>0.00</ele>
			<time>2020-01-20T01:42:59.83Z</time>
		</trkpt>
		<trkpt lat="34.732261" lon="127.263217">
			<ele>0.00</ele>
			<time>2020-01-20T01:43:00.29Z</time>
		</trkpt>
		<trkpt lat="34.732245" lon="127.263123">
			<ele>0.00</ele>
			<time>2020-01-20T01:43:00.81Z</time>
		</trkpt>
		<trkpt lat="34.732220" lon="127.262990">
			<ele>0.00</ele>
			<time>2020-01-20T01:43:01.56Z</time>
		</trkpt>
		<trkpt lat="34.732218" lon="127.262863">
			<ele>0.00</ele>
			<time>2020-01-20T01:43:02.26Z</time>
		</trkpt>
		<trkpt lat="34.732211" lon="127.262744">
			<ele>0.00</ele>
			<time>2020-01-20T01:43:02.91Z</time>
		</trkpt>
		<trkpt lat="34.732211" lon="127.262694">
			<ele>0.00</ele>
			<time>2020-01-20T01:43:03.18Z</time>
		</trkpt>
		<trkpt lat="34.732154" lon="127.262639">
			<ele>0.00</ele>
			<time>2020-01-20T01:43:03.67Z</time>
		</trkpt>
		<trkpt lat="34.732111" lon="127.262565">
			<ele>0.00</ele>
			<time>2020-01-20T01:43:04.17Z</time>
		</trkpt>
		<trkpt lat="34.732075" lon="127.262498">
			<ele>0.00</ele>
			<time>2020-01-20T01:43:04.60Z</time>
		</trkpt>
		<trkpt lat="34.732054" lon="127.262449">
			<ele>0.00</ele>
			<time>2020-01-20T01:43:04.91Z</time>
		</trkpt>
		<trkpt lat="34.731977" lon="127.262396">
			<ele>0.00</ele>
			<time>2020-01-20T01:43:05.50Z</time>
		</trkpt>
		<trkpt lat="34.731971" lon="127.262338">
			<ele>0.00</ele>
			<time>2020-01-20T01:43:05.82Z</time>
		</trkpt>
		<trkpt lat="34.731961" lon="127.262214">
			<ele>0.00</ele>
			<time>2020-01-20T01:43:06.50Z</time>
		</trkpt>
		<trkpt lat="34.731957" lon="127.262098">
			<ele>0.00</ele>
			<time>2020-01-20T01:43:07.14Z</time>
		</trkpt>
		<trkpt lat="34.731957" lon="127.262026">
			<ele>0.00</ele>
			<time>2020-01-20T01:43:07.53Z</time>
		</trkpt>
		<trkpt lat="34.731977" lon="127.261984">
			<ele>0.00</ele>
			<time>2020-01-20T01:43:07.80Z</time>
		</trkpt>
		<trkpt lat="34.732023" lon="127.261965">
			<ele>0.00</ele>
			<time>2020-01-20T01:43:08.12Z</time>
		</trkpt>
		<trkpt lat="34.732077" lon="127.261943">
			<ele>0.00</ele>
			<time>2020-01-20T01:43:08.50Z</time>
		</trkpt>
		<trkpt lat="34.732102" lon="127.261912">
			<ele>0.00</ele>
			<time>2020-01-20T01:43:08.74Z</time>
		</trkpt>
		<trkpt lat="34.732163" lon="127.261664">
			<ele>0.00</ele>
			<time>2020-01-20T01:43:10.16Z</time>
		</trkpt>
		<trkpt lat="34.732252" lon="127.261393">
			<ele>0.00</ele>
			<time>2020-01-20T01:43:11.76Z</time>
		</trkpt>
		<trkpt lat="34.732352" lon="127.261136">
			<ele>0.00</ele>
			<time>2020-01-20T01:43:13.31Z</time>
		</trkpt>
		<trkpt lat="34.732459" lon="127.260943">
			<ele>0.00</ele>
			<time>2020-01-20T01:43:14.59Z</time>
		</trkpt>
		<trkpt lat="34.732597" lon="127.260763">
			<ele>0.00</ele>
			<time>2020-01-20T01:43:15.94Z</time>
		</trkpt>
		<trkpt lat="34.732656" lon="127.260807">
			<ele>0.00</ele>
			<time>2020-01-20T01:43:16.40Z</time>
		</trkpt>
		<trkpt lat="34.732740" lon="127.260851">
			<ele>0.00</ele>
			<time>2020-01-20T01:43:17.01Z</time>
		</trkpt>
		<trkpt lat="34.732858" lon="127.260923">
			<ele>0.00</ele>
			<time>2020-01-20T01:43:17.89Z</time>
		</trkpt>
		<trkpt lat="34.732947" lon="127.261020">
			<ele>0.00</ele>
			<time>2020-01-20T01:43:18.68Z</time>
		</trkpt>
		<trkpt lat="34.732992" lon="127.261097">
			<ele>0.00</ele>
			<time>2020-01-20T01:43:19.21Z</time>
		</trkpt>
		<trkpt lat="34.733033" lon="127.261205">
			<ele>0.00</ele>
			<time>2020-01-20T01:43:19.86Z</time>
		</trkpt>
		<trkpt lat="34.733131" lon="127.261257">
			<ele>0.00</ele>
			<time>2020-01-20T01:43:20.57Z</time>
		</trkpt>
		<trkpt lat="34.733197" lon="127.261269">
			<ele>0.00</ele>
			<time>2020-01-20T01:43:21.01Z</time>
		</trkpt>
		<trkpt lat="34.733265" lon="127.261382">
			<ele>0.00</ele>
			<time>2020-01-20T01:43:21.78Z</time>
		</trkpt>
		<trkpt lat="34.733317" lon="127.261481">
			<ele>0.00</ele>
			<time>2020-01-20T01:43:22.43Z</time>
		</trkpt>
		<trkpt lat="34.733421" lon="127.261636">
			<ele>0.00</ele>
			<time>2020-01-20T01:43:23.52Z</time>
		</trkpt>
		<trkpt lat="34.733485" lon="127.261716">
			<ele>0.00</ele>
			<time>2020-01-20T01:43:24.13Z</time>
		</trkpt>
		<trkpt lat="34.733581" lon="127.261722">
			<ele>0.00</ele>
			<time>2020-01-20T01:43:24.77Z</time>
		</trkpt>
		<trkpt lat="34.733640" lon="127.261688">
			<ele>0.00</ele>
			<time>2020-01-20T01:43:25.20Z</time>
		</trkpt>
		<trkpt lat="34.733680" lon="127.261606">
			<ele>0.00</ele>
			<time>2020-01-20T01:43:25.73Z</time>
		</trkpt>
		<trkpt lat="34.733725" lon="127.261494">
			<ele>0.00</ele>
			<time>2020-01-20T01:43:26.41Z</time>
		</trkpt>
		<trkpt lat="34.733756" lon="127.261361">
			<ele>0.00</ele>
			<time>2020-01-20T01:43:27.17Z</time>
		</trkpt>
		<trkpt lat="34.733763" lon="127.261339">
			<ele>0.00</ele>
			<time>2020-01-20T01:43:27.30Z</time>
		</trkpt>
		<trkpt lat="34.733806" lon="127.261364">
			<ele>0.00</ele>
			<time>2020-01-20T01:43:27.62Z</time>
		</trkpt>
		<trkpt lat="34.733847" lon="127.261400">
			<ele>0.00</ele>
			<time>2020-01-20T01:43:27.95Z</time>
		</trkpt>
		<trkpt lat="34.733940" lon="127.261394">
			<ele>0.00</ele>
			<time>2020-01-20T01:43:28.58Z</time>
		</trkpt>
		<trkpt lat="34.734047" lon="127.261367">
			<ele>0.00</ele>
			<time>2020-01-20T01:43:29.30Z</time>
		</trkpt>
		<trkpt lat="34.734115" lon="127.261378">
			<ele>0.00</ele>
			<time>2020-01-20T01:43:29.76Z</time>
		</trkpt>
		<trkpt lat="34.734158" lon="127.261356">
			<ele>0.00</ele>
			<time>2020-01-20T01:43:30.07Z</time>
		</trkpt>
		<trkpt lat="34.734213" lon="127.261322">
			<ele>0.00</ele>
			<time>2020-01-20T01:43:30.48Z</time>
		</trkpt>
		<trkpt lat="34.734272" lon="127.261270">
			<ele>0.00</ele>
			<time>2020-01-20T01:43:30.97Z</time>
		</trkpt>
		<trkpt lat="34.734340" lon="127.261220">
			<ele>0.00</ele>
			<time>2020-01-20T01:43:31.50Z</time>
		</trkpt>
		<trkpt lat="34.734460" lon="127.261231">
			<ele>0.00</ele>
			<time>2020-01-20T01:43:32.30Z</time>
		</trkpt>
		<trkpt lat="34.734583" lon="127.261262">
			<ele>0.00</ele>
			<time>2020-01-20T01:43:33.14Z</time>
		</trkpt>
		<trkpt lat="34.734676" lon="127.261303">
			<ele>0.00</ele>
			<time>2020-01-20T01:43:33.80Z</time>
		</trkpt>
		<trkpt lat="34.734722" lon="127.261314">
			<ele>0.00</ele>
			<time>2020-01-20T01:43:34.11Z</time>
		</trkpt>
		<trkpt lat="34.734706" lon="127.261380">
			<ele>0.00</ele>
			<time>2020-01-20T01:43:34.48Z</time>
		</trkpt>
		<trkpt lat="34.734622" lon="127.261490">
			<ele>0.00</ele>
			<time>2020-01-20T01:43:35.30Z</time>
		</trkpt>
		<trkpt lat="34.734567" lon="127.261612">
			<ele>0.00</ele>
			<time>2020-01-20T01:43:36.07Z</time>
		</trkpt>
		<trkpt lat="34.734562" lon="127.261697">
			<ele>0.00</ele>
			<time>2020-01-20T01:43:36.53Z</time>
		</trkpt>
		<trkpt lat="34.734565" lon="127.261711">
			<ele>0.00</ele>
			<time>2020-01-20T01:43:36.61Z</time>
		</trkpt>
		<trkpt lat="34.734573" lon="127.261723">
			<ele>0.00</ele>
			<time>2020-01-20T01:43:36.70Z</time>
		</trkpt>
		<trkpt lat="34.734734" lon="127.261689">
			<ele>0.00</ele>
			<time>2020-01-20T01:43:37.79Z</time>
		</trkpt>
		<trkpt lat="34.735004" lon="127.261634">
			<ele>0.00</ele>
			<time>2020-01-20T01:43:39.62Z</time>
		</trkpt>
		<trkpt lat="34.735276" lon="127.261581">
			<ele>0.00</ele>
			<time>2020-01-20T01:43:41.45Z</time>
		</trkpt>
		<trkpt lat="34.735493" lon="127.261524">
			<ele>0.00</ele>
			<time>2020-01-20T01:43:42.93Z</time>
		</trkpt>
		<trkpt lat="34.735714" lon="127.261467">
			<ele>0.00</ele>
			<time>2020-01-20T01:43:44.44Z</time>
		</trkpt>
		<trkpt lat="34.735970" lon="127.261402">
			<ele>0.00</ele>
			<time>2020-01-20T01:43:46.18Z</time>
		</trkpt>
		<trkpt lat="34.736329" lon="127.261308">
			<ele>0.00</ele>
			<time>2020-01-20T01:43:48.63Z</time>
		</trkpt>
		<trkpt lat="34.736603" lon="127.261261">
			<ele>0.00</ele>
			<time>2020-01-20T01:43:50.47Z</time>
		</trkpt>
		<trkpt lat="34.736762" lon="127.261194">
			<ele>0.00</ele>
			<time>2020-01-20T01:43:51.60Z</time>
		</trkpt>
		<trkpt lat="34.736998" lon="127.261079">
			<ele>0.00</ele>
			<time>2020-01-20T01:43:53.29Z</time>
		</trkpt>
		<trkpt lat="34.737206" lon="127.260950">
			<ele>0.00</ele>
			<time>2020-01-20T01:43:54.85Z</time>
		</trkpt>
		<trkpt lat="34.737465" lon="127.260737">
			<ele>0.00</ele>
			<time>2020-01-20T01:43:56.93Z</time>
		</trkpt>
		<trkpt lat="34.737506" lon="127.260710">
			<ele>0.00</ele>
			<time>2020-01-20T01:43:57.24Z</time>
		</trkpt>
		<trkpt lat="34.737496" lon="127.260719">
			<ele>0.00</ele>
			<time>2020-01-20T01:43:57.33Z</time>
		</trkpt>
		<trkpt lat="34.737479" lon="127.260639">
			<ele>0.00</ele>
			<time>2020-01-20T01:43:57.78Z</time>
		</trkpt>
		<trkpt lat="34.737457" lon="127.260503">
			<ele>0.00</ele>
			<time>2020-01-20T01:43:58.54Z</time>
		</trkpt>
		<trkpt lat="34.737424" lon="127.260343">
			<ele>0.00</ele>
			<time>2020-01-20T01:43:59.44Z</time>
		</trkpt>
		<trkpt lat="34.737404" lon="127.260169">
			<ele>0.00</ele>
			<time>2020-01-20T01:44:00.41Z</time>
		</trkpt>
		<trkpt lat="34.737373" lon="127.259970">
			<ele>0.00</ele>
			<time>2020-01-20T01:44:01.52Z</time>
		</trkpt>
		<trkpt lat="34.737332" lon="127.259733">
			<ele>0.00</ele>
			<time>2020-01-20T01:44:02.84Z</time>
		</trkpt>
		<trkpt lat="34.737324" lon="127.259569">
			<ele>0.00</ele>
			<time>2020-01-20T01:44:03.75Z</time>
		</trkpt>
		<trkpt lat="34.737295" lon="127.259459">
			<ele>0.00</ele>
			<time>2020-01-20T01:44:04.37Z</time>
		</trkpt>
		<trkpt lat="34.737215" lon="127.259320">
			<ele>0.00</ele>
			<time>2020-01-20T01:44:05.31Z</time>
		</trkpt>
		<trkpt lat="34.737119" lon="127.259193">
			<ele>0.00</ele>
			<time>2020-01-20T01:44:06.25Z</time>
		</trkpt>
		<trkpt lat="34.736990" lon="127.259106">
			<ele>0.00</ele>
			<time>2020-01-20T01:44:07.24Z</time>
		</trkpt>
		<trkpt lat="34.736818" lon="127.258989">
			<ele>0.00</ele>
			<time>2020-01-20T01:44:08.55Z</time>
		</trkpt>
		<trkpt lat="34.736681" lon="127.258862">
			<ele>0.00</ele>
			<time>2020-01-20T01:44:09.70Z</time>
		</trkpt>
		<trkpt lat="34.736612" lon="127.258735">
			<ele>0.00</ele>
			<time>2020-01-20T01:44:10.53Z</time>
		</trkpt>
		<trkpt lat="34.736602" lon="127.258667">
			<ele>0.00</ele>
			<time>2020-01-20T01:44:10.91Z</time>
		</trkpt>
		<trkpt lat="34.736612" lon="127.258558">
			<ele>0.00</ele>
			<time>2020-01-20T01:44:11.51Z</time>
		</trkpt>
		<trkpt lat="34.736665" lon="127.258461">
			<ele>0.00</ele>
			<time>2020-01-20T01:44:12.15Z</time>
		</trkpt>
		<trkpt lat="34.736722" lon="127.258334">
			<ele>0.00</ele>
			<time>2020-01-20T01:44:12.94Z</time>
		</trkpt>
		<trkpt lat="34.736769" lon="127.258227">
			<ele>0.00</ele>
			<time>2020-01-20T01:44:13.61Z</time>
		</trkpt>
		<trkpt lat="34.736798" lon="127.258147">
			<ele>0.00</ele>
			<time>2020-01-20T01:44:14.09Z</time>
		</trkpt>
		<trkpt lat="34.736796" lon="127.258080">
			<ele>0.00</ele>
			<time>2020-01-20T01:44:14.45Z</time>
		</trkpt>
		<trkpt lat="34.736788" lon="127.258030">
			<ele>0.00</ele>
			<time>2020-01-20T01:44:14.73Z</time>
		</trkpt>
		<trkpt lat="34.736825" lon="127.257881">
			<ele>0.00</ele>
			<time>2020-01-20T01:44:15.59Z</time>
		</trkpt>
		<trkpt lat="34.736847" lon="127.257781">
			<ele>0.00</ele>
			<time>2020-01-20T01:44:16.15Z</time>
		</trkpt>
		<trkpt lat="34.736863" lon="127.257706">
			<ele>0.00</ele>
			<time>2020-01-20T01:44:16.58Z</time>
		</trkpt>
		<trkpt lat="34.736882" lon="127.257671">
			<ele>0.00</ele>
			<time>2020-01-20T01:44:16.80Z</time>
		</trkpt>
		<trkpt lat="34.736925" lon="127.257639">
			<ele>0.00</ele>
			<time>2020-01-20T01:44:17.14Z</time>
		</trkpt>
		<trkpt lat="34.736992" lon="127.257597">
			<ele>0.00</ele>
			<time>2020-01-20T01:44:17.65Z</time>
		</trkpt>
		<trkpt lat="34.737262" lon="127.257505">
			<ele>0.00</ele>
			<time>2020-01-20T01:44:19.51Z</time>
		</trkpt>
		<trkpt lat="34.737446" lon="127.257432">
			<ele>0.00</ele>
			<time>2020-01-20T01:44:20.80Z</time>
		</trkpt>
		<trkpt lat="34.737607" lon="127.257330">
			<ele>0.00</ele>
			<time>2020-01-20T01:44:22.02Z</time>
		</trkpt>
		<trkpt lat="34.737714" lon="127.257216">
			<ele>0.00</ele>
			<time>2020-01-20T01:44:22.96Z</time>
		</trkpt>
		<trkpt lat="34.737824" lon="127.257076">
			<ele>0.00</ele>
			<time>2020-01-20T01:44:24.02Z</time>
		</trkpt>
		<trkpt lat="34.737897" lon="127.256975">
			<ele>0.00</ele>
			<time>2020-01-20T01:44:24.76Z</time>
		</trkpt>
		<trkpt lat="34.737930" lon="127.256840">
			<ele>0.00</ele>
			<time>2020-01-20T01:44:25.53Z</time>
		</trkpt>
		<trkpt lat="34.737975" lon="127.256629">
			<ele>0.00</ele>
			<time>2020-01-20T01:44:26.73Z</time>
		</trkpt>
		<trkpt lat="34.738001" lon="127.256504">
			<ele>0.00</ele>
			<time>2020-01-20T01:44:27.43Z</time>
		</trkpt>
		<trkpt lat="34.738060" lon="127.256352">
			<ele>0.00</ele>
			<time>2020-01-20T01:44:28.35Z</time>
		</trkpt>
		<trkpt lat="34.738230" lon="127.256367">
			<ele>0.00</ele>
			<time>2020-01-20T01:44:29.49Z</time>
		</trkpt>
		<trkpt lat="34.738515" lon="127.256434">
			<ele>0.00</ele>
			<time>2020-01-20T01:44:31.42Z</time>
		</trkpt>
		<trkpt lat="34.738607" lon="127.256452">
			<ele>0.00</ele>
			<time>2020-01-20T01:44:32.04Z</time>
		</trkpt>
		<trkpt lat="34.738877" lon="127.256355">
			<ele>0.00</ele>
			<time>2020-01-20T01:44:33.92Z</time>
		</trkpt>
		<trkpt lat="34.738955" lon="127.256327">
			<ele>0.00</ele>
			<time>2020-01-20T01:44:34.46Z</time>
		</trkpt>
		<trkpt lat="34.739026" lon="127.256320">
			<ele>0.00</ele>
			<time>2020-01-20T01:44:34.94Z</time>
		</trkpt>
		<trkpt lat="34.739122" lon="127.256364">
			<ele>0.00</ele>
			<time>2020-01-20T01:44:35.62Z</time>
		</trkpt>
		<trkpt lat="34.739261" lon="127.256436">
			<ele>0.00</ele>
			<time>2020-01-20T01:44:36.63Z</time>
		</trkpt>
		<trkpt lat="34.739384" lon="127.256496">
			<ele>0.00</ele>
			<time>2020-01-20T01:44:37.51Z</time>
		</trkpt>
		<trkpt lat="34.739464" lon="127.256561">
			<ele>0.00</ele>
			<time>2020-01-20T01:44:38.15Z</time>
		</trkpt>
		<trkpt lat="34.739585" lon="127.256650">
			<ele>0.00</ele>
			<time>2020-01-20T01:44:39.09Z</time>
		</trkpt>
		<trkpt lat="34.739697" lon="127.256732">
			<ele>0.00</ele>
			<time>2020-01-20T01:44:39.97Z</time>
		</trkpt>
		<trkpt lat="34.739796" lon="127.256747">
			<ele>0.00</ele>
			<time>2020-01-20T01:44:40.63Z</time>
		</trkpt>
		<trkpt lat="34.739883" lon="127.256732">
			<ele>0.00</ele>
			<time>2020-01-20T01:44:41.22Z</time>
		</trkpt>
		<trkpt lat="34.740130" lon="127.256705">
			<ele>0.00</ele>
			<time>2020-01-20T01:44:42.87Z</time>
		</trkpt>
		<trkpt lat="34.740271" lon="127.256635">
			<ele>0.00</ele>
			<time>2020-01-20T01:44:43.88Z</time>
		</trkpt>
		<trkpt lat="34.740359" lon="127.256608">
			<ele>0.00</ele>
			<time>2020-01-20T01:44:44.49Z</time>
		</trkpt>
		<trkpt lat="34.740420" lon="127.256560">
			<ele>0.00</ele>
			<time>2020-01-20T01:44:44.97Z</time>
		</trkpt>
		<trkpt lat="34.740480" lon="127.256505">
			<ele>0.00</ele>
			<time>2020-01-20T01:44:45.47Z</time>
		</trkpt>
		<trkpt lat="34.740660" lon="127.256426">
			<ele>0.00</ele>
			<time>2020-01-20T01:44:46.75Z</time>
		</trkpt>
		<trkpt lat="34.740807" lon="127.256408">
			<ele>0.00</ele>
			<time>2020-01-20T01:44:47.74Z</time>
		</trkpt>
		<trkpt lat="34.740899" lon="127.256418">
			<ele>0.00</ele>
			<time>2020-01-20T01:44:48.35Z</time>
		</trkpt>
		<trkpt lat="34.740957" lon="127.256451">
			<ele>0.00</ele>
			<time>2020-01-20T01:44:48.77Z</time>
		</trkpt>
		<trkpt lat="34.741036" lon="127.256521">
			<ele>0.00</ele>
			<time>2020-01-20T01:44:49.43Z</time>
		</trkpt>
		<trkpt lat="34.741142" lon="127.256573">
			<ele>0.00</ele>
			<time>2020-01-20T01:44:50.19Z</time>
		</trkpt>
		<trkpt lat="34.741177" lon="127.256591">
			<ele>0.00</ele>
			<time>2020-01-20T01:44:50.44Z</time>
		</trkpt>
		<trkpt lat="34.741180" lon="127.256582">
			<ele>0.00</ele>
			<time>2020-01-20T01:44:50.50Z</time>
		</trkpt>
		<trkpt lat="34.741238" lon="127.256443">
			<ele>0.00</ele>
			<time>2020-01-20T01:44:51.36Z</time>
		</trkpt>
		<trkpt lat="34.741355" lon="127.256212">
			<ele>0.00</ele>
			<time>2020-01-20T01:44:52.84Z</time>
		</trkpt>
		<trkpt lat="34.741465" lon="127.255976">
			<ele>0.00</ele>
			<time>2020-01-20T01:44:54.33Z</time>
		</trkpt>
		<trkpt lat="34.741594" lon="127.255745">
			<ele>0.00</ele>
			<time>2020-01-20T01:44:55.86Z</time>
		</trkpt>
		<trkpt lat="34.741700" lon="127.255519">
			<ele>0.00</ele>
			<time>2020-01-20T01:44:57.29Z</time>
		</trkpt>
		<trkpt lat="34.741817" lon="127.255271">
			<ele>0.00</ele>
			<time>2020-01-20T01:44:58.85Z</time>
		</trkpt>
		<trkpt lat="34.741923" lon="127.255087">
			<ele>0.00</ele>
			<time>2020-01-20T01:45:00.08Z</time>
		</trkpt>
		<trkpt lat="34.742076" lon="127.254845">
			<ele>0.00</ele>
			<time>2020-01-20T01:45:01.76Z</time>
		</trkpt>
		<trkpt lat="34.742294" lon="127.254546">
			<ele>0.00</ele>
			<time>2020-01-20T01:45:03.95Z</time>
		</trkpt>
		<trkpt lat="34.742434" lon="127.254378">
			<ele>0.00</ele>
			<time>2020-01-20T01:45:05.26Z</time>
		</trkpt>
		<trkpt lat="34.742564" lon="127.254207">
			<ele>0.00</ele>
			<time>2020-01-20T01:45:06.53Z</time>
		</trkpt>
		<trkpt lat="34.742686" lon="127.254091">
			<ele>0.00</ele>
			<time>2020-01-20T01:45:07.57Z</time>
		</trkpt>
		<trkpt lat="34.742820" lon="127.253967">
			<ele>0.00</ele>
			<time>2020-01-20T01:45:08.69Z</time>
		</trkpt>
		<trkpt lat="34.743027" lon="127.253804">
			<ele>0.00</ele>
			<time>2020-01-20T01:45:10.33Z</time>
		</trkpt>
		<trkpt lat="34.743266" lon="127.253673">
			<ele>0.00</ele>
			<time>2020-01-20T01:45:12.08Z</time>
		</trkpt>
		<trkpt lat="34.743451" lon="127.253565">
			<ele>0.00</ele>
			<time>2020-01-20T01:45:13.45Z</time>
		</trkpt>
		<trkpt lat="34.743652" lon="127.253481">
			<ele>0.00</ele>
			<time>2020-01-20T01:45:14.86Z</time>
		</trkpt>
		<trkpt lat="34.743865" lon="127.253413">
			<ele>0.00</ele>
			<time>2020-01-20T01:45:16.33Z</time>
		</trkpt>
		<trkpt lat="34.744070" lon="127.253353">
			<ele>0.00</ele>
			<time>2020-01-20T01:45:17.74Z</time>
		</trkpt>
		<trkpt lat="34.744271" lon="127.253274">
			<ele>0.00</ele>
			<time>2020-01-20T01:45:19.15Z</time>
		</trkpt>
		<trkpt lat="34.744292" lon="127.253263">
			<ele>0.00</ele>
			<time>2020-01-20T01:45:19.30Z</time>
		</trkpt>
		<trkpt lat="34.744323" lon="127.253257">
			<ele>0.00</ele>
			<time>2020-01-20T01:45:19.51Z</time>
		</trkpt>
		<trkpt lat="34.744386" lon="127.253239">
			<ele>0.00</ele>
			<time>2020-01-20T01:45:19.94Z</time>
		</trkpt>
		<trkpt lat="34.744527" lon="127.253196">
			<ele>0.00</ele>
			<time>2020-01-20T01:45:20.91Z</time>
		</trkpt>
		<trkpt lat="34.744798" lon="127.253120">
			<ele>0.00</ele>
			<time>2020-01-20T01:45:22.76Z</time>
		</trkpt>
		<trkpt lat="34.745061" lon="127.253051">
			<ele>0.00</ele>
			<time>2020-01-20T01:45:24.55Z</time>
		</trkpt>
		<trkpt lat="34.745405" lon="127.252978">
			<ele>0.00</ele>
			<time>2020-01-20T01:45:26.89Z</time>
		</trkpt>
		<trkpt lat="34.745594" lon="127.252896">
			<ele>0.00</ele>
			<time>2020-01-20T01:45:28.22Z</time>
		</trkpt>
		<trkpt lat="34.745953" lon="127.252813">
			<ele>0.00</ele>
			<time>2020-01-20T01:45:30.66Z</time>
		</trkpt>
		<trkpt lat="34.746300" lon="127.252713">
			<ele>0.00</ele>
			<time>2020-01-20T01:45:33.04Z</time>
		</trkpt>
		<trkpt lat="34.746677" lon="127.252603">
			<ele>0.00</ele>
			<time>2020-01-20T01:45:35.62Z</time>
		</trkpt>
		<trkpt lat="34.746984" lon="127.252606">
			<ele>0.00</ele>
			<time>2020-01-20T01:45:37.66Z</time>
		</trkpt>
		<trkpt lat="34.747214" lon="127.252617">
			<ele>0.00</ele>
			<time>2020-01-20T01:45:39.20Z</time>
		</trkpt>
		<trkpt lat="34.747554" lon="127.252583">
			<ele>0.00</ele>
			<time>2020-01-20T01:45:41.47Z</time>
		</trkpt>
		<trkpt lat="34.747831" lon="127.252547">
			<ele>0.00</ele>
			<time>2020-01-20T01:45:43.33Z</time>
		</trkpt>
		<trkpt lat="34.748026" lon="127.252486">
			<ele>0.00</ele>
			<time>2020-01-20T01:45:44.67Z</time>
		</trkpt>
		<trkpt lat="34.748276" lon="127.252301">
			<ele>0.00</ele>
			<time>2020-01-20T01:45:46.62Z</time>
		</trkpt>
		<trkpt lat="34.748476" lon="127.252134">
			<ele>0.00</ele>
			<time>2020-01-20T01:45:48.24Z</time>
		</trkpt>
		<trkpt lat="34.748743" lon="127.251894">
			<ele>0.00</ele>
			<time>2020-01-20T01:45:50.45Z</time>
		</trkpt>
		<trkpt lat="34.749034" lon="127.251645">
			<ele>0.00</ele>
			<time>2020-01-20T01:45:52.83Z</time>
		</trkpt>
		<trkpt lat="34.749383" lon="127.251329">
			<ele>0.00</ele>
			<time>2020-01-20T01:45:55.73Z</time>
		</trkpt>
		<trkpt lat="34.750147" lon="127.250636">
			<ele>0.00</ele>
			<time>2020-01-20T01:46:02.08Z</time>
		</trkpt>
		<trkpt lat="34.750415" lon="127.250405">
			<ele>0.00</ele>
			<time>2020-01-20T01:46:04.27Z</time>
		</trkpt>
		<trkpt lat="34.750694" lon="127.250176">
			<ele>0.00</ele>
			<time>2020-01-20T01:46:06.51Z</time>
		</trkpt>
		<trkpt lat="34.750819" lon="127.250062">
			<ele>0.00</ele>
			<time>2020-01-20T01:46:07.55Z</time>
		</trkpt>
		<trkpt lat="34.751237" lon="127.249875">
			<ele>0.00</ele>
			<time>2020-01-20T01:46:10.52Z</time>
		</trkpt>
		<trkpt lat="34.751610" lon="127.249676">
			<ele>0.00</ele>
			<time>2020-01-20T01:46:13.24Z</time>
		</trkpt>
		<trkpt lat="34.752399" lon="127.249277">
			<ele>0.00</ele>
			<time>2020-01-20T01:46:18.94Z</time>
		</trkpt>
		<trkpt lat="34.752534" lon="127.249192">
			<ele>0.00</ele>
			<time>2020-01-20T01:46:19.95Z</time>
		</trkpt>
		<trkpt lat="34.752751" lon="127.249046">
			<ele>0.00</ele>
			<time>2020-01-20T01:46:21.60Z</time>
		</trkpt>
		<trkpt lat="34.753089" lon="127.248795">
			<ele>0.00</ele>
			<time>2020-01-20T01:46:24.24Z</time>
		</trkpt>
		<trkpt lat="34.753324" lon="127.248593">
			<ele>0.00</ele>
			<time>2020-01-20T01:46:26.16Z</time>
		</trkpt>
		<trkpt lat="34.753541" lon="127.248402">
			<ele>0.00</ele>
			<time>2020-01-20T01:46:27.94Z</time>
		</trkpt>
		<trkpt lat="34.753803" lon="127.248164">
			<ele>0.00</ele>
			<time>2020-01-20T01:46:30.12Z</time>
		</trkpt>
		<trkpt lat="34.753986" lon="127.247968">
			<ele>0.00</ele>
			<time>2020-01-20T01:46:31.75Z</time>
		</trkpt>
		<trkpt lat="34.754184" lon="127.247733">
			<ele>0.00</ele>
			<time>2020-01-20T01:46:33.59Z</time>
		</trkpt>
		<trkpt lat="34.754419" lon="127.247473">
			<ele>0.00</ele>
			<time>2020-01-20T01:46:35.71Z</time>
		</trkpt>
		<trkpt lat="34.754702" lon="127.247116">
			<ele>0.00</ele>
			<time>2020-01-20T01:46:38.42Z</time>
		</trkpt>
		<trkpt lat="34.754986" lon="127.246808">
			<ele>0.00</ele>
			<time>2020-01-20T01:46:40.96Z</time>
		</trkpt>
		<trkpt lat="34.755260" lon="127.246463">
			<ele>0.00</ele>
			<time>2020-01-20T01:46:43.59Z</time>
		</trkpt>
		<trkpt lat="34.755717" lon="127.246127">
			<ele>0.00</ele>
			<time>2020-01-20T01:46:47.15Z</time>
		</trkpt>
		<trkpt lat="34.755996" lon="127.245995">
			<ele>0.00</ele>
			<time>2020-01-20T01:46:49.15Z</time>
		</trkpt>
		<trkpt lat="34.756239" lon="127.245910">
			<ele>0.00</ele>
			<time>2020-01-20T01:46:50.83Z</time>
		</trkpt>
		<trkpt lat="34.756442" lon="127.245822">
			<ele>0.00</ele>
			<time>2020-01-20T01:46:52.27Z</time>
		</trkpt>
		<trkpt lat="34.756704" lon="127.245729">
			<ele>0.00</ele>
			<time>2020-01-20T01:46:54.08Z</time>
		</trkpt>
		<trkpt lat="34.756879" lon="127.245635">
			<ele>0.00</ele>
			<time>2020-01-20T01:46:55.36Z</time>
		</trkpt>
		<trkpt lat="34.757081" lon="127.245588">
			<ele>0.00</ele>
			<time>2020-01-20T01:46:56.74Z</time>
		</trkpt>
		<trkpt lat="34.757296" lon="127.245503">
			<ele>0.00</ele>
			<time>2020-01-20T01:46:58.24Z</time>
		</trkpt>
		<trkpt lat="34.757536" lon="127.245415">
			<ele>0.00</ele>
			<time>2020-01-20T01:46:59.91Z</time>
		</trkpt>
		<trkpt lat="34.757779" lon="127.245374">
			<ele>0.00</ele>
			<time>2020-01-20T01:47:01.55Z</time>
		</trkpt>
		<trkpt lat="34.758143" lon="127.245403">
			<ele>0.00</ele>
			<time>2020-01-20T01:47:03.98Z</time>
		</trkpt>
		<trkpt lat="34.758364" lon="127.245452">
			<ele>0.00</ele>
			<time>2020-01-20T01:47:05.48Z</time>
		</trkpt>
		<trkpt lat="34.759085" lon="127.245600">
			<ele>0.00</ele>
			<time>2020-01-20T01:47:10.35Z</time>
		</trkpt>
		<trkpt lat="34.759415" lon="127.245667">
			<ele>0.00</ele>
			<time>2020-01-20T01:47:12.58Z</time>
		</trkpt>
		<trkpt lat="34.759978" lon="127.245790">
			<ele>0.00</ele>
			<time>2020-01-20T01:47:16.40Z</time>
		</trkpt>
		<trkpt lat="34.760214" lon="127.245936">
			<ele>0.00</ele>
			<time>2020-01-20T01:47:18.16Z</time>
		</trkpt>
		<trkpt lat="34.760597" lon="127.246264">
			<ele>0.00</ele>
			<time>2020-01-20T01:47:21.28Z</time>
		</trkpt>
		<trkpt lat="34.760811" lon="127.246519">
			<ele>0.00</ele>
			<time>2020-01-20T01:47:23.28Z</time>
		</trkpt>
		<trkpt lat="34.760877" lon="127.246582">
			<ele>0.00</ele>
			<time>2020-01-20T01:47:23.84Z</time>
		</trkpt>
		<trkpt lat="34.760947" lon="127.246606">
			<ele>0.00</ele>
			<time>2020-01-20T01:47:24.32Z</time>
		</trkpt>
		<trkpt lat="34.761017" lon="127.246588">
			<ele>0.00</ele>
			<time>2020-01-20T01:47:24.80Z</time>
		</trkpt>
		<trkpt lat="34.761065" lon="127.246571">
			<ele>0.00</ele>
			<time>2020-01-20T01:47:25.13Z</time>
		</trkpt>
		<trkpt lat="34.761094" lon="127.246541">
			<ele>0.00</ele>
			<time>2020-01-20T01:47:25.38Z</time>
		</trkpt>
		<trkpt lat="34.761100" lon="127.246494">
			<ele>0.00</ele>
			<time>2020-01-20T01:47:25.64Z</time>
		</trkpt>
		<trkpt lat="34.761091" lon="127.246430">
			<ele>0.00</ele>
			<time>2020-01-20T01:47:26Z</time>
		</trkpt>
		<trkpt lat="34.761055" lon="127.246412">
			<ele>0.00</ele>
			<time>2020-01-20T01:47:26.26Z</time>
		</trkpt>
		<trkpt lat="34.761057" lon="127.246418">
			<ele>0.00</ele>
			<time>2020-01-20T01:47:26.32Z</time>
		</trkpt>
		<trkpt lat="34.760937" lon="127.245917">
			<ele>0.00</ele>
			<time>2020-01-20T01:47:29.18Z</time>
		</trkpt>
		<trkpt lat="34.760830" lon="127.245343">
			<ele>0.00</ele>
			<time>2020-01-20T01:47:32.40Z</time>
		</trkpt>
		<trkpt lat="34.760688" lon="127.244605">
			<ele>0.00</ele>
			<time>2020-01-20T01:47:36.56Z</time>
		</trkpt>
		<trkpt lat="34.760529" lon="127.243711">
			<ele>0.00</ele>
			<time>2020-01-20T01:47:41.57Z</time>
		</trkpt>
		<trkpt lat="34.760338" lon="127.242636">
			<ele>0.00</ele>
			<time>2020-01-20T01:47:47.59Z</time>
		</trkpt>
		<trkpt lat="34.760145" lon="127.241575">
			<ele>0.00</ele>
			<time>2020-01-20T01:47:53.54Z</time>
		</trkpt>
		<trkpt lat="34.759902" lon="127.240268">
			<ele>0.00</ele>
			<time>2020-01-20T01:48:00.88Z</time>
		</trkpt>
		<trkpt lat="34.759678" lon="127.239049">
			<ele>0.00</ele>
			<time>2020-01-20T01:48:07.72Z</time>
		</trkpt>
		<trkpt lat="34.759351" lon="127.237326">
			<ele>0.00</ele>
			<time>2020-01-20T01:48:17.41Z</time>
		</trkpt>
		<trkpt lat="34.759175" lon="127.236295">
			<ele>0.00</ele>
			<time>2020-01-20T01:48:23.18Z</time>
		</trkpt>
		<trkpt lat="34.758908" lon="127.234803">
			<ele>0.00</ele>
			<time>2020-01-20T01:48:31.54Z</time>
		</trkpt>
		<trkpt lat="34.758408" lon="127.232083">
			<ele>0.00</ele>
			<time>2020-01-20T01:48:46.80Z</time>
		</trkpt>
		<trkpt lat="34.758408" lon="127.232028">
			<ele>0.00</ele>
			<time>2020-01-20T01:48:47.11Z</time>
		</trkpt>
		<trkpt lat="34.758483" lon="127.231934">
			<ele>0.00</ele>
			<time>2020-01-20T01:48:47.82Z</time>
		</trkpt>
		<trkpt lat="34.758514" lon="127.231831">
			<ele>0.00</ele>
			<time>2020-01-20T01:48:48.42Z</time>
		</trkpt>
		<trkpt lat="34.758536" lon="127.231784">
			<ele>0.00</ele>
			<time>2020-01-20T01:48:48.72Z</time>
		</trkpt>
		<trkpt lat="34.758488" lon="127.231568">
			<ele>0.00</ele>
			<time>2020-01-20T01:48:49.95Z</time>
		</trkpt>
		<trkpt lat="34.758427" lon="127.231231">
			<ele>0.00</ele>
			<time>2020-01-20T01:48:51.84Z</time>
		</trkpt>
		<trkpt lat="34.758360" lon="127.230851">
			<ele>0.00</ele>
			<time>2020-01-20T01:48:53.96Z</time>
		</trkpt>
		<trkpt lat="34.758319" lon="127.230626">
			<ele>0.00</ele>
			<time>2020-01-20T01:48:55.23Z</time>
		</trkpt>
		<trkpt lat="34.758279" lon="127.230526">
			<ele>0.00</ele>
			<time>2020-01-20T01:48:55.83Z</time>
		</trkpt>
		<trkpt lat="34.758265" lon="127.230471">
			<ele>0.00</ele>
			<time>2020-01-20T01:48:56.15Z</time>
		</trkpt>
		<trkpt lat="34.758237" lon="127.230388">
			<ele>0.00</ele>
			<time>2020-01-20T01:48:56.64Z</time>
		</trkpt>
		<trkpt lat="34.758176" lon="127.230241">
			<ele>0.00</ele>
			<time>2020-01-20T01:48:57.54Z</time>
		</trkpt>
		<trkpt lat="34.758152" lon="127.230215">
			<ele>0.00</ele>
			<time>2020-01-20T01:48:57.76Z</time>
		</trkpt>
		<trkpt lat="34.758005" lon="127.229880">
			<ele>0.00</ele>
			<time>2020-01-20T01:48:59.84Z</time>
		</trkpt>
		<trkpt lat="34.757853" lon="127.229601">
			<ele>0.00</ele>
			<time>2020-01-20T01:49:01.67Z</time>
		</trkpt>
		<trkpt lat="34.757677" lon="127.229240">
			<ele>0.00</ele>
			<time>2020-01-20T01:49:03.97Z</time>
		</trkpt>
		<trkpt lat="34.757570" lon="127.229102">
			<ele>0.00</ele>
			<time>2020-01-20T01:49:05.01Z</time>
		</trkpt>
		<trkpt lat="34.757499" lon="127.229148">
			<ele>0.00</ele>
			<time>2020-01-20T01:49:05.55Z</time>
		</trkpt>
		<trkpt lat="34.757319" lon="127.228909">
			<ele>0.00</ele>
			<time>2020-01-20T01:49:07.33Z</time>
		</trkpt>
		<trkpt lat="34.757094" lon="127.228659">
			<ele>0.00</ele>
			<time>2020-01-20T01:49:09.36Z</time>
		</trkpt>
		<trkpt lat="34.756888" lon="127.228447">
			<ele>0.00</ele>
			<time>2020-01-20T01:49:11.15Z</time>
		</trkpt>
		<trkpt lat="34.756734" lon="127.228274">
			<ele>0.00</ele>
			<time>2020-01-20T01:49:12.55Z</time>
		</trkpt>
		<trkpt lat="34.756363" lon="127.227906">
			<ele>0.00</ele>
			<time>2020-01-20T01:49:15.74Z</time>
		</trkpt>
		<trkpt lat="34.755960" lon="127.227496">
			<ele>0.00</ele>
			<time>2020-01-20T01:49:19.24Z</time>
		</trkpt>
		<trkpt lat="34.755362" lon="127.226887">
			<ele>0.00</ele>
			<time>2020-01-20T01:49:24.44Z</time>
		</trkpt>
		<trkpt lat="34.754862" lon="127.226383">
			<ele>0.00</ele>
			<time>2020-01-20T01:49:28.77Z</time>
		</trkpt>
		<trkpt lat="34.754396" lon="127.225912">
			<ele>0.00</ele>
			<time>2020-01-20T01:49:32.81Z</time>
		</trkpt>
		<trkpt lat="34.753664" lon="127.225185">
			<ele>0.00</ele>
			<time>2020-01-20T01:49:39.10Z</time>
		</trkpt>
		<trkpt lat="34.752980" lon="127.224481">
			<ele>0.00</ele>
			<time>2020-01-20T01:49:45.08Z</time>
		</trkpt>
		<trkpt lat="34.752237" lon="127.223717">
			<ele>0.00</ele>
			<time>2020-01-20T01:49:51.56Z</time>
		</trkpt>
		<trkpt lat="34.751578" lon="127.223052">
			<ele>0.00</ele>
			<time>2020-01-20T01:49:57.27Z</time>
		</trkpt>
		<trkpt lat="34.750781" lon="127.222248">
			<ele>0.00</ele>
			<time>2020-01-20T01:50:04.17Z</time>
		</trkpt>
		<trkpt lat="34.749762" lon="127.221207">
			<ele>0.00</ele>
			<time>2020-01-20T01:50:13.04Z</time>
		</trkpt>
		<trkpt lat="34.748944" lon="127.220378">
			<ele>0.00</ele>
			<time>2020-01-20T01:50:20.14Z</time>
		</trkpt>
		<trkpt lat="34.748222" lon="127.219656">
			<ele>0.00</ele>
			<time>2020-01-20T01:50:26.36Z</time>
		</trkpt>
		<trkpt lat="34.747476" lon="127.218885">
			<ele>0.00</ele>
			<time>2020-01-20T01:50:32.89Z</time>
		</trkpt>
		<trkpt lat="34.746505" lon="127.217925">
			<ele>0.00</ele>
			<time>2020-01-20T01:50:41.23Z</time>
		</trkpt>
		<trkpt lat="34.745275" lon="127.216685">
			<ele>0.00</ele>
			<time>2020-01-20T01:50:51.88Z</time>
		</trkpt>
		<trkpt lat="34.743888" lon="127.215279">
			<ele>0.00</ele>
			<time>2020-01-20T01:51:03.91Z</time>
		</trkpt>
		<trkpt lat="34.742614" lon="127.214010">
			<ele>0.00</ele>
			<time>2020-01-20T01:51:14.89Z</time>
		</trkpt>
		<trkpt lat="34.741608" lon="127.212998">
			<ele>0.00</ele>
			<time>2020-01-20T01:51:23.59Z</time>
		</trkpt>
		<trkpt lat="34.741169" lon="127.212526">
			<ele>0.00</ele>
			<time>2020-01-20T01:51:27.49Z</time>
		</trkpt>
		<trkpt lat="34.740635" lon="127.211982">
			<ele>0.00</ele>
			<time>2020-01-20T01:51:32.14Z</time>
		</trkpt>
		<trkpt lat="34.740789" lon="127.211758">
			<ele>0.00</ele>
			<time>2020-01-20T01:51:33.74Z</time>
		</trkpt>
		<trkpt lat="34.741158" lon="127.211204">
			<ele>0.00</ele>
			<time>2020-01-20T01:51:37.65Z</time>
		</trkpt>
		<trkpt lat="34.741657" lon="127.210485">
			<ele>0.00</ele>
			<time>2020-01-20T01:51:42.80Z</time>
		</trkpt>
		<trkpt lat="34.741232" lon="127.210079">
			<ele>0.00</ele>
			<time>2020-01-20T01:51:46.40Z</time>
		</trkpt>
		<trkpt lat="34.741088" lon="127.210287">
			<ele>0.00</ele>
			<time>2020-01-20T01:51:47.89Z</time>
		</trkpt>
		<trkpt lat="34.740362" lon="127.209574">
			<ele>0.00</ele>
			<time>2020-01-20T01:51:54.11Z</time>
		</trkpt>
		<trkpt lat="34.740282" lon="127.209698">
			<ele>0.00</ele>
			<time>2020-01-20T01:51:54.97Z</time>
		</trkpt>
		<trkpt lat="34.739590" lon="127.209006">
			<ele>0.00</ele>
			<time>2020-01-20T01:52:00.94Z</time>
		</trkpt>
		<trkpt lat="34.739863" lon="127.208659">
			<ele>0.00</ele>
			<time>2020-01-20T01:52:03.57Z</time>
		</trkpt>
		<trkpt lat="34.739975" lon="127.208431">
			<ele>0.00</ele>
			<time>2020-01-20T01:52:05.02Z</time>
		</trkpt>
		<trkpt lat="34.739719" lon="127.208080">
			<ele>0.00</ele>
			<time>2020-01-20T01:52:07.60Z</time>
		</trkpt>
		<trkpt lat="34.739040" lon="127.208349">
			<ele>0.00</ele>
			<time>2020-01-20T01:52:12.35Z</time>
		</trkpt>
		<trkpt lat="34.738937" lon="127.208372">
			<ele>0.00</ele>
			<time>2020-01-20T01:52:13.05Z</time>
		</trkpt>
		<trkpt lat="34.738622" lon="127.208531">
			<ele>0.00</ele>
			<time>2020-01-20T01:52:15.33Z</time>
		</trkpt>
		<trkpt lat="34.738494" lon="127.208482">
			<ele>0.00</ele>
			<time>2020-01-20T01:52:16.22Z</time>
		</trkpt>
		<trkpt lat="34.738136" lon="127.208491">
			<ele>0.00</ele>
			<time>2020-01-20T01:52:18.61Z</time>
		</trkpt>
		<trkpt lat="34.737955" lon="127.208504">
			<ele>0.00</ele>
			<time>2020-01-20T01:52:19.82Z</time>
		</trkpt>
		<trkpt lat="34.737794" lon="127.208566">
			<ele>0.00</ele>
			<time>2020-01-20T01:52:20.94Z</time>
		</trkpt>
		<trkpt lat="34.737623" lon="127.208699">
			<ele>0.00</ele>
			<time>2020-01-20T01:52:22.29Z</time>
		</trkpt>
		<trkpt lat="34.737508" lon="127.208868">
			<ele>0.00</ele>
			<time>2020-01-20T01:52:23.50Z</time>
		</trkpt>
		<trkpt lat="34.737423" lon="127.208991">
			<ele>0.00</ele>
			<time>2020-01-20T01:52:24.38Z</time>
		</trkpt>
		<trkpt lat="34.737273" lon="127.209124">
			<ele>0.00</ele>
			<time>2020-01-20T01:52:25.62Z</time>
		</trkpt>
		<trkpt lat="34.737126" lon="127.209261">
			<ele>0.00</ele>
			<time>2020-01-20T01:52:26.85Z</time>
		</trkpt>
		<trkpt lat="34.736895" lon="127.209439">
			<ele>0.00</ele>
			<time>2020-01-20T01:52:28.67Z</time>
		</trkpt>
		<trkpt lat="34.736895" lon="127.209439">
			<ele>0.00</ele>
			<time>2020-01-20T01:52:28.73Z</time>
		</trkpt>
		<trkpt lat="34.736713" lon="127.209537">
			<ele>0.00</ele>
			<time>2020-01-20T01:52:30.06Z</time>
		</trkpt>
		<trkpt lat="34.736452" lon="127.209650">
			<ele>0.00</ele>
			<time>2020-01-20T01:52:31.91Z</time>
		</trkpt>
		<trkpt lat="34.736227" lon="127.209760">
			<ele>0.00</ele>
			<time>2020-01-20T01:52:33.52Z</time>
		</trkpt>
		<trkpt lat="34.736038" lon="127.209851">
			<ele>0.00</ele>
			<time>2020-01-20T01:52:34.88Z</time>
		</trkpt>
		<trkpt lat="34.735856" lon="127.209929">
			<ele>0.00</ele>
			<time>2020-01-20T01:52:36.16Z</time>
		</trkpt>
		<trkpt lat="34.735677" lon="127.209987">
			<ele>0.00</ele>
			<time>2020-01-20T01:52:37.40Z</time>
		</trkpt>
		<trkpt lat="34.735407" lon="127.210059">
			<ele>0.00</ele>
			<time>2020-01-20T01:52:39.24Z</time>
		</trkpt>
		<trkpt lat="34.735169" lon="127.210101">
			<ele>0.00</ele>
			<time>2020-01-20T01:52:40.84Z</time>
		</trkpt>
		<trkpt lat="34.734998" lon="127.210156">
			<ele>0.00</ele>
			<time>2020-01-20T01:52:42.02Z</time>
		</trkpt>
		<trkpt lat="34.734801" lon="127.210204">
			<ele>0.00</ele>
			<time>2020-01-20T01:52:43.37Z</time>
		</trkpt>
		<trkpt lat="34.734677" lon="127.210292">
			<ele>0.00</ele>
			<time>2020-01-20T01:52:44.32Z</time>
		</trkpt>
		<trkpt lat="34.734533" lon="127.210412">
			<ele>0.00</ele>
			<time>2020-01-20T01:52:45.48Z</time>
		</trkpt>
		<trkpt lat="34.734407" lon="127.210565">
			<ele>0.00</ele>
			<time>2020-01-20T01:52:46.67Z</time>
		</trkpt>
		<trkpt lat="34.734306" lon="127.210701">
			<ele>0.00</ele>
			<time>2020-01-20T01:52:47.68Z</time>
		</trkpt>
		<trkpt lat="34.734121" lon="127.210792">
			<ele>0.00</ele>
			<time>2020-01-20T01:52:49Z</time>
		</trkpt>
		<trkpt lat="34.733916" lon="127.210892">
			<ele>0.00</ele>
			<time>2020-01-20T01:52:50.48Z</time>
		</trkpt>
		<trkpt lat="34.733638" lon="127.210977">
			<ele>0.00</ele>
			<time>2020-01-20T01:52:52.39Z</time>
		</trkpt>
		<trkpt lat="34.733333" lon="127.211054">
			<ele>0.00</ele>
			<time>2020-01-20T01:52:54.46Z</time>
		</trkpt>
		<trkpt lat="34.732407" lon="127.211243">
			<ele>0.00</ele>
			<time>2020-01-20T01:53:00.72Z</time>
		</trkpt>
		<trkpt lat="34.732111" lon="127.211226">
			<ele>0.00</ele>
			<time>2020-01-20T01:53:02.70Z</time>
		</trkpt>
		<trkpt lat="34.731723" lon="127.211203">
			<ele>0.00</ele>
			<time>2020-01-20T01:53:05.29Z</time>
		</trkpt>
		<trkpt lat="34.730991" lon="127.211144">
			<ele>0.00</ele>
			<time>2020-01-20T01:53:10.18Z</time>
		</trkpt>
		<trkpt lat="34.730590" lon="127.211072">
			<ele>0.00</ele>
			<time>2020-01-20T01:53:12.88Z</time>
		</trkpt>
		<trkpt lat="34.730347" lon="127.211000">
			<ele>0.00</ele>
			<time>2020-01-20T01:53:14.55Z</time>
		</trkpt>
		<trkpt lat="34.730006" lon="127.210870">
			<ele>0.00</ele>
			<time>2020-01-20T01:53:16.93Z</time>
		</trkpt>
		<trkpt lat="34.729715" lon="127.210746">
			<ele>0.00</ele>
			<time>2020-01-20T01:53:18.98Z</time>
		</trkpt>
		<trkpt lat="34.729609" lon="127.210675">
			<ele>0.00</ele>
			<time>2020-01-20T01:53:19.80Z</time>
		</trkpt>
		<trkpt lat="34.729328" lon="127.210457">
			<ele>0.00</ele>
			<time>2020-01-20T01:53:22.01Z</time>
		</trkpt>
		<trkpt lat="34.729080" lon="127.210265">
			<ele>0.00</ele>
			<time>2020-01-20T01:53:23.98Z</time>
		</trkpt>
		<trkpt lat="34.728837" lon="127.210066">
			<ele>0.00</ele>
			<time>2020-01-20T01:53:25.93Z</time>
		</trkpt>
		<trkpt lat="34.728500" lon="127.209836">
			<ele>0.00</ele>
			<time>2020-01-20T01:53:28.51Z</time>
		</trkpt>
		<trkpt lat="34.728179" lon="127.209645">
			<ele>0.00</ele>
			<time>2020-01-20T01:53:30.88Z</time>
		</trkpt>
		<trkpt lat="34.727801" lon="127.209479">
			<ele>0.00</ele>
			<time>2020-01-20T01:53:33.57Z</time>
		</trkpt>
		<trkpt lat="34.727551" lon="127.209378">
			<ele>0.00</ele>
			<time>2020-01-20T01:53:35.32Z</time>
		</trkpt>
		<trkpt lat="34.727242" lon="127.209240">
			<ele>0.00</ele>
			<time>2020-01-20T01:53:37.52Z</time>
		</trkpt>
		<trkpt lat="34.726875" lon="127.209107">
			<ele>0.00</ele>
			<time>2020-01-20T01:53:40.07Z</time>
		</trkpt>
		<trkpt lat="34.726240" lon="127.208835">
			<ele>0.00</ele>
			<time>2020-01-20T01:53:44.56Z</time>
		</trkpt>
		<trkpt lat="34.725881" lon="127.208668">
			<ele>0.00</ele>
			<time>2020-01-20T01:53:47.12Z</time>
		</trkpt>
		<trkpt lat="34.725549" lon="127.208535">
			<ele>0.00</ele>
			<time>2020-01-20T01:53:49.45Z</time>
		</trkpt>
		<trkpt lat="34.725326" lon="127.208430">
			<ele>0.00</ele>
			<time>2020-01-20T01:53:51.04Z</time>
		</trkpt>
		<trkpt lat="34.725029" lon="127.208306">
			<ele>0.00</ele>
			<time>2020-01-20T01:53:53.13Z</time>
		</trkpt>
		<trkpt lat="34.724779" lon="127.208168">
			<ele>0.00</ele>
			<time>2020-01-20T01:53:54.96Z</time>
		</trkpt>
		<trkpt lat="34.724588" lon="127.208016">
			<ele>0.00</ele>
			<time>2020-01-20T01:53:56.49Z</time>
		</trkpt>
		<trkpt lat="34.724358" lon="127.207773">
			<ele>0.00</ele>
			<time>2020-01-20T01:53:58.52Z</time>
		</trkpt>
		<trkpt lat="34.724151" lon="127.207545">
			<ele>0.00</ele>
			<time>2020-01-20T01:54:00.38Z</time>
		</trkpt>
		<trkpt lat="34.723827" lon="127.207145">
			<ele>0.00</ele>
			<time>2020-01-20T01:54:03.46Z</time>
		</trkpt>
		<trkpt lat="34.723503" lon="127.206750">
			<ele>0.00</ele>
			<time>2020-01-20T01:54:06.52Z</time>
		</trkpt>
		<trkpt lat="34.723358" lon="127.206579">
			<ele>0.00</ele>
			<time>2020-01-20T01:54:07.86Z</time>
		</trkpt>
		<trkpt lat="34.723089" lon="127.206360">
			<ele>0.00</ele>
			<time>2020-01-20T01:54:10.02Z</time>
		</trkpt>
		<trkpt lat="34.722827" lon="127.206184">
			<ele>0.00</ele>
			<time>2020-01-20T01:54:12.01Z</time>
		</trkpt>
		<trkpt lat="34.722096" lon="127.205851">
			<ele>0.00</ele>
			<time>2020-01-20T01:54:17.22Z</time>
		</trkpt>
		<trkpt lat="34.721623" lon="127.205627">
			<ele>0.00</ele>
			<time>2020-01-20T01:54:20.60Z</time>
		</trkpt>
		<trkpt lat="34.721022" lon="127.205379">
			<ele>0.00</ele>
			<time>2020-01-20T01:54:24.83Z</time>
		</trkpt>
		<trkpt lat="34.720806" lon="127.205307">
			<ele>0.00</ele>
			<time>2020-01-20T01:54:26.32Z</time>
		</trkpt>
		<trkpt lat="34.720615" lon="127.205295">
			<ele>0.00</ele>
			<time>2020-01-20T01:54:27.60Z</time>
		</trkpt>
		<trkpt lat="34.720357" lon="127.205361">
			<ele>0.00</ele>
			<time>2020-01-20T01:54:29.35Z</time>
		</trkpt>
		<trkpt lat="34.720063" lon="127.205480">
			<ele>0.00</ele>
			<time>2020-01-20T01:54:31.42Z</time>
		</trkpt>
		<trkpt lat="34.719818" lon="127.205655">
			<ele>0.00</ele>
			<time>2020-01-20T01:54:33.32Z</time>
		</trkpt>
		<trkpt lat="34.719620" lon="127.205769">
			<ele>0.00</ele>
			<time>2020-01-20T01:54:34.78Z</time>
		</trkpt>
		<trkpt lat="34.719458" lon="127.205792">
			<ele>0.00</ele>
			<time>2020-01-20T01:54:35.87Z</time>
		</trkpt>
		<trkpt lat="34.719249" lon="127.205786">
			<ele>0.00</ele>
			<time>2020-01-20T01:54:37.26Z</time>
		</trkpt>
		<trkpt lat="34.718977" lon="127.205693">
			<ele>0.00</ele>
			<time>2020-01-20T01:54:39.14Z</time>
		</trkpt>
		<trkpt lat="34.718742" lon="127.205565">
			<ele>0.00</ele>
			<time>2020-01-20T01:54:40.86Z</time>
		</trkpt>
		<trkpt lat="34.718411" lon="127.205323">
			<ele>0.00</ele>
			<time>2020-01-20T01:54:43.43Z</time>
		</trkpt>
		<trkpt lat="34.718169" lon="127.205069">
			<ele>0.00</ele>
			<time>2020-01-20T01:54:45.57Z</time>
		</trkpt>
		<trkpt lat="34.717924" lon="127.204773">
			<ele>0.00</ele>
			<time>2020-01-20T01:54:47.87Z</time>
		</trkpt>
		<trkpt lat="34.717769" lon="127.204534">
			<ele>0.00</ele>
			<time>2020-01-20T01:54:49.53Z</time>
		</trkpt>
		<trkpt lat="34.717686" lon="127.204326">
			<ele>0.00</ele>
			<time>2020-01-20T01:54:50.80Z</time>
		</trkpt>
		<trkpt lat="34.717662" lon="127.204215">
			<ele>0.00</ele>
			<time>2020-01-20T01:54:51.43Z</time>
		</trkpt>
		<trkpt lat="34.717681" lon="127.203914">
			<ele>0.00</ele>
			<time>2020-01-20T01:54:53.09Z</time>
		</trkpt>
		<trkpt lat="34.717731" lon="127.203580">
			<ele>0.00</ele>
			<time>2020-01-20T01:54:54.95Z</time>
		</trkpt>
		<trkpt lat="34.717768" lon="127.203234">
			<ele>0.00</ele>
			<time>2020-01-20T01:54:56.86Z</time>
		</trkpt>
		<trkpt lat="34.717768" lon="127.202926">
			<ele>0.00</ele>
			<time>2020-01-20T01:54:58.54Z</time>
		</trkpt>
		<trkpt lat="34.717699" lon="127.202622">
			<ele>0.00</ele>
			<time>2020-01-20T01:55:00.27Z</time>
		</trkpt>
		<trkpt lat="34.717601" lon="127.202380">
			<ele>0.00</ele>
			<time>2020-01-20T01:55:01.75Z</time>
		</trkpt>
		<trkpt lat="34.717393" lon="127.201952">
			<ele>0.00</ele>
			<time>2020-01-20T01:55:04.48Z</time>
		</trkpt>
		<trkpt lat="34.717165" lon="127.201540">
			<ele>0.00</ele>
			<time>2020-01-20T01:55:07.20Z</time>
		</trkpt>
		<trkpt lat="34.716910" lon="127.201203">
			<ele>0.00</ele>
			<time>2020-01-20T01:55:09.71Z</time>
		</trkpt>
		<trkpt lat="34.716603" lon="127.200882">
			<ele>0.00</ele>
			<time>2020-01-20T01:55:12.41Z</time>
		</trkpt>
		<trkpt lat="34.716312" lon="127.200471">
			<ele>0.00</ele>
			<time>2020-01-20T01:55:15.38Z</time>
		</trkpt>
		<trkpt lat="34.716194" lon="127.200113">
			<ele>0.00</ele>
			<time>2020-01-20T01:55:17.49Z</time>
		</trkpt>
		<trkpt lat="34.716010" lon="127.199391">
			<ele>0.00</ele>
			<time>2020-01-20T01:55:21.64Z</time>
		</trkpt>
		<trkpt lat="34.715804" lon="127.198610">
			<ele>0.00</ele>
			<time>2020-01-20T01:55:26.13Z</time>
		</trkpt>
		<trkpt lat="34.715650" lon="127.198081">
			<ele>0.00</ele>
			<time>2020-01-20T01:55:29.20Z</time>
		</trkpt>
		<trkpt lat="34.715466" lon="127.197600">
			<ele>0.00</ele>
			<time>2020-01-20T01:55:32.11Z</time>
		</trkpt>
		<trkpt lat="34.715229" lon="127.196825">
			<ele>0.00</ele>
			<time>2020-01-20T01:55:36.65Z</time>
		</trkpt>
		<trkpt lat="34.715093" lon="127.196482">
			<ele>0.00</ele>
			<time>2020-01-20T01:55:38.73Z</time>
		</trkpt>
		<trkpt lat="34.714851" lon="127.196584">
			<ele>0.00</ele>
			<time>2020-01-20T01:55:40.43Z</time>
		</trkpt>
		<trkpt lat="34.714495" lon="127.196755">
			<ele>0.00</ele>
			<time>2020-01-20T01:55:42.98Z</time>
		</trkpt>
		<trkpt lat="34.713952" lon="127.196927">
			<ele>0.00</ele>
			<time>2020-01-20T01:55:46.72Z</time>
		</trkpt>
		<trkpt lat="34.713725" lon="127.196995">
			<ele>0.00</ele>
			<time>2020-01-20T01:55:48.29Z</time>
		</trkpt>
		<trkpt lat="34.713646" lon="127.196986">
			<ele>0.00</ele>
			<time>2020-01-20T01:55:48.81Z</time>
		</trkpt>
		<trkpt lat="34.712806" lon="127.196923">
			<ele>0.00</ele>
			<time>2020-01-20T01:55:54.42Z</time>
		</trkpt>
		<trkpt lat="34.712471" lon="127.196875">
			<ele>0.00</ele>
			<time>2020-01-20T01:55:56.68Z</time>
		</trkpt>
		<trkpt lat="34.711339" lon="127.196771">
			<ele>0.00</ele>
			<time>2020-01-20T01:56:04.24Z</time>
		</trkpt>
		<trkpt lat="34.711271" lon="127.196783">
			<ele>0.00</ele>
			<time>2020-01-20T01:56:04.70Z</time>
		</trkpt>
		<trkpt lat="34.711230" lon="127.196878">
			<ele>0.00</ele>
			<time>2020-01-20T01:56:05.28Z</time>
		</trkpt>
		<trkpt lat="34.711207" lon="127.197082">
			<ele>0.00</ele>
			<time>2020-01-20T01:56:06.41Z</time>
		</trkpt>
		<trkpt lat="34.711191" lon="127.197352">
			<ele>0.00</ele>
			<time>2020-01-20T01:56:07.90Z</time>
		</trkpt>
		<trkpt lat="34.711191" lon="127.197365">
			<ele>0.00</ele>
			<time>2020-01-20T01:56:07.97Z</time>
		</trkpt>
		<trkpt lat="34.711206" lon="127.197641">
			<ele>0.00</ele>
			<time>2020-01-20T01:56:09.49Z</time>
		</trkpt>
		<trkpt lat="34.711273" lon="127.197905">
			<ele>0.00</ele>
			<time>2020-01-20T01:56:11Z</time>
		</trkpt>
		<trkpt lat="34.711273" lon="127.197912">
			<ele>0.00</ele>
			<time>2020-01-20T01:56:11.06Z</time>
		</trkpt>
		<trkpt lat="34.711320" lon="127.198097">
			<ele>0.00</ele>
			<time>2020-01-20T01:56:12.12Z</time>
		</trkpt>
		<trkpt lat="34.711369" lon="127.198311">
			<ele>0.00</ele>
			<time>2020-01-20T01:56:13.34Z</time>
		</trkpt>
		<trkpt lat="34.711366" lon="127.198484">
			<ele>0.00</ele>
			<time>2020-01-20T01:56:14.29Z</time>
		</trkpt>
		<trkpt lat="34.711260" lon="127.198726">
			<ele>0.00</ele>
			<time>2020-01-20T01:56:15.79Z</time>
		</trkpt>
		<trkpt lat="34.711154" lon="127.198842">
			<ele>0.00</ele>
			<time>2020-01-20T01:56:16.74Z</time>
		</trkpt>
		<trkpt lat="34.711144" lon="127.198848">
			<ele>0.00</ele>
			<time>2020-01-20T01:56:16.82Z</time>
		</trkpt>
		<trkpt lat="34.711004" lon="127.198905">
			<ele>0.00</ele>
			<time>2020-01-20T01:56:17.80Z</time>
		</trkpt>
		<trkpt lat="34.710775" lon="127.198478">
			<ele>0.00</ele>
			<time>2020-01-20T01:56:20.59Z</time>
		</trkpt>
		<trkpt lat="34.710613" lon="127.198179">
			<ele>0.00</ele>
			<time>2020-01-20T01:56:22.55Z</time>
		</trkpt>
		<trkpt lat="34.710489" lon="127.198151">
			<ele>0.00</ele>
			<time>2020-01-20T01:56:23.39Z</time>
		</trkpt>
		<trkpt lat="34.710194" lon="127.198107">
			<ele>0.00</ele>
			<time>2020-01-20T01:56:25.37Z</time>
		</trkpt>
		<trkpt lat="34.709856" lon="127.198034">
			<ele>0.00</ele>
			<time>2020-01-20T01:56:27.66Z</time>
		</trkpt>
		<trkpt lat="34.709516" lon="127.197971">
			<ele>0.00</ele>
			<time>2020-01-20T01:56:29.96Z</time>
		</trkpt>
		<trkpt lat="34.709170" lon="127.197933">
			<ele>0.00</ele>
			<time>2020-01-20T01:56:32.27Z</time>
		</trkpt>
		<trkpt lat="34.708971" lon="127.197905">
			<ele>0.00</ele>
			<time>2020-01-20T01:56:33.61Z</time>
		</trkpt>
		<trkpt lat="34.708838" lon="127.197876">
			<ele>0.00</ele>
			<time>2020-01-20T01:56:34.50Z</time>
		</trkpt>
		<trkpt lat="34.708528" lon="127.197898">
			<ele>0.00</ele>
			<time>2020-01-20T01:56:36.58Z</time>
		</trkpt>
		<trkpt lat="34.708350" lon="127.197932">
			<ele>0.00</ele>
			<time>2020-01-20T01:56:37.78Z</time>
		</trkpt>
		<trkpt lat="34.708234" lon="127.198036">
			<ele>0.00</ele>
			<time>2020-01-20T01:56:38.74Z</time>
		</trkpt>
		<trkpt lat="34.708151" lon="127.198105">
			<ele>0.00</ele>
			<time>2020-01-20T01:56:39.41Z</time>
		</trkpt>
		<trkpt lat="34.708058" lon="127.198124">
			<ele>0.00</ele>
			<time>2020-01-20T01:56:40.04Z</time>
		</trkpt>
		<trkpt lat="34.707962" lon="127.198117">
			<ele>0.00</ele>
			<time>2020-01-20T01:56:40.68Z</time>
		</trkpt>
		<trkpt lat="34.707823" lon="127.198105">
			<ele>0.00</ele>
			<time>2020-01-20T01:56:41.61Z</time>
		</trkpt>
		<trkpt lat="34.707485" lon="127.198045">
			<ele>0.00</ele>
			<time>2020-01-20T01:56:43.88Z</time>
		</trkpt>
		<trkpt lat="34.707266" lon="127.197972">
			<ele>0.00</ele>
			<time>2020-01-20T01:56:45.40Z</time>
		</trkpt>
		<trkpt lat="34.707023" lon="127.197884">
			<ele>0.00</ele>
			<time>2020-01-20T01:56:47.09Z</time>
		</trkpt>
		<trkpt lat="34.706814" lon="127.197796">
			<ele>0.00</ele>
			<time>2020-01-20T01:56:48.56Z</time>
		</trkpt>
		<trkpt lat="34.706646" lon="127.197724">
			<ele>0.00</ele>
			<time>2020-01-20T01:56:49.75Z</time>
		</trkpt>
		<trkpt lat="34.706462" lon="127.197648">
			<ele>0.00</ele>
			<time>2020-01-20T01:56:51.04Z</time>
		</trkpt>
		<trkpt lat="34.706276" lon="127.197569">
			<ele>0.00</ele>
			<time>2020-01-20T01:56:52.36Z</time>
		</trkpt>
		<trkpt lat="34.706210" lon="127.197089">
			<ele>0.00</ele>
			<time>2020-01-20T01:56:55.02Z</time>
		</trkpt>
		<trkpt lat="34.706140" lon="127.196539">
			<ele>0.00</ele>
			<time>2020-01-20T01:56:58.07Z</time>
		</trkpt>
		<trkpt lat="34.706063" lon="127.195892">
			<ele>0.00</ele>
			<time>2020-01-20T01:57:01.66Z</time>
		</trkpt>
		<trkpt lat="34.706030" lon="127.195640">
			<ele>0.00</ele>
			<time>2020-01-20T01:57:03.05Z</time>
		</trkpt>
		<trkpt lat="34.705919" lon="127.195075">
			<ele>0.00</ele>
			<time>2020-01-20T01:57:06.24Z</time>
		</trkpt>
		<trkpt lat="34.705842" lon="127.194735">
			<ele>0.00</ele>
			<time>2020-01-20T01:57:08.17Z</time>
		</trkpt>
		<trkpt lat="34.705739" lon="127.194296">
			<ele>0.00</ele>
			<time>2020-01-20T01:57:10.68Z</time>
		</trkpt>
		<trkpt lat="34.705633" lon="127.193919">
			<ele>0.00</ele>
			<time>2020-01-20T01:57:12.86Z</time>
		</trkpt>
		<trkpt lat="34.705520" lon="127.193601">
			<ele>0.00</ele>
			<time>2020-01-20T01:57:14.76Z</time>
		</trkpt>
		<trkpt lat="34.705427" lon="127.193391">
			<ele>0.00</ele>
			<time>2020-01-20T01:57:16.07Z</time>
		</trkpt>
		<trkpt lat="34.705383" lon="127.193255">
			<ele>0.00</ele>
			<time>2020-01-20T01:57:16.86Z</time>
		</trkpt>
		<trkpt lat="34.705285" lon="127.193177">
			<ele>0.00</ele>
			<time>2020-01-20T01:57:17.65Z</time>
		</trkpt>
		<trkpt lat="34.705215" lon="127.193124">
			<ele>0.00</ele>
			<time>2020-01-20T01:57:18.20Z</time>
		</trkpt>
		<trkpt lat="34.705178" lon="127.193056">
			<ele>0.00</ele>
			<time>2020-01-20T01:57:18.64Z</time>
		</trkpt>
		<trkpt lat="34.705141" lon="127.192983">
			<ele>0.00</ele>
			<time>2020-01-20T01:57:19.11Z</time>
		</trkpt>
		<trkpt lat="34.705098" lon="127.192922">
			<ele>0.00</ele>
			<time>2020-01-20T01:57:19.55Z</time>
		</trkpt>
		<trkpt lat="34.705023" lon="127.192844">
			<ele>0.00</ele>
			<time>2020-01-20T01:57:20.21Z</time>
		</trkpt>
		<trkpt lat="34.704967" lon="127.192773">
			<ele>0.00</ele>
			<time>2020-01-20T01:57:20.75Z</time>
		</trkpt>
		<trkpt lat="34.704890" lon="127.192734">
			<ele>0.00</ele>
			<time>2020-01-20T01:57:21.31Z</time>
		</trkpt>
		<trkpt lat="34.704810" lon="127.192689">
			<ele>0.00</ele>
			<time>2020-01-20T01:57:21.90Z</time>
		</trkpt>
		<trkpt lat="34.704746" lon="127.192625">
			<ele>0.00</ele>
			<time>2020-01-20T01:57:22.45Z</time>
		</trkpt>
		<trkpt lat="34.704599" lon="127.192410">
			<ele>0.00</ele>
			<time>2020-01-20T01:57:23.98Z</time>
		</trkpt>
		<trkpt lat="34.704591" lon="127.192348">
			<ele>0.00</ele>
			<time>2020-01-20T01:57:24.33Z</time>
		</trkpt>
		<trkpt lat="34.704578" lon="127.192256">
			<ele>0.00</ele>
			<time>2020-01-20T01:57:24.84Z</time>
		</trkpt>
		<trkpt lat="34.704541" lon="127.192167">
			<ele>0.00</ele>
			<time>2020-01-20T01:57:25.38Z</time>
		</trkpt>
		<trkpt lat="34.704515" lon="127.192083">
			<ele>0.00</ele>
			<time>2020-01-20T01:57:25.87Z</time>
		</trkpt>
		<trkpt lat="34.704515" lon="127.192041">
			<ele>0.00</ele>
			<time>2020-01-20T01:57:26.10Z</time>
		</trkpt>
		<trkpt lat="34.704507" lon="127.191986">
			<ele>0.00</ele>
			<time>2020-01-20T01:57:26.41Z</time>
		</trkpt>
		<trkpt lat="34.704533" lon="127.191876">
			<ele>0.00</ele>
			<time>2020-01-20T01:57:27.04Z</time>
		</trkpt>
		<trkpt lat="34.704569" lon="127.191774">
			<ele>0.00</ele>
			<time>2020-01-20T01:57:27.65Z</time>
		</trkpt>
		<trkpt lat="34.704610" lon="127.191667">
			<ele>0.00</ele>
			<time>2020-01-20T01:57:28.30Z</time>
		</trkpt>
		<trkpt lat="34.704662" lon="127.191543">
			<ele>0.00</ele>
			<time>2020-01-20T01:57:29.05Z</time>
		</trkpt>
		<trkpt lat="34.704766" lon="127.191475">
			<ele>0.00</ele>
			<time>2020-01-20T01:57:29.84Z</time>
		</trkpt>
		<trkpt lat="34.704994" lon="127.191410">
			<ele>0.00</ele>
			<time>2020-01-20T01:57:31.40Z</time>
		</trkpt>
		<trkpt lat="34.705256" lon="127.191447">
			<ele>0.00</ele>
			<time>2020-01-20T01:57:33.16Z</time>
		</trkpt>
		<trkpt lat="34.705377" lon="127.191439">
			<ele>0.00</ele>
			<time>2020-01-20T01:57:33.97Z</time>
		</trkpt>
		<trkpt lat="34.705495" lon="127.191426">
			<ele>0.00</ele>
			<time>2020-01-20T01:57:34.76Z</time>
		</trkpt>
		<trkpt lat="34.705584" lon="127.191424">
			<ele>0.00</ele>
			<time>2020-01-20T01:57:35.35Z</time>
		</trkpt>
		<trkpt lat="34.705700" lon="127.191466">
			<ele>0.00</ele>
			<time>2020-01-20T01:57:36.16Z</time>
		</trkpt>
		<trkpt lat="34.705814" lon="127.191508">
			<ele>0.00</ele>
			<time>2020-01-20T01:57:36.95Z</time>
		</trkpt>
		<trkpt lat="34.705885" lon="127.191552">
			<ele>0.00</ele>
			<time>2020-01-20T01:57:37.49Z</time>
		</trkpt>
		<trkpt lat="34.705890" lon="127.191589">
			<ele>0.00</ele>
			<time>2020-01-20T01:57:37.69Z</time>
		</trkpt>
		<trkpt lat="34.705881" lon="127.191628">
			<ele>0.00</ele>
			<time>2020-01-20T01:57:37.91Z</time>
		</trkpt>
		<trkpt lat="34.705836" lon="127.191633">
			<ele>0.00</ele>
			<time>2020-01-20T01:57:38.22Z</time>
		</trkpt>
		<trkpt lat="34.705775" lon="127.191618">
			<ele>0.00</ele>
			<time>2020-01-20T01:57:38.63Z</time>
		</trkpt>
		<trkpt lat="34.705706" lon="127.191602">
			<ele>0.00</ele>
			<time>2020-01-20T01:57:39.10Z</time>
		</trkpt>
		<trkpt lat="34.705625" lon="127.191586">
			<ele>0.00</ele>
			<time>2020-01-20T01:57:39.65Z</time>
		</trkpt>
		<trkpt lat="34.705560" lon="127.191562">
			<ele>0.00</ele>
			<time>2020-01-20T01:57:40.10Z</time>
		</trkpt>
		<trkpt lat="34.705504" lon="127.191547">
			<ele>0.00</ele>
			<time>2020-01-20T01:57:40.48Z</time>
		</trkpt>
		<trkpt lat="34.705448" lon="127.191541">
			<ele>0.00</ele>
			<time>2020-01-20T01:57:40.85Z</time>
		</trkpt>
		<trkpt lat="34.705409" lon="127.191588">
			<ele>0.00</ele>
			<time>2020-01-20T01:57:41.22Z</time>
		</trkpt>
		<trkpt lat="34.705405" lon="127.191633">
			<ele>0.00</ele>
			<time>2020-01-20T01:57:41.47Z</time>
		</trkpt>
		<trkpt lat="34.705437" lon="127.191688">
			<ele>0.00</ele>
			<time>2020-01-20T01:57:41.84Z</time>
		</trkpt>
		<trkpt lat="34.705526" lon="127.191728">
			<ele>0.00</ele>
			<time>2020-01-20T01:57:42.46Z</time>
		</trkpt>
		<trkpt lat="34.705653" lon="127.191759">
			<ele>0.00</ele>
			<time>2020-01-20T01:57:43.33Z</time>
		</trkpt>
		<trkpt lat="34.705767" lon="127.191775">
			<ele>0.00</ele>
			<time>2020-01-20T01:57:44.09Z</time>
		</trkpt>
		<trkpt lat="34.705909" lon="127.191835">
			<ele>0.00</ele>
			<time>2020-01-20T01:57:45.10Z</time>
		</trkpt>
		<trkpt lat="34.705973" lon="127.191848">
			<ele>0.00</ele>
			<time>2020-01-20T01:57:45.53Z</time>
		</trkpt>
		<trkpt lat="34.706114" lon="127.191754">
			<ele>0.00</ele>
			<time>2020-01-20T01:57:46.60Z</time>
		</trkpt>
		<trkpt lat="34.706295" lon="127.191649">
			<ele>0.00</ele>
			<time>2020-01-20T01:57:47.94Z</time>
		</trkpt>
		<trkpt lat="34.706485" lon="127.191534">
			<ele>0.00</ele>
			<time>2020-01-20T01:57:49.35Z</time>
		</trkpt>
		<trkpt lat="34.706627" lon="127.191442">
			<ele>0.00</ele>
			<time>2020-01-20T01:57:50.43Z</time>
		</trkpt>
		<trkpt lat="34.706782" lon="127.191322">
			<ele>0.00</ele>
			<time>2020-01-20T01:57:51.65Z</time>
		</trkpt>
		<trkpt lat="34.706898" lon="127.191215">
			<ele>0.00</ele>
			<time>2020-01-20T01:57:52.63Z</time>
		</trkpt>
		<trkpt lat="34.706978" lon="127.191144">
			<ele>0.00</ele>
			<time>2020-01-20T01:57:53.28Z</time>
		</trkpt>
		<trkpt lat="34.706592" lon="127.190979">
			<ele>0.00</ele>
			<time>2020-01-20T01:57:56.01Z</time>
		</trkpt>
		<trkpt lat="34.706304" lon="127.190855">
			<ele>0.00</ele>
			<time>2020-01-20T01:57:58.05Z</time>
		</trkpt>
		<trkpt lat="34.706149" lon="127.190701">
			<ele>0.00</ele>
			<time>2020-01-20T01:57:59.38Z</time>
		</trkpt>
		<trkpt lat="34.706035" lon="127.190577">
			<ele>0.00</ele>
			<time>2020-01-20T01:58:00.40Z</time>
		</trkpt>
		<trkpt lat="34.705985" lon="127.190467">
			<ele>0.00</ele>
			<time>2020-01-20T01:58:01.09Z</time>
		</trkpt>
		<trkpt lat="34.705908" lon="127.190352">
			<ele>0.00</ele>
			<time>2020-01-20T01:58:01.90Z</time>
		</trkpt>
		<trkpt lat="34.705848" lon="127.190197">
			<ele>0.00</ele>
			<time>2020-01-20T01:58:02.84Z</time>
		</trkpt>
		<trkpt lat="34.705794" lon="127.190069">
			<ele>0.00</ele>
			<time>2020-01-20T01:58:03.63Z</time>
		</trkpt>
		<trkpt lat="34.705792" lon="127.190061">
			<ele>0.00</ele>
			<time>2020-01-20T01:58:03.69Z</time>
		</trkpt>
		<trkpt lat="34.705727" lon="127.189928">
			<ele>0.00</ele>
			<time>2020-01-20T01:58:04.54Z</time>
		</trkpt>
		<trkpt lat="34.705646" lon="127.189815">
			<ele>0.00</ele>
			<time>2020-01-20T01:58:05.36Z</time>
		</trkpt>
		<trkpt lat="34.705525" lon="127.189705">
			<ele>0.00</ele>
			<time>2020-01-20T01:58:06.37Z</time>
		</trkpt>
		<trkpt lat="34.705434" lon="127.189645">
			<ele>0.00</ele>
			<time>2020-01-20T01:58:07.06Z</time>
		</trkpt>
		<trkpt lat="34.705246" lon="127.189642">
			<ele>0.00</ele>
			<time>2020-01-20T01:58:08.31Z</time>
		</trkpt>
		<trkpt lat="34.705091" lon="127.189653">
			<ele>0.00</ele>
			<time>2020-01-20T01:58:09.34Z</time>
		</trkpt>
		<trkpt lat="34.704908" lon="127.189668">
			<ele>0.00</ele>
			<time>2020-01-20T01:58:10.57Z</time>
		</trkpt>
		<trkpt lat="34.704710" lon="127.189668">
			<ele>0.00</ele>
			<time>2020-01-20T01:58:11.89Z</time>
		</trkpt>
		<trkpt lat="34.704568" lon="127.189663">
			<ele>0.00</ele>
			<time>2020-01-20T01:58:12.84Z</time>
		</trkpt>
		<trkpt lat="34.704411" lon="127.189618">
			<ele>0.00</ele>
			<time>2020-01-20T01:58:13.91Z</time>
		</trkpt>
		<trkpt lat="34.704260" lon="127.189532">
			<ele>0.00</ele>
			<time>2020-01-20T01:58:15.02Z</time>
		</trkpt>
		<trkpt lat="34.704133" lon="127.189458">
			<ele>0.00</ele>
			<time>2020-01-20T01:58:15.96Z</time>
		</trkpt>
		<trkpt lat="34.703870" lon="127.189273">
			<ele>0.00</ele>
			<time>2020-01-20T01:58:17.99Z</time>
		</trkpt>
		<trkpt lat="34.703655" lon="127.189129">
			<ele>0.00</ele>
			<time>2020-01-20T01:58:19.62Z</time>
		</trkpt>
		<trkpt lat="34.703504" lon="127.189037">
			<ele>0.00</ele>
			<time>2020-01-20T01:58:20.75Z</time>
		</trkpt>
		<trkpt lat="34.703321" lon="127.188956">
			<ele>0.00</ele>
			<time>2020-01-20T01:58:22.05Z</time>
		</trkpt>
		<trkpt lat="34.703192" lon="127.188930">
			<ele>0.00</ele>
			<time>2020-01-20T01:58:22.92Z</time>
		</trkpt>
		<trkpt lat="34.703043" lon="127.188911">
			<ele>0.00</ele>
			<time>2020-01-20T01:58:23.92Z</time>
		</trkpt>
		<trkpt lat="34.702854" lon="127.188940">
			<ele>0.00</ele>
			<time>2020-01-20T01:58:25.19Z</time>
		</trkpt>
		<trkpt lat="34.702684" lon="127.188995">
			<ele>0.00</ele>
			<time>2020-01-20T01:58:26.36Z</time>
		</trkpt>
		<trkpt lat="34.702519" lon="127.189081">
			<ele>0.00</ele>
			<time>2020-01-20T01:58:27.56Z</time>
		</trkpt>
		<trkpt lat="34.702317" lon="127.189126">
			<ele>0.00</ele>
			<time>2020-01-20T01:58:28.93Z</time>
		</trkpt>
		<trkpt lat="34.702144" lon="127.189152">
			<ele>0.00</ele>
			<time>2020-01-20T01:58:30.09Z</time>
		</trkpt>
		<trkpt lat="34.701981" lon="127.189144">
			<ele>0.00</ele>
			<time>2020-01-20T01:58:31.18Z</time>
		</trkpt>
		<trkpt lat="34.701817" lon="127.189133">
			<ele>0.00</ele>
			<time>2020-01-20T01:58:32.27Z</time>
		</trkpt>
		<trkpt lat="34.701630" lon="127.189099">
			<ele>0.00</ele>
			<time>2020-01-20T01:58:33.53Z</time>
		</trkpt>
		<trkpt lat="34.701503" lon="127.189057">
			<ele>0.00</ele>
			<time>2020-01-20T01:58:34.41Z</time>
		</trkpt>
		<trkpt lat="34.701363" lon="127.188952">
			<ele>0.00</ele>
			<time>2020-01-20T01:58:35.51Z</time>
		</trkpt>
		<trkpt lat="34.701178" lon="127.188790">
			<ele>0.00</ele>
			<time>2020-01-20T01:58:37.03Z</time>
		</trkpt>
		<trkpt lat="34.701012" lon="127.188617">
			<ele>0.00</ele>
			<time>2020-01-20T01:58:38.49Z</time>
		</trkpt>
		<trkpt lat="34.700842" lon="127.188467">
			<ele>0.00</ele>
			<time>2020-01-20T01:58:39.88Z</time>
		</trkpt>
		<trkpt lat="34.700764" lon="127.188395">
			<ele>0.00</ele>
			<time>2020-01-20T01:58:40.54Z</time>
		</trkpt>
		<trkpt lat="34.700663" lon="127.188306">
			<ele>0.00</ele>
			<time>2020-01-20T01:58:41.37Z</time>
		</trkpt>
		<trkpt lat="34.700559" lon="127.188203">
			<ele>0.00</ele>
			<time>2020-01-20T01:58:42.26Z</time>
		</trkpt>
		<trkpt lat="34.700445" lon="127.188096">
			<ele>0.00</ele>
			<time>2020-01-20T01:58:43.22Z</time>
		</trkpt>
		<trkpt lat="34.700331" lon="127.188002">
			<ele>0.00</ele>
			<time>2020-01-20T01:58:44.14Z</time>
		</trkpt>
		<trkpt lat="34.700189" lon="127.187902">
			<ele>0.00</ele>
			<time>2020-01-20T01:58:45.23Z</time>
		</trkpt>
		<trkpt lat="34.700071" lon="127.187805">
			<ele>0.00</ele>
			<time>2020-01-20T01:58:46.19Z</time>
		</trkpt>
		<trkpt lat="34.699892" lon="127.187661">
			<ele>0.00</ele>
			<time>2020-01-20T01:58:47.62Z</time>
		</trkpt>
		<trkpt lat="34.699797" lon="127.187572">
			<ele>0.00</ele>
			<time>2020-01-20T01:58:48.41Z</time>
		</trkpt>
		<trkpt lat="34.699668" lon="127.187467">
			<ele>0.00</ele>
			<time>2020-01-20T01:58:49.45Z</time>
		</trkpt>
		<trkpt lat="34.699567" lon="127.187365">
			<ele>0.00</ele>
			<time>2020-01-20T01:58:50.33Z</time>
		</trkpt>
		<trkpt lat="34.699459" lon="127.187278">
			<ele>0.00</ele>
			<time>2020-01-20T01:58:51.19Z</time>
		</trkpt>
		<trkpt lat="34.699339" lon="127.187226">
			<ele>0.00</ele>
			<time>2020-01-20T01:58:52.04Z</time>
		</trkpt>
		<trkpt lat="34.699216" lon="127.187178">
			<ele>0.00</ele>
			<time>2020-01-20T01:58:52.90Z</time>
		</trkpt>
		<trkpt lat="34.699035" lon="127.187128">
			<ele>0.00</ele>
			<time>2020-01-20T01:58:54.14Z</time>
		</trkpt>
		<trkpt lat="34.698789" lon="127.187081">
			<ele>0.00</ele>
			<time>2020-01-20T01:58:55.79Z</time>
		</trkpt>
		<trkpt lat="34.698669" lon="127.187047">
			<ele>0.00</ele>
			<time>2020-01-20T01:58:56.62Z</time>
		</trkpt>
		<trkpt lat="34.698518" lon="127.187018">
			<ele>0.00</ele>
			<time>2020-01-20T01:58:57.64Z</time>
		</trkpt>
		<trkpt lat="34.698393" lon="127.186932">
			<ele>0.00</ele>
			<time>2020-01-20T01:58:58.59Z</time>
		</trkpt>
		<trkpt lat="34.698251" lon="127.186832">
			<ele>0.00</ele>
			<time>2020-01-20T01:58:59.69Z</time>
		</trkpt>
		<trkpt lat="34.698152" lon="127.186753">
			<ele>0.00</ele>
			<time>2020-01-20T01:59:00.48Z</time>
		</trkpt>
		<trkpt lat="34.698083" lon="127.186663">
			<ele>0.00</ele>
			<time>2020-01-20T01:59:01.15Z</time>
		</trkpt>
		<trkpt lat="34.697967" lon="127.186453">
			<ele>0.00</ele>
			<time>2020-01-20T01:59:02.54Z</time>
		</trkpt>
		<trkpt lat="34.697848" lon="127.186181">
			<ele>0.00</ele>
			<time>2020-01-20T01:59:04.23Z</time>
		</trkpt>
		<trkpt lat="34.697758" lon="127.185926">
			<ele>0.00</ele>
			<time>2020-01-20T01:59:05.75Z</time>
		</trkpt>
		<trkpt lat="34.697670" lon="127.185670">
			<ele>0.00</ele>
			<time>2020-01-20T01:59:07.27Z</time>
		</trkpt>
		<trkpt lat="34.697569" lon="127.185431">
			<ele>0.00</ele>
			<time>2020-01-20T01:59:08.74Z</time>
		</trkpt>
		<trkpt lat="34.697476" lon="127.185169">
			<ele>0.00</ele>
			<time>2020-01-20T01:59:10.30Z</time>
		</trkpt>
		<trkpt lat="34.697405" lon="127.184928">
			<ele>0.00</ele>
			<time>2020-01-20T01:59:11.71Z</time>
		</trkpt>
		<trkpt lat="34.697328" lon="127.184724">
			<ele>0.00</ele>
			<time>2020-01-20T01:59:12.94Z</time>
		</trkpt>
		<trkpt lat="34.697328" lon="127.184724">
			<ele>0.00</ele>
			<time>2020-01-20T01:59:13Z</time>
		</trkpt>
		<trkpt lat="34.697246" lon="127.184538">
			<ele>0.00</ele>
			<time>2020-01-20T01:59:14.16Z</time>
		</trkpt>
		<trkpt lat="34.697153" lon="127.184370">
			<ele>0.00</ele>
			<time>2020-01-20T01:59:15.26Z</time>
		</trkpt>
		<trkpt lat="34.697098" lon="127.184273">
			<ele>0.00</ele>
			<time>2020-01-20T01:59:15.91Z</time>
		</trkpt>
		<trkpt lat="34.697016" lon="127.184197">
			<ele>0.00</ele>
			<time>2020-01-20T01:59:16.60Z</time>
		</trkpt>
		<trkpt lat="34.696936" lon="127.184116">
			<ele>0.00</ele>
			<time>2020-01-20T01:59:17.29Z</time>
		</trkpt>
		<trkpt lat="34.696930" lon="127.184103">
			<ele>0.00</ele>
			<time>2020-01-20T01:59:17.38Z</time>
		</trkpt>
		<trkpt lat="34.696839" lon="127.183985">
			<ele>0.00</ele>
			<time>2020-01-20T01:59:18.26Z</time>
		</trkpt>
		<trkpt lat="34.696699" lon="127.183859">
			<ele>0.00</ele>
			<time>2020-01-20T01:59:19.42Z</time>
		</trkpt>
		<trkpt lat="34.696531" lon="127.183676">
			<ele>0.00</ele>
			<time>2020-01-20T01:59:20.93Z</time>
		</trkpt>
		<trkpt lat="34.696404" lon="127.183600">
			<ele>0.00</ele>
			<time>2020-01-20T01:59:21.87Z</time>
		</trkpt>
		<extensions>
			<gte:name>#449</gte:name>
			<gte:color>#d13838</gte:color>
		</extensions>
	</trkseg>
</trk>
</gpx>