<?xml version="1.0" encoding="UTF-8"?>
<gpx version="1.1" creator="GPS Track Editor" xmlns="http://www.topografix.com/GPX/1/1" xmlns:xsi="http://www.w3.org/2001/XMLSchema-instance" xmlns:gte="http://www.gpstrackeditor.com/xmlschemas/General/1" xmlns:gpxtpx="http://www.garmin.com/xmlschemas/TrackPointExtension/v1" xmlns:gpxx="http://www.garmin.com/xmlschemas/GpxExtensions/v3" targetNamespace="http://www.topografix.com/GPX/1/1" elementFormDefault="qualified" xsi:schemaLocation="http://www.topografix.com/GPX/1/1 http://www.topografix.com/GPX/1/1/gpx.xsd">
<metadata>
	<name>GPS_2020-01-19_203009</name>
</metadata>
<trk>
	<name>061-순천시 해룡면 상내리 와온삼거리 정류장~순천 별량면 학산리 별량화포</name>
	<trkseg>
		<trkpt lat="34.844558" lon="127.540929">
			<ele>0.00</ele>
			<time>2020-01-19T20:30:09.22Z</time>
		</trkpt>
		<trkpt lat="34.844406" lon="127.540852">
			<ele>0.00</ele>
			<time>2020-01-19T20:30:10.32Z</time>
		</trkpt>
		<trkpt lat="34.844224" lon="127.540843">
			<ele>0.00</ele>
			<time>2020-01-19T20:30:11.53Z</time>
		</trkpt>
		<trkpt lat="34.844042" lon="127.540760">
			<ele>0.00</ele>
			<time>2020-01-19T20:30:12.83Z</time>
		</trkpt>
		<trkpt lat="34.843821" lon="127.540617">
			<ele>0.00</ele>
			<time>2020-01-19T20:30:14.50Z</time>
		</trkpt>
		<trkpt lat="34.843579" lon="127.540507">
			<ele>0.00</ele>
			<time>2020-01-19T20:30:16.22Z</time>
		</trkpt>
		<trkpt lat="34.843372" lon="127.540444">
			<ele>0.00</ele>
			<time>2020-01-19T20:30:17.64Z</time>
		</trkpt>
		<trkpt lat="34.843111" lon="127.540358">
			<ele>0.00</ele>
			<time>2020-01-19T20:30:19.44Z</time>
		</trkpt>
		<trkpt lat="34.842857" lon="127.540273">
			<ele>0.00</ele>
			<time>2020-01-19T20:30:21.20Z</time>
		</trkpt>
		<trkpt lat="34.842530" lon="127.540087">
			<ele>0.00</ele>
			<time>2020-01-19T20:30:23.60Z</time>
		</trkpt>
		<trkpt lat="34.842265" lon="127.539902">
			<ele>0.00</ele>
			<time>2020-01-19T20:30:25.64Z</time>
		</trkpt>
		<trkpt lat="34.842014" lon="127.539644">
			<ele>0.00</ele>
			<time>2020-01-19T20:30:27.83Z</time>
		</trkpt>
		<trkpt lat="34.841811" lon="127.539393">
			<ele>0.00</ele>
			<time>2020-01-19T20:30:29.76Z</time>
		</trkpt>
		<trkpt lat="34.841711" lon="127.539108">
			<ele>0.00</ele>
			<time>2020-01-19T20:30:31.45Z</time>
		</trkpt>
		<trkpt lat="34.841631" lon="127.538824">
			<ele>0.00</ele>
			<time>2020-01-19T20:30:33.10Z</time>
		</trkpt>
		<trkpt lat="34.841615" lon="127.538443">
			<ele>0.00</ele>
			<time>2020-01-19T20:30:35.19Z</time>
		</trkpt>
		<trkpt lat="34.841656" lon="127.538015">
			<ele>0.00</ele>
			<time>2020-01-19T20:30:37.55Z</time>
		</trkpt>
		<trkpt lat="34.841639" lon="127.537548">
			<ele>0.00</ele>
			<time>2020-01-19T20:30:40.10Z</time>
		</trkpt>
		<trkpt lat="34.841641" lon="127.537344">
			<ele>0.00</ele>
			<time>2020-01-19T20:30:41.22Z</time>
		</trkpt>
		<trkpt lat="34.841675" lon="127.537178">
			<ele>0.00</ele>
			<time>2020-01-19T20:30:42.15Z</time>
		</trkpt>
		<trkpt lat="34.841699" lon="127.536982">
			<ele>0.00</ele>
			<time>2020-01-19T20:30:43.24Z</time>
		</trkpt>
		<trkpt lat="34.841713" lon="127.536854">
			<ele>0.00</ele>
			<time>2020-01-19T20:30:43.95Z</time>
		</trkpt>
		<trkpt lat="34.841733" lon="127.536656">
			<ele>0.00</ele>
			<time>2020-01-19T20:30:45.04Z</time>
		</trkpt>
		<trkpt lat="34.841750" lon="127.536523">
			<ele>0.00</ele>
			<time>2020-01-19T20:30:45.77Z</time>
		</trkpt>
		<trkpt lat="34.841771" lon="127.536332">
			<ele>0.00</ele>
			<time>2020-01-19T20:30:46.83Z</time>
		</trkpt>
		<trkpt lat="34.841832" lon="127.536122">
			<ele>0.00</ele>
			<time>2020-01-19T20:30:48.05Z</time>
		</trkpt>
		<trkpt lat="34.841893" lon="127.535885">
			<ele>0.00</ele>
			<time>2020-01-19T20:30:49.41Z</time>
		</trkpt>
		<trkpt lat="34.841947" lon="127.535692">
			<ele>0.00</ele>
			<time>2020-01-19T20:30:50.52Z</time>
		</trkpt>
		<trkpt lat="34.842032" lon="127.535466">
			<ele>0.00</ele>
			<time>2020-01-19T20:30:51.88Z</time>
		</trkpt>
		<trkpt lat="34.842074" lon="127.535298">
			<ele>0.00</ele>
			<time>2020-01-19T20:30:52.84Z</time>
		</trkpt>
		<trkpt lat="34.842131" lon="127.535085">
			<ele>0.00</ele>
			<time>2020-01-19T20:30:54.07Z</time>
		</trkpt>
		<trkpt lat="34.842181" lon="127.534914">
			<ele>0.00</ele>
			<time>2020-01-19T20:30:55.06Z</time>
		</trkpt>
		<trkpt lat="34.842224" lon="127.534794">
			<ele>0.00</ele>
			<time>2020-01-19T20:30:55.78Z</time>
		</trkpt>
		<trkpt lat="34.842278" lon="127.534650">
			<ele>0.00</ele>
			<time>2020-01-19T20:30:56.65Z</time>
		</trkpt>
		<trkpt lat="34.842332" lon="127.534556">
			<ele>0.00</ele>
			<time>2020-01-19T20:30:57.27Z</time>
		</trkpt>
		<trkpt lat="34.842396" lon="127.534413">
			<ele>0.00</ele>
			<time>2020-01-19T20:30:58.16Z</time>
		</trkpt>
		<trkpt lat="34.842450" lon="127.534253">
			<ele>0.00</ele>
			<time>2020-01-19T20:30:59.11Z</time>
		</trkpt>
		<trkpt lat="34.842520" lon="127.534083">
			<ele>0.00</ele>
			<time>2020-01-19T20:31:00.15Z</time>
		</trkpt>
		<trkpt lat="34.842569" lon="127.533962">
			<ele>0.00</ele>
			<time>2020-01-19T20:31:00.89Z</time>
		</trkpt>
		<trkpt lat="34.842641" lon="127.533842">
			<ele>0.00</ele>
			<time>2020-01-19T20:31:01.71Z</time>
		</trkpt>
		<trkpt lat="34.842734" lon="127.533810">
			<ele>0.00</ele>
			<time>2020-01-19T20:31:02.35Z</time>
		</trkpt>
		<trkpt lat="34.842831" lon="127.533706">
			<ele>0.00</ele>
			<time>2020-01-19T20:31:03.21Z</time>
		</trkpt>
		<trkpt lat="34.842936" lon="127.533624">
			<ele>0.00</ele>
			<time>2020-01-19T20:31:04.04Z</time>
		</trkpt>
		<trkpt lat="34.843070" lon="127.533507">
			<ele>0.00</ele>
			<time>2020-01-19T20:31:05.14Z</time>
		</trkpt>
		<trkpt lat="34.843217" lon="127.533400">
			<ele>0.00</ele>
			<time>2020-01-19T20:31:06.28Z</time>
		</trkpt>
		<trkpt lat="34.843301" lon="127.533289">
			<ele>0.00</ele>
			<time>2020-01-19T20:31:07.11Z</time>
		</trkpt>
		<trkpt lat="34.843348" lon="127.533202">
			<ele>0.00</ele>
			<time>2020-01-19T20:31:07.67Z</time>
		</trkpt>
		<trkpt lat="34.843421" lon="127.533096">
			<ele>0.00</ele>
			<time>2020-01-19T20:31:08.43Z</time>
		</trkpt>
		<trkpt lat="34.843477" lon="127.532933">
			<ele>0.00</ele>
			<time>2020-01-19T20:31:09.40Z</time>
		</trkpt>
		<trkpt lat="34.843554" lon="127.532737">
			<ele>0.00</ele>
			<time>2020-01-19T20:31:10.59Z</time>
		</trkpt>
		<trkpt lat="34.843656" lon="127.532544">
			<ele>0.00</ele>
			<time>2020-01-19T20:31:11.85Z</time>
		</trkpt>
		<trkpt lat="34.843734" lon="127.532375">
			<ele>0.00</ele>
			<time>2020-01-19T20:31:12.90Z</time>
		</trkpt>
		<trkpt lat="34.843815" lon="127.532178">
			<ele>0.00</ele>
			<time>2020-01-19T20:31:14.11Z</time>
		</trkpt>
		<trkpt lat="34.843896" lon="127.531973">
			<ele>0.00</ele>
			<time>2020-01-19T20:31:15.36Z</time>
		</trkpt>
		<trkpt lat="34.843990" lon="127.531813">
			<ele>0.00</ele>
			<time>2020-01-19T20:31:16.43Z</time>
		</trkpt>
		<trkpt lat="34.844074" lon="127.531615">
			<ele>0.00</ele>
			<time>2020-01-19T20:31:17.65Z</time>
		</trkpt>
		<trkpt lat="34.844110" lon="127.531492">
			<ele>0.00</ele>
			<time>2020-01-19T20:31:18.37Z</time>
		</trkpt>
		<trkpt lat="34.844110" lon="127.531353">
			<ele>0.00</ele>
			<time>2020-01-19T20:31:19.13Z</time>
		</trkpt>
		<trkpt lat="34.844056" lon="127.531233">
			<ele>0.00</ele>
			<time>2020-01-19T20:31:19.88Z</time>
		</trkpt>
		<trkpt lat="34.844062" lon="127.531106">
			<ele>0.00</ele>
			<time>2020-01-19T20:31:20.57Z</time>
		</trkpt>
		<trkpt lat="34.844104" lon="127.530958">
			<ele>0.00</ele>
			<time>2020-01-19T20:31:21.43Z</time>
		</trkpt>
		<trkpt lat="34.844170" lon="127.530870">
			<ele>0.00</ele>
			<time>2020-01-19T20:31:22.08Z</time>
		</trkpt>
		<trkpt lat="34.844190" lon="127.530721">
			<ele>0.00</ele>
			<time>2020-01-19T20:31:22.90Z</time>
		</trkpt>
		<trkpt lat="34.844220" lon="127.530487">
			<ele>0.00</ele>
			<time>2020-01-19T20:31:24.20Z</time>
		</trkpt>
		<trkpt lat="34.844294" lon="127.530361">
			<ele>0.00</ele>
			<time>2020-01-19T20:31:25.05Z</time>
		</trkpt>
		<trkpt lat="34.844399" lon="127.530211">
			<ele>0.00</ele>
			<time>2020-01-19T20:31:26.13Z</time>
		</trkpt>
		<trkpt lat="34.844509" lon="127.530038">
			<ele>0.00</ele>
			<time>2020-01-19T20:31:27.33Z</time>
		</trkpt>
		<trkpt lat="34.844651" lon="127.529868">
			<ele>0.00</ele>
			<time>2020-01-19T20:31:28.65Z</time>
		</trkpt>
		<trkpt lat="34.844767" lon="127.529745">
			<ele>0.00</ele>
			<time>2020-01-19T20:31:29.68Z</time>
		</trkpt>
		<trkpt lat="34.844884" lon="127.529663">
			<ele>0.00</ele>
			<time>2020-01-19T20:31:30.58Z</time>
		</trkpt>
		<trkpt lat="34.844979" lon="127.529463">
			<ele>0.00</ele>
			<time>2020-01-19T20:31:31.84Z</time>
		</trkpt>
		<trkpt lat="34.845099" lon="127.529289">
			<ele>0.00</ele>
			<time>2020-01-19T20:31:33.08Z</time>
		</trkpt>
		<trkpt lat="34.845241" lon="127.529162">
			<ele>0.00</ele>
			<time>2020-01-19T20:31:34.26Z</time>
		</trkpt>
		<trkpt lat="34.845400" lon="127.529058">
			<ele>0.00</ele>
			<time>2020-01-19T20:31:35.46Z</time>
		</trkpt>
		<trkpt lat="34.845594" lon="127.528973">
			<ele>0.00</ele>
			<time>2020-01-19T20:31:36.83Z</time>
		</trkpt>
		<trkpt lat="34.845733" lon="127.528864">
			<ele>0.00</ele>
			<time>2020-01-19T20:31:37.94Z</time>
		</trkpt>
		<trkpt lat="34.845837" lon="127.528739">
			<ele>0.00</ele>
			<time>2020-01-19T20:31:38.91Z</time>
		</trkpt>
		<trkpt lat="34.845888" lon="127.528603">
			<ele>0.00</ele>
			<time>2020-01-19T20:31:39.73Z</time>
		</trkpt>
		<trkpt lat="34.845919" lon="127.528428">
			<ele>0.00</ele>
			<time>2020-01-19T20:31:40.71Z</time>
		</trkpt>
		<trkpt lat="34.845939" lon="127.528271">
			<ele>0.00</ele>
			<time>2020-01-19T20:31:41.58Z</time>
		</trkpt>
		<trkpt lat="34.845961" lon="127.528050">
			<ele>0.00</ele>
			<time>2020-01-19T20:31:42.79Z</time>
		</trkpt>
		<trkpt lat="34.846055" lon="127.527994">
			<ele>0.00</ele>
			<time>2020-01-19T20:31:43.49Z</time>
		</trkpt>
		<trkpt lat="34.846162" lon="127.527962">
			<ele>0.00</ele>
			<time>2020-01-19T20:31:44.23Z</time>
		</trkpt>
		<trkpt lat="34.846270" lon="127.527920">
			<ele>0.00</ele>
			<time>2020-01-19T20:31:44.98Z</time>
		</trkpt>
		<trkpt lat="34.846341" lon="127.527888">
			<ele>0.00</ele>
			<time>2020-01-19T20:31:45.48Z</time>
		</trkpt>
		<trkpt lat="34.846445" lon="127.527731">
			<ele>0.00</ele>
			<time>2020-01-19T20:31:46.59Z</time>
		</trkpt>
		<trkpt lat="34.846523" lon="127.527592">
			<ele>0.00</ele>
			<time>2020-01-19T20:31:47.51Z</time>
		</trkpt>
		<trkpt lat="34.846605" lon="127.527436">
			<ele>0.00</ele>
			<time>2020-01-19T20:31:48.52Z</time>
		</trkpt>
		<trkpt lat="34.846689" lon="127.527304">
			<ele>0.00</ele>
			<time>2020-01-19T20:31:49.44Z</time>
		</trkpt>
		<trkpt lat="34.846882" lon="127.527274">
			<ele>0.00</ele>
			<time>2020-01-19T20:31:50.73Z</time>
		</trkpt>
		<trkpt lat="34.847037" lon="127.527291">
			<ele>0.00</ele>
			<time>2020-01-19T20:31:51.77Z</time>
		</trkpt>
		<trkpt lat="34.847192" lon="127.527288">
			<ele>0.00</ele>
			<time>2020-01-19T20:31:52.81Z</time>
		</trkpt>
		<trkpt lat="34.847324" lon="127.527289">
			<ele>0.00</ele>
			<time>2020-01-19T20:31:53.69Z</time>
		</trkpt>
		<trkpt lat="34.847447" lon="127.527300">
			<ele>0.00</ele>
			<time>2020-01-19T20:31:54.51Z</time>
		</trkpt>
		<trkpt lat="34.847530" lon="127.527255">
			<ele>0.00</ele>
			<time>2020-01-19T20:31:55.11Z</time>
		</trkpt>
		<trkpt lat="34.847649" lon="127.527146">
			<ele>0.00</ele>
			<time>2020-01-19T20:31:56.11Z</time>
		</trkpt>
		<trkpt lat="34.847739" lon="127.527104">
			<ele>0.00</ele>
			<time>2020-01-19T20:31:56.75Z</time>
		</trkpt>
		<trkpt lat="34.847823" lon="127.527079">
			<ele>0.00</ele>
			<time>2020-01-19T20:31:57.33Z</time>
		</trkpt>
		<trkpt lat="34.847959" lon="127.527022">
			<ele>0.00</ele>
			<time>2020-01-19T20:31:58.28Z</time>
		</trkpt>
		<trkpt lat="34.848060" lon="127.526949">
			<ele>0.00</ele>
			<time>2020-01-19T20:31:59.07Z</time>
		</trkpt>
		<trkpt lat="34.848158" lon="127.526846">
			<ele>0.00</ele>
			<time>2020-01-19T20:31:59.93Z</time>
		</trkpt>
		<trkpt lat="34.848293" lon="127.526776">
			<ele>0.00</ele>
			<time>2020-01-19T20:32:00.91Z</time>
		</trkpt>
		<trkpt lat="34.848375" lon="127.526732">
			<ele>0.00</ele>
			<time>2020-01-19T20:32:01.50Z</time>
		</trkpt>
		<trkpt lat="34.848442" lon="127.526696">
			<ele>0.00</ele>
			<time>2020-01-19T20:32:01.99Z</time>
		</trkpt>
		<trkpt lat="34.848466" lon="127.526645">
			<ele>0.00</ele>
			<time>2020-01-19T20:32:02.32Z</time>
		</trkpt>
		<trkpt lat="34.848426" lon="127.526539">
			<ele>0.00</ele>
			<time>2020-01-19T20:32:02.95Z</time>
		</trkpt>
		<trkpt lat="34.848370" lon="127.526426">
			<ele>0.00</ele>
			<time>2020-01-19T20:32:03.68Z</time>
		</trkpt>
		<trkpt lat="34.848267" lon="127.526313">
			<ele>0.00</ele>
			<time>2020-01-19T20:32:04.60Z</time>
		</trkpt>
		<trkpt lat="34.848162" lon="127.526271">
			<ele>0.00</ele>
			<time>2020-01-19T20:32:05.34Z</time>
		</trkpt>
		<trkpt lat="34.848105" lon="127.526102">
			<ele>0.00</ele>
			<time>2020-01-19T20:32:06.33Z</time>
		</trkpt>
		<trkpt lat="34.848056" lon="127.525984">
			<ele>0.00</ele>
			<time>2020-01-19T20:32:07.06Z</time>
		</trkpt>
		<trkpt lat="34.847962" lon="127.525867">
			<ele>0.00</ele>
			<time>2020-01-19T20:32:07.96Z</time>
		</trkpt>
		<trkpt lat="34.847897" lon="127.525777">
			<ele>0.00</ele>
			<time>2020-01-19T20:32:08.61Z</time>
		</trkpt>
		<trkpt lat="34.847800" lon="127.525689">
			<ele>0.00</ele>
			<time>2020-01-19T20:32:09.42Z</time>
		</trkpt>
		<trkpt lat="34.847679" lon="127.525663">
			<ele>0.00</ele>
			<time>2020-01-19T20:32:10.24Z</time>
		</trkpt>
		<trkpt lat="34.847545" lon="127.525690">
			<ele>0.00</ele>
			<time>2020-01-19T20:32:11.14Z</time>
		</trkpt>
		<trkpt lat="34.847471" lon="127.525621">
			<ele>0.00</ele>
			<time>2020-01-19T20:32:11.76Z</time>
		</trkpt>
		<trkpt lat="34.847421" lon="127.525528">
			<ele>0.00</ele>
			<time>2020-01-19T20:32:12.37Z</time>
		</trkpt>
		<trkpt lat="34.847350" lon="127.525441">
			<ele>0.00</ele>
			<time>2020-01-19T20:32:13.05Z</time>
		</trkpt>
		<trkpt lat="34.847269" lon="127.525398">
			<ele>0.00</ele>
			<time>2020-01-19T20:32:13.63Z</time>
		</trkpt>
		<trkpt lat="34.847164" lon="127.525409">
			<ele>0.00</ele>
			<time>2020-01-19T20:32:14.34Z</time>
		</trkpt>
		<trkpt lat="34.847068" lon="127.525370">
			<ele>0.00</ele>
			<time>2020-01-19T20:32:15.01Z</time>
		</trkpt>
		<trkpt lat="34.847010" lon="127.525225">
			<ele>0.00</ele>
			<time>2020-01-19T20:32:15.90Z</time>
		</trkpt>
		<trkpt lat="34.846951" lon="127.525073">
			<ele>0.00</ele>
			<time>2020-01-19T20:32:16.82Z</time>
		</trkpt>
		<trkpt lat="34.846993" lon="127.525015">
			<ele>0.00</ele>
			<time>2020-01-19T20:32:17.24Z</time>
		</trkpt>
		<trkpt lat="34.847085" lon="127.524932">
			<ele>0.00</ele>
			<time>2020-01-19T20:32:18Z</time>
		</trkpt>
		<trkpt lat="34.847146" lon="127.524860">
			<ele>0.00</ele>
			<time>2020-01-19T20:32:18.57Z</time>
		</trkpt>
		<trkpt lat="34.847235" lon="127.524792">
			<ele>0.00</ele>
			<time>2020-01-19T20:32:19.27Z</time>
		</trkpt>
		<trkpt lat="34.847355" lon="127.524718">
			<ele>0.00</ele>
			<time>2020-01-19T20:32:20.17Z</time>
		</trkpt>
		<trkpt lat="34.847499" lon="127.524666">
			<ele>0.00</ele>
			<time>2020-01-19T20:32:21.17Z</time>
		</trkpt>
		<trkpt lat="34.847614" lon="127.524622">
			<ele>0.00</ele>
			<time>2020-01-19T20:32:21.98Z</time>
		</trkpt>
		<trkpt lat="34.847777" lon="127.524508">
			<ele>0.00</ele>
			<time>2020-01-19T20:32:23.23Z</time>
		</trkpt>
		<trkpt lat="34.847945" lon="127.524403">
			<ele>0.00</ele>
			<time>2020-01-19T20:32:24.49Z</time>
		</trkpt>
		<trkpt lat="34.848169" lon="127.524310">
			<ele>0.00</ele>
			<time>2020-01-19T20:32:26.06Z</time>
		</trkpt>
		<trkpt lat="34.848331" lon="127.524219">
			<ele>0.00</ele>
			<time>2020-01-19T20:32:27.25Z</time>
		</trkpt>
		<trkpt lat="34.848554" lon="127.524078">
			<ele>0.00</ele>
			<time>2020-01-19T20:32:28.93Z</time>
		</trkpt>
		<trkpt lat="34.848675" lon="127.524083">
			<ele>0.00</ele>
			<time>2020-01-19T20:32:29.74Z</time>
		</trkpt>
		<trkpt lat="34.848856" lon="127.524038">
			<ele>0.00</ele>
			<time>2020-01-19T20:32:30.97Z</time>
		</trkpt>
		<trkpt lat="34.849170" lon="127.523769">
			<ele>0.00</ele>
			<time>2020-01-19T20:32:33.52Z</time>
		</trkpt>
		<trkpt lat="34.849386" lon="127.523553">
			<ele>0.00</ele>
			<time>2020-01-19T20:32:35.38Z</time>
		</trkpt>
		<trkpt lat="34.849516" lon="127.523373">
			<ele>0.00</ele>
			<time>2020-01-19T20:32:36.69Z</time>
		</trkpt>
		<trkpt lat="34.849648" lon="127.523480">
			<ele>0.00</ele>
			<time>2020-01-19T20:32:37.75Z</time>
		</trkpt>
		<trkpt lat="34.849737" lon="127.523283">
			<ele>0.00</ele>
			<time>2020-01-19T20:32:38.98Z</time>
		</trkpt>
		<trkpt lat="34.849847" lon="127.523214">
			<ele>0.00</ele>
			<time>2020-01-19T20:32:39.81Z</time>
		</trkpt>
		<trkpt lat="34.850033" lon="127.523199">
			<ele>0.00</ele>
			<time>2020-01-19T20:32:41.05Z</time>
		</trkpt>
		<trkpt lat="34.850088" lon="127.523053">
			<ele>0.00</ele>
			<time>2020-01-19T20:32:41.93Z</time>
		</trkpt>
		<trkpt lat="34.850107" lon="127.522755">
			<ele>0.00</ele>
			<time>2020-01-19T20:32:43.56Z</time>
		</trkpt>
		<trkpt lat="34.850107" lon="127.522614">
			<ele>0.00</ele>
			<time>2020-01-19T20:32:44.33Z</time>
		</trkpt>
		<trkpt lat="34.850223" lon="127.522607">
			<ele>0.00</ele>
			<time>2020-01-19T20:32:45.11Z</time>
		</trkpt>
		<trkpt lat="34.850365" lon="127.522630">
			<ele>0.00</ele>
			<time>2020-01-19T20:32:46.06Z</time>
		</trkpt>
		<trkpt lat="34.850516" lon="127.522696">
			<ele>0.00</ele>
			<time>2020-01-19T20:32:47.14Z</time>
		</trkpt>
		<trkpt lat="34.850856" lon="127.522817">
			<ele>0.00</ele>
			<time>2020-01-19T20:32:49.49Z</time>
		</trkpt>
		<trkpt lat="34.851237" lon="127.522962">
			<ele>0.00</ele>
			<time>2020-01-19T20:32:52.16Z</time>
		</trkpt>
		<trkpt lat="34.851516" lon="127.523107">
			<ele>0.00</ele>
			<time>2020-01-19T20:32:54.18Z</time>
		</trkpt>
		<trkpt lat="34.851851" lon="127.523228">
			<ele>0.00</ele>
			<time>2020-01-19T20:32:56.50Z</time>
		</trkpt>
		<trkpt lat="34.852097" lon="127.523312">
			<ele>0.00</ele>
			<time>2020-01-19T20:32:58.21Z</time>
		</trkpt>
		<trkpt lat="34.852310" lon="127.523401">
			<ele>0.00</ele>
			<time>2020-01-19T20:32:59.71Z</time>
		</trkpt>
		<trkpt lat="34.852554" lon="127.523515">
			<ele>0.00</ele>
			<time>2020-01-19T20:33:01.45Z</time>
		</trkpt>
		<trkpt lat="34.852785" lon="127.523464">
			<ele>0.00</ele>
			<time>2020-01-19T20:33:03.02Z</time>
		</trkpt>
		<trkpt lat="34.853053" lon="127.523388">
			<ele>0.00</ele>
			<time>2020-01-19T20:33:04.85Z</time>
		</trkpt>
		<trkpt lat="34.853290" lon="127.523392">
			<ele>0.00</ele>
			<time>2020-01-19T20:33:06.43Z</time>
		</trkpt>
		<trkpt lat="34.853517" lon="127.523304">
			<ele>0.00</ele>
			<time>2020-01-19T20:33:08.02Z</time>
		</trkpt>
		<trkpt lat="34.853809" lon="127.523264">
			<ele>0.00</ele>
			<time>2020-01-19T20:33:09.98Z</time>
		</trkpt>
		<trkpt lat="34.853975" lon="127.523317">
			<ele>0.00</ele>
			<time>2020-01-19T20:33:11.13Z</time>
		</trkpt>
		<trkpt lat="34.854078" lon="127.523489">
			<ele>0.00</ele>
			<time>2020-01-19T20:33:12.29Z</time>
		</trkpt>
		<trkpt lat="34.854216" lon="127.523648">
			<ele>0.00</ele>
			<time>2020-01-19T20:33:13.55Z</time>
		</trkpt>
		<trkpt lat="34.854345" lon="127.523640">
			<ele>0.00</ele>
			<time>2020-01-19T20:33:14.42Z</time>
		</trkpt>
		<trkpt lat="34.854487" lon="127.523507">
			<ele>0.00</ele>
			<time>2020-01-19T20:33:15.61Z</time>
		</trkpt>
		<trkpt lat="34.854665" lon="127.523452">
			<ele>0.00</ele>
			<time>2020-01-19T20:33:16.83Z</time>
		</trkpt>
		<trkpt lat="34.854796" lon="127.523421">
			<ele>0.00</ele>
			<time>2020-01-19T20:33:17.73Z</time>
		</trkpt>
		<trkpt lat="34.854891" lon="127.523480">
			<ele>0.00</ele>
			<time>2020-01-19T20:33:18.43Z</time>
		</trkpt>
		<trkpt lat="34.855042" lon="127.523563">
			<ele>0.00</ele>
			<time>2020-01-19T20:33:19.54Z</time>
		</trkpt>
		<trkpt lat="34.855222" lon="127.523546">
			<ele>0.00</ele>
			<time>2020-01-19T20:33:20.74Z</time>
		</trkpt>
		<trkpt lat="34.855664" lon="127.523435">
			<ele>0.00</ele>
			<time>2020-01-19T20:33:23.75Z</time>
		</trkpt>
		<trkpt lat="34.856193" lon="127.523279">
			<ele>0.00</ele>
			<time>2020-01-19T20:33:27.38Z</time>
		</trkpt>
		<trkpt lat="34.856597" lon="127.523227">
			<ele>0.00</ele>
			<time>2020-01-19T20:33:30.09Z</time>
		</trkpt>
		<trkpt lat="34.857035" lon="127.523081">
			<ele>0.00</ele>
			<time>2020-01-19T20:33:33.12Z</time>
		</trkpt>
		<trkpt lat="34.857386" lon="127.523040">
			<ele>0.00</ele>
			<time>2020-01-19T20:33:35.47Z</time>
		</trkpt>
		<trkpt lat="34.857685" lon="127.523005">
			<ele>0.00</ele>
			<time>2020-01-19T20:33:37.47Z</time>
		</trkpt>
		<trkpt lat="34.857754" lon="127.522906">
			<ele>0.00</ele>
			<time>2020-01-19T20:33:38.18Z</time>
		</trkpt>
		<trkpt lat="34.857798" lon="127.522734">
			<ele>0.00</ele>
			<time>2020-01-19T20:33:39.17Z</time>
		</trkpt>
		<trkpt lat="34.858098" lon="127.522577">
			<ele>0.00</ele>
			<time>2020-01-19T20:33:41.34Z</time>
		</trkpt>
		<trkpt lat="34.858421" lon="127.522511">
			<ele>0.00</ele>
			<time>2020-01-19T20:33:43.53Z</time>
		</trkpt>
		<trkpt lat="34.858764" lon="127.522439">
			<ele>0.00</ele>
			<time>2020-01-19T20:33:45.84Z</time>
		</trkpt>
		<trkpt lat="34.859013" lon="127.522370">
			<ele>0.00</ele>
			<time>2020-01-19T20:33:47.55Z</time>
		</trkpt>
		<trkpt lat="34.859300" lon="127.522265">
			<ele>0.00</ele>
			<time>2020-01-19T20:33:49.55Z</time>
		</trkpt>
		<trkpt lat="34.859592" lon="127.522129">
			<ele>0.00</ele>
			<time>2020-01-19T20:33:51.63Z</time>
		</trkpt>
		<trkpt lat="34.859942" lon="127.521929">
			<ele>0.00</ele>
			<time>2020-01-19T20:33:54.21Z</time>
		</trkpt>
		<trkpt lat="34.860242" lon="127.521837">
			<ele>0.00</ele>
			<time>2020-01-19T20:33:56.27Z</time>
		</trkpt>
		<trkpt lat="34.860574" lon="127.521700">
			<ele>0.00</ele>
			<time>2020-01-19T20:33:58.60Z</time>
		</trkpt>
		<trkpt lat="34.860745" lon="127.521666">
			<ele>0.00</ele>
			<time>2020-01-19T20:33:59.76Z</time>
		</trkpt>
		<trkpt lat="34.860908" lon="127.521711">
			<ele>0.00</ele>
			<time>2020-01-19T20:34:00.88Z</time>
		</trkpt>
		<trkpt lat="34.860983" lon="127.521708">
			<ele>0.00</ele>
			<time>2020-01-19T20:34:01.37Z</time>
		</trkpt>
		<trkpt lat="34.861048" lon="127.521698">
			<ele>0.00</ele>
			<time>2020-01-19T20:34:01.82Z</time>
		</trkpt>
		<trkpt lat="34.861117" lon="127.521653">
			<ele>0.00</ele>
			<time>2020-01-19T20:34:02.34Z</time>
		</trkpt>
		<trkpt lat="34.861183" lon="127.521545">
			<ele>0.00</ele>
			<time>2020-01-19T20:34:03.07Z</time>
		</trkpt>
		<trkpt lat="34.861257" lon="127.521436">
			<ele>0.00</ele>
			<time>2020-01-19T20:34:03.85Z</time>
		</trkpt>
		<trkpt lat="34.861355" lon="127.521321">
			<ele>0.00</ele>
			<time>2020-01-19T20:34:04.75Z</time>
		</trkpt>
		<trkpt lat="34.861478" lon="127.521223">
			<ele>0.00</ele>
			<time>2020-01-19T20:34:05.73Z</time>
		</trkpt>
		<trkpt lat="34.861587" lon="127.521059">
			<ele>0.00</ele>
			<time>2020-01-19T20:34:06.89Z</time>
		</trkpt>
		<trkpt lat="34.861705" lon="127.520944">
			<ele>0.00</ele>
			<time>2020-01-19T20:34:07.89Z</time>
		</trkpt>
		<trkpt lat="34.861799" lon="127.520836">
			<ele>0.00</ele>
			<time>2020-01-19T20:34:08.76Z</time>
		</trkpt>
		<trkpt lat="34.861888" lon="127.520738">
			<ele>0.00</ele>
			<time>2020-01-19T20:34:09.56Z</time>
		</trkpt>
		<trkpt lat="34.861957" lon="127.520689">
			<ele>0.00</ele>
			<time>2020-01-19T20:34:10.09Z</time>
		</trkpt>
		<trkpt lat="34.862043" lon="127.520630">
			<ele>0.00</ele>
			<time>2020-01-19T20:34:10.75Z</time>
		</trkpt>
		<trkpt lat="34.862143" lon="127.520588">
			<ele>0.00</ele>
			<time>2020-01-19T20:34:11.45Z</time>
		</trkpt>
		<trkpt lat="34.862223" lon="127.520441">
			<ele>0.00</ele>
			<time>2020-01-19T20:34:12.42Z</time>
		</trkpt>
		<trkpt lat="34.862306" lon="127.520305">
			<ele>0.00</ele>
			<time>2020-01-19T20:34:13.34Z</time>
		</trkpt>
		<trkpt lat="34.862412" lon="127.520248">
			<ele>0.00</ele>
			<time>2020-01-19T20:34:14.11Z</time>
		</trkpt>
		<trkpt lat="34.862515" lon="127.520156">
			<ele>0.00</ele>
			<time>2020-01-19T20:34:14.96Z</time>
		</trkpt>
		<trkpt lat="34.862586" lon="127.520041">
			<ele>0.00</ele>
			<time>2020-01-19T20:34:15.75Z</time>
		</trkpt>
		<trkpt lat="34.862629" lon="127.519919">
			<ele>0.00</ele>
			<time>2020-01-19T20:34:16.48Z</time>
		</trkpt>
		<trkpt lat="34.862632" lon="127.519766">
			<ele>0.00</ele>
			<time>2020-01-19T20:34:17.32Z</time>
		</trkpt>
		<trkpt lat="34.862624" lon="127.519630">
			<ele>0.00</ele>
			<time>2020-01-19T20:34:18.06Z</time>
		</trkpt>
		<trkpt lat="34.862601" lon="127.519505">
			<ele>0.00</ele>
			<time>2020-01-19T20:34:18.77Z</time>
		</trkpt>
		<trkpt lat="34.862592" lon="127.519396">
			<ele>0.00</ele>
			<time>2020-01-19T20:34:19.36Z</time>
		</trkpt>
		<trkpt lat="34.862681" lon="127.519316">
			<ele>0.00</ele>
			<time>2020-01-19T20:34:20.10Z</time>
		</trkpt>
		<trkpt lat="34.862810" lon="127.519330">
			<ele>0.00</ele>
			<time>2020-01-19T20:34:20.96Z</time>
		</trkpt>
		<trkpt lat="34.862965" lon="127.519382">
			<ele>0.00</ele>
			<time>2020-01-19T20:34:22.03Z</time>
		</trkpt>
		<trkpt lat="34.863105" lon="127.519518">
			<ele>0.00</ele>
			<time>2020-01-19T20:34:23.23Z</time>
		</trkpt>
		<trkpt lat="34.863236" lon="127.519585">
			<ele>0.00</ele>
			<time>2020-01-19T20:34:24.18Z</time>
		</trkpt>
		<trkpt lat="34.863399" lon="127.519531">
			<ele>0.00</ele>
			<time>2020-01-19T20:34:25.30Z</time>
		</trkpt>
		<trkpt lat="34.863611" lon="127.519458">
			<ele>0.00</ele>
			<time>2020-01-19T20:34:26.77Z</time>
		</trkpt>
		<trkpt lat="34.863760" lon="127.519406">
			<ele>0.00</ele>
			<time>2020-01-19T20:34:27.80Z</time>
		</trkpt>
		<trkpt lat="34.863917" lon="127.519359">
			<ele>0.00</ele>
			<time>2020-01-19T20:34:28.88Z</time>
		</trkpt>
		<trkpt lat="34.864034" lon="127.519319">
			<ele>0.00</ele>
			<time>2020-01-19T20:34:29.69Z</time>
		</trkpt>
		<trkpt lat="34.864103" lon="127.519283">
			<ele>0.00</ele>
			<time>2020-01-19T20:34:30.19Z</time>
		</trkpt>
		<trkpt lat="34.864169" lon="127.519201">
			<ele>0.00</ele>
			<time>2020-01-19T20:34:30.82Z</time>
		</trkpt>
		<trkpt lat="34.864214" lon="127.519114">
			<ele>0.00</ele>
			<time>2020-01-19T20:34:31.38Z</time>
		</trkpt>
		<trkpt lat="34.864317" lon="127.518993">
			<ele>0.00</ele>
			<time>2020-01-19T20:34:32.34Z</time>
		</trkpt>
		<trkpt lat="34.864456" lon="127.518923">
			<ele>0.00</ele>
			<time>2020-01-19T20:34:33.33Z</time>
		</trkpt>
		<trkpt lat="34.864661" lon="127.518827">
			<ele>0.00</ele>
			<time>2020-01-19T20:34:34.80Z</time>
		</trkpt>
		<trkpt lat="34.864810" lon="127.518764">
			<ele>0.00</ele>
			<time>2020-01-19T20:34:35.85Z</time>
		</trkpt>
		<trkpt lat="34.864980" lon="127.518701">
			<ele>0.00</ele>
			<time>2020-01-19T20:34:37.04Z</time>
		</trkpt>
		<trkpt lat="34.865137" lon="127.518644">
			<ele>0.00</ele>
			<time>2020-01-19T20:34:38.13Z</time>
		</trkpt>
		<trkpt lat="34.865293" lon="127.518581">
			<ele>0.00</ele>
			<time>2020-01-19T20:34:39.23Z</time>
		</trkpt>
		<trkpt lat="34.865464" lon="127.518514">
			<ele>0.00</ele>
			<time>2020-01-19T20:34:40.42Z</time>
		</trkpt>
		<trkpt lat="34.865570" lon="127.518476">
			<ele>0.00</ele>
			<time>2020-01-19T20:34:41.16Z</time>
		</trkpt>
		<trkpt lat="34.865716" lon="127.518465">
			<ele>0.00</ele>
			<time>2020-01-19T20:34:42.14Z</time>
		</trkpt>
		<trkpt lat="34.865892" lon="127.518473">
			<ele>0.00</ele>
			<time>2020-01-19T20:34:43.31Z</time>
		</trkpt>
		<trkpt lat="34.866124" lon="127.518471">
			<ele>0.00</ele>
			<time>2020-01-19T20:34:44.86Z</time>
		</trkpt>
		<trkpt lat="34.866340" lon="127.518489">
			<ele>0.00</ele>
			<time>2020-01-19T20:34:46.30Z</time>
		</trkpt>
		<trkpt lat="34.866556" lon="127.518480">
			<ele>0.00</ele>
			<time>2020-01-19T20:34:47.74Z</time>
		</trkpt>
		<trkpt lat="34.866742" lon="127.518492">
			<ele>0.00</ele>
			<time>2020-01-19T20:34:48.98Z</time>
		</trkpt>
		<trkpt lat="34.867065" lon="127.518546">
			<ele>0.00</ele>
			<time>2020-01-19T20:34:51.15Z</time>
		</trkpt>
		<trkpt lat="34.867243" lon="127.518554">
			<ele>0.00</ele>
			<time>2020-01-19T20:34:52.34Z</time>
		</trkpt>
		<trkpt lat="34.867453" lon="127.518591">
			<ele>0.00</ele>
			<time>2020-01-19T20:34:53.76Z</time>
		</trkpt>
		<trkpt lat="34.867633" lon="127.518609">
			<ele>0.00</ele>
			<time>2020-01-19T20:34:54.96Z</time>
		</trkpt>
		<trkpt lat="34.867858" lon="127.518638">
			<ele>0.00</ele>
			<time>2020-01-19T20:34:56.47Z</time>
		</trkpt>
		<trkpt lat="34.868025" lon="127.518669">
			<ele>0.00</ele>
			<time>2020-01-19T20:34:57.59Z</time>
		</trkpt>
		<trkpt lat="34.868163" lon="127.518716">
			<ele>0.00</ele>
			<time>2020-01-19T20:34:58.55Z</time>
		</trkpt>
		<trkpt lat="34.868333" lon="127.518815">
			<ele>0.00</ele>
			<time>2020-01-19T20:34:59.81Z</time>
		</trkpt>
		<trkpt lat="34.868469" lon="127.518925">
			<ele>0.00</ele>
			<time>2020-01-19T20:35:00.89Z</time>
		</trkpt>
		<trkpt lat="34.868549" lon="127.518998">
			<ele>0.00</ele>
			<time>2020-01-19T20:35:01.56Z</time>
		</trkpt>
		<trkpt lat="34.868684" lon="127.518965">
			<ele>0.00</ele>
			<time>2020-01-19T20:35:02.48Z</time>
		</trkpt>
		<trkpt lat="34.868868" lon="127.518892">
			<ele>0.00</ele>
			<time>2020-01-19T20:35:03.77Z</time>
		</trkpt>
		<trkpt lat="34.869082" lon="127.518806">
			<ele>0.00</ele>
			<time>2020-01-19T20:35:05.27Z</time>
		</trkpt>
		<trkpt lat="34.869285" lon="127.518752">
			<ele>0.00</ele>
			<time>2020-01-19T20:35:06.65Z</time>
		</trkpt>
		<trkpt lat="34.869487" lon="127.518717">
			<ele>0.00</ele>
			<time>2020-01-19T20:35:08.02Z</time>
		</trkpt>
		<trkpt lat="34.869796" lon="127.518657">
			<ele>0.00</ele>
			<time>2020-01-19T20:35:10.10Z</time>
		</trkpt>
		<trkpt lat="34.869980" lon="127.518649">
			<ele>0.00</ele>
			<time>2020-01-19T20:35:11.33Z</time>
		</trkpt>
		<trkpt lat="34.870164" lon="127.518573">
			<ele>0.00</ele>
			<time>2020-01-19T20:35:12.63Z</time>
		</trkpt>
		<trkpt lat="34.870365" lon="127.518507">
			<ele>0.00</ele>
			<time>2020-01-19T20:35:14.01Z</time>
		</trkpt>
		<trkpt lat="34.870621" lon="127.518436">
			<ele>0.00</ele>
			<time>2020-01-19T20:35:15.76Z</time>
		</trkpt>
		<trkpt lat="34.870810" lon="127.518373">
			<ele>0.00</ele>
			<time>2020-01-19T20:35:17.07Z</time>
		</trkpt>
		<trkpt lat="34.870916" lon="127.518321">
			<ele>0.00</ele>
			<time>2020-01-19T20:35:17.83Z</time>
		</trkpt>
		<trkpt lat="34.871060" lon="127.518412">
			<ele>0.00</ele>
			<time>2020-01-19T20:35:18.91Z</time>
		</trkpt>
		<trkpt lat="34.871159" lon="127.518525">
			<ele>0.00</ele>
			<time>2020-01-19T20:35:19.82Z</time>
		</trkpt>
		<trkpt lat="34.871205" lon="127.518678">
			<ele>0.00</ele>
			<time>2020-01-19T20:35:20.71Z</time>
		</trkpt>
		<trkpt lat="34.871243" lon="127.518845">
			<ele>0.00</ele>
			<time>2020-01-19T20:35:21.66Z</time>
		</trkpt>
		<trkpt lat="34.871336" lon="127.518950">
			<ele>0.00</ele>
			<time>2020-01-19T20:35:22.50Z</time>
		</trkpt>
		<trkpt lat="34.871426" lon="127.518964">
			<ele>0.00</ele>
			<time>2020-01-19T20:35:23.11Z</time>
		</trkpt>
		<trkpt lat="34.871508" lon="127.518947">
			<ele>0.00</ele>
			<time>2020-01-19T20:35:23.66Z</time>
		</trkpt>
		<trkpt lat="34.871614" lon="127.518930">
			<ele>0.00</ele>
			<time>2020-01-19T20:35:24.38Z</time>
		</trkpt>
		<trkpt lat="34.871686" lon="127.518886">
			<ele>0.00</ele>
			<time>2020-01-19T20:35:24.91Z</time>
		</trkpt>
		<trkpt lat="34.871727" lon="127.519005">
			<ele>0.00</ele>
			<time>2020-01-19T20:35:25.61Z</time>
		</trkpt>
		<trkpt lat="34.871795" lon="127.518968">
			<ele>0.00</ele>
			<time>2020-01-19T20:35:26.11Z</time>
		</trkpt>
		<trkpt lat="34.871839" lon="127.518939">
			<ele>0.00</ele>
			<time>2020-01-19T20:35:26.44Z</time>
		</trkpt>
		<trkpt lat="34.871914" lon="127.519033">
			<ele>0.00</ele>
			<time>2020-01-19T20:35:27.16Z</time>
		</trkpt>
		<trkpt lat="34.872028" lon="127.519063">
			<ele>0.00</ele>
			<time>2020-01-19T20:35:27.94Z</time>
		</trkpt>
		<trkpt lat="34.872130" lon="127.519134">
			<ele>0.00</ele>
			<time>2020-01-19T20:35:28.72Z</time>
		</trkpt>
		<trkpt lat="34.872183" lon="127.519207">
			<ele>0.00</ele>
			<time>2020-01-19T20:35:29.26Z</time>
		</trkpt>
		<trkpt lat="34.872272" lon="127.519165">
			<ele>0.00</ele>
			<time>2020-01-19T20:35:29.89Z</time>
		</trkpt>
		<trkpt lat="34.872340" lon="127.519209">
			<ele>0.00</ele>
			<time>2020-01-19T20:35:30.40Z</time>
		</trkpt>
		<trkpt lat="34.872476" lon="127.519308">
			<ele>0.00</ele>
			<time>2020-01-19T20:35:31.46Z</time>
		</trkpt>
		<trkpt lat="34.872577" lon="127.519325">
			<ele>0.00</ele>
			<time>2020-01-19T20:35:32.14Z</time>
		</trkpt>
		<trkpt lat="34.872702" lon="127.519326">
			<ele>0.00</ele>
			<time>2020-01-19T20:35:32.97Z</time>
		</trkpt>
		<trkpt lat="34.872815" lon="127.519297">
			<ele>0.00</ele>
			<time>2020-01-19T20:35:33.74Z</time>
		</trkpt>
		<trkpt lat="34.872905" lon="127.519285">
			<ele>0.00</ele>
			<time>2020-01-19T20:35:34.34Z</time>
		</trkpt>
		<trkpt lat="34.872948" lon="127.519379">
			<ele>0.00</ele>
			<time>2020-01-19T20:35:34.93Z</time>
		</trkpt>
		<trkpt lat="34.873005" lon="127.519373">
			<ele>0.00</ele>
			<time>2020-01-19T20:35:35.32Z</time>
		</trkpt>
		<trkpt lat="34.873048" lon="127.519304">
			<ele>0.00</ele>
			<time>2020-01-19T20:35:35.79Z</time>
		</trkpt>
		<trkpt lat="34.873114" lon="127.519436">
			<ele>0.00</ele>
			<time>2020-01-19T20:35:36.64Z</time>
		</trkpt>
		<trkpt lat="34.873209" lon="127.519522">
			<ele>0.00</ele>
			<time>2020-01-19T20:35:37.43Z</time>
		</trkpt>
		<trkpt lat="34.873455" lon="127.519602">
			<ele>0.00</ele>
			<time>2020-01-19T20:35:39.12Z</time>
		</trkpt>
		<trkpt lat="34.873606" lon="127.519637">
			<ele>0.00</ele>
			<time>2020-01-19T20:35:40.15Z</time>
		</trkpt>
		<trkpt lat="34.873747" lon="127.519626">
			<ele>0.00</ele>
			<time>2020-01-19T20:35:41.09Z</time>
		</trkpt>
		<trkpt lat="34.873923" lon="127.519620">
			<ele>0.00</ele>
			<time>2020-01-19T20:35:42.26Z</time>
		</trkpt>
		<trkpt lat="34.874044" lon="127.519598">
			<ele>0.00</ele>
			<time>2020-01-19T20:35:43.08Z</time>
		</trkpt>
		<trkpt lat="34.874168" lon="127.519649">
			<ele>0.00</ele>
			<time>2020-01-19T20:35:43.95Z</time>
		</trkpt>
		<trkpt lat="34.874422" lon="127.519709">
			<ele>0.00</ele>
			<time>2020-01-19T20:35:45.67Z</time>
		</trkpt>
		<trkpt lat="34.874570" lon="127.519667">
			<ele>0.00</ele>
			<time>2020-01-19T20:35:46.69Z</time>
		</trkpt>
		<trkpt lat="34.874699" lon="127.519573">
			<ele>0.00</ele>
			<time>2020-01-19T20:35:47.69Z</time>
		</trkpt>
		<trkpt lat="34.874798" lon="127.519464">
			<ele>0.00</ele>
			<time>2020-01-19T20:35:48.58Z</time>
		</trkpt>
		<trkpt lat="34.874929" lon="127.519342">
			<ele>0.00</ele>
			<time>2020-01-19T20:35:49.68Z</time>
		</trkpt>
		<trkpt lat="34.875049" lon="127.519297">
			<ele>0.00</ele>
			<time>2020-01-19T20:35:50.52Z</time>
		</trkpt>
		<trkpt lat="34.875270" lon="127.519314">
			<ele>0.00</ele>
			<time>2020-01-19T20:35:51.99Z</time>
		</trkpt>
		<trkpt lat="34.875438" lon="127.519297">
			<ele>0.00</ele>
			<time>2020-01-19T20:35:53.11Z</time>
		</trkpt>
		<trkpt lat="34.875569" lon="127.519235">
			<ele>0.00</ele>
			<time>2020-01-19T20:35:54.05Z</time>
		</trkpt>
		<trkpt lat="34.875718" lon="127.519173">
			<ele>0.00</ele>
			<time>2020-01-19T20:35:55.10Z</time>
		</trkpt>
		<trkpt lat="34.875908" lon="127.519151">
			<ele>0.00</ele>
			<time>2020-01-19T20:35:56.37Z</time>
		</trkpt>
		<trkpt lat="34.876036" lon="127.519116">
			<ele>0.00</ele>
			<time>2020-01-19T20:35:57.25Z</time>
		</trkpt>
		<trkpt lat="34.876190" lon="127.519158">
			<ele>0.00</ele>
			<time>2020-01-19T20:35:58.30Z</time>
		</trkpt>
		<trkpt lat="34.876309" lon="127.519172">
			<ele>0.00</ele>
			<time>2020-01-19T20:35:59.09Z</time>
		</trkpt>
		<trkpt lat="34.876463" lon="127.519130">
			<ele>0.00</ele>
			<time>2020-01-19T20:36:00.15Z</time>
		</trkpt>
		<trkpt lat="34.876542" lon="127.519005">
			<ele>0.00</ele>
			<time>2020-01-19T20:36:01.02Z</time>
		</trkpt>
		<trkpt lat="34.876642" lon="127.518942">
			<ele>0.00</ele>
			<time>2020-01-19T20:36:01.76Z</time>
		</trkpt>
		<trkpt lat="34.876802" lon="127.519000">
			<ele>0.00</ele>
			<time>2020-01-19T20:36:02.88Z</time>
		</trkpt>
		<trkpt lat="34.876968" lon="127.519036">
			<ele>0.00</ele>
			<time>2020-01-19T20:36:04Z</time>
		</trkpt>
		<trkpt lat="34.877043" lon="127.519027">
			<ele>0.00</ele>
			<time>2020-01-19T20:36:04.50Z</time>
		</trkpt>
		<trkpt lat="34.877140" lon="127.519045">
			<ele>0.00</ele>
			<time>2020-01-19T20:36:05.15Z</time>
		</trkpt>
		<trkpt lat="34.877215" lon="127.519030">
			<ele>0.00</ele>
			<time>2020-01-19T20:36:05.66Z</time>
		</trkpt>
		<trkpt lat="34.877359" lon="127.519027">
			<ele>0.00</ele>
			<time>2020-01-19T20:36:06.62Z</time>
		</trkpt>
		<trkpt lat="34.877481" lon="127.519024">
			<ele>0.00</ele>
			<time>2020-01-19T20:36:07.44Z</time>
		</trkpt>
		<trkpt lat="34.877645" lon="127.519033">
			<ele>0.00</ele>
			<time>2020-01-19T20:36:08.53Z</time>
		</trkpt>
		<trkpt lat="34.877774" lon="127.519046">
			<ele>0.00</ele>
			<time>2020-01-19T20:36:09.39Z</time>
		</trkpt>
		<trkpt lat="34.877923" lon="127.519038">
			<ele>0.00</ele>
			<time>2020-01-19T20:36:10.38Z</time>
		</trkpt>
		<trkpt lat="34.878049" lon="127.519044">
			<ele>0.00</ele>
			<time>2020-01-19T20:36:11.22Z</time>
		</trkpt>
		<trkpt lat="34.878167" lon="127.519134">
			<ele>0.00</ele>
			<time>2020-01-19T20:36:12.16Z</time>
		</trkpt>
		<trkpt lat="34.878172" lon="127.519137">
			<ele>0.00</ele>
			<time>2020-01-19T20:36:12.22Z</time>
		</trkpt>
		<trkpt lat="34.878297" lon="127.519194">
			<ele>0.00</ele>
			<time>2020-01-19T20:36:13.10Z</time>
		</trkpt>
		<trkpt lat="34.878444" lon="127.519116">
			<ele>0.00</ele>
			<time>2020-01-19T20:36:14.17Z</time>
		</trkpt>
		<trkpt lat="34.878523" lon="127.519117">
			<ele>0.00</ele>
			<time>2020-01-19T20:36:14.70Z</time>
		</trkpt>
		<trkpt lat="34.878653" lon="127.519258">
			<ele>0.00</ele>
			<time>2020-01-19T20:36:15.86Z</time>
		</trkpt>
		<trkpt lat="34.878750" lon="127.519303">
			<ele>0.00</ele>
			<time>2020-01-19T20:36:16.56Z</time>
		</trkpt>
		<trkpt lat="34.878892" lon="127.519375">
			<ele>0.00</ele>
			<time>2020-01-19T20:36:17.58Z</time>
		</trkpt>
		<trkpt lat="34.879000" lon="127.519481">
			<ele>0.00</ele>
			<time>2020-01-19T20:36:18.51Z</time>
		</trkpt>
		<trkpt lat="34.879054" lon="127.519534">
			<ele>0.00</ele>
			<time>2020-01-19T20:36:18.97Z</time>
		</trkpt>
		<trkpt lat="34.879110" lon="127.519616">
			<ele>0.00</ele>
			<time>2020-01-19T20:36:19.55Z</time>
		</trkpt>
		<trkpt lat="34.879096" lon="127.519724">
			<ele>0.00</ele>
			<time>2020-01-19T20:36:20.15Z</time>
		</trkpt>
		<trkpt lat="34.879112" lon="127.519821">
			<ele>0.00</ele>
			<time>2020-01-19T20:36:20.69Z</time>
		</trkpt>
		<trkpt lat="34.879121" lon="127.519951">
			<ele>0.00</ele>
			<time>2020-01-19T20:36:21.40Z</time>
		</trkpt>
		<trkpt lat="34.879135" lon="127.520103">
			<ele>0.00</ele>
			<time>2020-01-19T20:36:22.24Z</time>
		</trkpt>
		<trkpt lat="34.879109" lon="127.520218">
			<ele>0.00</ele>
			<time>2020-01-19T20:36:22.89Z</time>
		</trkpt>
		<trkpt lat="34.879071" lon="127.520331">
			<ele>0.00</ele>
			<time>2020-01-19T20:36:23.57Z</time>
		</trkpt>
		<trkpt lat="34.879097" lon="127.520472">
			<ele>0.00</ele>
			<time>2020-01-19T20:36:24.36Z</time>
		</trkpt>
		<trkpt lat="34.879181" lon="127.520593">
			<ele>0.00</ele>
			<time>2020-01-19T20:36:25.22Z</time>
		</trkpt>
		<trkpt lat="34.879315" lon="127.520679">
			<ele>0.00</ele>
			<time>2020-01-19T20:36:26.23Z</time>
		</trkpt>
		<trkpt lat="34.879454" lon="127.520681">
			<ele>0.00</ele>
			<time>2020-01-19T20:36:27.16Z</time>
		</trkpt>
		<trkpt lat="34.879604" lon="127.520617">
			<ele>0.00</ele>
			<time>2020-01-19T20:36:28.22Z</time>
		</trkpt>
		<trkpt lat="34.879785" lon="127.520545">
			<ele>0.00</ele>
			<time>2020-01-19T20:36:29.49Z</time>
		</trkpt>
		<trkpt lat="34.880073" lon="127.520458">
			<ele>0.00</ele>
			<time>2020-01-19T20:36:31.47Z</time>
		</trkpt>
		<trkpt lat="34.880206" lon="127.520418">
			<ele>0.00</ele>
			<time>2020-01-19T20:36:32.38Z</time>
		</trkpt>
		<trkpt lat="34.880345" lon="127.520346">
			<ele>0.00</ele>
			<time>2020-01-19T20:36:33.39Z</time>
		</trkpt>
		<trkpt lat="34.880430" lon="127.520288">
			<ele>0.00</ele>
			<time>2020-01-19T20:36:34.03Z</time>
		</trkpt>
		<trkpt lat="34.880545" lon="127.520183">
			<ele>0.00</ele>
			<time>2020-01-19T20:36:34.99Z</time>
		</trkpt>
		<trkpt lat="34.880620" lon="127.520090">
			<ele>0.00</ele>
			<time>2020-01-19T20:36:35.71Z</time>
		</trkpt>
		<trkpt lat="34.880675" lon="127.520010">
			<ele>0.00</ele>
			<time>2020-01-19T20:36:36.27Z</time>
		</trkpt>
		<trkpt lat="34.880729" lon="127.520029">
			<ele>0.00</ele>
			<time>2020-01-19T20:36:36.65Z</time>
		</trkpt>
		<trkpt lat="34.880781" lon="127.520061">
			<ele>0.00</ele>
			<time>2020-01-19T20:36:37.04Z</time>
		</trkpt>
		<trkpt lat="34.880881" lon="127.520182">
			<ele>0.00</ele>
			<time>2020-01-19T20:36:37.97Z</time>
		</trkpt>
		<trkpt lat="34.880956" lon="127.520338">
			<ele>0.00</ele>
			<time>2020-01-19T20:36:38.97Z</time>
		</trkpt>
		<trkpt lat="34.881057" lon="127.520541">
			<ele>0.00</ele>
			<time>2020-01-19T20:36:40.27Z</time>
		</trkpt>
		<trkpt lat="34.881135" lon="127.520665">
			<ele>0.00</ele>
			<time>2020-01-19T20:36:41.12Z</time>
		</trkpt>
		<trkpt lat="34.881198" lon="127.520830">
			<ele>0.00</ele>
			<time>2020-01-19T20:36:42.12Z</time>
		</trkpt>
		<trkpt lat="34.881245" lon="127.520905">
			<ele>0.00</ele>
			<time>2020-01-19T20:36:42.63Z</time>
		</trkpt>
		<trkpt lat="34.881320" lon="127.520959">
			<ele>0.00</ele>
			<time>2020-01-19T20:36:43.21Z</time>
		</trkpt>
		<trkpt lat="34.881424" lon="127.520982">
			<ele>0.00</ele>
			<time>2020-01-19T20:36:43.91Z</time>
		</trkpt>
		<trkpt lat="34.881530" lon="127.520969">
			<ele>0.00</ele>
			<time>2020-01-19T20:36:44.62Z</time>
		</trkpt>
		<trkpt lat="34.881612" lon="127.520908">
			<ele>0.00</ele>
			<time>2020-01-19T20:36:45.27Z</time>
		</trkpt>
		<trkpt lat="34.881684" lon="127.520850">
			<ele>0.00</ele>
			<time>2020-01-19T20:36:45.84Z</time>
		</trkpt>
		<trkpt lat="34.881800" lon="127.520816">
			<ele>0.00</ele>
			<time>2020-01-19T20:36:46.64Z</time>
		</trkpt>
		<trkpt lat="34.881865" lon="127.520806">
			<ele>0.00</ele>
			<time>2020-01-19T20:36:47.07Z</time>
		</trkpt>
		<trkpt lat="34.881933" lon="127.520736">
			<ele>0.00</ele>
			<time>2020-01-19T20:36:47.67Z</time>
		</trkpt>
		<trkpt lat="34.881992" lon="127.520679">
			<ele>0.00</ele>
			<time>2020-01-19T20:36:48.17Z</time>
		</trkpt>
		<trkpt lat="34.882089" lon="127.520642">
			<ele>0.00</ele>
			<time>2020-01-19T20:36:48.84Z</time>
		</trkpt>
		<trkpt lat="34.882131" lon="127.520628">
			<ele>0.00</ele>
			<time>2020-01-19T20:36:49.14Z</time>
		</trkpt>
		<trkpt lat="34.882109" lon="127.520514">
			<ele>0.00</ele>
			<time>2020-01-19T20:36:49.78Z</time>
		</trkpt>
		<trkpt lat="34.882092" lon="127.520399">
			<ele>0.00</ele>
			<time>2020-01-19T20:36:50.42Z</time>
		</trkpt>
		<trkpt lat="34.882076" lon="127.520292">
			<ele>0.00</ele>
			<time>2020-01-19T20:36:51.01Z</time>
		</trkpt>
		<trkpt lat="34.882052" lon="127.520189">
			<ele>0.00</ele>
			<time>2020-01-19T20:36:51.60Z</time>
		</trkpt>
		<trkpt lat="34.882051" lon="127.520109">
			<ele>0.00</ele>
			<time>2020-01-19T20:36:52.03Z</time>
		</trkpt>
		<trkpt lat="34.882032" lon="127.519949">
			<ele>0.00</ele>
			<time>2020-01-19T20:36:52.92Z</time>
		</trkpt>
		<trkpt lat="34.882029" lon="127.519829">
			<ele>0.00</ele>
			<time>2020-01-19T20:36:53.58Z</time>
		</trkpt>
		<trkpt lat="34.881998" lon="127.519711">
			<ele>0.00</ele>
			<time>2020-01-19T20:36:54.25Z</time>
		</trkpt>
		<trkpt lat="34.881911" lon="127.519547">
			<ele>0.00</ele>
			<time>2020-01-19T20:36:55.32Z</time>
		</trkpt>
		<trkpt lat="34.881824" lon="127.519388">
			<ele>0.00</ele>
			<time>2020-01-19T20:36:56.37Z</time>
		</trkpt>
		<trkpt lat="34.881762" lon="127.519290">
			<ele>0.00</ele>
			<time>2020-01-19T20:36:57.04Z</time>
		</trkpt>
		<trkpt lat="34.881675" lon="127.519133">
			<ele>0.00</ele>
			<time>2020-01-19T20:36:58.08Z</time>
		</trkpt>
		<trkpt lat="34.881580" lon="127.519013">
			<ele>0.00</ele>
			<time>2020-01-19T20:36:58.99Z</time>
		</trkpt>
		<trkpt lat="34.881488" lon="127.518917">
			<ele>0.00</ele>
			<time>2020-01-19T20:36:59.80Z</time>
		</trkpt>
		<trkpt lat="34.881434" lon="127.518838">
			<ele>0.00</ele>
			<time>2020-01-19T20:37:00.36Z</time>
		</trkpt>
		<trkpt lat="34.881371" lon="127.518731">
			<ele>0.00</ele>
			<time>2020-01-19T20:37:01.09Z</time>
		</trkpt>
		<trkpt lat="34.881314" lon="127.518677">
			<ele>0.00</ele>
			<time>2020-01-19T20:37:01.57Z</time>
		</trkpt>
		<trkpt lat="34.881278" lon="127.518623">
			<ele>0.00</ele>
			<time>2020-01-19T20:37:01.95Z</time>
		</trkpt>
		<trkpt lat="34.881184" lon="127.518414">
			<ele>0.00</ele>
			<time>2020-01-19T20:37:03.25Z</time>
		</trkpt>
		<trkpt lat="34.881224" lon="127.518189">
			<ele>0.00</ele>
			<time>2020-01-19T20:37:04.51Z</time>
		</trkpt>
		<trkpt lat="34.881286" lon="127.517880">
			<ele>0.00</ele>
			<time>2020-01-19T20:37:06.25Z</time>
		</trkpt>
		<trkpt lat="34.881426" lon="127.517662">
			<ele>0.00</ele>
			<time>2020-01-19T20:37:07.76Z</time>
		</trkpt>
		<trkpt lat="34.881497" lon="127.517461">
			<ele>0.00</ele>
			<time>2020-01-19T20:37:08.96Z</time>
		</trkpt>
		<trkpt lat="34.881647" lon="127.517233">
			<ele>0.00</ele>
			<time>2020-01-19T20:37:10.56Z</time>
		</trkpt>
		<trkpt lat="34.881664" lon="127.517005">
			<ele>0.00</ele>
			<time>2020-01-19T20:37:11.81Z</time>
		</trkpt>
		<trkpt lat="34.881699" lon="127.516727">
			<ele>0.00</ele>
			<time>2020-01-19T20:37:13.34Z</time>
		</trkpt>
		<trkpt lat="34.881734" lon="127.516427">
			<ele>0.00</ele>
			<time>2020-01-19T20:37:15Z</time>
		</trkpt>
		<trkpt lat="34.881774" lon="127.516104">
			<ele>0.00</ele>
			<time>2020-01-19T20:37:16.79Z</time>
		</trkpt>
		<trkpt lat="34.881850" lon="127.515720">
			<ele>0.00</ele>
			<time>2020-01-19T20:37:18.95Z</time>
		</trkpt>
		<trkpt lat="34.881866" lon="127.515391">
			<ele>0.00</ele>
			<time>2020-01-19T20:37:20.75Z</time>
		</trkpt>
		<trkpt lat="34.881868" lon="127.515085">
			<ele>0.00</ele>
			<time>2020-01-19T20:37:22.43Z</time>
		</trkpt>
		<trkpt lat="34.881934" lon="127.514790">
			<ele>0.00</ele>
			<time>2020-01-19T20:37:24.10Z</time>
		</trkpt>
		<trkpt lat="34.882288" lon="127.514526">
			<ele>0.00</ele>
			<time>2020-01-19T20:37:26.87Z</time>
		</trkpt>
		<trkpt lat="34.882479" lon="127.514363">
			<ele>0.00</ele>
			<time>2020-01-19T20:37:28.42Z</time>
		</trkpt>
		<trkpt lat="34.882724" lon="127.514210">
			<ele>0.00</ele>
			<time>2020-01-19T20:37:30.26Z</time>
		</trkpt>
		<trkpt lat="34.882877" lon="127.514443">
			<ele>0.00</ele>
			<time>2020-01-19T20:37:31.88Z</time>
		</trkpt>
		<trkpt lat="34.883083" lon="127.514580">
			<ele>0.00</ele>
			<time>2020-01-19T20:37:33.45Z</time>
		</trkpt>
		<trkpt lat="34.883280" lon="127.514667">
			<ele>0.00</ele>
			<time>2020-01-19T20:37:34.85Z</time>
		</trkpt>
		<trkpt lat="34.883503" lon="127.514582">
			<ele>0.00</ele>
			<time>2020-01-19T20:37:36.41Z</time>
		</trkpt>
		<trkpt lat="34.883653" lon="127.514475">
			<ele>0.00</ele>
			<time>2020-01-19T20:37:37.57Z</time>
		</trkpt>
		<trkpt lat="34.883789" lon="127.514317">
			<ele>0.00</ele>
			<time>2020-01-19T20:37:38.81Z</time>
		</trkpt>
		<trkpt lat="34.883888" lon="127.514038">
			<ele>0.00</ele>
			<time>2020-01-19T20:37:40.48Z</time>
		</trkpt>
		<trkpt lat="34.883873" lon="127.513822">
			<ele>0.00</ele>
			<time>2020-01-19T20:37:41.67Z</time>
		</trkpt>
		<trkpt lat="34.883811" lon="127.513499">
			<ele>0.00</ele>
			<time>2020-01-19T20:37:43.48Z</time>
		</trkpt>
		<trkpt lat="34.883925" lon="127.513124">
			<ele>0.00</ele>
			<time>2020-01-19T20:37:45.66Z</time>
		</trkpt>
		<trkpt lat="34.883996" lon="127.512812">
			<ele>0.00</ele>
			<time>2020-01-19T20:37:47.43Z</time>
		</trkpt>
		<trkpt lat="34.884104" lon="127.512530">
			<ele>0.00</ele>
			<time>2020-01-19T20:37:49.13Z</time>
		</trkpt>
		<trkpt lat="34.884165" lon="127.512323">
			<ele>0.00</ele>
			<time>2020-01-19T20:37:50.34Z</time>
		</trkpt>
		<trkpt lat="34.884250" lon="127.512082">
			<ele>0.00</ele>
			<time>2020-01-19T20:37:51.77Z</time>
		</trkpt>
		<trkpt lat="34.884308" lon="127.511850">
			<ele>0.00</ele>
			<time>2020-01-19T20:37:53.10Z</time>
		</trkpt>
		<trkpt lat="34.884313" lon="127.511712">
			<ele>0.00</ele>
			<time>2020-01-19T20:37:53.86Z</time>
		</trkpt>
		<trkpt lat="34.884166" lon="127.511618">
			<ele>0.00</ele>
			<time>2020-01-19T20:37:54.96Z</time>
		</trkpt>
		<trkpt lat="34.884034" lon="127.511580">
			<ele>0.00</ele>
			<time>2020-01-19T20:37:55.87Z</time>
		</trkpt>
		<trkpt lat="34.883850" lon="127.511487">
			<ele>0.00</ele>
			<time>2020-01-19T20:37:57.19Z</time>
		</trkpt>
		<trkpt lat="34.883750" lon="127.511438">
			<ele>0.00</ele>
			<time>2020-01-19T20:37:57.91Z</time>
		</trkpt>
		<trkpt lat="34.883590" lon="127.511373">
			<ele>0.00</ele>
			<time>2020-01-19T20:37:59.04Z</time>
		</trkpt>
		<trkpt lat="34.883413" lon="127.511341">
			<ele>0.00</ele>
			<time>2020-01-19T20:38:00.23Z</time>
		</trkpt>
		<trkpt lat="34.883145" lon="127.511445">
			<ele>0.00</ele>
			<time>2020-01-19T20:38:02.10Z</time>
		</trkpt>
		<trkpt lat="34.882708" lon="127.511589">
			<ele>0.00</ele>
			<time>2020-01-19T20:38:05.12Z</time>
		</trkpt>
		<trkpt lat="34.882385" lon="127.511655">
			<ele>0.00</ele>
			<time>2020-01-19T20:38:07.31Z</time>
		</trkpt>
		<trkpt lat="34.882144" lon="127.511758">
			<ele>0.00</ele>
			<time>2020-01-19T20:38:09.01Z</time>
		</trkpt>
		<trkpt lat="34.881883" lon="127.511800">
			<ele>0.00</ele>
			<time>2020-01-19T20:38:10.76Z</time>
		</trkpt>
		<trkpt lat="34.881469" lon="127.511957">
			<ele>0.00</ele>
			<time>2020-01-19T20:38:13.65Z</time>
		</trkpt>
		<trkpt lat="34.881134" lon="127.512069">
			<ele>0.00</ele>
			<time>2020-01-19T20:38:15.97Z</time>
		</trkpt>
		<trkpt lat="34.880894" lon="127.512322">
			<ele>0.00</ele>
			<time>2020-01-19T20:38:18.09Z</time>
		</trkpt>
		<trkpt lat="34.880695" lon="127.512717">
			<ele>0.00</ele>
			<time>2020-01-19T20:38:20.62Z</time>
		</trkpt>
		<trkpt lat="34.880549" lon="127.513062">
			<ele>0.00</ele>
			<time>2020-01-19T20:38:22.74Z</time>
		</trkpt>
		<trkpt lat="34.880393" lon="127.513394">
			<ele>0.00</ele>
			<time>2020-01-19T20:38:24.84Z</time>
		</trkpt>
		<trkpt lat="34.880142" lon="127.513561">
			<ele>0.00</ele>
			<time>2020-01-19T20:38:26.74Z</time>
		</trkpt>
		<trkpt lat="34.879807" lon="127.513765">
			<ele>0.00</ele>
			<time>2020-01-19T20:38:29.23Z</time>
		</trkpt>
		<trkpt lat="34.879421" lon="127.514173">
			<ele>0.00</ele>
			<time>2020-01-19T20:38:32.64Z</time>
		</trkpt>
		<trkpt lat="34.879034" lon="127.514453">
			<ele>0.00</ele>
			<time>2020-01-19T20:38:35.64Z</time>
		</trkpt>
		<trkpt lat="34.878617" lon="127.514667">
			<ele>0.00</ele>
			<time>2020-01-19T20:38:38.66Z</time>
		</trkpt>
		<trkpt lat="34.878303" lon="127.514477">
			<ele>0.00</ele>
			<time>2020-01-19T20:38:41Z</time>
		</trkpt>
		<trkpt lat="34.878083" lon="127.514071">
			<ele>0.00</ele>
			<time>2020-01-19T20:38:43.66Z</time>
		</trkpt>
		<trkpt lat="34.877801" lon="127.513306">
			<ele>0.00</ele>
			<time>2020-01-19T20:38:48.24Z</time>
		</trkpt>
		<trkpt lat="34.877496" lon="127.512533">
			<ele>0.00</ele>
			<time>2020-01-19T20:38:52.94Z</time>
		</trkpt>
		<trkpt lat="34.877244" lon="127.511730">
			<ele>0.00</ele>
			<time>2020-01-19T20:38:57.64Z</time>
		</trkpt>
		<trkpt lat="34.876994" lon="127.511181">
			<ele>0.00</ele>
			<time>2020-01-19T20:39:01.07Z</time>
		</trkpt>
		<trkpt lat="34.876828" lon="127.510696">
			<ele>0.00</ele>
			<time>2020-01-19T20:39:03.95Z</time>
		</trkpt>
		<trkpt lat="34.876659" lon="127.510161">
			<ele>0.00</ele>
			<time>2020-01-19T20:39:07.08Z</time>
		</trkpt>
		<trkpt lat="34.876512" lon="127.509754">
			<ele>0.00</ele>
			<time>2020-01-19T20:39:09.52Z</time>
		</trkpt>
		<trkpt lat="34.876512" lon="127.509180">
			<ele>0.00</ele>
			<time>2020-01-19T20:39:12.65Z</time>
		</trkpt>
		<trkpt lat="34.876561" lon="127.508224">
			<ele>0.00</ele>
			<time>2020-01-19T20:39:17.89Z</time>
		</trkpt>
		<trkpt lat="34.876540" lon="127.507701">
			<ele>0.00</ele>
			<time>2020-01-19T20:39:20.75Z</time>
		</trkpt>
		<trkpt lat="34.876457" lon="127.506936">
			<ele>0.00</ele>
			<time>2020-01-19T20:39:24.97Z</time>
		</trkpt>
		<trkpt lat="34.876365" lon="127.506211">
			<ele>0.00</ele>
			<time>2020-01-19T20:39:28.99Z</time>
		</trkpt>
		<trkpt lat="34.876209" lon="127.505663">
			<ele>0.00</ele>
			<time>2020-01-19T20:39:32.16Z</time>
		</trkpt>
		<trkpt lat="34.875811" lon="127.505701">
			<ele>0.00</ele>
			<time>2020-01-19T20:39:34.82Z</time>
		</trkpt>
		<trkpt lat="34.875487" lon="127.505796">
			<ele>0.00</ele>
			<time>2020-01-19T20:39:37.04Z</time>
		</trkpt>
		<trkpt lat="34.875111" lon="127.505797">
			<ele>0.00</ele>
			<time>2020-01-19T20:39:39.55Z</time>
		</trkpt>
		<trkpt lat="34.874975" lon="127.505606">
			<ele>0.00</ele>
			<time>2020-01-19T20:39:40.94Z</time>
		</trkpt>
		<trkpt lat="34.874692" lon="127.504647">
			<ele>0.00</ele>
			<time>2020-01-19T20:39:46.51Z</time>
		</trkpt>
		<trkpt lat="34.874514" lon="127.503768">
			<ele>0.00</ele>
			<time>2020-01-19T20:39:51.46Z</time>
		</trkpt>
		<trkpt lat="34.874492" lon="127.502430">
			<ele>0.00</ele>
			<time>2020-01-19T20:39:58.78Z</time>
		</trkpt>
		<trkpt lat="34.874481" lon="127.500863">
			<ele>0.00</ele>
			<time>2020-01-19T20:40:07.36Z</time>
		</trkpt>
		<trkpt lat="34.874480" lon="127.499393">
			<ele>0.00</ele>
			<time>2020-01-19T20:40:15.40Z</time>
		</trkpt>
		<trkpt lat="34.874438" lon="127.498659">
			<ele>0.00</ele>
			<time>2020-01-19T20:40:19.42Z</time>
		</trkpt>
		<trkpt lat="34.874438" lon="127.497829">
			<ele>0.00</ele>
			<time>2020-01-19T20:40:23.96Z</time>
		</trkpt>
		<trkpt lat="34.874437" lon="127.496847">
			<ele>0.00</ele>
			<time>2020-01-19T20:40:29.33Z</time>
		</trkpt>
		<trkpt lat="34.874450" lon="127.495676">
			<ele>0.00</ele>
			<time>2020-01-19T20:40:35.73Z</time>
		</trkpt>
		<trkpt lat="34.874507" lon="127.495124">
			<ele>0.00</ele>
			<time>2020-01-19T20:40:38.78Z</time>
		</trkpt>
		<trkpt lat="34.874677" lon="127.494360">
			<ele>0.00</ele>
			<time>2020-01-19T20:40:43.11Z</time>
		</trkpt>
		<trkpt lat="34.874938" lon="127.493785">
			<ele>0.00</ele>
			<time>2020-01-19T20:40:46.70Z</time>
		</trkpt>
		<trkpt lat="34.875316" lon="127.493187">
			<ele>0.00</ele>
			<time>2020-01-19T20:40:50.83Z</time>
		</trkpt>
		<trkpt lat="34.875644" lon="127.492632">
			<ele>0.00</ele>
			<time>2020-01-19T20:40:54.57Z</time>
		</trkpt>
		<trkpt lat="34.875377" lon="127.492013">
			<ele>0.00</ele>
			<time>2020-01-19T20:40:58.39Z</time>
		</trkpt>
		<trkpt lat="34.875355" lon="127.491758">
			<ele>0.00</ele>
			<time>2020-01-19T20:40:59.79Z</time>
		</trkpt>
		<trkpt lat="34.875146" lon="127.491338">
			<ele>0.00</ele>
			<time>2020-01-19T20:41:02.48Z</time>
		</trkpt>
		<trkpt lat="34.875041" lon="127.491332">
			<ele>0.00</ele>
			<time>2020-01-19T20:41:03.18Z</time>
		</trkpt>
		<trkpt lat="34.874876" lon="127.491018">
			<ele>0.00</ele>
			<time>2020-01-19T20:41:05.22Z</time>
		</trkpt>
		<trkpt lat="34.874704" lon="127.490648">
			<ele>0.00</ele>
			<time>2020-01-19T20:41:07.55Z</time>
		</trkpt>
		<trkpt lat="34.874577" lon="127.490384">
			<ele>0.00</ele>
			<time>2020-01-19T20:41:09.22Z</time>
		</trkpt>
		<trkpt lat="34.874355" lon="127.490103">
			<ele>0.00</ele>
			<time>2020-01-19T20:41:11.36Z</time>
		</trkpt>
		<trkpt lat="34.874178" lon="127.489994">
			<ele>0.00</ele>
			<time>2020-01-19T20:41:12.68Z</time>
		</trkpt>
		<trkpt lat="34.873880" lon="127.489927">
			<ele>0.00</ele>
			<time>2020-01-19T20:41:14.70Z</time>
		</trkpt>
		<trkpt lat="34.873087" lon="127.489985">
			<ele>0.00</ele>
			<time>2020-01-19T20:41:19.99Z</time>
		</trkpt>
		<trkpt lat="34.872266" lon="127.490031">
			<ele>0.00</ele>
			<time>2020-01-19T20:41:25.47Z</time>
		</trkpt>
		<trkpt lat="34.871558" lon="127.490074">
			<ele>0.00</ele>
			<time>2020-01-19T20:41:30.20Z</time>
		</trkpt>
		<trkpt lat="34.870706" lon="127.490125">
			<ele>0.00</ele>
			<time>2020-01-19T20:41:35.89Z</time>
		</trkpt>
		<trkpt lat="34.869672" lon="127.490171">
			<ele>0.00</ele>
			<time>2020-01-19T20:41:42.78Z</time>
		</trkpt>
		<trkpt lat="34.868431" lon="127.490262">
			<ele>0.00</ele>
			<time>2020-01-19T20:41:51.07Z</time>
		</trkpt>
		<trkpt lat="34.867762" lon="127.490291">
			<ele>0.00</ele>
			<time>2020-01-19T20:41:55.54Z</time>
		</trkpt>
		<trkpt lat="34.867528" lon="127.490266">
			<ele>0.00</ele>
			<time>2020-01-19T20:41:57.10Z</time>
		</trkpt>
		<trkpt lat="34.867337" lon="127.490146">
			<ele>0.00</ele>
			<time>2020-01-19T20:41:58.53Z</time>
		</trkpt>
		<trkpt lat="34.867236" lon="127.490029">
			<ele>0.00</ele>
			<time>2020-01-19T20:41:59.46Z</time>
		</trkpt>
		<trkpt lat="34.867202" lon="127.489857">
			<ele>0.00</ele>
			<time>2020-01-19T20:42:00.43Z</time>
		</trkpt>
		<trkpt lat="34.867182" lon="127.489243">
			<ele>0.00</ele>
			<time>2020-01-19T20:42:03.79Z</time>
		</trkpt>
		<trkpt lat="34.867105" lon="127.488825">
			<ele>0.00</ele>
			<time>2020-01-19T20:42:06.13Z</time>
		</trkpt>
		<trkpt lat="34.866842" lon="127.488714">
			<ele>0.00</ele>
			<time>2020-01-19T20:42:07.99Z</time>
		</trkpt>
		<trkpt lat="34.866652" lon="127.488625">
			<ele>0.00</ele>
			<time>2020-01-19T20:42:09.35Z</time>
		</trkpt>
		<trkpt lat="34.866418" lon="127.488740">
			<ele>0.00</ele>
			<time>2020-01-19T20:42:11.03Z</time>
		</trkpt>
		<trkpt lat="34.866202" lon="127.488883">
			<ele>0.00</ele>
			<time>2020-01-19T20:42:12.67Z</time>
		</trkpt>
		<trkpt lat="34.865838" lon="127.488884">
			<ele>0.00</ele>
			<time>2020-01-19T20:42:15.10Z</time>
		</trkpt>
		<trkpt lat="34.865381" lon="127.488964">
			<ele>0.00</ele>
			<time>2020-01-19T20:42:18.18Z</time>
		</trkpt>
		<trkpt lat="34.864963" lon="127.488922">
			<ele>0.00</ele>
			<time>2020-01-19T20:42:20.97Z</time>
		</trkpt>
		<trkpt lat="34.864764" lon="127.488851">
			<ele>0.00</ele>
			<time>2020-01-19T20:42:22.35Z</time>
		</trkpt>
		<trkpt lat="34.864529" lon="127.488672">
			<ele>0.00</ele>
			<time>2020-01-19T20:42:24.20Z</time>
		</trkpt>
		<trkpt lat="34.864248" lon="127.488558">
			<ele>0.00</ele>
			<time>2020-01-19T20:42:26.18Z</time>
		</trkpt>
		<trkpt lat="34.863978" lon="127.488494">
			<ele>0.00</ele>
			<time>2020-01-19T20:42:28.01Z</time>
		</trkpt>
		<trkpt lat="34.863732" lon="127.488409">
			<ele>0.00</ele>
			<time>2020-01-19T20:42:29.71Z</time>
		</trkpt>
		<trkpt lat="34.863517" lon="127.488230">
			<ele>0.00</ele>
			<time>2020-01-19T20:42:31.45Z</time>
		</trkpt>
		<trkpt lat="34.863401" lon="127.488100">
			<ele>0.00</ele>
			<time>2020-01-19T20:42:32.50Z</time>
		</trkpt>
		<trkpt lat="34.863331" lon="127.488020">
			<ele>0.00</ele>
			<time>2020-01-19T20:42:33.14Z</time>
		</trkpt>
		<trkpt lat="34.863155" lon="127.488017">
			<ele>0.00</ele>
			<time>2020-01-19T20:42:34.31Z</time>
		</trkpt>
		<trkpt lat="34.862940" lon="127.488045">
			<ele>0.00</ele>
			<time>2020-01-19T20:42:35.76Z</time>
		</trkpt>
		<trkpt lat="34.862700" lon="127.488011">
			<ele>0.00</ele>
			<time>2020-01-19T20:42:37.36Z</time>
		</trkpt>
		<trkpt lat="34.862442" lon="127.487968">
			<ele>0.00</ele>
			<time>2020-01-19T20:42:39.10Z</time>
		</trkpt>
		<trkpt lat="34.862295" lon="127.487938">
			<ele>0.00</ele>
			<time>2020-01-19T20:42:40.09Z</time>
		</trkpt>
		<trkpt lat="34.862136" lon="127.487889">
			<ele>0.00</ele>
			<time>2020-01-19T20:42:41.19Z</time>
		</trkpt>
		<trkpt lat="34.862006" lon="127.487856">
			<ele>0.00</ele>
			<time>2020-01-19T20:42:42.07Z</time>
		</trkpt>
		<trkpt lat="34.861863" lon="127.487820">
			<ele>0.00</ele>
			<time>2020-01-19T20:42:43.04Z</time>
		</trkpt>
		<trkpt lat="34.861694" lon="127.487769">
			<ele>0.00</ele>
			<time>2020-01-19T20:42:44.21Z</time>
		</trkpt>
		<trkpt lat="34.861528" lon="127.487705">
			<ele>0.00</ele>
			<time>2020-01-19T20:42:45.37Z</time>
		</trkpt>
		<trkpt lat="34.861366" lon="127.487672">
			<ele>0.00</ele>
			<time>2020-01-19T20:42:46.46Z</time>
		</trkpt>
		<trkpt lat="34.861172" lon="127.487624">
			<ele>0.00</ele>
			<time>2020-01-19T20:42:47.78Z</time>
		</trkpt>
		<trkpt lat="34.861004" lon="127.487584">
			<ele>0.00</ele>
			<time>2020-01-19T20:42:48.92Z</time>
		</trkpt>
		<trkpt lat="34.860788" lon="127.487519">
			<ele>0.00</ele>
			<time>2020-01-19T20:42:50.41Z</time>
		</trkpt>
		<trkpt lat="34.860581" lon="127.487468">
			<ele>0.00</ele>
			<time>2020-01-19T20:42:51.82Z</time>
		</trkpt>
		<trkpt lat="34.860393" lon="127.487410">
			<ele>0.00</ele>
			<time>2020-01-19T20:42:53.11Z</time>
		</trkpt>
		<trkpt lat="34.860279" lon="127.487379">
			<ele>0.00</ele>
			<time>2020-01-19T20:42:53.88Z</time>
		</trkpt>
		<trkpt lat="34.860146" lon="127.487329">
			<ele>0.00</ele>
			<time>2020-01-19T20:42:54.81Z</time>
		</trkpt>
		<trkpt lat="34.859980" lon="127.487291">
			<ele>0.00</ele>
			<time>2020-01-19T20:42:55.94Z</time>
		</trkpt>
		<trkpt lat="34.859851" lon="127.487267">
			<ele>0.00</ele>
			<time>2020-01-19T20:42:56.81Z</time>
		</trkpt>
		<trkpt lat="34.859682" lon="127.487193">
			<ele>0.00</ele>
			<time>2020-01-19T20:42:58Z</time>
		</trkpt>
		<trkpt lat="34.859486" lon="127.487151">
			<ele>0.00</ele>
			<time>2020-01-19T20:42:59.33Z</time>
		</trkpt>
		<trkpt lat="34.859321" lon="127.487094">
			<ele>0.00</ele>
			<time>2020-01-19T20:43:00.47Z</time>
		</trkpt>
		<trkpt lat="34.859146" lon="127.487047">
			<ele>0.00</ele>
			<time>2020-01-19T20:43:01.67Z</time>
		</trkpt>
		<trkpt lat="34.858970" lon="127.487018">
			<ele>0.00</ele>
			<time>2020-01-19T20:43:02.85Z</time>
		</trkpt>
		<trkpt lat="34.858810" lon="127.486994">
			<ele>0.00</ele>
			<time>2020-01-19T20:43:03.93Z</time>
		</trkpt>
		<trkpt lat="34.858733" lon="127.486956">
			<ele>0.00</ele>
			<time>2020-01-19T20:43:04.49Z</time>
		</trkpt>
		<trkpt lat="34.858612" lon="127.486945">
			<ele>0.00</ele>
			<time>2020-01-19T20:43:05.29Z</time>
		</trkpt>
		<trkpt lat="34.858465" lon="127.486956">
			<ele>0.00</ele>
			<time>2020-01-19T20:43:06.27Z</time>
		</trkpt>
		<trkpt lat="34.858353" lon="127.486996">
			<ele>0.00</ele>
			<time>2020-01-19T20:43:07.05Z</time>
		</trkpt>
		<trkpt lat="34.858194" lon="127.487044">
			<ele>0.00</ele>
			<time>2020-01-19T20:43:08.15Z</time>
		</trkpt>
		<trkpt lat="34.857985" lon="127.487083">
			<ele>0.00</ele>
			<time>2020-01-19T20:43:09.56Z</time>
		</trkpt>
		<trkpt lat="34.857724" lon="127.487132">
			<ele>0.00</ele>
			<time>2020-01-19T20:43:11.32Z</time>
		</trkpt>
		<trkpt lat="34.857564" lon="127.487155">
			<ele>0.00</ele>
			<time>2020-01-19T20:43:12.39Z</time>
		</trkpt>
		<trkpt lat="34.857450" lon="127.487177">
			<ele>0.00</ele>
			<time>2020-01-19T20:43:13.16Z</time>
		</trkpt>
		<trkpt lat="34.857370" lon="127.487189">
			<ele>0.00</ele>
			<time>2020-01-19T20:43:13.70Z</time>
		</trkpt>
		<trkpt lat="34.857289" lon="127.487200">
			<ele>0.00</ele>
			<time>2020-01-19T20:43:14.24Z</time>
		</trkpt>
		<trkpt lat="34.857198" lon="127.487225">
			<ele>0.00</ele>
			<time>2020-01-19T20:43:14.86Z</time>
		</trkpt>
		<trkpt lat="34.856959" lon="127.487263">
			<ele>0.00</ele>
			<time>2020-01-19T20:43:16.47Z</time>
		</trkpt>
		<trkpt lat="34.856733" lon="127.487317">
			<ele>0.00</ele>
			<time>2020-01-19T20:43:18Z</time>
		</trkpt>
		<trkpt lat="34.856530" lon="127.487358">
			<ele>0.00</ele>
			<time>2020-01-19T20:43:19.38Z</time>
		</trkpt>
		<trkpt lat="34.856319" lon="127.487401">
			<ele>0.00</ele>
			<time>2020-01-19T20:43:20.80Z</time>
		</trkpt>
		<trkpt lat="34.856119" lon="127.487449">
			<ele>0.00</ele>
			<time>2020-01-19T20:43:22.16Z</time>
		</trkpt>
		<trkpt lat="34.855911" lon="127.487489">
			<ele>0.00</ele>
			<time>2020-01-19T20:43:23.57Z</time>
		</trkpt>
		<trkpt lat="34.855728" lon="127.487533">
			<ele>0.00</ele>
			<time>2020-01-19T20:43:24.81Z</time>
		</trkpt>
		<trkpt lat="34.855547" lon="127.487624">
			<ele>0.00</ele>
			<time>2020-01-19T20:43:26.12Z</time>
		</trkpt>
		<trkpt lat="34.855369" lon="127.487724">
			<ele>0.00</ele>
			<time>2020-01-19T20:43:27.42Z</time>
		</trkpt>
		<trkpt lat="34.855213" lon="127.487853">
			<ele>0.00</ele>
			<time>2020-01-19T20:43:28.68Z</time>
		</trkpt>
		<trkpt lat="34.855101" lon="127.487974">
			<ele>0.00</ele>
			<time>2020-01-19T20:43:29.68Z</time>
		</trkpt>
		<trkpt lat="34.854943" lon="127.488126">
			<ele>0.00</ele>
			<time>2020-01-19T20:43:31.02Z</time>
		</trkpt>
		<trkpt lat="34.854769" lon="127.488297">
			<ele>0.00</ele>
			<time>2020-01-19T20:43:32.50Z</time>
		</trkpt>
		<trkpt lat="34.854643" lon="127.488430">
			<ele>0.00</ele>
			<time>2020-01-19T20:43:33.62Z</time>
		</trkpt>
		<trkpt lat="34.854522" lon="127.488577">
			<ele>0.00</ele>
			<time>2020-01-19T20:43:34.76Z</time>
		</trkpt>
		<trkpt lat="34.854446" lon="127.488718">
			<ele>0.00</ele>
			<time>2020-01-19T20:43:35.68Z</time>
		</trkpt>
		<trkpt lat="34.854331" lon="127.488884">
			<ele>0.00</ele>
			<time>2020-01-19T20:43:36.87Z</time>
		</trkpt>
		<trkpt lat="34.854237" lon="127.489038">
			<ele>0.00</ele>
			<time>2020-01-19T20:43:37.92Z</time>
		</trkpt>
		<trkpt lat="34.854126" lon="127.489222">
			<ele>0.00</ele>
			<time>2020-01-19T20:43:39.16Z</time>
		</trkpt>
		<trkpt lat="34.853947" lon="127.489559">
			<ele>0.00</ele>
			<time>2020-01-19T20:43:41.36Z</time>
		</trkpt>
		<trkpt lat="34.853764" lon="127.489844">
			<ele>0.00</ele>
			<time>2020-01-19T20:43:43.34Z</time>
		</trkpt>
		<trkpt lat="34.853617" lon="127.490024">
			<ele>0.00</ele>
			<time>2020-01-19T20:43:44.74Z</time>
		</trkpt>
		<trkpt lat="34.853611" lon="127.490296">
			<ele>0.00</ele>
			<time>2020-01-19T20:43:46.22Z</time>
		</trkpt>
		<trkpt lat="34.853260" lon="127.490641">
			<ele>0.00</ele>
			<time>2020-01-19T20:43:49.23Z</time>
		</trkpt>
		<trkpt lat="34.852943" lon="127.491070">
			<ele>0.00</ele>
			<time>2020-01-19T20:43:52.39Z</time>
		</trkpt>
		<trkpt lat="34.852738" lon="127.491370">
			<ele>0.00</ele>
			<time>2020-01-19T20:43:54.53Z</time>
		</trkpt>
		<trkpt lat="34.852651" lon="127.491609">
			<ele>0.00</ele>
			<time>2020-01-19T20:43:55.96Z</time>
		</trkpt>
		<trkpt lat="34.852390" lon="127.491892">
			<ele>0.00</ele>
			<time>2020-01-19T20:43:58.29Z</time>
		</trkpt>
		<trkpt lat="34.852304" lon="127.492124">
			<ele>0.00</ele>
			<time>2020-01-19T20:43:59.68Z</time>
		</trkpt>
		<trkpt lat="34.852260" lon="127.492368">
			<ele>0.00</ele>
			<time>2020-01-19T20:44:01.04Z</time>
		</trkpt>
		<trkpt lat="34.852123" lon="127.492511">
			<ele>0.00</ele>
			<time>2020-01-19T20:44:02.25Z</time>
		</trkpt>
		<trkpt lat="34.851871" lon="127.492587">
			<ele>0.00</ele>
			<time>2020-01-19T20:44:03.98Z</time>
		</trkpt>
		<trkpt lat="34.851499" lon="127.492418">
			<ele>0.00</ele>
			<time>2020-01-19T20:44:06.63Z</time>
		</trkpt>
		<trkpt lat="34.851254" lon="127.492376">
			<ele>0.00</ele>
			<time>2020-01-19T20:44:08.28Z</time>
		</trkpt>
		<trkpt lat="34.850983" lon="127.492268">
			<ele>0.00</ele>
			<time>2020-01-19T20:44:10.18Z</time>
		</trkpt>
		<trkpt lat="34.850687" lon="127.492165">
			<ele>0.00</ele>
			<time>2020-01-19T20:44:12.23Z</time>
		</trkpt>
		<trkpt lat="34.850304" lon="127.492119">
			<ele>0.00</ele>
			<time>2020-01-19T20:44:14.80Z</time>
		</trkpt>
		<trkpt lat="34.850003" lon="127.492157">
			<ele>0.00</ele>
			<time>2020-01-19T20:44:16.81Z</time>
		</trkpt>
		<trkpt lat="34.849758" lon="127.492250">
			<ele>0.00</ele>
			<time>2020-01-19T20:44:18.53Z</time>
		</trkpt>
		<trkpt lat="34.849527" lon="127.492345">
			<ele>0.00</ele>
			<time>2020-01-19T20:44:20.15Z</time>
		</trkpt>
		<trkpt lat="34.849376" lon="127.492334">
			<ele>0.00</ele>
			<time>2020-01-19T20:44:21.16Z</time>
		</trkpt>
		<trkpt lat="34.849223" lon="127.492260">
			<ele>0.00</ele>
			<time>2020-01-19T20:44:22.26Z</time>
		</trkpt>
		<trkpt lat="34.849016" lon="127.492125">
			<ele>0.00</ele>
			<time>2020-01-19T20:44:23.82Z</time>
		</trkpt>
		<trkpt lat="34.848849" lon="127.491999">
			<ele>0.00</ele>
			<time>2020-01-19T20:44:25.13Z</time>
		</trkpt>
		<trkpt lat="34.848674" lon="127.491955">
			<ele>0.00</ele>
			<time>2020-01-19T20:44:26.32Z</time>
		</trkpt>
		<trkpt lat="34.848521" lon="127.491936">
			<ele>0.00</ele>
			<time>2020-01-19T20:44:27.34Z</time>
		</trkpt>
		<trkpt lat="34.848378" lon="127.491991">
			<ele>0.00</ele>
			<time>2020-01-19T20:44:28.35Z</time>
		</trkpt>
		<trkpt lat="34.848219" lon="127.492096">
			<ele>0.00</ele>
			<time>2020-01-19T20:44:29.55Z</time>
		</trkpt>
		<trkpt lat="34.848069" lon="127.492111">
			<ele>0.00</ele>
			<time>2020-01-19T20:44:30.56Z</time>
		</trkpt>
		<trkpt lat="34.847850" lon="127.492097">
			<ele>0.00</ele>
			<time>2020-01-19T20:44:32.02Z</time>
		</trkpt>
		<trkpt lat="34.847691" lon="127.492073">
			<ele>0.00</ele>
			<time>2020-01-19T20:44:33.09Z</time>
		</trkpt>
		<trkpt lat="34.847539" lon="127.492073">
			<ele>0.00</ele>
			<time>2020-01-19T20:44:34.10Z</time>
		</trkpt>
		<trkpt lat="34.847402" lon="127.492157">
			<ele>0.00</ele>
			<time>2020-01-19T20:44:35.12Z</time>
		</trkpt>
		<trkpt lat="34.847242" lon="127.492256">
			<ele>0.00</ele>
			<time>2020-01-19T20:44:36.32Z</time>
		</trkpt>
		<trkpt lat="34.847077" lon="127.492361">
			<ele>0.00</ele>
			<time>2020-01-19T20:44:37.56Z</time>
		</trkpt>
		<trkpt lat="34.846935" lon="127.492401">
			<ele>0.00</ele>
			<time>2020-01-19T20:44:38.53Z</time>
		</trkpt>
		<trkpt lat="34.846804" lon="127.492401">
			<ele>0.00</ele>
			<time>2020-01-19T20:44:39.41Z</time>
		</trkpt>
		<trkpt lat="34.846640" lon="127.492248">
			<ele>0.00</ele>
			<time>2020-01-19T20:44:40.78Z</time>
		</trkpt>
		<trkpt lat="34.846427" lon="127.492093">
			<ele>0.00</ele>
			<time>2020-01-19T20:44:42.44Z</time>
		</trkpt>
		<trkpt lat="34.846264" lon="127.491910">
			<ele>0.00</ele>
			<time>2020-01-19T20:44:43.91Z</time>
		</trkpt>
		<trkpt lat="34.846171" lon="127.491720">
			<ele>0.00</ele>
			<time>2020-01-19T20:44:45.13Z</time>
		</trkpt>
		<trkpt lat="34.846098" lon="127.491558">
			<ele>0.00</ele>
			<time>2020-01-19T20:44:46.14Z</time>
		</trkpt>
		<trkpt lat="34.846040" lon="127.491407">
			<ele>0.00</ele>
			<time>2020-01-19T20:44:47.05Z</time>
		</trkpt>
		<trkpt lat="34.845880" lon="127.491224">
			<ele>0.00</ele>
			<time>2020-01-19T20:44:48.51Z</time>
		</trkpt>
		<trkpt lat="34.845738" lon="127.491126">
			<ele>0.00</ele>
			<time>2020-01-19T20:44:49.60Z</time>
		</trkpt>
		<trkpt lat="34.845561" lon="127.491070">
			<ele>0.00</ele>
			<time>2020-01-19T20:44:50.82Z</time>
		</trkpt>
		<trkpt lat="34.845378" lon="127.491033">
			<ele>0.00</ele>
			<time>2020-01-19T20:44:52.06Z</time>
		</trkpt>
		<trkpt lat="34.845164" lon="127.490964">
			<ele>0.00</ele>
			<time>2020-01-19T20:44:53.53Z</time>
		</trkpt>
		<trkpt lat="34.845004" lon="127.490893">
			<ele>0.00</ele>
			<time>2020-01-19T20:44:54.67Z</time>
		</trkpt>
		<trkpt lat="34.844853" lon="127.490768">
			<ele>0.00</ele>
			<time>2020-01-19T20:44:55.89Z</time>
		</trkpt>
		<trkpt lat="34.844648" lon="127.490553">
			<ele>0.00</ele>
			<time>2020-01-19T20:44:57.69Z</time>
		</trkpt>
		<trkpt lat="34.844454" lon="127.490371">
			<ele>0.00</ele>
			<time>2020-01-19T20:44:59.32Z</time>
		</trkpt>
		<trkpt lat="34.844259" lon="127.490174">
			<ele>0.00</ele>
			<time>2020-01-19T20:45:01.01Z</time>
		</trkpt>
		<trkpt lat="34.844103" lon="127.490034">
			<ele>0.00</ele>
			<time>2020-01-19T20:45:02.30Z</time>
		</trkpt>
		<trkpt lat="34.843978" lon="127.489910">
			<ele>0.00</ele>
			<time>2020-01-19T20:45:03.37Z</time>
		</trkpt>
		<trkpt lat="34.843834" lon="127.489745">
			<ele>0.00</ele>
			<time>2020-01-19T20:45:04.69Z</time>
		</trkpt>
		<trkpt lat="34.843676" lon="127.489481">
			<ele>0.00</ele>
			<time>2020-01-19T20:45:06.48Z</time>
		</trkpt>
		<trkpt lat="34.843559" lon="127.489268">
			<ele>0.00</ele>
			<time>2020-01-19T20:45:07.88Z</time>
		</trkpt>
		<trkpt lat="34.843419" lon="127.488958">
			<ele>0.00</ele>
			<time>2020-01-19T20:45:09.82Z</time>
		</trkpt>
		<trkpt lat="34.843323" lon="127.488720">
			<ele>0.00</ele>
			<time>2020-01-19T20:45:11.27Z</time>
		</trkpt>
		<trkpt lat="34.843219" lon="127.488485">
			<ele>0.00</ele>
			<time>2020-01-19T20:45:12.73Z</time>
		</trkpt>
		<trkpt lat="34.843130" lon="127.488251">
			<ele>0.00</ele>
			<time>2020-01-19T20:45:14.14Z</time>
		</trkpt>
		<trkpt lat="34.843048" lon="127.488049">
			<ele>0.00</ele>
			<time>2020-01-19T20:45:15.37Z</time>
		</trkpt>
		<trkpt lat="34.842976" lon="127.487908">
			<ele>0.00</ele>
			<time>2020-01-19T20:45:16.28Z</time>
		</trkpt>
		<trkpt lat="34.842908" lon="127.487797">
			<ele>0.00</ele>
			<time>2020-01-19T20:45:17.04Z</time>
		</trkpt>
		<trkpt lat="34.842793" lon="127.487721">
			<ele>0.00</ele>
			<time>2020-01-19T20:45:17.91Z</time>
		</trkpt>
		<trkpt lat="34.842651" lon="127.487622">
			<ele>0.00</ele>
			<time>2020-01-19T20:45:19Z</time>
		</trkpt>
		<trkpt lat="34.842514" lon="127.487535">
			<ele>0.00</ele>
			<time>2020-01-19T20:45:20.03Z</time>
		</trkpt>
		<trkpt lat="34.842448" lon="127.487362">
			<ele>0.00</ele>
			<time>2020-01-19T20:45:21.08Z</time>
		</trkpt>
		<trkpt lat="34.842408" lon="127.487187">
			<ele>0.00</ele>
			<time>2020-01-19T20:45:22.07Z</time>
		</trkpt>
		<trkpt lat="34.842377" lon="127.486969">
			<ele>0.00</ele>
			<time>2020-01-19T20:45:23.28Z</time>
		</trkpt>
		<trkpt lat="34.842348" lon="127.486791">
			<ele>0.00</ele>
			<time>2020-01-19T20:45:24.27Z</time>
		</trkpt>
		<trkpt lat="34.842298" lon="127.486596">
			<ele>0.00</ele>
			<time>2020-01-19T20:45:25.39Z</time>
		</trkpt>
		<trkpt lat="34.842206" lon="127.486427">
			<ele>0.00</ele>
			<time>2020-01-19T20:45:26.50Z</time>
		</trkpt>
		<trkpt lat="34.842074" lon="127.486266">
			<ele>0.00</ele>
			<time>2020-01-19T20:45:27.75Z</time>
		</trkpt>
		<trkpt lat="34.841961" lon="127.486121">
			<ele>0.00</ele>
			<time>2020-01-19T20:45:28.84Z</time>
		</trkpt>
		<trkpt lat="34.841819" lon="127.485975">
			<ele>0.00</ele>
			<time>2020-01-19T20:45:30.08Z</time>
		</trkpt>
		<trkpt lat="34.841686" lon="127.485890">
			<ele>0.00</ele>
			<time>2020-01-19T20:45:31.08Z</time>
		</trkpt>
		<trkpt lat="34.841557" lon="127.485811">
			<ele>0.00</ele>
			<time>2020-01-19T20:45:32.04Z</time>
		</trkpt>
		<trkpt lat="34.841391" lon="127.485825">
			<ele>0.00</ele>
			<time>2020-01-19T20:45:33.15Z</time>
		</trkpt>
		<trkpt lat="34.841210" lon="127.485860">
			<ele>0.00</ele>
			<time>2020-01-19T20:45:34.37Z</time>
		</trkpt>
		<trkpt lat="34.841047" lon="127.485881">
			<ele>0.00</ele>
			<time>2020-01-19T20:45:35.46Z</time>
		</trkpt>
		<trkpt lat="34.840845" lon="127.485920">
			<ele>0.00</ele>
			<time>2020-01-19T20:45:36.83Z</time>
		</trkpt>
		<trkpt lat="34.840681" lon="127.485934">
			<ele>0.00</ele>
			<time>2020-01-19T20:45:37.93Z</time>
		</trkpt>
		<trkpt lat="34.840542" lon="127.485918">
			<ele>0.00</ele>
			<time>2020-01-19T20:45:38.86Z</time>
		</trkpt>
		<trkpt lat="34.840426" lon="127.485845">
			<ele>0.00</ele>
			<time>2020-01-19T20:45:39.73Z</time>
		</trkpt>
		<trkpt lat="34.840327" lon="127.485739">
			<ele>0.00</ele>
			<time>2020-01-19T20:45:40.61Z</time>
		</trkpt>
		<trkpt lat="34.840276" lon="127.485621">
			<ele>0.00</ele>
			<time>2020-01-19T20:45:41.33Z</time>
		</trkpt>
		<trkpt lat="34.840226" lon="127.485401">
			<ele>0.00</ele>
			<time>2020-01-19T20:45:42.58Z</time>
		</trkpt>
		<trkpt lat="34.840212" lon="127.485264">
			<ele>0.00</ele>
			<time>2020-01-19T20:45:43.34Z</time>
		</trkpt>
		<trkpt lat="34.840209" lon="127.485099">
			<ele>0.00</ele>
			<time>2020-01-19T20:45:44.24Z</time>
		</trkpt>
		<trkpt lat="34.840212" lon="127.484935">
			<ele>0.00</ele>
			<time>2020-01-19T20:45:45.14Z</time>
		</trkpt>
		<trkpt lat="34.840229" lon="127.484811">
			<ele>0.00</ele>
			<time>2020-01-19T20:45:45.83Z</time>
		</trkpt>
		<extensions>
			<gte:name>#432</gte:name>
			<gte:color>#9bffff</gte:color>
		</extensions>
	</trkseg>
</trk>
</gpx>