<?xml version="1.0" encoding="UTF-8"?>
<gpx version="1.1" creator="GPS Track Editor" xmlns="http://www.topografix.com/GPX/1/1" xmlns:xsi="http://www.w3.org/2001/XMLSchema-instance" xmlns:gte="http://www.gpstrackeditor.com/xmlschemas/General/1" xmlns:gpxtpx="http://www.garmin.com/xmlschemas/TrackPointExtension/v1" xmlns:gpxx="http://www.garmin.com/xmlschemas/GpxExtensions/v3" targetNamespace="http://www.topografix.com/GPX/1/1" elementFormDefault="qualified" xsi:schemaLocation="http://www.topografix.com/GPX/1/1 http://www.topografix.com/GPX/1/1/gpx.xsd">
<metadata>
	<name>GPS_2020-01-17_003051</name>
</metadata>
<trk>
	<name>012-창원시 마산합포구 진전면 암아교차로~고성군 회화면 배둔시외버스터미널</name>
	<trkseg>
		<trkpt lat="35.107329" lon="128.448161">
			<ele>0.00</ele>
			<time>2020-01-17T00:30:51.75Z</time>
		</trkpt>
		<trkpt lat="35.106979" lon="128.448003">
			<ele>0.00</ele>
			<time>2020-01-17T00:30:54.23Z</time>
		</trkpt>
		<trkpt lat="35.106641" lon="128.447962">
			<ele>0.00</ele>
			<time>2020-01-17T00:30:56.50Z</time>
		</trkpt>
		<trkpt lat="35.106207" lon="128.447950">
			<ele>0.00</ele>
			<time>2020-01-17T00:30:59.39Z</time>
		</trkpt>
		<trkpt lat="35.105830" lon="128.447935">
			<ele>0.00</ele>
			<time>2020-01-17T00:31:01.91Z</time>
		</trkpt>
		<trkpt lat="35.105593" lon="128.447909">
			<ele>0.00</ele>
			<time>2020-01-17T00:31:03.49Z</time>
		</trkpt>
		<trkpt lat="35.105082" lon="128.447816">
			<ele>0.00</ele>
			<time>2020-01-17T00:31:06.94Z</time>
		</trkpt>
		<trkpt lat="35.105079" lon="128.447816">
			<ele>0.00</ele>
			<time>2020-01-17T00:31:07Z</time>
		</trkpt>
		<trkpt lat="35.104210" lon="128.447628">
			<ele>0.00</ele>
			<time>2020-01-17T00:31:12.88Z</time>
		</trkpt>
		<trkpt lat="35.103659" lon="128.447503">
			<ele>0.00</ele>
			<time>2020-01-17T00:31:16.62Z</time>
		</trkpt>
		<trkpt lat="35.103662" lon="128.447625">
			<ele>0.00</ele>
			<time>2020-01-17T00:31:17.29Z</time>
		</trkpt>
		<trkpt lat="35.103068" lon="128.447479">
			<ele>0.00</ele>
			<time>2020-01-17T00:31:21.32Z</time>
		</trkpt>
		<trkpt lat="35.102289" lon="128.447307">
			<ele>0.00</ele>
			<time>2020-01-17T00:31:26.60Z</time>
		</trkpt>
		<trkpt lat="35.101277" lon="128.447126">
			<ele>0.00</ele>
			<time>2020-01-17T00:31:33.42Z</time>
		</trkpt>
		<trkpt lat="35.100101" lon="128.446900">
			<ele>0.00</ele>
			<time>2020-01-17T00:31:41.35Z</time>
		</trkpt>
		<trkpt lat="35.099378" lon="128.446745">
			<ele>0.00</ele>
			<time>2020-01-17T00:31:46.25Z</time>
		</trkpt>
		<trkpt lat="35.099016" lon="128.446765">
			<ele>0.00</ele>
			<time>2020-01-17T00:31:48.67Z</time>
		</trkpt>
		<trkpt lat="35.098714" lon="128.446785">
			<ele>0.00</ele>
			<time>2020-01-17T00:31:50.68Z</time>
		</trkpt>
		<trkpt lat="35.098115" lon="128.446927">
			<ele>0.00</ele>
			<time>2020-01-17T00:31:54.75Z</time>
		</trkpt>
		<trkpt lat="35.097781" lon="128.447060">
			<ele>0.00</ele>
			<time>2020-01-17T00:31:57.09Z</time>
		</trkpt>
		<trkpt lat="35.097467" lon="128.447247">
			<ele>0.00</ele>
			<time>2020-01-17T00:31:59.42Z</time>
		</trkpt>
		<trkpt lat="35.096987" lon="128.447491">
			<ele>0.00</ele>
			<time>2020-01-17T00:32:02.89Z</time>
		</trkpt>
		<trkpt lat="35.096592" lon="128.447852">
			<ele>0.00</ele>
			<time>2020-01-17T00:32:06.17Z</time>
		</trkpt>
		<trkpt lat="35.096319" lon="128.448116">
			<ele>0.00</ele>
			<time>2020-01-17T00:32:08.49Z</time>
		</trkpt>
		<trkpt lat="35.096031" lon="128.448524">
			<ele>0.00</ele>
			<time>2020-01-17T00:32:11.43Z</time>
		</trkpt>
		<trkpt lat="35.095707" lon="128.449034">
			<ele>0.00</ele>
			<time>2020-01-17T00:32:14.95Z</time>
		</trkpt>
		<trkpt lat="35.095360" lon="128.449621">
			<ele>0.00</ele>
			<time>2020-01-17T00:32:18.90Z</time>
		</trkpt>
		<trkpt lat="35.095107" lon="128.450049">
			<ele>0.00</ele>
			<time>2020-01-17T00:32:21.78Z</time>
		</trkpt>
		<trkpt lat="35.094938" lon="128.450328">
			<ele>0.00</ele>
			<time>2020-01-17T00:32:23.68Z</time>
		</trkpt>
		<trkpt lat="35.094811" lon="128.450607">
			<ele>0.00</ele>
			<time>2020-01-17T00:32:25.42Z</time>
		</trkpt>
		<trkpt lat="35.094656" lon="128.450862">
			<ele>0.00</ele>
			<time>2020-01-17T00:32:27.15Z</time>
		</trkpt>
		<trkpt lat="35.094509" lon="128.451019">
			<ele>0.00</ele>
			<time>2020-01-17T00:32:28.46Z</time>
		</trkpt>
		<trkpt lat="35.094500" lon="128.451023">
			<ele>0.00</ele>
			<time>2020-01-17T00:32:28.52Z</time>
		</trkpt>
		<trkpt lat="35.094349" lon="128.451154">
			<ele>0.00</ele>
			<time>2020-01-17T00:32:29.75Z</time>
		</trkpt>
		<trkpt lat="35.094127" lon="128.451375">
			<ele>0.00</ele>
			<time>2020-01-17T00:32:31.66Z</time>
		</trkpt>
		<trkpt lat="35.093975" lon="128.451602">
			<ele>0.00</ele>
			<time>2020-01-17T00:32:33.26Z</time>
		</trkpt>
		<trkpt lat="35.093797" lon="128.451870">
			<ele>0.00</ele>
			<time>2020-01-17T00:32:35.14Z</time>
		</trkpt>
		<trkpt lat="35.093574" lon="128.452181">
			<ele>0.00</ele>
			<time>2020-01-17T00:32:37.40Z</time>
		</trkpt>
		<trkpt lat="35.093397" lon="128.452452">
			<ele>0.00</ele>
			<time>2020-01-17T00:32:39.29Z</time>
		</trkpt>
		<trkpt lat="35.093115" lon="128.452850">
			<ele>0.00</ele>
			<time>2020-01-17T00:32:42.16Z</time>
		</trkpt>
		<trkpt lat="35.092862" lon="128.453202">
			<ele>0.00</ele>
			<time>2020-01-17T00:32:44.72Z</time>
		</trkpt>
		<trkpt lat="35.092676" lon="128.453447">
			<ele>0.00</ele>
			<time>2020-01-17T00:32:46.54Z</time>
		</trkpt>
		<trkpt lat="35.092456" lon="128.453662">
			<ele>0.00</ele>
			<time>2020-01-17T00:32:48.42Z</time>
		</trkpt>
		<trkpt lat="35.092266" lon="128.453883">
			<ele>0.00</ele>
			<time>2020-01-17T00:32:50.17Z</time>
		</trkpt>
		<trkpt lat="35.092094" lon="128.454125">
			<ele>0.00</ele>
			<time>2020-01-17T00:32:51.92Z</time>
		</trkpt>
		<trkpt lat="35.092088" lon="128.454135">
			<ele>0.00</ele>
			<time>2020-01-17T00:32:51.99Z</time>
		</trkpt>
		<trkpt lat="35.092012" lon="128.454296">
			<ele>0.00</ele>
			<time>2020-01-17T00:32:53Z</time>
		</trkpt>
		<trkpt lat="35.091691" lon="128.455047">
			<ele>0.00</ele>
			<time>2020-01-17T00:32:57.62Z</time>
		</trkpt>
		<trkpt lat="35.091594" lon="128.455463">
			<ele>0.00</ele>
			<time>2020-01-17T00:32:59.98Z</time>
		</trkpt>
		<trkpt lat="35.091501" lon="128.456000">
			<ele>0.00</ele>
			<time>2020-01-17T00:33:02.97Z</time>
		</trkpt>
		<trkpt lat="35.091418" lon="128.456457">
			<ele>0.00</ele>
			<time>2020-01-17T00:33:05.53Z</time>
		</trkpt>
		<trkpt lat="35.091224" lon="128.457118">
			<ele>0.00</ele>
			<time>2020-01-17T00:33:09.36Z</time>
		</trkpt>
		<trkpt lat="35.091082" lon="128.457469">
			<ele>0.00</ele>
			<time>2020-01-17T00:33:11.49Z</time>
		</trkpt>
		<trkpt lat="35.090959" lon="128.457842">
			<ele>0.00</ele>
			<time>2020-01-17T00:33:13.69Z</time>
		</trkpt>
		<trkpt lat="35.090851" lon="128.458087">
			<ele>0.00</ele>
			<time>2020-01-17T00:33:15.21Z</time>
		</trkpt>
		<trkpt lat="35.090825" lon="128.458364">
			<ele>0.00</ele>
			<time>2020-01-17T00:33:16.73Z</time>
		</trkpt>
		<trkpt lat="35.090813" lon="128.458577">
			<ele>0.00</ele>
			<time>2020-01-17T00:33:17.90Z</time>
		</trkpt>
		<trkpt lat="35.090768" lon="128.459058">
			<ele>0.00</ele>
			<time>2020-01-17T00:33:20.54Z</time>
		</trkpt>
		<trkpt lat="35.090752" lon="128.459310">
			<ele>0.00</ele>
			<time>2020-01-17T00:33:21.91Z</time>
		</trkpt>
		<trkpt lat="35.090714" lon="128.459500">
			<ele>0.00</ele>
			<time>2020-01-17T00:33:22.98Z</time>
		</trkpt>
		<trkpt lat="35.090610" lon="128.459804">
			<ele>0.00</ele>
			<time>2020-01-17T00:33:24.78Z</time>
		</trkpt>
		<trkpt lat="35.090438" lon="128.460047">
			<ele>0.00</ele>
			<time>2020-01-17T00:33:26.53Z</time>
		</trkpt>
		<trkpt lat="35.090336" lon="128.460161">
			<ele>0.00</ele>
			<time>2020-01-17T00:33:27.45Z</time>
		</trkpt>
		<trkpt lat="35.090046" lon="128.460369">
			<ele>0.00</ele>
			<time>2020-01-17T00:33:29.69Z</time>
		</trkpt>
		<trkpt lat="35.089763" lon="128.460511">
			<ele>0.00</ele>
			<time>2020-01-17T00:33:31.73Z</time>
		</trkpt>
		<trkpt lat="35.089547" lon="128.460646">
			<ele>0.00</ele>
			<time>2020-01-17T00:33:33.35Z</time>
		</trkpt>
		<trkpt lat="35.089271" lon="128.460828">
			<ele>0.00</ele>
			<time>2020-01-17T00:33:35.44Z</time>
		</trkpt>
		<trkpt lat="35.088999" lon="128.461131">
			<ele>0.00</ele>
			<time>2020-01-17T00:33:37.89Z</time>
		</trkpt>
		<trkpt lat="35.088789" lon="128.461381">
			<ele>0.00</ele>
			<time>2020-01-17T00:33:39.85Z</time>
		</trkpt>
		<trkpt lat="35.088586" lon="128.461654">
			<ele>0.00</ele>
			<time>2020-01-17T00:33:41.86Z</time>
		</trkpt>
		<trkpt lat="35.088488" lon="128.461860">
			<ele>0.00</ele>
			<time>2020-01-17T00:33:43.16Z</time>
		</trkpt>
		<trkpt lat="35.088366" lon="128.462080">
			<ele>0.00</ele>
			<time>2020-01-17T00:33:44.61Z</time>
		</trkpt>
		<trkpt lat="35.088282" lon="128.462226">
			<ele>0.00</ele>
			<time>2020-01-17T00:33:45.58Z</time>
		</trkpt>
		<trkpt lat="35.087832" lon="128.462566">
			<ele>0.00</ele>
			<time>2020-01-17T00:33:49.11Z</time>
		</trkpt>
		<trkpt lat="35.087613" lon="128.462784">
			<ele>0.00</ele>
			<time>2020-01-17T00:33:50.99Z</time>
		</trkpt>
		<trkpt lat="35.087458" lon="128.462950">
			<ele>0.00</ele>
			<time>2020-01-17T00:33:52.37Z</time>
		</trkpt>
		<trkpt lat="35.087356" lon="128.463148">
			<ele>0.00</ele>
			<time>2020-01-17T00:33:53.64Z</time>
		</trkpt>
		<trkpt lat="35.087267" lon="128.463463">
			<ele>0.00</ele>
			<time>2020-01-17T00:33:55.46Z</time>
		</trkpt>
		<trkpt lat="35.087200" lon="128.463668">
			<ele>0.00</ele>
			<time>2020-01-17T00:33:56.67Z</time>
		</trkpt>
		<trkpt lat="35.087132" lon="128.463836">
			<ele>0.00</ele>
			<time>2020-01-17T00:33:57.69Z</time>
		</trkpt>
		<trkpt lat="35.086670" lon="128.464355">
			<ele>0.00</ele>
			<time>2020-01-17T00:34:01.87Z</time>
		</trkpt>
		<trkpt lat="35.086338" lon="128.464669">
			<ele>0.00</ele>
			<time>2020-01-17T00:34:04.67Z</time>
		</trkpt>
		<trkpt lat="35.086020" lon="128.464958">
			<ele>0.00</ele>
			<time>2020-01-17T00:34:07.31Z</time>
		</trkpt>
		<trkpt lat="35.085699" lon="128.465205">
			<ele>0.00</ele>
			<time>2020-01-17T00:34:09.84Z</time>
		</trkpt>
		<trkpt lat="35.085292" lon="128.465575">
			<ele>0.00</ele>
			<time>2020-01-17T00:34:13.22Z</time>
		</trkpt>
		<trkpt lat="35.084930" lon="128.465900">
			<ele>0.00</ele>
			<time>2020-01-17T00:34:16.22Z</time>
		</trkpt>
		<trkpt lat="35.084381" lon="128.466337">
			<ele>0.00</ele>
			<time>2020-01-17T00:34:20.59Z</time>
		</trkpt>
		<trkpt lat="35.083871" lon="128.466571">
			<ele>0.00</ele>
			<time>2020-01-17T00:34:24.21Z</time>
		</trkpt>
		<trkpt lat="35.083717" lon="128.466667">
			<ele>0.00</ele>
			<time>2020-01-17T00:34:25.37Z</time>
		</trkpt>
		<trkpt lat="35.083322" lon="128.466742">
			<ele>0.00</ele>
			<time>2020-01-17T00:34:28.04Z</time>
		</trkpt>
		<trkpt lat="35.082837" lon="128.466732">
			<ele>0.00</ele>
			<time>2020-01-17T00:34:31.27Z</time>
		</trkpt>
		<trkpt lat="35.082452" lon="128.466613">
			<ele>0.00</ele>
			<time>2020-01-17T00:34:33.92Z</time>
		</trkpt>
		<trkpt lat="35.081939" lon="128.466321">
			<ele>0.00</ele>
			<time>2020-01-17T00:34:37.69Z</time>
		</trkpt>
		<trkpt lat="35.081430" lon="128.466053">
			<ele>0.00</ele>
			<time>2020-01-17T00:34:41.38Z</time>
		</trkpt>
		<trkpt lat="35.081237" lon="128.465894">
			<ele>0.00</ele>
			<time>2020-01-17T00:34:42.94Z</time>
		</trkpt>
		<trkpt lat="35.081048" lon="128.465639">
			<ele>0.00</ele>
			<time>2020-01-17T00:34:44.81Z</time>
		</trkpt>
		<trkpt lat="35.080841" lon="128.465406">
			<ele>0.00</ele>
			<time>2020-01-17T00:34:46.69Z</time>
		</trkpt>
		<trkpt lat="35.080573" lon="128.465225">
			<ele>0.00</ele>
			<time>2020-01-17T00:34:48.73Z</time>
		</trkpt>
		<trkpt lat="35.080423" lon="128.465183">
			<ele>0.00</ele>
			<time>2020-01-17T00:34:49.76Z</time>
		</trkpt>
		<trkpt lat="35.079999" lon="128.465193">
			<ele>0.00</ele>
			<time>2020-01-17T00:34:52.59Z</time>
		</trkpt>
		<trkpt lat="35.079849" lon="128.465236">
			<ele>0.00</ele>
			<time>2020-01-17T00:34:53.61Z</time>
		</trkpt>
		<trkpt lat="35.079692" lon="128.465236">
			<ele>0.00</ele>
			<time>2020-01-17T00:34:54.66Z</time>
		</trkpt>
		<trkpt lat="35.079525" lon="128.465179">
			<ele>0.00</ele>
			<time>2020-01-17T00:34:55.82Z</time>
		</trkpt>
		<trkpt lat="35.078992" lon="128.464905">
			<ele>0.00</ele>
			<time>2020-01-17T00:34:59.67Z</time>
		</trkpt>
		<trkpt lat="35.078464" lon="128.464690">
			<ele>0.00</ele>
			<time>2020-01-17T00:35:03.38Z</time>
		</trkpt>
		<trkpt lat="35.078141" lon="128.464494">
			<ele>0.00</ele>
			<time>2020-01-17T00:35:05.79Z</time>
		</trkpt>
		<trkpt lat="35.077974" lon="128.464501">
			<ele>0.00</ele>
			<time>2020-01-17T00:35:06.90Z</time>
		</trkpt>
		<trkpt lat="35.077676" lon="128.464381">
			<ele>0.00</ele>
			<time>2020-01-17T00:35:08.99Z</time>
		</trkpt>
		<trkpt lat="35.077445" lon="128.464192">
			<ele>0.00</ele>
			<time>2020-01-17T00:35:10.84Z</time>
		</trkpt>
		<trkpt lat="35.077240" lon="128.464084">
			<ele>0.00</ele>
			<time>2020-01-17T00:35:12.33Z</time>
		</trkpt>
		<trkpt lat="35.076931" lon="128.464083">
			<ele>0.00</ele>
			<time>2020-01-17T00:35:14.39Z</time>
		</trkpt>
		<trkpt lat="35.076584" lon="128.464179">
			<ele>0.00</ele>
			<time>2020-01-17T00:35:16.76Z</time>
		</trkpt>
		<trkpt lat="35.076206" lon="128.464298">
			<ele>0.00</ele>
			<time>2020-01-17T00:35:19.37Z</time>
		</trkpt>
		<trkpt lat="35.075538" lon="128.464453">
			<ele>0.00</ele>
			<time>2020-01-17T00:35:23.90Z</time>
		</trkpt>
		<trkpt lat="35.074920" lon="128.464597">
			<ele>0.00</ele>
			<time>2020-01-17T00:35:28.10Z</time>
		</trkpt>
		<trkpt lat="35.074501" lon="128.464700">
			<ele>0.00</ele>
			<time>2020-01-17T00:35:30.94Z</time>
		</trkpt>
		<trkpt lat="35.074120" lon="128.464685">
			<ele>0.00</ele>
			<time>2020-01-17T00:35:33.48Z</time>
		</trkpt>
		<trkpt lat="35.073765" lon="128.464496">
			<ele>0.00</ele>
			<time>2020-01-17T00:35:36.07Z</time>
		</trkpt>
		<trkpt lat="35.073563" lon="128.464132">
			<ele>0.00</ele>
			<time>2020-01-17T00:35:38.46Z</time>
		</trkpt>
		<trkpt lat="35.073482" lon="128.463862">
			<ele>0.00</ele>
			<time>2020-01-17T00:35:40.04Z</time>
		</trkpt>
		<trkpt lat="35.073492" lon="128.463666">
			<ele>0.00</ele>
			<time>2020-01-17T00:35:41.11Z</time>
		</trkpt>
		<trkpt lat="35.073420" lon="128.463421">
			<ele>0.00</ele>
			<time>2020-01-17T00:35:42.53Z</time>
		</trkpt>
		<trkpt lat="35.073282" lon="128.462938">
			<ele>0.00</ele>
			<time>2020-01-17T00:35:45.32Z</time>
		</trkpt>
		<trkpt lat="35.072884" lon="128.462408">
			<ele>0.00</ele>
			<time>2020-01-17T00:35:49.24Z</time>
		</trkpt>
		<trkpt lat="35.072490" lon="128.462155">
			<ele>0.00</ele>
			<time>2020-01-17T00:35:52.21Z</time>
		</trkpt>
		<trkpt lat="35.072128" lon="128.461990">
			<ele>0.00</ele>
			<time>2020-01-17T00:35:54.79Z</time>
		</trkpt>
		<trkpt lat="35.071836" lon="128.461726">
			<ele>0.00</ele>
			<time>2020-01-17T00:35:57.21Z</time>
		</trkpt>
		<trkpt lat="35.071730" lon="128.461515">
			<ele>0.00</ele>
			<time>2020-01-17T00:35:58.55Z</time>
		</trkpt>
		<trkpt lat="35.071689" lon="128.461210">
			<ele>0.00</ele>
			<time>2020-01-17T00:36:00.24Z</time>
		</trkpt>
		<trkpt lat="35.071677" lon="128.460901">
			<ele>0.00</ele>
			<time>2020-01-17T00:36:01.93Z</time>
		</trkpt>
		<trkpt lat="35.071753" lon="128.460421">
			<ele>0.00</ele>
			<time>2020-01-17T00:36:04.60Z</time>
		</trkpt>
		<trkpt lat="35.071843" lon="128.460018">
			<ele>0.00</ele>
			<time>2020-01-17T00:36:06.88Z</time>
		</trkpt>
		<trkpt lat="35.072126" lon="128.459559">
			<ele>0.00</ele>
			<time>2020-01-17T00:36:10.02Z</time>
		</trkpt>
		<trkpt lat="35.072362" lon="128.459218">
			<ele>0.00</ele>
			<time>2020-01-17T00:36:12.45Z</time>
		</trkpt>
		<trkpt lat="35.072651" lon="128.458898">
			<ele>0.00</ele>
			<time>2020-01-17T00:36:15.05Z</time>
		</trkpt>
		<trkpt lat="35.073007" lon="128.458367">
			<ele>0.00</ele>
			<time>2020-01-17T00:36:18.79Z</time>
		</trkpt>
		<trkpt lat="35.073207" lon="128.457799">
			<ele>0.00</ele>
			<time>2020-01-17T00:36:22.17Z</time>
		</trkpt>
		<trkpt lat="35.073434" lon="128.457140">
			<ele>0.00</ele>
			<time>2020-01-17T00:36:26.07Z</time>
		</trkpt>
		<trkpt lat="35.073535" lon="128.456639">
			<ele>0.00</ele>
			<time>2020-01-17T00:36:28.89Z</time>
		</trkpt>
		<trkpt lat="35.073540" lon="128.456002">
			<ele>0.00</ele>
			<time>2020-01-17T00:36:32.36Z</time>
		</trkpt>
		<trkpt lat="35.073619" lon="128.455121">
			<ele>0.00</ele>
			<time>2020-01-17T00:36:37.20Z</time>
		</trkpt>
		<trkpt lat="35.073710" lon="128.454302">
			<ele>0.00</ele>
			<time>2020-01-17T00:36:41.71Z</time>
		</trkpt>
		<trkpt lat="35.073855" lon="128.453780">
			<ele>0.00</ele>
			<time>2020-01-17T00:36:44.72Z</time>
		</trkpt>
		<trkpt lat="35.074168" lon="128.453175">
			<ele>0.00</ele>
			<time>2020-01-17T00:36:48.62Z</time>
		</trkpt>
		<trkpt lat="35.074261" lon="128.452983">
			<ele>0.00</ele>
			<time>2020-01-17T00:36:49.84Z</time>
		</trkpt>
		<trkpt lat="35.074340" lon="128.452602">
			<ele>0.00</ele>
			<time>2020-01-17T00:36:51.98Z</time>
		</trkpt>
		<trkpt lat="35.074373" lon="128.452379">
			<ele>0.00</ele>
			<time>2020-01-17T00:36:53.22Z</time>
		</trkpt>
		<trkpt lat="35.074309" lon="128.452064">
			<ele>0.00</ele>
			<time>2020-01-17T00:36:54.99Z</time>
		</trkpt>
		<trkpt lat="35.074148" lon="128.451559">
			<ele>0.00</ele>
			<time>2020-01-17T00:36:57.95Z</time>
		</trkpt>
		<trkpt lat="35.073779" lon="128.451021">
			<ele>0.00</ele>
			<time>2020-01-17T00:37:01.77Z</time>
		</trkpt>
		<trkpt lat="35.073659" lon="128.450856">
			<ele>0.00</ele>
			<time>2020-01-17T00:37:02.98Z</time>
		</trkpt>
		<trkpt lat="35.073453" lon="128.450576">
			<ele>0.00</ele>
			<time>2020-01-17T00:37:05.03Z</time>
		</trkpt>
		<trkpt lat="35.073240" lon="128.450142">
			<ele>0.00</ele>
			<time>2020-01-17T00:37:07.80Z</time>
		</trkpt>
		<trkpt lat="35.073086" lon="128.449688">
			<ele>0.00</ele>
			<time>2020-01-17T00:37:10.48Z</time>
		</trkpt>
		<trkpt lat="35.073003" lon="128.449172">
			<ele>0.00</ele>
			<time>2020-01-17T00:37:13.34Z</time>
		</trkpt>
		<trkpt lat="35.072952" lon="128.448826">
			<ele>0.00</ele>
			<time>2020-01-17T00:37:15.26Z</time>
		</trkpt>
		<trkpt lat="35.072790" lon="128.448397">
			<ele>0.00</ele>
			<time>2020-01-17T00:37:17.84Z</time>
		</trkpt>
		<trkpt lat="35.072634" lon="128.448016">
			<ele>0.00</ele>
			<time>2020-01-17T00:37:20.17Z</time>
		</trkpt>
		<trkpt lat="35.072375" lon="128.447585">
			<ele>0.00</ele>
			<time>2020-01-17T00:37:23.08Z</time>
		</trkpt>
		<trkpt lat="35.072197" lon="128.447305">
			<ele>0.00</ele>
			<time>2020-01-17T00:37:25.02Z</time>
		</trkpt>
		<trkpt lat="35.072055" lon="128.446745">
			<ele>0.00</ele>
			<time>2020-01-17T00:37:28.22Z</time>
		</trkpt>
		<trkpt lat="35.072019" lon="128.446277">
			<ele>0.00</ele>
			<time>2020-01-17T00:37:30.79Z</time>
		</trkpt>
		<trkpt lat="35.072029" lon="128.446007">
			<ele>0.00</ele>
			<time>2020-01-17T00:37:32.26Z</time>
		</trkpt>
		<trkpt lat="35.072093" lon="128.445601">
			<ele>0.00</ele>
			<time>2020-01-17T00:37:34.52Z</time>
		</trkpt>
		<trkpt lat="35.072200" lon="128.445093">
			<ele>0.00</ele>
			<time>2020-01-17T00:37:37.38Z</time>
		</trkpt>
		<trkpt lat="35.072301" lon="128.444554">
			<ele>0.00</ele>
			<time>2020-01-17T00:37:40.39Z</time>
		</trkpt>
		<trkpt lat="35.072295" lon="128.444066">
			<ele>0.00</ele>
			<time>2020-01-17T00:37:43.05Z</time>
		</trkpt>
		<trkpt lat="35.072249" lon="128.443736">
			<ele>0.00</ele>
			<time>2020-01-17T00:37:44.88Z</time>
		</trkpt>
		<trkpt lat="35.072128" lon="128.443441">
			<ele>0.00</ele>
			<time>2020-01-17T00:37:46.68Z</time>
		</trkpt>
		<trkpt lat="35.072101" lon="128.443151">
			<ele>0.00</ele>
			<time>2020-01-17T00:37:48.27Z</time>
		</trkpt>
		<trkpt lat="35.072132" lon="128.442502">
			<ele>0.00</ele>
			<time>2020-01-17T00:37:51.82Z</time>
		</trkpt>
		<trkpt lat="35.072217" lon="128.442009">
			<ele>0.00</ele>
			<time>2020-01-17T00:37:54.57Z</time>
		</trkpt>
		<trkpt lat="35.072207" lon="128.441610">
			<ele>0.00</ele>
			<time>2020-01-17T00:37:56.75Z</time>
		</trkpt>
		<trkpt lat="35.072105" lon="128.441247">
			<ele>0.00</ele>
			<time>2020-01-17T00:37:58.84Z</time>
		</trkpt>
		<trkpt lat="35.071965" lon="128.440939">
			<ele>0.00</ele>
			<time>2020-01-17T00:38:00.76Z</time>
		</trkpt>
		<trkpt lat="35.071784" lon="128.440652">
			<ele>0.00</ele>
			<time>2020-01-17T00:38:02.74Z</time>
		</trkpt>
		<trkpt lat="35.071591" lon="128.440505">
			<ele>0.00</ele>
			<time>2020-01-17T00:38:04.26Z</time>
		</trkpt>
		<trkpt lat="35.071258" lon="128.440329">
			<ele>0.00</ele>
			<time>2020-01-17T00:38:06.67Z</time>
		</trkpt>
		<trkpt lat="35.070987" lon="128.440252">
			<ele>0.00</ele>
			<time>2020-01-17T00:38:08.53Z</time>
		</trkpt>
		<trkpt lat="35.070719" lon="128.440302">
			<ele>0.00</ele>
			<time>2020-01-17T00:38:10.33Z</time>
		</trkpt>
		<trkpt lat="35.070406" lon="128.440323">
			<ele>0.00</ele>
			<time>2020-01-17T00:38:12.43Z</time>
		</trkpt>
		<trkpt lat="35.070017" lon="128.440332">
			<ele>0.00</ele>
			<time>2020-01-17T00:38:15.02Z</time>
		</trkpt>
		<trkpt lat="35.069739" lon="128.440336">
			<ele>0.00</ele>
			<time>2020-01-17T00:38:16.88Z</time>
		</trkpt>
		<trkpt lat="35.069410" lon="128.440247">
			<ele>0.00</ele>
			<time>2020-01-17T00:38:19.12Z</time>
		</trkpt>
		<trkpt lat="35.069067" lon="128.439979">
			<ele>0.00</ele>
			<time>2020-01-17T00:38:21.83Z</time>
		</trkpt>
		<trkpt lat="35.068765" lon="128.439676">
			<ele>0.00</ele>
			<time>2020-01-17T00:38:24.44Z</time>
		</trkpt>
		<trkpt lat="35.068429" lon="128.439446">
			<ele>0.00</ele>
			<time>2020-01-17T00:38:27.01Z</time>
		</trkpt>
		<trkpt lat="35.068188" lon="128.439360">
			<ele>0.00</ele>
			<time>2020-01-17T00:38:28.68Z</time>
		</trkpt>
		<trkpt lat="35.067869" lon="128.439260">
			<ele>0.00</ele>
			<time>2020-01-17T00:38:30.88Z</time>
		</trkpt>
		<trkpt lat="35.067592" lon="128.439134">
			<ele>0.00</ele>
			<time>2020-01-17T00:38:32.85Z</time>
		</trkpt>
		<trkpt lat="35.067368" lon="128.439042">
			<ele>0.00</ele>
			<time>2020-01-17T00:38:34.42Z</time>
		</trkpt>
		<trkpt lat="35.067068" lon="128.438797">
			<ele>0.00</ele>
			<time>2020-01-17T00:38:36.83Z</time>
		</trkpt>
		<trkpt lat="35.066890" lon="128.438464">
			<ele>0.00</ele>
			<time>2020-01-17T00:38:39Z</time>
		</trkpt>
		<trkpt lat="35.066786" lon="128.438115">
			<ele>0.00</ele>
			<time>2020-01-17T00:38:41.02Z</time>
		</trkpt>
		<trkpt lat="35.066751" lon="128.437801">
			<ele>0.00</ele>
			<time>2020-01-17T00:38:42.75Z</time>
		</trkpt>
		<trkpt lat="35.066790" lon="128.437516">
			<ele>0.00</ele>
			<time>2020-01-17T00:38:44.33Z</time>
		</trkpt>
		<trkpt lat="35.066903" lon="128.437098">
			<ele>0.00</ele>
			<time>2020-01-17T00:38:46.73Z</time>
		</trkpt>
		<trkpt lat="35.067038" lon="128.436845">
			<ele>0.00</ele>
			<time>2020-01-17T00:38:48.38Z</time>
		</trkpt>
		<trkpt lat="35.067157" lon="128.436513">
			<ele>0.00</ele>
			<time>2020-01-17T00:38:50.36Z</time>
		</trkpt>
		<trkpt lat="35.067176" lon="128.436363">
			<ele>0.00</ele>
			<time>2020-01-17T00:38:51.19Z</time>
		</trkpt>
		<trkpt lat="35.067126" lon="128.436091">
			<ele>0.00</ele>
			<time>2020-01-17T00:38:52.71Z</time>
		</trkpt>
		<trkpt lat="35.066968" lon="128.435729">
			<ele>0.00</ele>
			<time>2020-01-17T00:38:54.95Z</time>
		</trkpt>
		<trkpt lat="35.066742" lon="128.435526">
			<ele>0.00</ele>
			<time>2020-01-17T00:38:56.82Z</time>
		</trkpt>
		<trkpt lat="35.066622" lon="128.435489">
			<ele>0.00</ele>
			<time>2020-01-17T00:38:57.64Z</time>
		</trkpt>
		<trkpt lat="35.066475" lon="128.435489">
			<ele>0.00</ele>
			<time>2020-01-17T00:38:58.62Z</time>
		</trkpt>
		<trkpt lat="35.066334" lon="128.435540">
			<ele>0.00</ele>
			<time>2020-01-17T00:38:59.60Z</time>
		</trkpt>
		<trkpt lat="35.066226" lon="128.435597">
			<ele>0.00</ele>
			<time>2020-01-17T00:39:00.39Z</time>
		</trkpt>
		<trkpt lat="35.066050" lon="128.435681">
			<ele>0.00</ele>
			<time>2020-01-17T00:39:01.65Z</time>
		</trkpt>
		<trkpt lat="35.065902" lon="128.435686">
			<ele>0.00</ele>
			<time>2020-01-17T00:39:02.64Z</time>
		</trkpt>
		<trkpt lat="35.065674" lon="128.435663">
			<ele>0.00</ele>
			<time>2020-01-17T00:39:04.16Z</time>
		</trkpt>
		<trkpt lat="35.065408" lon="128.435643">
			<ele>0.00</ele>
			<time>2020-01-17T00:39:05.93Z</time>
		</trkpt>
		<trkpt lat="35.065028" lon="128.435453">
			<ele>0.00</ele>
			<time>2020-01-17T00:39:08.67Z</time>
		</trkpt>
		<trkpt lat="35.064626" lon="128.435253">
			<ele>0.00</ele>
			<time>2020-01-17T00:39:11.57Z</time>
		</trkpt>
		<trkpt lat="35.064047" lon="128.434964">
			<ele>0.00</ele>
			<time>2020-01-17T00:39:15.74Z</time>
		</trkpt>
		<trkpt lat="35.063559" lon="128.434699">
			<ele>0.00</ele>
			<time>2020-01-17T00:39:19.30Z</time>
		</trkpt>
		<trkpt lat="35.063127" lon="128.434485">
			<ele>0.00</ele>
			<time>2020-01-17T00:39:22.40Z</time>
		</trkpt>
		<trkpt lat="35.062905" lon="128.434408">
			<ele>0.00</ele>
			<time>2020-01-17T00:39:23.95Z</time>
		</trkpt>
		<trkpt lat="35.062605" lon="128.434263">
			<ele>0.00</ele>
			<time>2020-01-17T00:39:26.09Z</time>
		</trkpt>
		<trkpt lat="35.062019" lon="128.434066">
			<ele>0.00</ele>
			<time>2020-01-17T00:39:30.15Z</time>
		</trkpt>
		<trkpt lat="35.061600" lon="128.434029">
			<ele>0.00</ele>
			<time>2020-01-17T00:39:32.95Z</time>
		</trkpt>
		<trkpt lat="35.061307" lon="128.434000">
			<ele>0.00</ele>
			<time>2020-01-17T00:39:34.90Z</time>
		</trkpt>
		<trkpt lat="35.061135" lon="128.433913">
			<ele>0.00</ele>
			<time>2020-01-17T00:39:36.14Z</time>
		</trkpt>
		<trkpt lat="35.060858" lon="128.433612">
			<ele>0.00</ele>
			<time>2020-01-17T00:39:38.62Z</time>
		</trkpt>
		<trkpt lat="35.060739" lon="128.433321">
			<ele>0.00</ele>
			<time>2020-01-17T00:39:40.39Z</time>
		</trkpt>
		<trkpt lat="35.060724" lon="128.432927">
			<ele>0.00</ele>
			<time>2020-01-17T00:39:42.55Z</time>
		</trkpt>
		<trkpt lat="35.060740" lon="128.432508">
			<ele>0.00</ele>
			<time>2020-01-17T00:39:44.83Z</time>
		</trkpt>
		<trkpt lat="35.060764" lon="128.432191">
			<ele>0.00</ele>
			<time>2020-01-17T00:39:46.57Z</time>
		</trkpt>
		<trkpt lat="35.060719" lon="128.431725">
			<ele>0.00</ele>
			<time>2020-01-17T00:39:49.13Z</time>
		</trkpt>
		<trkpt lat="35.060620" lon="128.431184">
			<ele>0.00</ele>
			<time>2020-01-17T00:39:52.16Z</time>
		</trkpt>
		<trkpt lat="35.060496" lon="128.430784">
			<ele>0.00</ele>
			<time>2020-01-17T00:39:54.49Z</time>
		</trkpt>
		<trkpt lat="35.060284" lon="128.430321">
			<ele>0.00</ele>
			<time>2020-01-17T00:39:57.39Z</time>
		</trkpt>
		<trkpt lat="35.059917" lon="128.429867">
			<ele>0.00</ele>
			<time>2020-01-17T00:40:00.86Z</time>
		</trkpt>
		<trkpt lat="35.059565" lon="128.429470">
			<ele>0.00</ele>
			<time>2020-01-17T00:40:04.06Z</time>
		</trkpt>
		<trkpt lat="35.059358" lon="128.429200">
			<ele>0.00</ele>
			<time>2020-01-17T00:40:06.08Z</time>
		</trkpt>
		<trkpt lat="35.059160" lon="128.428779">
			<ele>0.00</ele>
			<time>2020-01-17T00:40:08.73Z</time>
		</trkpt>
		<trkpt lat="35.059080" lon="128.428476">
			<ele>0.00</ele>
			<time>2020-01-17T00:40:10.47Z</time>
		</trkpt>
		<trkpt lat="35.058999" lon="128.427872">
			<ele>0.00</ele>
			<time>2020-01-17T00:40:13.81Z</time>
		</trkpt>
		<trkpt lat="35.058998" lon="128.427041">
			<ele>0.00</ele>
			<time>2020-01-17T00:40:18.34Z</time>
		</trkpt>
		<trkpt lat="35.058981" lon="128.426430">
			<ele>0.00</ele>
			<time>2020-01-17T00:40:21.68Z</time>
		</trkpt>
		<trkpt lat="35.058997" lon="128.426003">
			<ele>0.00</ele>
			<time>2020-01-17T00:40:24.01Z</time>
		</trkpt>
		<trkpt lat="35.059037" lon="128.425430">
			<ele>0.00</ele>
			<time>2020-01-17T00:40:27.15Z</time>
		</trkpt>
		<trkpt lat="35.059167" lon="128.424808">
			<ele>0.00</ele>
			<time>2020-01-17T00:40:30.65Z</time>
		</trkpt>
		<trkpt lat="35.059443" lon="128.424194">
			<ele>0.00</ele>
			<time>2020-01-17T00:40:34.48Z</time>
		</trkpt>
		<trkpt lat="35.059818" lon="128.423651">
			<ele>0.00</ele>
			<time>2020-01-17T00:40:38.35Z</time>
		</trkpt>
		<trkpt lat="35.060521" lon="128.422979">
			<ele>0.00</ele>
			<time>2020-01-17T00:40:44.30Z</time>
		</trkpt>
		<trkpt lat="35.061123" lon="128.422407">
			<ele>0.00</ele>
			<time>2020-01-17T00:40:49.39Z</time>
		</trkpt>
		<trkpt lat="35.061607" lon="128.421870">
			<ele>0.00</ele>
			<time>2020-01-17T00:40:53.74Z</time>
		</trkpt>
		<trkpt lat="35.062198" lon="128.421176">
			<ele>0.00</ele>
			<time>2020-01-17T00:40:59.21Z</time>
		</trkpt>
		<trkpt lat="35.062729" lon="128.420615">
			<ele>0.00</ele>
			<time>2020-01-17T00:41:03.89Z</time>
		</trkpt>
		<trkpt lat="35.063005" lon="128.420444">
			<ele>0.00</ele>
			<time>2020-01-17T00:41:05.95Z</time>
		</trkpt>
		<trkpt lat="35.063460" lon="128.420268">
			<ele>0.00</ele>
			<time>2020-01-17T00:41:09.14Z</time>
		</trkpt>
		<trkpt lat="35.063760" lon="128.420103">
			<ele>0.00</ele>
			<time>2020-01-17T00:41:11.33Z</time>
		</trkpt>
		<trkpt lat="35.064040" lon="128.419824">
			<ele>0.00</ele>
			<time>2020-01-17T00:41:13.74Z</time>
		</trkpt>
		<trkpt lat="35.064263" lon="128.419466">
			<ele>0.00</ele>
			<time>2020-01-17T00:41:16.19Z</time>
		</trkpt>
		<trkpt lat="35.064397" lon="128.418830">
			<ele>0.00</ele>
			<time>2020-01-17T00:41:19.77Z</time>
		</trkpt>
		<trkpt lat="35.064522" lon="128.418200">
			<ele>0.00</ele>
			<time>2020-01-17T00:41:23.31Z</time>
		</trkpt>
		<trkpt lat="35.064598" lon="128.417682">
			<ele>0.00</ele>
			<time>2020-01-17T00:41:26.18Z</time>
		</trkpt>
		<trkpt lat="35.064605" lon="128.417578">
			<ele>0.00</ele>
			<time>2020-01-17T00:41:26.75Z</time>
		</trkpt>
		<trkpt lat="35.064544" lon="128.417145">
			<ele>0.00</ele>
			<time>2020-01-17T00:41:29.15Z</time>
		</trkpt>
		<trkpt lat="35.064361" lon="128.416749">
			<ele>0.00</ele>
			<time>2020-01-17T00:41:31.63Z</time>
		</trkpt>
		<trkpt lat="35.064010" lon="128.416428">
			<ele>0.00</ele>
			<time>2020-01-17T00:41:34.56Z</time>
		</trkpt>
		<trkpt lat="35.063665" lon="128.416223">
			<ele>0.00</ele>
			<time>2020-01-17T00:41:37.11Z</time>
		</trkpt>
		<trkpt lat="35.063241" lon="128.416035">
			<ele>0.00</ele>
			<time>2020-01-17T00:41:40.12Z</time>
		</trkpt>
		<trkpt lat="35.062817" lon="128.415771">
			<ele>0.00</ele>
			<time>2020-01-17T00:41:43.29Z</time>
		</trkpt>
		<trkpt lat="35.062543" lon="128.415571">
			<ele>0.00</ele>
			<time>2020-01-17T00:41:45.42Z</time>
		</trkpt>
		<trkpt lat="35.062273" lon="128.415212">
			<ele>0.00</ele>
			<time>2020-01-17T00:41:48.08Z</time>
		</trkpt>
		<trkpt lat="35.062043" lon="128.414887">
			<ele>0.00</ele>
			<time>2020-01-17T00:41:50.43Z</time>
		</trkpt>
		<trkpt lat="35.061888" lon="128.414484">
			<ele>0.00</ele>
			<time>2020-01-17T00:41:52.85Z</time>
		</trkpt>
		<trkpt lat="35.061828" lon="128.414290">
			<ele>0.00</ele>
			<time>2020-01-17T00:41:53.99Z</time>
		</trkpt>
		<trkpt lat="35.061761" lon="128.413832">
			<ele>0.00</ele>
			<time>2020-01-17T00:41:56.52Z</time>
		</trkpt>
		<trkpt lat="35.061757" lon="128.413440">
			<ele>0.00</ele>
			<time>2020-01-17T00:41:58.66Z</time>
		</trkpt>
		<trkpt lat="35.061842" lon="128.413033">
			<ele>0.00</ele>
			<time>2020-01-17T00:42:00.96Z</time>
		</trkpt>
		<trkpt lat="35.061915" lon="128.412812">
			<ele>0.00</ele>
			<time>2020-01-17T00:42:02.26Z</time>
		</trkpt>
		<trkpt lat="35.061956" lon="128.412366">
			<ele>0.00</ele>
			<time>2020-01-17T00:42:04.70Z</time>
		</trkpt>
		<trkpt lat="35.061923" lon="128.412000">
			<ele>0.00</ele>
			<time>2020-01-17T00:42:06.71Z</time>
		</trkpt>
		<trkpt lat="35.061713" lon="128.411461">
			<ele>0.00</ele>
			<time>2020-01-17T00:42:09.97Z</time>
		</trkpt>
		<trkpt lat="35.061369" lon="128.410977">
			<ele>0.00</ele>
			<time>2020-01-17T00:42:13.47Z</time>
		</trkpt>
		<trkpt lat="35.060984" lon="128.410497">
			<ele>0.00</ele>
			<time>2020-01-17T00:42:17.13Z</time>
		</trkpt>
		<trkpt lat="35.060773" lon="128.410288">
			<ele>0.00</ele>
			<time>2020-01-17T00:42:18.95Z</time>
		</trkpt>
		<trkpt lat="35.060587" lon="128.410185">
			<ele>0.00</ele>
			<time>2020-01-17T00:42:20.31Z</time>
		</trkpt>
		<trkpt lat="35.060219" lon="128.410103">
			<ele>0.00</ele>
			<time>2020-01-17T00:42:22.81Z</time>
		</trkpt>
		<trkpt lat="35.059988" lon="128.410103">
			<ele>0.00</ele>
			<time>2020-01-17T00:42:24.34Z</time>
		</trkpt>
		<trkpt lat="35.059524" lon="128.410069">
			<ele>0.00</ele>
			<time>2020-01-17T00:42:27.44Z</time>
		</trkpt>
		<trkpt lat="35.059255" lon="128.410083">
			<ele>0.00</ele>
			<time>2020-01-17T00:42:29.24Z</time>
		</trkpt>
		<trkpt lat="35.058935" lon="128.410068">
			<ele>0.00</ele>
			<time>2020-01-17T00:42:31.37Z</time>
		</trkpt>
		<trkpt lat="35.058674" lon="128.410023">
			<ele>0.00</ele>
			<time>2020-01-17T00:42:33.13Z</time>
		</trkpt>
		<trkpt lat="35.058490" lon="128.409934">
			<ele>0.00</ele>
			<time>2020-01-17T00:42:34.45Z</time>
		</trkpt>
		<trkpt lat="35.058384" lon="128.409652">
			<ele>0.00</ele>
			<time>2020-01-17T00:42:36.14Z</time>
		</trkpt>
		<trkpt lat="35.058415" lon="128.409459">
			<ele>0.00</ele>
			<time>2020-01-17T00:42:37.22Z</time>
		</trkpt>
		<trkpt lat="35.058498" lon="128.409238">
			<ele>0.00</ele>
			<time>2020-01-17T00:42:38.54Z</time>
		</trkpt>
		<trkpt lat="35.058483" lon="128.408907">
			<ele>0.00</ele>
			<time>2020-01-17T00:42:40.35Z</time>
		</trkpt>
		<trkpt lat="35.058413" lon="128.408526">
			<ele>0.00</ele>
			<time>2020-01-17T00:42:42.48Z</time>
		</trkpt>
		<trkpt lat="35.058407" lon="128.408321">
			<ele>0.00</ele>
			<time>2020-01-17T00:42:43.61Z</time>
		</trkpt>
		<trkpt lat="35.058544" lon="128.408135">
			<ele>0.00</ele>
			<time>2020-01-17T00:42:44.97Z</time>
		</trkpt>
		<trkpt lat="35.058796" lon="128.407986">
			<ele>0.00</ele>
			<time>2020-01-17T00:42:46.84Z</time>
		</trkpt>
		<trkpt lat="35.058899" lon="128.407622">
			<ele>0.00</ele>
			<time>2020-01-17T00:42:48.94Z</time>
		</trkpt>
		<trkpt lat="35.058963" lon="128.407372">
			<ele>0.00</ele>
			<time>2020-01-17T00:42:50.37Z</time>
		</trkpt>
		<trkpt lat="35.058965" lon="128.406922">
			<ele>0.00</ele>
			<time>2020-01-17T00:42:52.83Z</time>
		</trkpt>
		<trkpt lat="35.058866" lon="128.406584">
			<ele>0.00</ele>
			<time>2020-01-17T00:42:54.79Z</time>
		</trkpt>
		<trkpt lat="35.058514" lon="128.406019">
			<ele>0.00</ele>
			<time>2020-01-17T00:42:58.66Z</time>
		</trkpt>
		<trkpt lat="35.058431" lon="128.405285">
			<ele>0.00</ele>
			<time>2020-01-17T00:43:02.71Z</time>
		</trkpt>
		<trkpt lat="35.058337" lon="128.404620">
			<ele>0.00</ele>
			<time>2020-01-17T00:43:06.39Z</time>
		</trkpt>
		<trkpt lat="35.058324" lon="128.404314">
			<ele>0.00</ele>
			<time>2020-01-17T00:43:08.06Z</time>
		</trkpt>
		<trkpt lat="35.058340" lon="128.404002">
			<ele>0.00</ele>
			<time>2020-01-17T00:43:09.77Z</time>
		</trkpt>
		<trkpt lat="35.058523" lon="128.402649">
			<ele>0.00</ele>
			<time>2020-01-17T00:43:17.25Z</time>
		</trkpt>
		<trkpt lat="35.058777" lon="128.401661">
			<ele>0.00</ele>
			<time>2020-01-17T00:43:22.90Z</time>
		</trkpt>
		<trkpt lat="35.058813" lon="128.401267">
			<ele>0.00</ele>
			<time>2020-01-17T00:43:25.06Z</time>
		</trkpt>
		<trkpt lat="35.059108" lon="128.400628">
			<ele>0.00</ele>
			<time>2020-01-17T00:43:29.07Z</time>
		</trkpt>
		<trkpt lat="35.059285" lon="128.400400">
			<ele>0.00</ele>
			<time>2020-01-17T00:43:30.79Z</time>
		</trkpt>
		<trkpt lat="35.059605" lon="128.400059">
			<ele>0.00</ele>
			<time>2020-01-17T00:43:33.62Z</time>
		</trkpt>
		<trkpt lat="35.059918" lon="128.399899">
			<ele>0.00</ele>
			<time>2020-01-17T00:43:35.88Z</time>
		</trkpt>
		<trkpt lat="35.060057" lon="128.399783">
			<ele>0.00</ele>
			<time>2020-01-17T00:43:37Z</time>
		</trkpt>
		<trkpt lat="35.059973" lon="128.399543">
			<ele>0.00</ele>
			<time>2020-01-17T00:43:38.43Z</time>
		</trkpt>
		<trkpt lat="35.060161" lon="128.399449">
			<ele>0.00</ele>
			<time>2020-01-17T00:43:39.78Z</time>
		</trkpt>
		<trkpt lat="35.060313" lon="128.399727">
			<ele>0.00</ele>
			<time>2020-01-17T00:43:41.60Z</time>
		</trkpt>
		<trkpt lat="35.060739" lon="128.399474">
			<ele>0.00</ele>
			<time>2020-01-17T00:43:44.76Z</time>
		</trkpt>
		<trkpt lat="35.061165" lon="128.399141">
			<ele>0.00</ele>
			<time>2020-01-17T00:43:48.13Z</time>
		</trkpt>
		<trkpt lat="35.061263" lon="128.398840">
			<ele>0.00</ele>
			<time>2020-01-17T00:43:49.90Z</time>
		</trkpt>
		<trkpt lat="35.061221" lon="128.398334">
			<ele>0.00</ele>
			<time>2020-01-17T00:43:52.68Z</time>
		</trkpt>
		<trkpt lat="35.061181" lon="128.397806">
			<ele>0.00</ele>
			<time>2020-01-17T00:43:55.57Z</time>
		</trkpt>
		<trkpt lat="35.061132" lon="128.397441">
			<ele>0.00</ele>
			<time>2020-01-17T00:43:57.59Z</time>
		</trkpt>
		<trkpt lat="35.061125" lon="128.397400">
			<ele>0.00</ele>
			<time>2020-01-17T00:43:57.82Z</time>
		</trkpt>
		<trkpt lat="35.061095" lon="128.397235">
			<ele>0.00</ele>
			<time>2020-01-17T00:43:58.74Z</time>
		</trkpt>
		<trkpt lat="35.061050" lon="128.397129">
			<ele>0.00</ele>
			<time>2020-01-17T00:43:59.39Z</time>
		</trkpt>
		<trkpt lat="35.060945" lon="128.397033">
			<ele>0.00</ele>
			<time>2020-01-17T00:44:00.27Z</time>
		</trkpt>
		<trkpt lat="35.060900" lon="128.396944">
			<ele>0.00</ele>
			<time>2020-01-17T00:44:00.84Z</time>
		</trkpt>
		<trkpt lat="35.060857" lon="128.396826">
			<ele>0.00</ele>
			<time>2020-01-17T00:44:01.55Z</time>
		</trkpt>
		<trkpt lat="35.060790" lon="128.396691">
			<ele>0.00</ele>
			<time>2020-01-17T00:44:02.41Z</time>
		</trkpt>
		<trkpt lat="35.060726" lon="128.396579">
			<ele>0.00</ele>
			<time>2020-01-17T00:44:03.15Z</time>
		</trkpt>
		<trkpt lat="35.060673" lon="128.396503">
			<ele>0.00</ele>
			<time>2020-01-17T00:44:03.69Z</time>
		</trkpt>
		<trkpt lat="35.060630" lon="128.396460">
			<ele>0.00</ele>
			<time>2020-01-17T00:44:04.07Z</time>
		</trkpt>
		<trkpt lat="35.060628" lon="128.396460">
			<ele>0.00</ele>
			<time>2020-01-17T00:44:04.13Z</time>
		</trkpt>
		<trkpt lat="35.060587" lon="128.396426">
			<ele>0.00</ele>
			<time>2020-01-17T00:44:04.46Z</time>
		</trkpt>
		<trkpt lat="35.060538" lon="128.396401">
			<ele>0.00</ele>
			<time>2020-01-17T00:44:04.81Z</time>
		</trkpt>
		<trkpt lat="35.060472" lon="128.396383">
			<ele>0.00</ele>
			<time>2020-01-17T00:44:05.26Z</time>
		</trkpt>
		<trkpt lat="35.060382" lon="128.396369">
			<ele>0.00</ele>
			<time>2020-01-17T00:44:05.87Z</time>
		</trkpt>
		<trkpt lat="35.060314" lon="128.396382">
			<ele>0.00</ele>
			<time>2020-01-17T00:44:06.33Z</time>
		</trkpt>
		<trkpt lat="35.060243" lon="128.396417">
			<ele>0.00</ele>
			<time>2020-01-17T00:44:06.84Z</time>
		</trkpt>
		<trkpt lat="35.060166" lon="128.396475">
			<ele>0.00</ele>
			<time>2020-01-17T00:44:07.44Z</time>
		</trkpt>
		<trkpt lat="35.060100" lon="128.396518">
			<ele>0.00</ele>
			<time>2020-01-17T00:44:07.94Z</time>
		</trkpt>
		<trkpt lat="35.060047" lon="128.396552">
			<ele>0.00</ele>
			<time>2020-01-17T00:44:08.34Z</time>
		</trkpt>
		<trkpt lat="35.059993" lon="128.396590">
			<ele>0.00</ele>
			<time>2020-01-17T00:44:08.75Z</time>
		</trkpt>
		<trkpt lat="35.059942" lon="128.396631">
			<ele>0.00</ele>
			<time>2020-01-17T00:44:09.16Z</time>
		</trkpt>
		<trkpt lat="35.059869" lon="128.396676">
			<ele>0.00</ele>
			<time>2020-01-17T00:44:09.71Z</time>
		</trkpt>
		<trkpt lat="35.059816" lon="128.396717">
			<ele>0.00</ele>
			<time>2020-01-17T00:44:10.12Z</time>
		</trkpt>
		<trkpt lat="35.059756" lon="128.396753">
			<ele>0.00</ele>
			<time>2020-01-17T00:44:10.57Z</time>
		</trkpt>
		<trkpt lat="35.059696" lon="128.396786">
			<ele>0.00</ele>
			<time>2020-01-17T00:44:11.01Z</time>
		</trkpt>
		<trkpt lat="35.059631" lon="128.396827">
			<ele>0.00</ele>
			<time>2020-01-17T00:44:11.49Z</time>
		</trkpt>
		<trkpt lat="35.059545" lon="128.396849">
			<ele>0.00</ele>
			<time>2020-01-17T00:44:12.08Z</time>
		</trkpt>
		<trkpt lat="35.059464" lon="128.396852">
			<ele>0.00</ele>
			<time>2020-01-17T00:44:12.62Z</time>
		</trkpt>
		<trkpt lat="35.059363" lon="128.396852">
			<ele>0.00</ele>
			<time>2020-01-17T00:44:13.29Z</time>
		</trkpt>
		<trkpt lat="35.059278" lon="128.396846">
			<ele>0.00</ele>
			<time>2020-01-17T00:44:13.86Z</time>
		</trkpt>
		<trkpt lat="35.059164" lon="128.396837">
			<ele>0.00</ele>
			<time>2020-01-17T00:44:14.62Z</time>
		</trkpt>
		<trkpt lat="35.059092" lon="128.396828">
			<ele>0.00</ele>
			<time>2020-01-17T00:44:15.11Z</time>
		</trkpt>
		<trkpt lat="35.059015" lon="128.396800">
			<ele>0.00</ele>
			<time>2020-01-17T00:44:15.64Z</time>
		</trkpt>
		<trkpt lat="35.058952" lon="128.396749">
			<ele>0.00</ele>
			<time>2020-01-17T00:44:16.15Z</time>
		</trkpt>
		<trkpt lat="35.058903" lon="128.396672">
			<ele>0.00</ele>
			<time>2020-01-17T00:44:16.68Z</time>
		</trkpt>
		<trkpt lat="35.058860" lon="128.396585">
			<ele>0.00</ele>
			<time>2020-01-17T00:44:17.23Z</time>
		</trkpt>
		<trkpt lat="35.058826" lon="128.396469">
			<ele>0.00</ele>
			<time>2020-01-17T00:44:17.90Z</time>
		</trkpt>
		<trkpt lat="35.058809" lon="128.396395">
			<ele>0.00</ele>
			<time>2020-01-17T00:44:18.32Z</time>
		</trkpt>
		<trkpt lat="35.058787" lon="128.396326">
			<ele>0.00</ele>
			<time>2020-01-17T00:44:18.73Z</time>
		</trkpt>
		<trkpt lat="35.058751" lon="128.396202">
			<ele>0.00</ele>
			<time>2020-01-17T00:44:19.45Z</time>
		</trkpt>
		<trkpt lat="35.058723" lon="128.396108">
			<ele>0.00</ele>
			<time>2020-01-17T00:44:19.99Z</time>
		</trkpt>
		<trkpt lat="35.058690" lon="128.396015">
			<ele>0.00</ele>
			<time>2020-01-17T00:44:20.54Z</time>
		</trkpt>
		<trkpt lat="35.058660" lon="128.395932">
			<ele>0.00</ele>
			<time>2020-01-17T00:44:21.04Z</time>
		</trkpt>
		<trkpt lat="35.058625" lon="128.395832">
			<ele>0.00</ele>
			<time>2020-01-17T00:44:21.63Z</time>
		</trkpt>
		<trkpt lat="35.058604" lon="128.395756">
			<ele>0.00</ele>
			<time>2020-01-17T00:44:22.07Z</time>
		</trkpt>
		<trkpt lat="35.058581" lon="128.395702">
			<ele>0.00</ele>
			<time>2020-01-17T00:44:22.40Z</time>
		</trkpt>
		<trkpt lat="35.058540" lon="128.395635">
			<ele>0.00</ele>
			<time>2020-01-17T00:44:22.86Z</time>
		</trkpt>
		<trkpt lat="35.058507" lon="128.395552">
			<ele>0.00</ele>
			<time>2020-01-17T00:44:23.37Z</time>
		</trkpt>
		<trkpt lat="35.058482" lon="128.395457">
			<ele>0.00</ele>
			<time>2020-01-17T00:44:23.91Z</time>
		</trkpt>
		<trkpt lat="35.058441" lon="128.395346">
			<ele>0.00</ele>
			<time>2020-01-17T00:44:24.57Z</time>
		</trkpt>
		<trkpt lat="35.058395" lon="128.395224">
			<ele>0.00</ele>
			<time>2020-01-17T00:44:25.31Z</time>
		</trkpt>
		<trkpt lat="35.058379" lon="128.395126">
			<ele>0.00</ele>
			<time>2020-01-17T00:44:25.85Z</time>
		</trkpt>
		<trkpt lat="35.058377" lon="128.395121">
			<ele>0.00</ele>
			<time>2020-01-17T00:44:25.91Z</time>
		</trkpt>
		<trkpt lat="35.058356" lon="128.394954">
			<ele>0.00</ele>
			<time>2020-01-17T00:44:26.83Z</time>
		</trkpt>
		<trkpt lat="35.058338" lon="128.394822">
			<ele>0.00</ele>
			<time>2020-01-17T00:44:27.56Z</time>
		</trkpt>
		<trkpt lat="35.058324" lon="128.394716">
			<ele>0.00</ele>
			<time>2020-01-17T00:44:28.15Z</time>
		</trkpt>
		<trkpt lat="35.058318" lon="128.394641">
			<ele>0.00</ele>
			<time>2020-01-17T00:44:28.56Z</time>
		</trkpt>
		<trkpt lat="35.058306" lon="128.394551">
			<ele>0.00</ele>
			<time>2020-01-17T00:44:29.06Z</time>
		</trkpt>
		<trkpt lat="35.058285" lon="128.394469">
			<ele>0.00</ele>
			<time>2020-01-17T00:44:29.53Z</time>
		</trkpt>
		<trkpt lat="35.058261" lon="128.394371">
			<ele>0.00</ele>
			<time>2020-01-17T00:44:30.08Z</time>
		</trkpt>
		<trkpt lat="35.058237" lon="128.394299">
			<ele>0.00</ele>
			<time>2020-01-17T00:44:30.51Z</time>
		</trkpt>
		<trkpt lat="35.058202" lon="128.394231">
			<ele>0.00</ele>
			<time>2020-01-17T00:44:30.95Z</time>
		</trkpt>
		<trkpt lat="35.058170" lon="128.394144">
			<ele>0.00</ele>
			<time>2020-01-17T00:44:31.47Z</time>
		</trkpt>
		<trkpt lat="35.058134" lon="128.394090">
			<ele>0.00</ele>
			<time>2020-01-17T00:44:31.85Z</time>
		</trkpt>
		<trkpt lat="35.058084" lon="128.394009">
			<ele>0.00</ele>
			<time>2020-01-17T00:44:32.40Z</time>
		</trkpt>
		<trkpt lat="35.058041" lon="128.393928">
			<ele>0.00</ele>
			<time>2020-01-17T00:44:32.93Z</time>
		</trkpt>
		<trkpt lat="35.057996" lon="128.393856">
			<ele>0.00</ele>
			<time>2020-01-17T00:44:33.42Z</time>
		</trkpt>
		<trkpt lat="35.057963" lon="128.393788">
			<ele>0.00</ele>
			<time>2020-01-17T00:44:33.85Z</time>
		</trkpt>
		<trkpt lat="35.057925" lon="128.393716">
			<ele>0.00</ele>
			<time>2020-01-17T00:44:34.32Z</time>
		</trkpt>
		<trkpt lat="35.057780" lon="128.393635">
			<ele>0.00</ele>
			<time>2020-01-17T00:44:35.38Z</time>
		</trkpt>
		<trkpt lat="35.057670" lon="128.393589">
			<ele>0.00</ele>
			<time>2020-01-17T00:44:36.16Z</time>
		</trkpt>
		<trkpt lat="35.057499" lon="128.393517">
			<ele>0.00</ele>
			<time>2020-01-17T00:44:37.36Z</time>
		</trkpt>
		<trkpt lat="35.057234" lon="128.393456">
			<ele>0.00</ele>
			<time>2020-01-17T00:44:39.16Z</time>
		</trkpt>
		<trkpt lat="35.057061" lon="128.393410">
			<ele>0.00</ele>
			<time>2020-01-17T00:44:40.34Z</time>
		</trkpt>
		<trkpt lat="35.056897" lon="128.393384">
			<ele>0.00</ele>
			<time>2020-01-17T00:44:41.45Z</time>
		</trkpt>
		<trkpt lat="35.056883" lon="128.393380">
			<ele>0.00</ele>
			<time>2020-01-17T00:44:41.54Z</time>
		</trkpt>
		<trkpt lat="35.056743" lon="128.393341">
			<ele>0.00</ele>
			<time>2020-01-17T00:44:42.50Z</time>
		</trkpt>
		<trkpt lat="35.056565" lon="128.393278">
			<ele>0.00</ele>
			<time>2020-01-17T00:44:43.73Z</time>
		</trkpt>
		<trkpt lat="35.056354" lon="128.393219">
			<ele>0.00</ele>
			<time>2020-01-17T00:44:45.18Z</time>
		</trkpt>
		<trkpt lat="35.056187" lon="128.393160">
			<ele>0.00</ele>
			<time>2020-01-17T00:44:46.34Z</time>
		</trkpt>
		<trkpt lat="35.056044" lon="128.393112">
			<ele>0.00</ele>
			<time>2020-01-17T00:44:47.33Z</time>
		</trkpt>
		<trkpt lat="35.055879" lon="128.393034">
			<ele>0.00</ele>
			<time>2020-01-17T00:44:48.50Z</time>
		</trkpt>
		<trkpt lat="35.055641" lon="128.392843">
			<ele>0.00</ele>
			<time>2020-01-17T00:44:50.41Z</time>
		</trkpt>
		<trkpt lat="35.055471" lon="128.392755">
			<ele>0.00</ele>
			<time>2020-01-17T00:44:51.63Z</time>
		</trkpt>
		<trkpt lat="35.055299" lon="128.392614">
			<ele>0.00</ele>
			<time>2020-01-17T00:44:53.01Z</time>
		</trkpt>
		<trkpt lat="35.055150" lon="128.392488">
			<ele>0.00</ele>
			<time>2020-01-17T00:44:54.22Z</time>
		</trkpt>
		<trkpt lat="35.055069" lon="128.392404">
			<ele>0.00</ele>
			<time>2020-01-17T00:44:54.93Z</time>
		</trkpt>
		<trkpt lat="35.055064" lon="128.392402">
			<ele>0.00</ele>
			<time>2020-01-17T00:44:54.99Z</time>
		</trkpt>
		<trkpt lat="35.054995" lon="128.392348">
			<ele>0.00</ele>
			<time>2020-01-17T00:44:55.55Z</time>
		</trkpt>
		<trkpt lat="35.054887" lon="128.392297">
			<ele>0.00</ele>
			<time>2020-01-17T00:44:56.31Z</time>
		</trkpt>
		<trkpt lat="35.054831" lon="128.392268">
			<ele>0.00</ele>
			<time>2020-01-17T00:44:56.72Z</time>
		</trkpt>
		<trkpt lat="35.054773" lon="128.392318">
			<ele>0.00</ele>
			<time>2020-01-17T00:44:57.19Z</time>
		</trkpt>
		<trkpt lat="35.054688" lon="128.392294">
			<ele>0.00</ele>
			<time>2020-01-17T00:44:57.78Z</time>
		</trkpt>
		<trkpt lat="35.054659" lon="128.392229">
			<ele>0.00</ele>
			<time>2020-01-17T00:44:58.18Z</time>
		</trkpt>
		<trkpt lat="35.054626" lon="128.392183">
			<ele>0.00</ele>
			<time>2020-01-17T00:44:58.52Z</time>
		</trkpt>
		<trkpt lat="35.054576" lon="128.392142">
			<ele>0.00</ele>
			<time>2020-01-17T00:44:58.92Z</time>
		</trkpt>
		<trkpt lat="35.054528" lon="128.392102">
			<ele>0.00</ele>
			<time>2020-01-17T00:44:59.31Z</time>
		</trkpt>
		<trkpt lat="35.054453" lon="128.392063">
			<ele>0.00</ele>
			<time>2020-01-17T00:44:59.85Z</time>
		</trkpt>
		<trkpt lat="35.054379" lon="128.392022">
			<ele>0.00</ele>
			<time>2020-01-17T00:45:00.39Z</time>
		</trkpt>
		<trkpt lat="35.054309" lon="128.391971">
			<ele>0.00</ele>
			<time>2020-01-17T00:45:00.93Z</time>
		</trkpt>
		<trkpt lat="35.054237" lon="128.391924">
			<ele>0.00</ele>
			<time>2020-01-17T00:45:01.48Z</time>
		</trkpt>
		<trkpt lat="35.054147" lon="128.391866">
			<ele>0.00</ele>
			<time>2020-01-17T00:45:02.15Z</time>
		</trkpt>
		<trkpt lat="35.054083" lon="128.391823">
			<ele>0.00</ele>
			<time>2020-01-17T00:45:02.64Z</time>
		</trkpt>
		<trkpt lat="35.054016" lon="128.391768">
			<ele>0.00</ele>
			<time>2020-01-17T00:45:03.18Z</time>
		</trkpt>
		<trkpt lat="35.054012" lon="128.391768">
			<ele>0.00</ele>
			<time>2020-01-17T00:45:03.24Z</time>
		</trkpt>
		<trkpt lat="35.053956" lon="128.391721">
			<ele>0.00</ele>
			<time>2020-01-17T00:45:03.69Z</time>
		</trkpt>
		<trkpt lat="35.053886" lon="128.391668">
			<ele>0.00</ele>
			<time>2020-01-17T00:45:04.24Z</time>
		</trkpt>
		<trkpt lat="35.053823" lon="128.391626">
			<ele>0.00</ele>
			<time>2020-01-17T00:45:04.72Z</time>
		</trkpt>
		<trkpt lat="35.053762" lon="128.391582">
			<ele>0.00</ele>
			<time>2020-01-17T00:45:05.19Z</time>
		</trkpt>
		<trkpt lat="35.053680" lon="128.391542">
			<ele>0.00</ele>
			<time>2020-01-17T00:45:05.78Z</time>
		</trkpt>
		<trkpt lat="35.053606" lon="128.391509">
			<ele>0.00</ele>
			<time>2020-01-17T00:45:06.30Z</time>
		</trkpt>
		<trkpt lat="35.053603" lon="128.391509">
			<ele>0.00</ele>
			<time>2020-01-17T00:45:06.36Z</time>
		</trkpt>
		<trkpt lat="35.053536" lon="128.391509">
			<ele>0.00</ele>
			<time>2020-01-17T00:45:06.81Z</time>
		</trkpt>
		<trkpt lat="35.053534" lon="128.391509">
			<ele>0.00</ele>
			<time>2020-01-17T00:45:06.87Z</time>
		</trkpt>
		<trkpt lat="35.053475" lon="128.391529">
			<ele>0.00</ele>
			<time>2020-01-17T00:45:07.29Z</time>
		</trkpt>
		<trkpt lat="35.053307" lon="128.391495">
			<ele>0.00</ele>
			<time>2020-01-17T00:45:08.42Z</time>
		</trkpt>
		<trkpt lat="35.053182" lon="128.391442">
			<ele>0.00</ele>
			<time>2020-01-17T00:45:09.30Z</time>
		</trkpt>
		<trkpt lat="35.052779" lon="128.391372">
			<ele>0.00</ele>
			<time>2020-01-17T00:45:12.01Z</time>
		</trkpt>
		<trkpt lat="35.052455" lon="128.391292">
			<ele>0.00</ele>
			<time>2020-01-17T00:45:14.22Z</time>
		</trkpt>
		<trkpt lat="35.052185" lon="128.391123">
			<ele>0.00</ele>
			<time>2020-01-17T00:45:16.24Z</time>
		</trkpt>
		<trkpt lat="35.052121" lon="128.391018">
			<ele>0.00</ele>
			<time>2020-01-17T00:45:16.95Z</time>
		</trkpt>
		<trkpt lat="35.052132" lon="128.390843">
			<ele>0.00</ele>
			<time>2020-01-17T00:45:17.91Z</time>
		</trkpt>
		<trkpt lat="35.052187" lon="128.390496">
			<ele>0.00</ele>
			<time>2020-01-17T00:45:19.84Z</time>
		</trkpt>
		<trkpt lat="35.052182" lon="128.390294">
			<ele>0.00</ele>
			<time>2020-01-17T00:45:20.94Z</time>
		</trkpt>
		<trkpt lat="35.052146" lon="128.390101">
			<ele>0.00</ele>
			<time>2020-01-17T00:45:22.02Z</time>
		</trkpt>
		<trkpt lat="35.052083" lon="128.389917">
			<ele>0.00</ele>
			<time>2020-01-17T00:45:23.11Z</time>
		</trkpt>
		<trkpt lat="35.051914" lon="128.389729">
			<ele>0.00</ele>
			<time>2020-01-17T00:45:24.63Z</time>
		</trkpt>
		<trkpt lat="35.051763" lon="128.389574">
			<ele>0.00</ele>
			<time>2020-01-17T00:45:25.95Z</time>
		</trkpt>
		<trkpt lat="35.051682" lon="128.389417">
			<ele>0.00</ele>
			<time>2020-01-17T00:45:26.97Z</time>
		</trkpt>
		<trkpt lat="35.051682" lon="128.389249">
			<ele>0.00</ele>
			<time>2020-01-17T00:45:27.88Z</time>
		</trkpt>
		<trkpt lat="35.051724" lon="128.389045">
			<ele>0.00</ele>
			<time>2020-01-17T00:45:29.03Z</time>
		</trkpt>
		<trkpt lat="35.051876" lon="128.388695">
			<ele>0.00</ele>
			<time>2020-01-17T00:45:31.19Z</time>
		</trkpt>
		<trkpt lat="35.051953" lon="128.388489">
			<ele>0.00</ele>
			<time>2020-01-17T00:45:32.42Z</time>
		</trkpt>
		<trkpt lat="35.052011" lon="128.388190">
			<ele>0.00</ele>
			<time>2020-01-17T00:45:34.10Z</time>
		</trkpt>
		<trkpt lat="35.051958" lon="128.387914">
			<ele>0.00</ele>
			<time>2020-01-17T00:45:35.65Z</time>
		</trkpt>
		<trkpt lat="35.051865" lon="128.387758">
			<ele>0.00</ele>
			<time>2020-01-17T00:45:36.70Z</time>
		</trkpt>
		<trkpt lat="35.051464" lon="128.387416">
			<ele>0.00</ele>
			<time>2020-01-17T00:45:39.97Z</time>
		</trkpt>
		<trkpt lat="35.051124" lon="128.387106">
			<ele>0.00</ele>
			<time>2020-01-17T00:45:42.79Z</time>
		</trkpt>
		<trkpt lat="35.050932" lon="128.386943">
			<ele>0.00</ele>
			<time>2020-01-17T00:45:44.35Z</time>
		</trkpt>
		<trkpt lat="35.050748" lon="128.386662">
			<ele>0.00</ele>
			<time>2020-01-17T00:45:46.32Z</time>
		</trkpt>
		<trkpt lat="35.050679" lon="128.386283">
			<ele>0.00</ele>
			<time>2020-01-17T00:45:48.43Z</time>
		</trkpt>
		<trkpt lat="35.050560" lon="128.385612">
			<ele>0.00</ele>
			<time>2020-01-17T00:45:52.18Z</time>
		</trkpt>
		<trkpt lat="35.050511" lon="128.385341">
			<ele>0.00</ele>
			<time>2020-01-17T00:45:53.69Z</time>
		</trkpt>
		<trkpt lat="35.050549" lon="128.385084">
			<ele>0.00</ele>
			<time>2020-01-17T00:45:55.12Z</time>
		</trkpt>
		<trkpt lat="35.050686" lon="128.384420">
			<ele>0.00</ele>
			<time>2020-01-17T00:45:58.86Z</time>
		</trkpt>
		<trkpt lat="35.050689" lon="128.384043">
			<ele>0.00</ele>
			<time>2020-01-17T00:46:00.91Z</time>
		</trkpt>
		<trkpt lat="35.050530" lon="128.383643">
			<ele>0.00</ele>
			<time>2020-01-17T00:46:03.34Z</time>
		</trkpt>
		<trkpt lat="35.050346" lon="128.383513">
			<ele>0.00</ele>
			<time>2020-01-17T00:46:04.76Z</time>
		</trkpt>
		<trkpt lat="35.050066" lon="128.383419">
			<ele>0.00</ele>
			<time>2020-01-17T00:46:06.70Z</time>
		</trkpt>
		<trkpt lat="35.049892" lon="128.383437">
			<ele>0.00</ele>
			<time>2020-01-17T00:46:07.86Z</time>
		</trkpt>
		<trkpt lat="35.049714" lon="128.383499">
			<ele>0.00</ele>
			<time>2020-01-17T00:46:09.09Z</time>
		</trkpt>
		<trkpt lat="35.049132" lon="128.383724">
			<ele>0.00</ele>
			<time>2020-01-17T00:46:13.16Z</time>
		</trkpt>
		<trkpt lat="35.048787" lon="128.383800">
			<ele>0.00</ele>
			<time>2020-01-17T00:46:15.50Z</time>
		</trkpt>
		<trkpt lat="35.048472" lon="128.383698">
			<ele>0.00</ele>
			<time>2020-01-17T00:46:17.67Z</time>
		</trkpt>
		<trkpt lat="35.048307" lon="128.383645">
			<ele>0.00</ele>
			<time>2020-01-17T00:46:18.81Z</time>
		</trkpt>
		<trkpt lat="35.048027" lon="128.383421">
			<ele>0.00</ele>
			<time>2020-01-17T00:46:21.05Z</time>
		</trkpt>
		<trkpt lat="35.047752" lon="128.383163">
			<ele>0.00</ele>
			<time>2020-01-17T00:46:23.35Z</time>
		</trkpt>
		<trkpt lat="35.047603" lon="128.383111">
			<ele>0.00</ele>
			<time>2020-01-17T00:46:24.39Z</time>
		</trkpt>
		<trkpt lat="35.047331" lon="128.383174">
			<ele>0.00</ele>
			<time>2020-01-17T00:46:26.24Z</time>
		</trkpt>
		<trkpt lat="35.047121" lon="128.383287">
			<ele>0.00</ele>
			<time>2020-01-17T00:46:27.76Z</time>
		</trkpt>
		<trkpt lat="35.047015" lon="128.383419">
			<ele>0.00</ele>
			<time>2020-01-17T00:46:28.77Z</time>
		</trkpt>
		<trkpt lat="35.046870" lon="128.383538">
			<ele>0.00</ele>
			<time>2020-01-17T00:46:29.94Z</time>
		</trkpt>
		<trkpt lat="35.046685" lon="128.383615">
			<ele>0.00</ele>
			<time>2020-01-17T00:46:31.24Z</time>
		</trkpt>
		<trkpt lat="35.046516" lon="128.383616">
			<ele>0.00</ele>
			<time>2020-01-17T00:46:32.36Z</time>
		</trkpt>
		<trkpt lat="35.046291" lon="128.383523">
			<ele>0.00</ele>
			<time>2020-01-17T00:46:33.95Z</time>
		</trkpt>
		<trkpt lat="35.046130" lon="128.383398">
			<ele>0.00</ele>
			<time>2020-01-17T00:46:35.22Z</time>
		</trkpt>
		<trkpt lat="35.045990" lon="128.383167">
			<ele>0.00</ele>
			<time>2020-01-17T00:46:36.79Z</time>
		</trkpt>
		<trkpt lat="35.045943" lon="128.382901">
			<ele>0.00</ele>
			<time>2020-01-17T00:46:38.28Z</time>
		</trkpt>
		<trkpt lat="35.045982" lon="128.382482">
			<ele>0.00</ele>
			<time>2020-01-17T00:46:40.58Z</time>
		</trkpt>
		<trkpt lat="35.046095" lon="128.382220">
			<ele>0.00</ele>
			<time>2020-01-17T00:46:42.19Z</time>
		</trkpt>
		<trkpt lat="35.046297" lon="128.381895">
			<ele>0.00</ele>
			<time>2020-01-17T00:46:44.42Z</time>
		</trkpt>
		<trkpt lat="35.046520" lon="128.381436">
			<ele>0.00</ele>
			<time>2020-01-17T00:46:47.33Z</time>
		</trkpt>
		<trkpt lat="35.046670" lon="128.381145">
			<ele>0.00</ele>
			<time>2020-01-17T00:46:49.21Z</time>
		</trkpt>
		<trkpt lat="35.046801" lon="128.380997">
			<ele>0.00</ele>
			<time>2020-01-17T00:46:50.40Z</time>
		</trkpt>
		<trkpt lat="35.046957" lon="128.380980">
			<ele>0.00</ele>
			<time>2020-01-17T00:46:51.44Z</time>
		</trkpt>
		<trkpt lat="35.047030" lon="128.381045">
			<ele>0.00</ele>
			<time>2020-01-17T00:46:52.05Z</time>
		</trkpt>
		<trkpt lat="35.047076" lon="128.381234">
			<ele>0.00</ele>
			<time>2020-01-17T00:46:53.13Z</time>
		</trkpt>
		<trkpt lat="35.047195" lon="128.381475">
			<ele>0.00</ele>
			<time>2020-01-17T00:46:54.66Z</time>
		</trkpt>
		<trkpt lat="35.047393" lon="128.381397">
			<ele>0.00</ele>
			<time>2020-01-17T00:46:56.05Z</time>
		</trkpt>
		<trkpt lat="35.048327" lon="128.380919">
			<ele>0.00</ele>
			<time>2020-01-17T00:47:02.80Z</time>
		</trkpt>
		<trkpt lat="35.048825" lon="128.380667">
			<ele>0.00</ele>
			<time>2020-01-17T00:47:06.39Z</time>
		</trkpt>
		<trkpt lat="35.048754" lon="128.380391">
			<ele>0.00</ele>
			<time>2020-01-17T00:47:07.96Z</time>
		</trkpt>
		<trkpt lat="35.048698" lon="128.380126">
			<ele>0.00</ele>
			<time>2020-01-17T00:47:09.45Z</time>
		</trkpt>
		<trkpt lat="35.048734" lon="128.379670">
			<ele>0.00</ele>
			<time>2020-01-17T00:47:11.96Z</time>
		</trkpt>
		<trkpt lat="35.048902" lon="128.379320">
			<ele>0.00</ele>
			<time>2020-01-17T00:47:14.17Z</time>
		</trkpt>
		<trkpt lat="35.049108" lon="128.379024">
			<ele>0.00</ele>
			<time>2020-01-17T00:47:16.29Z</time>
		</trkpt>
		<trkpt lat="35.049270" lon="128.378742">
			<ele>0.00</ele>
			<time>2020-01-17T00:47:18.17Z</time>
		</trkpt>
		<trkpt lat="35.049440" lon="128.378331">
			<ele>0.00</ele>
			<time>2020-01-17T00:47:20.68Z</time>
		</trkpt>
		<trkpt lat="35.049541" lon="128.377913">
			<ele>0.00</ele>
			<time>2020-01-17T00:47:23.07Z</time>
		</trkpt>
		<trkpt lat="35.049553" lon="128.377408">
			<ele>0.00</ele>
			<time>2020-01-17T00:47:25.82Z</time>
		</trkpt>
		<trkpt lat="35.049555" lon="128.376872">
			<ele>0.00</ele>
			<time>2020-01-17T00:47:28.75Z</time>
		</trkpt>
		<trkpt lat="35.049592" lon="128.376641">
			<ele>0.00</ele>
			<time>2020-01-17T00:47:30.03Z</time>
		</trkpt>
		<trkpt lat="35.049744" lon="128.376343">
			<ele>0.00</ele>
			<time>2020-01-17T00:47:31.95Z</time>
		</trkpt>
		<trkpt lat="35.049852" lon="128.376103">
			<ele>0.00</ele>
			<time>2020-01-17T00:47:33.44Z</time>
		</trkpt>
		<trkpt lat="35.049958" lon="128.375777">
			<ele>0.00</ele>
			<time>2020-01-17T00:47:35.36Z</time>
		</trkpt>
		<trkpt lat="35.049970" lon="128.375303">
			<ele>0.00</ele>
			<time>2020-01-17T00:47:37.94Z</time>
		</trkpt>
		<trkpt lat="35.049933" lon="128.374934">
			<ele>0.00</ele>
			<time>2020-01-17T00:47:39.97Z</time>
		</trkpt>
		<trkpt lat="35.049909" lon="128.374639">
			<ele>0.00</ele>
			<time>2020-01-17T00:47:41.59Z</time>
		</trkpt>
		<trkpt lat="35.049898" lon="128.374414">
			<ele>0.00</ele>
			<time>2020-01-17T00:47:42.82Z</time>
		</trkpt>
		<trkpt lat="35.049883" lon="128.374121">
			<ele>0.00</ele>
			<time>2020-01-17T00:47:44.42Z</time>
		</trkpt>
		<trkpt lat="35.049883" lon="128.374012">
			<ele>0.00</ele>
			<time>2020-01-17T00:47:45.02Z</time>
		</trkpt>
		<trkpt lat="35.049867" lon="128.373807">
			<ele>0.00</ele>
			<time>2020-01-17T00:47:46.14Z</time>
		</trkpt>
		<trkpt lat="35.049775" lon="128.373579">
			<ele>0.00</ele>
			<time>2020-01-17T00:47:47.53Z</time>
		</trkpt>
		<trkpt lat="35.049677" lon="128.373440">
			<ele>0.00</ele>
			<time>2020-01-17T00:47:48.53Z</time>
		</trkpt>
		<trkpt lat="35.049574" lon="128.373274">
			<ele>0.00</ele>
			<time>2020-01-17T00:47:49.67Z</time>
		</trkpt>
		<trkpt lat="35.049799" lon="128.373281">
			<ele>0.00</ele>
			<time>2020-01-17T00:47:51.17Z</time>
		</trkpt>
		<trkpt lat="35.049978" lon="128.373264">
			<ele>0.00</ele>
			<time>2020-01-17T00:47:52.37Z</time>
		</trkpt>
		<trkpt lat="35.050030" lon="128.373254">
			<ele>0.00</ele>
			<time>2020-01-17T00:47:52.71Z</time>
		</trkpt>
		<trkpt lat="35.050053" lon="128.373241">
			<ele>0.00</ele>
			<time>2020-01-17T00:47:52.88Z</time>
		</trkpt>
		<trkpt lat="35.050126" lon="128.373238">
			<ele>0.00</ele>
			<time>2020-01-17T00:47:53.37Z</time>
		</trkpt>
		<trkpt lat="35.050236" lon="128.373247">
			<ele>0.00</ele>
			<time>2020-01-17T00:47:54.11Z</time>
		</trkpt>
		<trkpt lat="35.050335" lon="128.373252">
			<ele>0.00</ele>
			<time>2020-01-17T00:47:54.76Z</time>
		</trkpt>
		<trkpt lat="35.050414" lon="128.373256">
			<ele>0.00</ele>
			<time>2020-01-17T00:47:55.29Z</time>
		</trkpt>
		<trkpt lat="35.050500" lon="128.373262">
			<ele>0.00</ele>
			<time>2020-01-17T00:47:55.87Z</time>
		</trkpt>
		<trkpt lat="35.050601" lon="128.373266">
			<ele>0.00</ele>
			<time>2020-01-17T00:47:56.54Z</time>
		</trkpt>
		<trkpt lat="35.050684" lon="128.373266">
			<ele>0.00</ele>
			<time>2020-01-17T00:47:57.09Z</time>
		</trkpt>
		<trkpt lat="35.050766" lon="128.373270">
			<ele>0.00</ele>
			<time>2020-01-17T00:47:57.64Z</time>
		</trkpt>
		<trkpt lat="35.050846" lon="128.373267">
			<ele>0.00</ele>
			<time>2020-01-17T00:47:58.18Z</time>
		</trkpt>
		<trkpt lat="35.050931" lon="128.373265">
			<ele>0.00</ele>
			<time>2020-01-17T00:47:58.74Z</time>
		</trkpt>
		<trkpt lat="35.051017" lon="128.373263">
			<ele>0.00</ele>
			<time>2020-01-17T00:47:59.32Z</time>
		</trkpt>
		<trkpt lat="35.051091" lon="128.373267">
			<ele>0.00</ele>
			<time>2020-01-17T00:47:59.81Z</time>
		</trkpt>
		<trkpt lat="35.051176" lon="128.373270">
			<ele>0.00</ele>
			<time>2020-01-17T00:48:00.37Z</time>
		</trkpt>
		<trkpt lat="35.051262" lon="128.373270">
			<ele>0.00</ele>
			<time>2020-01-17T00:48:00.95Z</time>
		</trkpt>
		<trkpt lat="35.051350" lon="128.373278">
			<ele>0.00</ele>
			<time>2020-01-17T00:48:01.54Z</time>
		</trkpt>
		<trkpt lat="35.051439" lon="128.373274">
			<ele>0.00</ele>
			<time>2020-01-17T00:48:02.13Z</time>
		</trkpt>
		<trkpt lat="35.051525" lon="128.373267">
			<ele>0.00</ele>
			<time>2020-01-17T00:48:02.71Z</time>
		</trkpt>
		<trkpt lat="35.051618" lon="128.373250">
			<ele>0.00</ele>
			<time>2020-01-17T00:48:03.33Z</time>
		</trkpt>
		<trkpt lat="35.051711" lon="128.373242">
			<ele>0.00</ele>
			<time>2020-01-17T00:48:03.96Z</time>
		</trkpt>
		<trkpt lat="35.051794" lon="128.373238">
			<ele>0.00</ele>
			<time>2020-01-17T00:48:04.51Z</time>
		</trkpt>
		<trkpt lat="35.051872" lon="128.373243">
			<ele>0.00</ele>
			<time>2020-01-17T00:48:05.03Z</time>
		</trkpt>
		<trkpt lat="35.051947" lon="128.373252">
			<ele>0.00</ele>
			<time>2020-01-17T00:48:05.53Z</time>
		</trkpt>
		<trkpt lat="35.052038" lon="128.373270">
			<ele>0.00</ele>
			<time>2020-01-17T00:48:06.14Z</time>
		</trkpt>
		<trkpt lat="35.052114" lon="128.373279">
			<ele>0.00</ele>
			<time>2020-01-17T00:48:06.65Z</time>
		</trkpt>
		<trkpt lat="35.052193" lon="128.373295">
			<ele>0.00</ele>
			<time>2020-01-17T00:48:07.19Z</time>
		</trkpt>
		<trkpt lat="35.052282" lon="128.373310">
			<ele>0.00</ele>
			<time>2020-01-17T00:48:07.79Z</time>
		</trkpt>
		<trkpt lat="35.052362" lon="128.373326">
			<ele>0.00</ele>
			<time>2020-01-17T00:48:08.32Z</time>
		</trkpt>
		<trkpt lat="35.052444" lon="128.373335">
			<ele>0.00</ele>
			<time>2020-01-17T00:48:08.87Z</time>
		</trkpt>
		<trkpt lat="35.052523" lon="128.373349">
			<ele>0.00</ele>
			<time>2020-01-17T00:48:09.41Z</time>
		</trkpt>
		<trkpt lat="35.052612" lon="128.373357">
			<ele>0.00</ele>
			<time>2020-01-17T00:48:10Z</time>
		</trkpt>
		<trkpt lat="35.052700" lon="128.373368">
			<ele>0.00</ele>
			<time>2020-01-17T00:48:10.59Z</time>
		</trkpt>
		<trkpt lat="35.052803" lon="128.373385">
			<ele>0.00</ele>
			<time>2020-01-17T00:48:11.29Z</time>
		</trkpt>
		<trkpt lat="35.052891" lon="128.373394">
			<ele>0.00</ele>
			<time>2020-01-17T00:48:11.88Z</time>
		</trkpt>
		<trkpt lat="35.052986" lon="128.373410">
			<ele>0.00</ele>
			<time>2020-01-17T00:48:12.51Z</time>
		</trkpt>
		<trkpt lat="35.053079" lon="128.373425">
			<ele>0.00</ele>
			<time>2020-01-17T00:48:13.14Z</time>
		</trkpt>
		<trkpt lat="35.053170" lon="128.373430">
			<ele>0.00</ele>
			<time>2020-01-17T00:48:13.75Z</time>
		</trkpt>
		<trkpt lat="35.053242" lon="128.373440">
			<ele>0.00</ele>
			<time>2020-01-17T00:48:14.23Z</time>
		</trkpt>
		<trkpt lat="35.053336" lon="128.373443">
			<ele>0.00</ele>
			<time>2020-01-17T00:48:14.85Z</time>
		</trkpt>
		<trkpt lat="35.053429" lon="128.373449">
			<ele>0.00</ele>
			<time>2020-01-17T00:48:15.48Z</time>
		</trkpt>
		<trkpt lat="35.053512" lon="128.373446">
			<ele>0.00</ele>
			<time>2020-01-17T00:48:16.03Z</time>
		</trkpt>
		<trkpt lat="35.053609" lon="128.373431">
			<ele>0.00</ele>
			<time>2020-01-17T00:48:16.68Z</time>
		</trkpt>
		<trkpt lat="35.053734" lon="128.373410">
			<ele>0.00</ele>
			<time>2020-01-17T00:48:17.52Z</time>
		</trkpt>
		<trkpt lat="35.053829" lon="128.373399">
			<ele>0.00</ele>
			<time>2020-01-17T00:48:18.16Z</time>
		</trkpt>
		<trkpt lat="35.053909" lon="128.373388">
			<ele>0.00</ele>
			<time>2020-01-17T00:48:18.69Z</time>
		</trkpt>
		<trkpt lat="35.054006" lon="128.373368">
			<ele>0.00</ele>
			<time>2020-01-17T00:48:19.35Z</time>
		</trkpt>
		<trkpt lat="35.054088" lon="128.373348">
			<ele>0.00</ele>
			<time>2020-01-17T00:48:19.91Z</time>
		</trkpt>
		<trkpt lat="35.054184" lon="128.373328">
			<ele>0.00</ele>
			<time>2020-01-17T00:48:20.56Z</time>
		</trkpt>
		<trkpt lat="35.054271" lon="128.373306">
			<ele>0.00</ele>
			<time>2020-01-17T00:48:21.15Z</time>
		</trkpt>
		<trkpt lat="35.054358" lon="128.373292">
			<ele>0.00</ele>
			<time>2020-01-17T00:48:21.74Z</time>
		</trkpt>
		<trkpt lat="35.054445" lon="128.373275">
			<ele>0.00</ele>
			<time>2020-01-17T00:48:22.32Z</time>
		</trkpt>
		<trkpt lat="35.054512" lon="128.373268">
			<ele>0.00</ele>
			<time>2020-01-17T00:48:22.77Z</time>
		</trkpt>
		<trkpt lat="35.054604" lon="128.373255">
			<ele>0.00</ele>
			<time>2020-01-17T00:48:23.39Z</time>
		</trkpt>
		<trkpt lat="35.054688" lon="128.373237">
			<ele>0.00</ele>
			<time>2020-01-17T00:48:23.96Z</time>
		</trkpt>
		<trkpt lat="35.054752" lon="128.373234">
			<ele>0.00</ele>
			<time>2020-01-17T00:48:24.39Z</time>
		</trkpt>
		<trkpt lat="35.054823" lon="128.373223">
			<ele>0.00</ele>
			<time>2020-01-17T00:48:24.86Z</time>
		</trkpt>
		<trkpt lat="35.054862" lon="128.373135">
			<ele>0.00</ele>
			<time>2020-01-17T00:48:25.40Z</time>
		</trkpt>
		<trkpt lat="35.054892" lon="128.373060">
			<ele>0.00</ele>
			<time>2020-01-17T00:48:25.86Z</time>
		</trkpt>
		<trkpt lat="35.054934" lon="128.372983">
			<ele>0.00</ele>
			<time>2020-01-17T00:48:26.36Z</time>
		</trkpt>
		<trkpt lat="35.054975" lon="128.372905">
			<ele>0.00</ele>
			<time>2020-01-17T00:48:26.87Z</time>
		</trkpt>
		<trkpt lat="35.055028" lon="128.372824">
			<ele>0.00</ele>
			<time>2020-01-17T00:48:27.44Z</time>
		</trkpt>
		<trkpt lat="35.055077" lon="128.372738">
			<ele>0.00</ele>
			<time>2020-01-17T00:48:28.01Z</time>
		</trkpt>
		<trkpt lat="35.055120" lon="128.372665">
			<ele>0.00</ele>
			<time>2020-01-17T00:48:28.50Z</time>
		</trkpt>
		<trkpt lat="35.055170" lon="128.372570">
			<ele>0.00</ele>
			<time>2020-01-17T00:48:29.12Z</time>
		</trkpt>
		<trkpt lat="35.055209" lon="128.372484">
			<ele>0.00</ele>
			<time>2020-01-17T00:48:29.65Z</time>
		</trkpt>
		<trkpt lat="35.055261" lon="128.372386">
			<ele>0.00</ele>
			<time>2020-01-17T00:48:30.29Z</time>
		</trkpt>
		<trkpt lat="35.055276" lon="128.372333">
			<ele>0.00</ele>
			<time>2020-01-17T00:48:30.60Z</time>
		</trkpt>
		<trkpt lat="35.055302" lon="128.372240">
			<ele>0.00</ele>
			<time>2020-01-17T00:48:31.13Z</time>
		</trkpt>
		<trkpt lat="35.055320" lon="128.372134">
			<ele>0.00</ele>
			<time>2020-01-17T00:48:31.72Z</time>
		</trkpt>
		<trkpt lat="35.055335" lon="128.372031">
			<ele>0.00</ele>
			<time>2020-01-17T00:48:32.30Z</time>
		</trkpt>
		<trkpt lat="35.055344" lon="128.371940">
			<ele>0.00</ele>
			<time>2020-01-17T00:48:32.80Z</time>
		</trkpt>
		<trkpt lat="35.055353" lon="128.371842">
			<ele>0.00</ele>
			<time>2020-01-17T00:48:33.34Z</time>
		</trkpt>
		<trkpt lat="35.055368" lon="128.371729">
			<ele>0.00</ele>
			<time>2020-01-17T00:48:33.96Z</time>
		</trkpt>
		<trkpt lat="35.055388" lon="128.371621">
			<ele>0.00</ele>
			<time>2020-01-17T00:48:34.56Z</time>
		</trkpt>
		<trkpt lat="35.055394" lon="128.371510">
			<ele>0.00</ele>
			<time>2020-01-17T00:48:35.17Z</time>
		</trkpt>
		<trkpt lat="35.055406" lon="128.371389">
			<ele>0.00</ele>
			<time>2020-01-17T00:48:35.83Z</time>
		</trkpt>
		<trkpt lat="35.055422" lon="128.371281">
			<ele>0.00</ele>
			<time>2020-01-17T00:48:36.43Z</time>
		</trkpt>
		<trkpt lat="35.055435" lon="128.371166">
			<ele>0.00</ele>
			<time>2020-01-17T00:48:37.07Z</time>
		</trkpt>
		<trkpt lat="35.055440" lon="128.371049">
			<ele>0.00</ele>
			<time>2020-01-17T00:48:37.71Z</time>
		</trkpt>
		<trkpt lat="35.055455" lon="128.370930">
			<ele>0.00</ele>
			<time>2020-01-17T00:48:38.36Z</time>
		</trkpt>
		<trkpt lat="35.055471" lon="128.370816">
			<ele>0.00</ele>
			<time>2020-01-17T00:48:38.99Z</time>
		</trkpt>
		<trkpt lat="35.055474" lon="128.370727">
			<ele>0.00</ele>
			<time>2020-01-17T00:48:39.48Z</time>
		</trkpt>
		<trkpt lat="35.055489" lon="128.370615">
			<ele>0.00</ele>
			<time>2020-01-17T00:48:40.10Z</time>
		</trkpt>
		<trkpt lat="35.055502" lon="128.370514">
			<ele>0.00</ele>
			<time>2020-01-17T00:48:40.66Z</time>
		</trkpt>
		<trkpt lat="35.055517" lon="128.370426">
			<ele>0.00</ele>
			<time>2020-01-17T00:48:41.15Z</time>
		</trkpt>
		<trkpt lat="35.055535" lon="128.370305">
			<ele>0.00</ele>
			<time>2020-01-17T00:48:41.82Z</time>
		</trkpt>
		<trkpt lat="35.055566" lon="128.370161">
			<ele>0.00</ele>
			<time>2020-01-17T00:48:42.63Z</time>
		</trkpt>
		<trkpt lat="35.055585" lon="128.370076">
			<ele>0.00</ele>
			<time>2020-01-17T00:48:43.11Z</time>
		</trkpt>
		<trkpt lat="35.055591" lon="128.369990">
			<ele>0.00</ele>
			<time>2020-01-17T00:48:43.58Z</time>
		</trkpt>
		<trkpt lat="35.055592" lon="128.369905">
			<ele>0.00</ele>
			<time>2020-01-17T00:48:44.05Z</time>
		</trkpt>
		<trkpt lat="35.055571" lon="128.369846">
			<ele>0.00</ele>
			<time>2020-01-17T00:48:44.40Z</time>
		</trkpt>
		<trkpt lat="35.055534" lon="128.369788">
			<ele>0.00</ele>
			<time>2020-01-17T00:48:44.80Z</time>
		</trkpt>
		<trkpt lat="35.055494" lon="128.369741">
			<ele>0.00</ele>
			<time>2020-01-17T00:48:45.17Z</time>
		</trkpt>
		<trkpt lat="35.055457" lon="128.369704">
			<ele>0.00</ele>
			<time>2020-01-17T00:48:45.49Z</time>
		</trkpt>
		<trkpt lat="35.055420" lon="128.369690">
			<ele>0.00</ele>
			<time>2020-01-17T00:48:45.75Z</time>
		</trkpt>
		<trkpt lat="35.055436" lon="128.369646">
			<ele>0.00</ele>
			<time>2020-01-17T00:48:46.01Z</time>
		</trkpt>
		<trkpt lat="35.055466" lon="128.369566">
			<ele>0.00</ele>
			<time>2020-01-17T00:48:46.49Z</time>
		</trkpt>
		<trkpt lat="35.055502" lon="128.369586">
			<ele>0.00</ele>
			<time>2020-01-17T00:48:46.75Z</time>
		</trkpt>
		<trkpt lat="35.055555" lon="128.369598">
			<ele>0.00</ele>
			<time>2020-01-17T00:48:47.12Z</time>
		</trkpt>
		<trkpt lat="35.055597" lon="128.369591">
			<ele>0.00</ele>
			<time>2020-01-17T00:48:47.40Z</time>
		</trkpt>
		<trkpt lat="35.055644" lon="128.369560">
			<ele>0.00</ele>
			<time>2020-01-17T00:48:47.76Z</time>
		</trkpt>
		<trkpt lat="35.055674" lon="128.369522">
			<ele>0.00</ele>
			<time>2020-01-17T00:48:48.05Z</time>
		</trkpt>
		<trkpt lat="35.055685" lon="128.369471">
			<ele>0.00</ele>
			<time>2020-01-17T00:48:48.33Z</time>
		</trkpt>
		<trkpt lat="35.055693" lon="128.369397">
			<ele>0.00</ele>
			<time>2020-01-17T00:48:48.74Z</time>
		</trkpt>
		<trkpt lat="35.055693" lon="128.369348">
			<ele>0.00</ele>
			<time>2020-01-17T00:48:49.01Z</time>
		</trkpt>
		<trkpt lat="35.055685" lon="128.369256">
			<ele>0.00</ele>
			<time>2020-01-17T00:48:49.51Z</time>
		</trkpt>
		<trkpt lat="35.055673" lon="128.369169">
			<ele>0.00</ele>
			<time>2020-01-17T00:48:49.99Z</time>
		</trkpt>
		<trkpt lat="35.055657" lon="128.369076">
			<ele>0.00</ele>
			<time>2020-01-17T00:48:50.51Z</time>
		</trkpt>
		<trkpt lat="35.055642" lon="128.368980">
			<ele>0.00</ele>
			<time>2020-01-17T00:48:51.05Z</time>
		</trkpt>
		<trkpt lat="35.055615" lon="128.368876">
			<ele>0.00</ele>
			<time>2020-01-17T00:48:51.64Z</time>
		</trkpt>
		<trkpt lat="35.055597" lon="128.368795">
			<ele>0.00</ele>
			<time>2020-01-17T00:48:52.10Z</time>
		</trkpt>
		<trkpt lat="35.055576" lon="128.368695">
			<ele>0.00</ele>
			<time>2020-01-17T00:48:52.66Z</time>
		</trkpt>
		<trkpt lat="35.055551" lon="128.368597">
			<ele>0.00</ele>
			<time>2020-01-17T00:48:53.23Z</time>
		</trkpt>
		<trkpt lat="35.055525" lon="128.368483">
			<ele>0.00</ele>
			<time>2020-01-17T00:48:53.87Z</time>
		</trkpt>
		<trkpt lat="35.055502" lon="128.368408">
			<ele>0.00</ele>
			<time>2020-01-17T00:48:54.31Z</time>
		</trkpt>
		<trkpt lat="35.055482" lon="128.368318">
			<ele>0.00</ele>
			<time>2020-01-17T00:48:54.82Z</time>
		</trkpt>
		<trkpt lat="35.055460" lon="128.368235">
			<ele>0.00</ele>
			<time>2020-01-17T00:48:55.29Z</time>
		</trkpt>
		<trkpt lat="35.055442" lon="128.368145">
			<ele>0.00</ele>
			<time>2020-01-17T00:48:55.80Z</time>
		</trkpt>
		<trkpt lat="35.055419" lon="128.368053">
			<ele>0.00</ele>
			<time>2020-01-17T00:48:56.32Z</time>
		</trkpt>
		<trkpt lat="35.055400" lon="128.367945">
			<ele>0.00</ele>
			<time>2020-01-17T00:48:56.93Z</time>
		</trkpt>
		<trkpt lat="35.055386" lon="128.367888">
			<ele>0.00</ele>
			<time>2020-01-17T00:48:57.25Z</time>
		</trkpt>
		<trkpt lat="35.055367" lon="128.367802">
			<ele>0.00</ele>
			<time>2020-01-17T00:48:57.74Z</time>
		</trkpt>
		<trkpt lat="35.055344" lon="128.367716">
			<ele>0.00</ele>
			<time>2020-01-17T00:48:58.23Z</time>
		</trkpt>
		<trkpt lat="35.055325" lon="128.367641">
			<ele>0.00</ele>
			<time>2020-01-17T00:48:58.66Z</time>
		</trkpt>
		<trkpt lat="35.055298" lon="128.367572">
			<ele>0.00</ele>
			<time>2020-01-17T00:48:59.08Z</time>
		</trkpt>
		<trkpt lat="35.055281" lon="128.367520">
			<ele>0.00</ele>
			<time>2020-01-17T00:48:59.38Z</time>
		</trkpt>
		<trkpt lat="35.055255" lon="128.367447">
			<ele>0.00</ele>
			<time>2020-01-17T00:48:59.82Z</time>
		</trkpt>
		<trkpt lat="35.055211" lon="128.367384">
			<ele>0.00</ele>
			<time>2020-01-17T00:49:00.27Z</time>
		</trkpt>
		<extensions>
			<gte:name>#127</gte:name>
			<gte:color>#fffb7b</gte:color>
		</extensions>
	</trkseg>
</trk>
</gpx>