<?xml version="1.0" encoding="UTF-8"?>
<gpx version="1.1" creator="GPS Track Editor" xmlns="http://www.topografix.com/GPX/1/1" xmlns:xsi="http://www.w3.org/2001/XMLSchema-instance" xmlns:gte="http://www.gpstrackeditor.com/xmlschemas/General/1" xmlns:gpxtpx="http://www.garmin.com/xmlschemas/TrackPointExtension/v1" xmlns:gpxx="http://www.garmin.com/xmlschemas/GpxExtensions/v3" targetNamespace="http://www.topografix.com/GPX/1/1" elementFormDefault="qualified" xsi:schemaLocation="http://www.topografix.com/GPX/1/1 http://www.topografix.com/GPX/1/1/gpx.xsd">
<metadata>
	<name>GPS_2020-01-17_051523</name>
</metadata>
<trk>
	<name>027-거제시 둔덕면 방하리 청마기념관~통영시 용남면 장평리 신촌마을</name>
	<trkseg>
		<trkpt lat="34.855219" lon="128.517007">
			<ele>32.80</ele>
			<time>2020-01-17T05:15:23.55Z</time>
		</trkpt>
		<trkpt lat="34.855248" lon="128.516691">
			<ele>32.80</ele>
			<time>2020-01-17T05:15:25.29Z</time>
		</trkpt>
		<trkpt lat="34.855276" lon="128.516055">
			<ele>32.80</ele>
			<time>2020-01-17T05:15:28.77Z</time>
		</trkpt>
		<trkpt lat="34.855401" lon="128.514630">
			<ele>22.17</ele>
			<time>2020-01-17T05:15:36.61Z</time>
		</trkpt>
		<trkpt lat="34.855403" lon="128.514441">
			<ele>22.17</ele>
			<time>2020-01-17T05:15:37.64Z</time>
		</trkpt>
		<trkpt lat="34.855473" lon="128.513698">
			<ele>21.54</ele>
			<time>2020-01-17T05:15:41.74Z</time>
		</trkpt>
		<trkpt lat="34.855476" lon="128.513676">
			<ele>21.80</ele>
			<time>2020-01-17T05:15:41.86Z</time>
		</trkpt>
		<trkpt lat="34.855474" lon="128.513652">
			<ele>21.87</ele>
			<time>2020-01-17T05:15:41.99Z</time>
		</trkpt>
		<trkpt lat="34.855478" lon="128.513540">
			<ele>21.54</ele>
			<time>2020-01-17T05:15:42.60Z</time>
		</trkpt>
		<trkpt lat="34.855528" lon="128.512904">
			<ele>21.58</ele>
			<time>2020-01-17T05:15:46.10Z</time>
		</trkpt>
		<trkpt lat="34.855555" lon="128.512389">
			<ele>19.88</ele>
			<time>2020-01-17T05:15:48.92Z</time>
		</trkpt>
		<trkpt lat="34.855556" lon="128.512397">
			<ele>19.78</ele>
			<time>2020-01-17T05:15:48.98Z</time>
		</trkpt>
		<trkpt lat="34.855556" lon="128.512397">
			<ele>20.87</ele>
			<time>2020-01-17T05:15:49.04Z</time>
		</trkpt>
		<trkpt lat="34.855464" lon="128.512118">
			<ele>20.87</ele>
			<time>2020-01-17T05:15:50.69Z</time>
		</trkpt>
		<trkpt lat="34.855381" lon="128.511991">
			<ele>20.87</ele>
			<time>2020-01-17T05:15:51.58Z</time>
		</trkpt>
		<trkpt lat="34.855462" lon="128.511521">
			<ele>20.30</ele>
			<time>2020-01-17T05:15:54.20Z</time>
		</trkpt>
		<trkpt lat="34.855473" lon="128.511445">
			<ele>20.19</ele>
			<time>2020-01-17T05:15:54.63Z</time>
		</trkpt>
		<trkpt lat="34.855595" lon="128.510799">
			<ele>20.19</ele>
			<time>2020-01-17T05:15:58.25Z</time>
		</trkpt>
		<trkpt lat="34.855595" lon="128.510515">
			<ele>20.19</ele>
			<time>2020-01-17T05:15:59.81Z</time>
		</trkpt>
		<trkpt lat="34.855590" lon="128.510164">
			<ele>24.20</ele>
			<time>2020-01-17T05:16:01.73Z</time>
		</trkpt>
		<trkpt lat="34.855655" lon="128.509527">
			<ele>26.34</ele>
			<time>2020-01-17T05:16:05.24Z</time>
		</trkpt>
		<trkpt lat="34.855721" lon="128.509161">
			<ele>25.96</ele>
			<time>2020-01-17T05:16:07.29Z</time>
		</trkpt>
		<trkpt lat="34.855746" lon="128.509097">
			<ele>25.87</ele>
			<time>2020-01-17T05:16:07.68Z</time>
		</trkpt>
		<trkpt lat="34.855779" lon="128.509045">
			<ele>25.91</ele>
			<time>2020-01-17T05:16:08.04Z</time>
		</trkpt>
		<trkpt lat="34.855820" lon="128.509005">
			<ele>26.02</ele>
			<time>2020-01-17T05:16:08.39Z</time>
		</trkpt>
		<trkpt lat="34.855866" lon="128.508968">
			<ele>26.00</ele>
			<time>2020-01-17T05:16:08.75Z</time>
		</trkpt>
		<trkpt lat="34.856497" lon="128.508489">
			<ele>29.00</ele>
			<time>2020-01-17T05:16:13.71Z</time>
		</trkpt>
		<trkpt lat="34.856938" lon="128.508125">
			<ele>29.72</ele>
			<time>2020-01-17T05:16:17.26Z</time>
		</trkpt>
		<trkpt lat="34.856968" lon="128.508080">
			<ele>29.60</ele>
			<time>2020-01-17T05:16:17.58Z</time>
		</trkpt>
		<trkpt lat="34.857282" lon="128.507147">
			<ele>33.97</ele>
			<time>2020-01-17T05:16:23.10Z</time>
		</trkpt>
		<trkpt lat="34.857356" lon="128.506943">
			<ele>35.40</ele>
			<time>2020-01-17T05:16:24.32Z</time>
		</trkpt>
		<trkpt lat="34.857631" lon="128.506177">
			<ele>38.72</ele>
			<time>2020-01-17T05:16:28.89Z</time>
		</trkpt>
		<trkpt lat="34.857844" lon="128.505620">
			<ele>40.85</ele>
			<time>2020-01-17T05:16:32.25Z</time>
		</trkpt>
		<trkpt lat="34.857889" lon="128.505554">
			<ele>41.02</ele>
			<time>2020-01-17T05:16:32.72Z</time>
		</trkpt>
		<trkpt lat="34.857939" lon="128.505503">
			<ele>41.07</ele>
			<time>2020-01-17T05:16:33.15Z</time>
		</trkpt>
		<trkpt lat="34.857990" lon="128.505462">
			<ele>41.20</ele>
			<time>2020-01-17T05:16:33.56Z</time>
		</trkpt>
		<trkpt lat="34.858050" lon="128.505444">
			<ele>41.43</ele>
			<time>2020-01-17T05:16:33.97Z</time>
		</trkpt>
		<trkpt lat="34.858115" lon="128.505438">
			<ele>41.48</ele>
			<time>2020-01-17T05:16:34.41Z</time>
		</trkpt>
		<trkpt lat="34.858221" lon="128.505420">
			<ele>41.49</ele>
			<time>2020-01-17T05:16:35.12Z</time>
		</trkpt>
		<trkpt lat="34.858861" lon="128.505330">
			<ele>49.61</ele>
			<time>2020-01-17T05:16:39.42Z</time>
		</trkpt>
		<trkpt lat="34.859116" lon="128.505304">
			<ele>51.28</ele>
			<time>2020-01-17T05:16:41.12Z</time>
		</trkpt>
		<trkpt lat="34.859270" lon="128.505267">
			<ele>51.28</ele>
			<time>2020-01-17T05:16:42.17Z</time>
		</trkpt>
		<trkpt lat="34.859345" lon="128.505250">
			<ele>51.28</ele>
			<time>2020-01-17T05:16:42.68Z</time>
		</trkpt>
		<trkpt lat="34.859476" lon="128.505067">
			<ele>51.28</ele>
			<time>2020-01-17T05:16:44Z</time>
		</trkpt>
		<trkpt lat="34.859592" lon="128.504841">
			<ele>55.72</ele>
			<time>2020-01-17T05:16:45.47Z</time>
		</trkpt>
		<trkpt lat="34.859602" lon="128.504767">
			<ele>55.95</ele>
			<time>2020-01-17T05:16:45.88Z</time>
		</trkpt>
		<trkpt lat="34.859602" lon="128.504695">
			<ele>56.33</ele>
			<time>2020-01-17T05:16:46.27Z</time>
		</trkpt>
		<trkpt lat="34.859597" lon="128.504623">
			<ele>56.59</ele>
			<time>2020-01-17T05:16:46.66Z</time>
		</trkpt>
		<trkpt lat="34.859584" lon="128.504554">
			<ele>56.86</ele>
			<time>2020-01-17T05:16:47.05Z</time>
		</trkpt>
		<trkpt lat="34.859566" lon="128.504487">
			<ele>57.33</ele>
			<time>2020-01-17T05:16:47.44Z</time>
		</trkpt>
		<trkpt lat="34.859544" lon="128.504420">
			<ele>57.68</ele>
			<time>2020-01-17T05:16:47.83Z</time>
		</trkpt>
		<trkpt lat="34.859469" lon="128.504110">
			<ele>57.86</ele>
			<time>2020-01-17T05:16:49.60Z</time>
		</trkpt>
		<trkpt lat="34.859469" lon="128.503944">
			<ele>58.71</ele>
			<time>2020-01-17T05:16:50.51Z</time>
		</trkpt>
		<trkpt lat="34.859458" lon="128.503827">
			<ele>59.39</ele>
			<time>2020-01-17T05:16:51.15Z</time>
		</trkpt>
		<trkpt lat="34.859444" lon="128.503774">
			<ele>59.93</ele>
			<time>2020-01-17T05:16:51.46Z</time>
		</trkpt>
		<trkpt lat="34.859426" lon="128.503728">
			<ele>60.23</ele>
			<time>2020-01-17T05:16:51.74Z</time>
		</trkpt>
		<trkpt lat="34.859403" lon="128.503684">
			<ele>60.08</ele>
			<time>2020-01-17T05:16:52.02Z</time>
		</trkpt>
		<trkpt lat="34.859381" lon="128.503645">
			<ele>60.24</ele>
			<time>2020-01-17T05:16:52.28Z</time>
		</trkpt>
		<trkpt lat="34.859372" lon="128.503331">
			<ele>60.21</ele>
			<time>2020-01-17T05:16:54Z</time>
		</trkpt>
		<trkpt lat="34.859430" lon="128.503138">
			<ele>60.31</ele>
			<time>2020-01-17T05:16:55.12Z</time>
		</trkpt>
		<trkpt lat="34.859457" lon="128.503008">
			<ele>60.31</ele>
			<time>2020-01-17T05:16:55.86Z</time>
		</trkpt>
		<trkpt lat="34.859558" lon="128.502933">
			<ele>60.31</ele>
			<time>2020-01-17T05:16:56.65Z</time>
		</trkpt>
		<trkpt lat="34.859617" lon="128.502861">
			<ele>60.31</ele>
			<time>2020-01-17T05:16:57.21Z</time>
		</trkpt>
		<trkpt lat="34.859670" lon="128.502756">
			<ele>60.31</ele>
			<time>2020-01-17T05:16:57.88Z</time>
		</trkpt>
		<trkpt lat="34.859740" lon="128.502687">
			<ele>60.31</ele>
			<time>2020-01-17T05:16:58.48Z</time>
		</trkpt>
		<trkpt lat="34.859818" lon="128.502589">
			<ele>60.31</ele>
			<time>2020-01-17T05:16:59.22Z</time>
		</trkpt>
		<trkpt lat="34.859872" lon="128.502451">
			<ele>67.53</ele>
			<time>2020-01-17T05:17:00.06Z</time>
		</trkpt>
		<trkpt lat="34.859912" lon="128.502372">
			<ele>67.53</ele>
			<time>2020-01-17T05:17:00.57Z</time>
		</trkpt>
		<trkpt lat="34.859992" lon="128.502287">
			<ele>67.53</ele>
			<time>2020-01-17T05:17:01.28Z</time>
		</trkpt>
		<trkpt lat="34.860107" lon="128.502257">
			<ele>67.53</ele>
			<time>2020-01-17T05:17:02.06Z</time>
		</trkpt>
		<trkpt lat="34.860222" lon="128.502205">
			<ele>69.56</ele>
			<time>2020-01-17T05:17:02.88Z</time>
		</trkpt>
		<trkpt lat="34.860564" lon="128.502330">
			<ele>79.77</ele>
			<time>2020-01-17T05:17:05.26Z</time>
		</trkpt>
		<trkpt lat="34.860703" lon="128.502320">
			<ele>82.83</ele>
			<time>2020-01-17T05:17:06.19Z</time>
		</trkpt>
		<trkpt lat="34.860873" lon="128.502275">
			<ele>85.98</ele>
			<time>2020-01-17T05:17:07.35Z</time>
		</trkpt>
		<trkpt lat="34.861060" lon="128.502173">
			<ele>89.02</ele>
			<time>2020-01-17T05:17:08.71Z</time>
		</trkpt>
		<trkpt lat="34.861143" lon="128.502133">
			<ele>90.88</ele>
			<time>2020-01-17T05:17:09.31Z</time>
		</trkpt>
		<trkpt lat="34.861301" lon="128.502118">
			<ele>94.14</ele>
			<time>2020-01-17T05:17:10.36Z</time>
		</trkpt>
		<trkpt lat="34.861349" lon="128.502111">
			<ele>94.33</ele>
			<time>2020-01-17T05:17:10.69Z</time>
		</trkpt>
		<trkpt lat="34.861471" lon="128.502064">
			<ele>94.40</ele>
			<time>2020-01-17T05:17:11.54Z</time>
		</trkpt>
		<trkpt lat="34.861477" lon="128.502069">
			<ele>94.73</ele>
			<time>2020-01-17T05:17:11.60Z</time>
		</trkpt>
		<trkpt lat="34.861550" lon="128.502087">
			<ele>96.58</ele>
			<time>2020-01-17T05:17:12.10Z</time>
		</trkpt>
		<trkpt lat="34.861598" lon="128.502192">
			<ele>96.58</ele>
			<time>2020-01-17T05:17:12.75Z</time>
		</trkpt>
		<trkpt lat="34.861587" lon="128.502297">
			<ele>96.58</ele>
			<time>2020-01-17T05:17:13.33Z</time>
		</trkpt>
		<trkpt lat="34.861469" lon="128.502447">
			<ele>96.58</ele>
			<time>2020-01-17T05:17:14.46Z</time>
		</trkpt>
		<trkpt lat="34.861379" lon="128.502571">
			<ele>96.58</ele>
			<time>2020-01-17T05:17:15.37Z</time>
		</trkpt>
		<trkpt lat="34.861309" lon="128.502679">
			<ele>96.58</ele>
			<time>2020-01-17T05:17:16.13Z</time>
		</trkpt>
		<trkpt lat="34.861307" lon="128.502692">
			<ele>96.58</ele>
			<time>2020-01-17T05:17:16.20Z</time>
		</trkpt>
		<trkpt lat="34.861301" lon="128.502712">
			<ele>96.58</ele>
			<time>2020-01-17T05:17:16.31Z</time>
		</trkpt>
		<trkpt lat="34.861248" lon="128.502865">
			<ele>96.58</ele>
			<time>2020-01-17T05:17:17.22Z</time>
		</trkpt>
		<trkpt lat="34.861203" lon="128.503051">
			<ele>96.58</ele>
			<time>2020-01-17T05:17:18.29Z</time>
		</trkpt>
		<trkpt lat="34.861197" lon="128.503064">
			<ele>96.58</ele>
			<time>2020-01-17T05:17:18.37Z</time>
		</trkpt>
		<trkpt lat="34.861197" lon="128.503071">
			<ele>96.58</ele>
			<time>2020-01-17T05:17:18.43Z</time>
		</trkpt>
		<trkpt lat="34.861168" lon="128.503290">
			<ele>96.58</ele>
			<time>2020-01-17T05:17:19.64Z</time>
		</trkpt>
		<trkpt lat="34.861168" lon="128.503306">
			<ele>96.58</ele>
			<time>2020-01-17T05:17:19.73Z</time>
		</trkpt>
		<trkpt lat="34.861168" lon="128.503424">
			<ele>96.58</ele>
			<time>2020-01-17T05:17:20.37Z</time>
		</trkpt>
		<trkpt lat="34.861168" lon="128.503446">
			<ele>96.58</ele>
			<time>2020-01-17T05:17:20.49Z</time>
		</trkpt>
		<trkpt lat="34.861187" lon="128.503557">
			<ele>96.58</ele>
			<time>2020-01-17T05:17:21.11Z</time>
		</trkpt>
		<trkpt lat="34.861209" lon="128.503603">
			<ele>96.58</ele>
			<time>2020-01-17T05:17:21.40Z</time>
		</trkpt>
		<trkpt lat="34.861214" lon="128.503609">
			<ele>96.58</ele>
			<time>2020-01-17T05:17:21.46Z</time>
		</trkpt>
		<trkpt lat="34.861268" lon="128.503675">
			<ele>96.58</ele>
			<time>2020-01-17T05:17:21.97Z</time>
		</trkpt>
		<trkpt lat="34.861278" lon="128.503675">
			<ele>96.58</ele>
			<time>2020-01-17T05:17:22.04Z</time>
		</trkpt>
		<trkpt lat="34.861364" lon="128.503684">
			<ele>96.58</ele>
			<time>2020-01-17T05:17:22.61Z</time>
		</trkpt>
		<trkpt lat="34.861458" lon="128.503700">
			<ele>96.58</ele>
			<time>2020-01-17T05:17:23.24Z</time>
		</trkpt>
		<trkpt lat="34.861474" lon="128.503700">
			<ele>96.58</ele>
			<time>2020-01-17T05:17:23.35Z</time>
		</trkpt>
		<trkpt lat="34.861487" lon="128.503700">
			<ele>96.58</ele>
			<time>2020-01-17T05:17:23.44Z</time>
		</trkpt>
		<trkpt lat="34.861506" lon="128.503694">
			<ele>96.58</ele>
			<time>2020-01-17T05:17:23.57Z</time>
		</trkpt>
		<trkpt lat="34.861608" lon="128.503693">
			<ele>96.58</ele>
			<time>2020-01-17T05:17:24.25Z</time>
		</trkpt>
		<trkpt lat="34.861624" lon="128.503693">
			<ele>96.58</ele>
			<time>2020-01-17T05:17:24.35Z</time>
		</trkpt>
		<trkpt lat="34.861648" lon="128.503700">
			<ele>96.58</ele>
			<time>2020-01-17T05:17:24.52Z</time>
		</trkpt>
		<trkpt lat="34.861656" lon="128.503700">
			<ele>96.58</ele>
			<time>2020-01-17T05:17:24.58Z</time>
		</trkpt>
		<trkpt lat="34.861742" lon="128.503719">
			<ele>96.58</ele>
			<time>2020-01-17T05:17:25.16Z</time>
		</trkpt>
		<trkpt lat="34.861849" lon="128.503699">
			<ele>96.58</ele>
			<time>2020-01-17T05:17:25.88Z</time>
		</trkpt>
		<trkpt lat="34.861932" lon="128.503748">
			<ele>96.58</ele>
			<time>2020-01-17T05:17:26.50Z</time>
		</trkpt>
		<trkpt lat="34.861948" lon="128.503804">
			<ele>96.58</ele>
			<time>2020-01-17T05:17:26.82Z</time>
		</trkpt>
		<trkpt lat="34.861863" lon="128.503954">
			<ele>118.81</ele>
			<time>2020-01-17T05:17:27.82Z</time>
		</trkpt>
		<trkpt lat="34.861817" lon="128.504067">
			<ele>118.81</ele>
			<time>2020-01-17T05:17:28.51Z</time>
		</trkpt>
		<trkpt lat="34.861828" lon="128.504220">
			<ele>118.81</ele>
			<time>2020-01-17T05:17:29.35Z</time>
		</trkpt>
		<trkpt lat="34.861895" lon="128.504344">
			<ele>118.81</ele>
			<time>2020-01-17T05:17:30.16Z</time>
		</trkpt>
		<trkpt lat="34.862088" lon="128.504481">
			<ele>128.57</ele>
			<time>2020-01-17T05:17:31.65Z</time>
		</trkpt>
		<trkpt lat="34.862162" lon="128.504559">
			<ele>132.24</ele>
			<time>2020-01-17T05:17:32.30Z</time>
		</trkpt>
		<trkpt lat="34.862269" lon="128.504670">
			<ele>135.80</ele>
			<time>2020-01-17T05:17:33.24Z</time>
		</trkpt>
		<trkpt lat="34.862393" lon="128.504814">
			<ele>139.58</ele>
			<time>2020-01-17T05:17:34.38Z</time>
		</trkpt>
		<trkpt lat="34.862518" lon="128.504978">
			<ele>139.58</ele>
			<time>2020-01-17T05:17:35.60Z</time>
		</trkpt>
		<trkpt lat="34.862532" lon="128.505209">
			<ele>139.58</ele>
			<time>2020-01-17T05:17:36.87Z</time>
		</trkpt>
		<trkpt lat="34.862551" lon="128.505408">
			<ele>139.58</ele>
			<time>2020-01-17T05:17:37.97Z</time>
		</trkpt>
		<trkpt lat="34.862583" lon="128.505627">
			<ele>139.58</ele>
			<time>2020-01-17T05:17:39.18Z</time>
		</trkpt>
		<trkpt lat="34.862653" lon="128.505846">
			<ele>139.58</ele>
			<time>2020-01-17T05:17:40.47Z</time>
		</trkpt>
		<trkpt lat="34.862734" lon="128.506110">
			<ele>139.58</ele>
			<time>2020-01-17T05:17:42.01Z</time>
		</trkpt>
		<trkpt lat="34.862742" lon="128.506126">
			<ele>139.58</ele>
			<time>2020-01-17T05:17:42.11Z</time>
		</trkpt>
		<trkpt lat="34.862857" lon="128.506322">
			<ele>139.58</ele>
			<time>2020-01-17T05:17:43.43Z</time>
		</trkpt>
		<trkpt lat="34.862863" lon="128.506335">
			<ele>139.58</ele>
			<time>2020-01-17T05:17:43.51Z</time>
		</trkpt>
		<trkpt lat="34.862973" lon="128.506501">
			<ele>139.58</ele>
			<time>2020-01-17T05:17:44.68Z</time>
		</trkpt>
		<trkpt lat="34.862973" lon="128.506507">
			<ele>139.58</ele>
			<time>2020-01-17T05:17:44.74Z</time>
		</trkpt>
		<trkpt lat="34.863125" lon="128.506589">
			<ele>139.58</ele>
			<time>2020-01-17T05:17:45.85Z</time>
		</trkpt>
		<trkpt lat="34.863136" lon="128.506595">
			<ele>139.58</ele>
			<time>2020-01-17T05:17:45.93Z</time>
		</trkpt>
		<trkpt lat="34.863251" lon="128.506628">
			<ele>139.58</ele>
			<time>2020-01-17T05:17:46.72Z</time>
		</trkpt>
		<trkpt lat="34.863383" lon="128.506617">
			<ele>139.58</ele>
			<time>2020-01-17T05:17:47.59Z</time>
		</trkpt>
		<trkpt lat="34.863481" lon="128.506684">
			<ele>139.58</ele>
			<time>2020-01-17T05:17:48.35Z</time>
		</trkpt>
		<trkpt lat="34.863535" lon="128.506785">
			<ele>139.58</ele>
			<time>2020-01-17T05:17:49Z</time>
		</trkpt>
		<trkpt lat="34.863535" lon="128.506792">
			<ele>139.58</ele>
			<time>2020-01-17T05:17:49.06Z</time>
		</trkpt>
		<trkpt lat="34.863591" lon="128.506896">
			<ele>139.58</ele>
			<time>2020-01-17T05:17:49.75Z</time>
		</trkpt>
		<trkpt lat="34.863674" lon="128.506912">
			<ele>139.58</ele>
			<time>2020-01-17T05:17:50.31Z</time>
		</trkpt>
		<trkpt lat="34.863733" lon="128.506948">
			<ele>139.58</ele>
			<time>2020-01-17T05:17:50.75Z</time>
		</trkpt>
		<trkpt lat="34.863747" lon="128.506954">
			<ele>139.58</ele>
			<time>2020-01-17T05:17:50.84Z</time>
		</trkpt>
		<trkpt lat="34.863779" lon="128.507046">
			<ele>139.58</ele>
			<time>2020-01-17T05:17:51.39Z</time>
		</trkpt>
		<trkpt lat="34.863782" lon="128.507111">
			<ele>139.58</ele>
			<time>2020-01-17T05:17:51.75Z</time>
		</trkpt>
		<trkpt lat="34.863782" lon="128.507130">
			<ele>139.58</ele>
			<time>2020-01-17T05:17:51.85Z</time>
		</trkpt>
		<trkpt lat="34.863779" lon="128.507144">
			<ele>139.58</ele>
			<time>2020-01-17T05:17:51.93Z</time>
		</trkpt>
		<trkpt lat="34.863747" lon="128.507183">
			<ele>139.58</ele>
			<time>2020-01-17T05:17:52.23Z</time>
		</trkpt>
		<trkpt lat="34.863742" lon="128.507199">
			<ele>139.58</ele>
			<time>2020-01-17T05:17:52.32Z</time>
		</trkpt>
		<trkpt lat="34.863728" lon="128.507219">
			<ele>139.58</ele>
			<time>2020-01-17T05:17:52.46Z</time>
		</trkpt>
		<trkpt lat="34.863728" lon="128.507225">
			<ele>139.58</ele>
			<time>2020-01-17T05:17:52.52Z</time>
		</trkpt>
		<trkpt lat="34.863683" lon="128.507304">
			<ele>139.58</ele>
			<time>2020-01-17T05:17:53.05Z</time>
		</trkpt>
		<trkpt lat="34.863661" lon="128.507333">
			<ele>139.58</ele>
			<time>2020-01-17T05:17:53.26Z</time>
		</trkpt>
		<trkpt lat="34.863648" lon="128.507349">
			<ele>139.58</ele>
			<time>2020-01-17T05:17:53.39Z</time>
		</trkpt>
		<trkpt lat="34.863640" lon="128.507359">
			<ele>139.58</ele>
			<time>2020-01-17T05:17:53.47Z</time>
		</trkpt>
		<trkpt lat="34.863547" lon="128.507500">
			<ele>139.58</ele>
			<time>2020-01-17T05:17:54.46Z</time>
		</trkpt>
		<trkpt lat="34.863536" lon="128.507516">
			<ele>139.58</ele>
			<time>2020-01-17T05:17:54.57Z</time>
		</trkpt>
		<trkpt lat="34.863531" lon="128.507526">
			<ele>139.58</ele>
			<time>2020-01-17T05:17:54.64Z</time>
		</trkpt>
		<trkpt lat="34.863515" lon="128.507624">
			<ele>139.58</ele>
			<time>2020-01-17T05:17:55.18Z</time>
		</trkpt>
		<trkpt lat="34.863515" lon="128.507647">
			<ele>139.58</ele>
			<time>2020-01-17T05:17:55.31Z</time>
		</trkpt>
		<trkpt lat="34.863555" lon="128.507722">
			<ele>139.58</ele>
			<time>2020-01-17T05:17:55.80Z</time>
		</trkpt>
		<trkpt lat="34.863641" lon="128.507764">
			<ele>139.58</ele>
			<time>2020-01-17T05:17:56.41Z</time>
		</trkpt>
		<trkpt lat="34.863665" lon="128.507774">
			<ele>139.58</ele>
			<time>2020-01-17T05:17:56.58Z</time>
		</trkpt>
		<trkpt lat="34.863675" lon="128.507777">
			<ele>139.58</ele>
			<time>2020-01-17T05:17:56.66Z</time>
		</trkpt>
		<trkpt lat="34.863692" lon="128.507777">
			<ele>139.58</ele>
			<time>2020-01-17T05:17:56.76Z</time>
		</trkpt>
		<trkpt lat="34.863812" lon="128.507822">
			<ele>139.58</ele>
			<time>2020-01-17T05:17:57.60Z</time>
		</trkpt>
		<trkpt lat="34.863831" lon="128.507822">
			<ele>139.58</ele>
			<time>2020-01-17T05:17:57.73Z</time>
		</trkpt>
		<trkpt lat="34.863957" lon="128.507913">
			<ele>139.58</ele>
			<time>2020-01-17T05:17:58.71Z</time>
		</trkpt>
		<trkpt lat="34.864072" lon="128.508040">
			<ele>139.58</ele>
			<time>2020-01-17T05:17:59.74Z</time>
		</trkpt>
		<trkpt lat="34.864238" lon="128.508167">
			<ele>139.58</ele>
			<time>2020-01-17T05:18:01.05Z</time>
		</trkpt>
		<trkpt lat="34.864327" lon="128.508340">
			<ele>139.58</ele>
			<time>2020-01-17T05:18:02.16Z</time>
		</trkpt>
		<trkpt lat="34.864303" lon="128.508487">
			<ele>139.58</ele>
			<time>2020-01-17T05:18:02.98Z</time>
		</trkpt>
		<trkpt lat="34.864285" lon="128.508647">
			<ele>139.58</ele>
			<time>2020-01-17T05:18:03.87Z</time>
		</trkpt>
		<trkpt lat="34.864279" lon="128.508670">
			<ele>139.58</ele>
			<time>2020-01-17T05:18:04Z</time>
		</trkpt>
		<trkpt lat="34.864274" lon="128.508686">
			<ele>139.58</ele>
			<time>2020-01-17T05:18:04.09Z</time>
		</trkpt>
		<trkpt lat="34.864274" lon="128.508827">
			<ele>139.58</ele>
			<time>2020-01-17T05:18:04.86Z</time>
		</trkpt>
		<trkpt lat="34.864274" lon="128.508833">
			<ele>139.58</ele>
			<time>2020-01-17T05:18:04.92Z</time>
		</trkpt>
		<trkpt lat="34.864274" lon="128.508967">
			<ele>139.58</ele>
			<time>2020-01-17T05:18:05.65Z</time>
		</trkpt>
		<trkpt lat="34.864274" lon="128.508990">
			<ele>139.58</ele>
			<time>2020-01-17T05:18:05.78Z</time>
		</trkpt>
		<trkpt lat="34.864266" lon="128.509000">
			<ele>139.58</ele>
			<time>2020-01-17T05:18:05.85Z</time>
		</trkpt>
		<trkpt lat="34.864283" lon="128.509078">
			<ele>139.58</ele>
			<time>2020-01-17T05:18:06.30Z</time>
		</trkpt>
		<trkpt lat="34.864283" lon="128.509091">
			<ele>139.58</ele>
			<time>2020-01-17T05:18:06.37Z</time>
		</trkpt>
		<trkpt lat="34.864283" lon="128.509110">
			<ele>139.58</ele>
			<time>2020-01-17T05:18:06.47Z</time>
		</trkpt>
		<trkpt lat="34.864283" lon="128.509124">
			<ele>139.58</ele>
			<time>2020-01-17T05:18:06.55Z</time>
		</trkpt>
		<trkpt lat="34.864318" lon="128.509192">
			<ele>139.58</ele>
			<time>2020-01-17T05:18:06.99Z</time>
		</trkpt>
		<trkpt lat="34.864331" lon="128.509212">
			<ele>139.58</ele>
			<time>2020-01-17T05:18:07.13Z</time>
		</trkpt>
		<trkpt lat="34.864385" lon="128.509234">
			<ele>139.58</ele>
			<time>2020-01-17T05:18:07.50Z</time>
		</trkpt>
		<trkpt lat="34.864425" lon="128.509188">
			<ele>139.58</ele>
			<time>2020-01-17T05:18:07.87Z</time>
		</trkpt>
		<trkpt lat="34.864430" lon="128.509175">
			<ele>139.58</ele>
			<time>2020-01-17T05:18:07.95Z</time>
		</trkpt>
		<trkpt lat="34.864433" lon="128.509169">
			<ele>139.58</ele>
			<time>2020-01-17T05:18:08.01Z</time>
		</trkpt>
		<trkpt lat="34.864465" lon="128.509081">
			<ele>139.58</ele>
			<time>2020-01-17T05:18:08.54Z</time>
		</trkpt>
		<trkpt lat="34.864478" lon="128.509025">
			<ele>139.58</ele>
			<time>2020-01-17T05:18:08.85Z</time>
		</trkpt>
		<trkpt lat="34.864531" lon="128.508895">
			<ele>139.58</ele>
			<time>2020-01-17T05:18:09.65Z</time>
		</trkpt>
		<trkpt lat="34.864537" lon="128.508829">
			<ele>139.58</ele>
			<time>2020-01-17T05:18:10.01Z</time>
		</trkpt>
		<trkpt lat="34.864537" lon="128.508797">
			<ele>139.58</ele>
			<time>2020-01-17T05:18:10.19Z</time>
		</trkpt>
		<trkpt lat="34.864542" lon="128.508777">
			<ele>139.58</ele>
			<time>2020-01-17T05:18:10.30Z</time>
		</trkpt>
		<trkpt lat="34.864571" lon="128.508646">
			<ele>139.58</ele>
			<time>2020-01-17T05:18:11.04Z</time>
		</trkpt>
		<trkpt lat="34.864579" lon="128.508591">
			<ele>139.58</ele>
			<time>2020-01-17T05:18:11.35Z</time>
		</trkpt>
		<trkpt lat="34.864579" lon="128.508578">
			<ele>139.58</ele>
			<time>2020-01-17T05:18:11.42Z</time>
		</trkpt>
		<trkpt lat="34.864630" lon="128.508464">
			<ele>139.58</ele>
			<time>2020-01-17T05:18:12.13Z</time>
		</trkpt>
		<trkpt lat="34.864632" lon="128.508447">
			<ele>139.58</ele>
			<time>2020-01-17T05:18:12.22Z</time>
		</trkpt>
		<trkpt lat="34.864638" lon="128.508428">
			<ele>139.58</ele>
			<time>2020-01-17T05:18:12.34Z</time>
		</trkpt>
		<trkpt lat="34.864638" lon="128.508401">
			<ele>139.58</ele>
			<time>2020-01-17T05:18:12.48Z</time>
		</trkpt>
		<trkpt lat="34.864675" lon="128.508228">
			<ele>139.58</ele>
			<time>2020-01-17T05:18:13.46Z</time>
		</trkpt>
		<trkpt lat="34.864675" lon="128.508209">
			<ele>139.58</ele>
			<time>2020-01-17T05:18:13.57Z</time>
		</trkpt>
		<trkpt lat="34.864675" lon="128.508196">
			<ele>139.58</ele>
			<time>2020-01-17T05:18:13.64Z</time>
		</trkpt>
		<trkpt lat="34.864675" lon="128.508179">
			<ele>139.58</ele>
			<time>2020-01-17T05:18:13.73Z</time>
		</trkpt>
		<trkpt lat="34.864675" lon="128.508153">
			<ele>139.58</ele>
			<time>2020-01-17T05:18:13.87Z</time>
		</trkpt>
		<trkpt lat="34.864680" lon="128.508046">
			<ele>139.58</ele>
			<time>2020-01-17T05:18:14.46Z</time>
		</trkpt>
		<trkpt lat="34.864621" lon="128.507830">
			<ele>139.58</ele>
			<time>2020-01-17T05:18:15.70Z</time>
		</trkpt>
		<trkpt lat="34.864607" lon="128.507808">
			<ele>139.58</ele>
			<time>2020-01-17T05:18:15.86Z</time>
		</trkpt>
		<trkpt lat="34.864602" lon="128.507794">
			<ele>139.58</ele>
			<time>2020-01-17T05:18:15.94Z</time>
		</trkpt>
		<trkpt lat="34.864597" lon="128.507781">
			<ele>139.58</ele>
			<time>2020-01-17T05:18:16.01Z</time>
		</trkpt>
		<trkpt lat="34.864591" lon="128.507752">
			<ele>139.58</ele>
			<time>2020-01-17T05:18:16.18Z</time>
		</trkpt>
		<trkpt lat="34.864578" lon="128.507644">
			<ele>139.58</ele>
			<time>2020-01-17T05:18:16.78Z</time>
		</trkpt>
		<trkpt lat="34.864570" lon="128.507631">
			<ele>139.58</ele>
			<time>2020-01-17T05:18:16.87Z</time>
		</trkpt>
		<trkpt lat="34.864570" lon="128.507605">
			<ele>139.58</ele>
			<time>2020-01-17T05:18:17.01Z</time>
		</trkpt>
		<trkpt lat="34.864564" lon="128.507599">
			<ele>139.58</ele>
			<time>2020-01-17T05:18:17.07Z</time>
		</trkpt>
		<trkpt lat="34.864564" lon="128.507582">
			<ele>139.58</ele>
			<time>2020-01-17T05:18:17.16Z</time>
		</trkpt>
		<trkpt lat="34.864569" lon="128.507455">
			<ele>139.58</ele>
			<time>2020-01-17T05:18:17.85Z</time>
		</trkpt>
		<trkpt lat="34.864580" lon="128.507432">
			<ele>139.58</ele>
			<time>2020-01-17T05:18:18Z</time>
		</trkpt>
		<trkpt lat="34.864588" lon="128.507416">
			<ele>139.58</ele>
			<time>2020-01-17T05:18:18.10Z</time>
		</trkpt>
		<trkpt lat="34.864644" lon="128.507302">
			<ele>139.58</ele>
			<time>2020-01-17T05:18:18.83Z</time>
		</trkpt>
		<trkpt lat="34.864644" lon="128.507275">
			<ele>139.58</ele>
			<time>2020-01-17T05:18:18.97Z</time>
		</trkpt>
		<trkpt lat="34.864665" lon="128.507125">
			<ele>139.58</ele>
			<time>2020-01-17T05:18:19.81Z</time>
		</trkpt>
		<trkpt lat="34.864673" lon="128.507109">
			<ele>139.58</ele>
			<time>2020-01-17T05:18:19.91Z</time>
		</trkpt>
		<trkpt lat="34.864673" lon="128.507080">
			<ele>139.58</ele>
			<time>2020-01-17T05:18:20.07Z</time>
		</trkpt>
		<trkpt lat="34.864708" lon="128.506910">
			<ele>139.58</ele>
			<time>2020-01-17T05:18:21.03Z</time>
		</trkpt>
		<trkpt lat="34.864772" lon="128.506818">
			<ele>139.58</ele>
			<time>2020-01-17T05:18:21.69Z</time>
		</trkpt>
		<trkpt lat="34.864785" lon="128.506802">
			<ele>139.58</ele>
			<time>2020-01-17T05:18:21.81Z</time>
		</trkpt>
		<trkpt lat="34.864858" lon="128.506733">
			<ele>139.58</ele>
			<time>2020-01-17T05:18:22.42Z</time>
		</trkpt>
		<trkpt lat="34.864871" lon="128.506727">
			<ele>139.58</ele>
			<time>2020-01-17T05:18:22.52Z</time>
		</trkpt>
		<trkpt lat="34.864975" lon="128.506629">
			<ele>139.58</ele>
			<time>2020-01-17T05:18:23.40Z</time>
		</trkpt>
		<trkpt lat="34.865109" lon="128.506560">
			<ele>139.58</ele>
			<time>2020-01-17T05:18:24.37Z</time>
		</trkpt>
		<trkpt lat="34.865286" lon="128.506641">
			<ele>139.58</ele>
			<time>2020-01-17T05:18:25.63Z</time>
		</trkpt>
		<trkpt lat="34.865421" lon="128.506750">
			<ele>229.33</ele>
			<time>2020-01-17T05:18:26.71Z</time>
		</trkpt>
		<trkpt lat="34.865541" lon="128.506777">
			<ele>230.68</ele>
			<time>2020-01-17T05:18:27.52Z</time>
		</trkpt>
		<trkpt lat="34.865602" lon="128.506822">
			<ele>230.01</ele>
			<time>2020-01-17T05:18:28Z</time>
		</trkpt>
		<trkpt lat="34.865648" lon="128.506881">
			<ele>230.25</ele>
			<time>2020-01-17T05:18:28.44Z</time>
		</trkpt>
		<trkpt lat="34.865777" lon="128.506845">
			<ele>230.25</ele>
			<time>2020-01-17T05:18:29.32Z</time>
		</trkpt>
		<trkpt lat="34.865843" lon="128.506737">
			<ele>233.24</ele>
			<time>2020-01-17T05:18:30.06Z</time>
		</trkpt>
		<trkpt lat="34.865901" lon="128.506454">
			<ele>236.34</ele>
			<time>2020-01-17T05:18:31.66Z</time>
		</trkpt>
		<trkpt lat="34.865922" lon="128.506222">
			<ele>238.78</ele>
			<time>2020-01-17T05:18:32.93Z</time>
		</trkpt>
		<trkpt lat="34.866097" lon="128.505923">
			<ele>238.78</ele>
			<time>2020-01-17T05:18:34.94Z</time>
		</trkpt>
		<trkpt lat="34.866260" lon="128.505658">
			<ele>238.78</ele>
			<time>2020-01-17T05:18:36.75Z</time>
		</trkpt>
		<trkpt lat="34.866265" lon="128.505642">
			<ele>238.78</ele>
			<time>2020-01-17T05:18:36.85Z</time>
		</trkpt>
		<trkpt lat="34.866284" lon="128.505603">
			<ele>238.78</ele>
			<time>2020-01-17T05:18:37.10Z</time>
		</trkpt>
		<trkpt lat="34.866412" lon="128.505335">
			<ele>238.78</ele>
			<time>2020-01-17T05:18:38.79Z</time>
		</trkpt>
		<trkpt lat="34.866581" lon="128.505224">
			<ele>238.78</ele>
			<time>2020-01-17T05:18:40.07Z</time>
		</trkpt>
		<trkpt lat="34.866591" lon="128.505217">
			<ele>238.78</ele>
			<time>2020-01-17T05:18:40.15Z</time>
		</trkpt>
		<trkpt lat="34.866771" lon="128.505132">
			<ele>238.78</ele>
			<time>2020-01-17T05:18:41.43Z</time>
		</trkpt>
		<trkpt lat="34.866878" lon="128.504988">
			<ele>238.78</ele>
			<time>2020-01-17T05:18:42.50Z</time>
		</trkpt>
		<trkpt lat="34.866886" lon="128.504962">
			<ele>238.78</ele>
			<time>2020-01-17T05:18:42.65Z</time>
		</trkpt>
		<trkpt lat="34.866917" lon="128.504759">
			<ele>238.78</ele>
			<time>2020-01-17T05:18:43.78Z</time>
		</trkpt>
		<trkpt lat="34.866904" lon="128.504698">
			<ele>238.78</ele>
			<time>2020-01-17T05:18:44.13Z</time>
		</trkpt>
		<trkpt lat="34.866842" lon="128.504463">
			<ele>238.78</ele>
			<time>2020-01-17T05:18:45.48Z</time>
		</trkpt>
		<trkpt lat="34.866837" lon="128.504453">
			<ele>238.78</ele>
			<time>2020-01-17T05:18:45.54Z</time>
		</trkpt>
		<trkpt lat="34.866829" lon="128.504427">
			<ele>238.78</ele>
			<time>2020-01-17T05:18:45.69Z</time>
		</trkpt>
		<trkpt lat="34.866829" lon="128.504410">
			<ele>238.78</ele>
			<time>2020-01-17T05:18:45.78Z</time>
		</trkpt>
		<trkpt lat="34.866818" lon="128.504224">
			<ele>238.78</ele>
			<time>2020-01-17T05:18:46.80Z</time>
		</trkpt>
		<trkpt lat="34.866818" lon="128.504218">
			<ele>238.78</ele>
			<time>2020-01-17T05:18:46.86Z</time>
		</trkpt>
		<trkpt lat="34.866812" lon="128.504202">
			<ele>238.78</ele>
			<time>2020-01-17T05:18:46.96Z</time>
		</trkpt>
		<trkpt lat="34.866812" lon="128.504175">
			<ele>238.78</ele>
			<time>2020-01-17T05:18:47.10Z</time>
		</trkpt>
		<trkpt lat="34.866832" lon="128.503928">
			<ele>239.82</ele>
			<time>2020-01-17T05:18:48.46Z</time>
		</trkpt>
		<trkpt lat="34.867201" lon="128.503054">
			<ele>242.98</ele>
			<time>2020-01-17T05:18:53.84Z</time>
		</trkpt>
		<trkpt lat="34.867413" lon="128.502589">
			<ele>246.27</ele>
			<time>2020-01-17T05:18:56.75Z</time>
		</trkpt>
		<trkpt lat="34.867575" lon="128.502183">
			<ele>249.30</ele>
			<time>2020-01-17T05:18:59.22Z</time>
		</trkpt>
		<trkpt lat="34.867699" lon="128.501942">
			<ele>250.83</ele>
			<time>2020-01-17T05:19:00.77Z</time>
		</trkpt>
		<trkpt lat="34.867780" lon="128.501770">
			<ele>253.89</ele>
			<time>2020-01-17T05:19:01.86Z</time>
		</trkpt>
		<trkpt lat="34.867957" lon="128.501539">
			<ele>257.82</ele>
			<time>2020-01-17T05:19:03.59Z</time>
		</trkpt>
		<trkpt lat="34.868111" lon="128.501439">
			<ele>260.01</ele>
			<time>2020-01-17T05:19:04.75Z</time>
		</trkpt>
		<trkpt lat="34.868394" lon="128.501166">
			<ele>263.33</ele>
			<time>2020-01-17T05:19:07.16Z</time>
		</trkpt>
		<trkpt lat="34.868461" lon="128.501091">
			<ele>263.61</ele>
			<time>2020-01-17T05:19:07.76Z</time>
		</trkpt>
		<trkpt lat="34.868567" lon="128.500938">
			<ele>264.36</ele>
			<time>2020-01-17T05:19:08.86Z</time>
		</trkpt>
		<trkpt lat="34.868790" lon="128.500461">
			<ele>267.23</ele>
			<time>2020-01-17T05:19:11.86Z</time>
		</trkpt>
		<trkpt lat="34.868892" lon="128.500167">
			<ele>267.24</ele>
			<time>2020-01-17T05:19:13.61Z</time>
		</trkpt>
		<trkpt lat="34.868892" lon="128.500167">
			<ele>267.05</ele>
			<time>2020-01-17T05:19:13.67Z</time>
		</trkpt>
		<trkpt lat="34.868899" lon="128.500167">
			<ele>267.02</ele>
			<time>2020-01-17T05:19:13.73Z</time>
		</trkpt>
		<trkpt lat="34.868901" lon="128.500148">
			<ele>267.28</ele>
			<time>2020-01-17T05:19:13.83Z</time>
		</trkpt>
		<trkpt lat="34.868897" lon="128.500117">
			<ele>267.69</ele>
			<time>2020-01-17T05:19:14Z</time>
		</trkpt>
		<trkpt lat="34.868886" lon="128.500079">
			<ele>268.04</ele>
			<time>2020-01-17T05:19:14.22Z</time>
		</trkpt>
		<trkpt lat="34.868871" lon="128.500036">
			<ele>268.77</ele>
			<time>2020-01-17T05:19:14.48Z</time>
		</trkpt>
		<trkpt lat="34.868853" lon="128.499991">
			<ele>269.94</ele>
			<time>2020-01-17T05:19:14.75Z</time>
		</trkpt>
		<trkpt lat="34.868806" lon="128.499894">
			<ele>271.47</ele>
			<time>2020-01-17T05:19:15.37Z</time>
		</trkpt>
		<trkpt lat="34.868780" lon="128.499849">
			<ele>272.18</ele>
			<time>2020-01-17T05:19:15.67Z</time>
		</trkpt>
		<trkpt lat="34.868751" lon="128.499806">
			<ele>272.81</ele>
			<time>2020-01-17T05:19:15.97Z</time>
		</trkpt>
		<trkpt lat="34.868223" lon="128.499603">
			<ele>275.86</ele>
			<time>2020-01-17T05:19:19.67Z</time>
		</trkpt>
		<trkpt lat="34.868193" lon="128.499567">
			<ele>286.32</ele>
			<time>2020-01-17T05:19:19.94Z</time>
		</trkpt>
		<trkpt lat="34.867730" lon="128.499301">
			<ele>283.60</ele>
			<time>2020-01-17T05:19:23.36Z</time>
		</trkpt>
		<trkpt lat="34.867310" lon="128.499012">
			<ele>280.54</ele>
			<time>2020-01-17T05:19:26.57Z</time>
		</trkpt>
		<trkpt lat="34.866894" lon="128.498769">
			<ele>276.93</ele>
			<time>2020-01-17T05:19:29.65Z</time>
		</trkpt>
		<trkpt lat="34.866747" lon="128.498605">
			<ele>273.67</ele>
			<time>2020-01-17T05:19:30.98Z</time>
		</trkpt>
		<trkpt lat="34.866613" lon="128.498399">
			<ele>270.51</ele>
			<time>2020-01-17T05:19:32.42Z</time>
		</trkpt>
		<trkpt lat="34.866516" lon="128.498178">
			<ele>266.78</ele>
			<time>2020-01-17T05:19:33.79Z</time>
		</trkpt>
		<trkpt lat="34.866503" lon="128.498105">
			<ele>264.99</ele>
			<time>2020-01-17T05:19:34.20Z</time>
		</trkpt>
		<trkpt lat="34.866509" lon="128.498100">
			<ele>264.57</ele>
			<time>2020-01-17T05:19:34.26Z</time>
		</trkpt>
		<trkpt lat="34.866515" lon="128.498079">
			<ele>263.64</ele>
			<time>2020-01-17T05:19:34.38Z</time>
		</trkpt>
		<trkpt lat="34.866518" lon="128.498059">
			<ele>263.09</ele>
			<time>2020-01-17T05:19:34.49Z</time>
		</trkpt>
		<trkpt lat="34.866522" lon="128.498035">
			<ele>262.50</ele>
			<time>2020-01-17T05:19:34.62Z</time>
		</trkpt>
		<trkpt lat="34.866522" lon="128.498011">
			<ele>262.41</ele>
			<time>2020-01-17T05:19:34.75Z</time>
		</trkpt>
		<trkpt lat="34.866539" lon="128.497615">
			<ele>258.78</ele>
			<time>2020-01-17T05:19:36.92Z</time>
		</trkpt>
		<trkpt lat="34.866554" lon="128.497512">
			<ele>257.87</ele>
			<time>2020-01-17T05:19:37.49Z</time>
		</trkpt>
		<trkpt lat="34.866642" lon="128.497101">
			<ele>254.84</ele>
			<time>2020-01-17T05:19:39.82Z</time>
		</trkpt>
		<trkpt lat="34.866865" lon="128.496829">
			<ele>251.69</ele>
			<time>2020-01-17T05:19:41.92Z</time>
		</trkpt>
		<trkpt lat="34.867134" lon="128.496437">
			<ele>250.96</ele>
			<time>2020-01-17T05:19:44.72Z</time>
		</trkpt>
		<trkpt lat="34.867408" lon="128.496256">
			<ele>250.96</ele>
			<time>2020-01-17T05:19:46.79Z</time>
		</trkpt>
		<trkpt lat="34.867422" lon="128.496239">
			<ele>250.96</ele>
			<time>2020-01-17T05:19:46.92Z</time>
		</trkpt>
		<trkpt lat="34.867603" lon="128.496193">
			<ele>250.96</ele>
			<time>2020-01-17T05:19:48.16Z</time>
		</trkpt>
		<trkpt lat="34.867812" lon="128.496260">
			<ele>250.96</ele>
			<time>2020-01-17T05:19:49.60Z</time>
		</trkpt>
		<trkpt lat="34.867974" lon="128.496220">
			<ele>250.96</ele>
			<time>2020-01-17T05:19:50.71Z</time>
		</trkpt>
		<trkpt lat="34.868030" lon="128.496079">
			<ele>250.96</ele>
			<time>2020-01-17T05:19:51.56Z</time>
		</trkpt>
		<trkpt lat="34.868030" lon="128.495937">
			<ele>250.96</ele>
			<time>2020-01-17T05:19:52.34Z</time>
		</trkpt>
		<trkpt lat="34.867932" lon="128.495739">
			<ele>254.01</ele>
			<time>2020-01-17T05:19:53.60Z</time>
		</trkpt>
		<trkpt lat="34.867862" lon="128.495632">
			<ele>256.71</ele>
			<time>2020-01-17T05:19:54.35Z</time>
		</trkpt>
		<trkpt lat="34.867774" lon="128.495502">
			<ele>256.71</ele>
			<time>2020-01-17T05:19:55.27Z</time>
		</trkpt>
		<trkpt lat="34.867616" lon="128.495383">
			<ele>256.71</ele>
			<time>2020-01-17T05:19:56.51Z</time>
		</trkpt>
		<trkpt lat="34.867351" lon="128.495418">
			<ele>257.00</ele>
			<time>2020-01-17T05:19:58.29Z</time>
		</trkpt>
		<trkpt lat="34.867065" lon="128.495521">
			<ele>253.79</ele>
			<time>2020-01-17T05:20:00.27Z</time>
		</trkpt>
		<trkpt lat="34.866965" lon="128.495448">
			<ele>252.54</ele>
			<time>2020-01-17T05:20:01.05Z</time>
		</trkpt>
		<trkpt lat="34.866398" lon="128.495167">
			<ele>249.73</ele>
			<time>2020-01-17T05:20:05.13Z</time>
		</trkpt>
		<trkpt lat="34.866301" lon="128.495085">
			<ele>250.23</ele>
			<time>2020-01-17T05:20:05.92Z</time>
		</trkpt>
		<trkpt lat="34.866301" lon="128.495085">
			<ele>250.63</ele>
			<time>2020-01-17T05:20:05.98Z</time>
		</trkpt>
		<trkpt lat="34.866351" lon="128.495086">
			<ele>250.60</ele>
			<time>2020-01-17T05:20:06.31Z</time>
		</trkpt>
		<trkpt lat="34.866338" lon="128.495080">
			<ele>250.79</ele>
			<time>2020-01-17T05:20:06.40Z</time>
		</trkpt>
		<trkpt lat="34.866291" lon="128.495076">
			<ele>250.32</ele>
			<time>2020-01-17T05:20:06.72Z</time>
		</trkpt>
		<trkpt lat="34.866239" lon="128.495047">
			<ele>249.51</ele>
			<time>2020-01-17T05:20:07.10Z</time>
		</trkpt>
		<trkpt lat="34.866206" lon="128.495042">
			<ele>249.45</ele>
			<time>2020-01-17T05:20:07.32Z</time>
		</trkpt>
		<trkpt lat="34.866110" lon="128.495032">
			<ele>248.35</ele>
			<time>2020-01-17T05:20:07.96Z</time>
		</trkpt>
		<trkpt lat="34.865862" lon="128.494990">
			<ele>248.35</ele>
			<time>2020-01-17T05:20:09.63Z</time>
		</trkpt>
		<trkpt lat="34.865625" lon="128.495053">
			<ele>248.35</ele>
			<time>2020-01-17T05:20:11.25Z</time>
		</trkpt>
		<trkpt lat="34.865407" lon="128.495144">
			<ele>248.35</ele>
			<time>2020-01-17T05:20:12.79Z</time>
		</trkpt>
		<trkpt lat="34.865124" lon="128.495348">
			<ele>248.35</ele>
			<time>2020-01-17T05:20:14.98Z</time>
		</trkpt>
		<trkpt lat="34.864943" lon="128.495456">
			<ele>248.35</ele>
			<time>2020-01-17T05:20:16.32Z</time>
		</trkpt>
		<trkpt lat="34.864938" lon="128.495456">
			<ele>248.35</ele>
			<time>2020-01-17T05:20:16.38Z</time>
		</trkpt>
		<trkpt lat="34.864864" lon="128.495383">
			<ele>248.35</ele>
			<time>2020-01-17T05:20:17.02Z</time>
		</trkpt>
		<trkpt lat="34.864864" lon="128.495304">
			<ele>248.35</ele>
			<time>2020-01-17T05:20:17.46Z</time>
		</trkpt>
		<trkpt lat="34.864864" lon="128.495275">
			<ele>248.35</ele>
			<time>2020-01-17T05:20:17.61Z</time>
		</trkpt>
		<trkpt lat="34.864919" lon="128.495111">
			<ele>248.35</ele>
			<time>2020-01-17T05:20:18.58Z</time>
		</trkpt>
		<trkpt lat="34.865095" lon="128.494930">
			<ele>248.35</ele>
			<time>2020-01-17T05:20:20.12Z</time>
		</trkpt>
		<trkpt lat="34.865109" lon="128.494912">
			<ele>248.35</ele>
			<time>2020-01-17T05:20:20.25Z</time>
		</trkpt>
		<trkpt lat="34.865151" lon="128.494873">
			<ele>248.35</ele>
			<time>2020-01-17T05:20:20.61Z</time>
		</trkpt>
		<trkpt lat="34.865365" lon="128.494770">
			<ele>248.35</ele>
			<time>2020-01-17T05:20:22.13Z</time>
		</trkpt>
		<trkpt lat="34.865550" lon="128.494487">
			<ele>248.35</ele>
			<time>2020-01-17T05:20:24.12Z</time>
		</trkpt>
		<trkpt lat="34.865782" lon="128.494305">
			<ele>248.35</ele>
			<time>2020-01-17T05:20:25.96Z</time>
		</trkpt>
		<trkpt lat="34.865782" lon="128.494294">
			<ele>248.35</ele>
			<time>2020-01-17T05:20:26.02Z</time>
		</trkpt>
		<trkpt lat="34.865805" lon="128.494271">
			<ele>248.35</ele>
			<time>2020-01-17T05:20:26.22Z</time>
		</trkpt>
		<trkpt lat="34.865991" lon="128.494135">
			<ele>248.35</ele>
			<time>2020-01-17T05:20:27.66Z</time>
		</trkpt>
		<trkpt lat="34.866092" lon="128.493891">
			<ele>248.35</ele>
			<time>2020-01-17T05:20:29.16Z</time>
		</trkpt>
		<trkpt lat="34.866204" lon="128.493727">
			<ele>248.35</ele>
			<time>2020-01-17T05:20:30.32Z</time>
		</trkpt>
		<trkpt lat="34.866338" lon="128.493602">
			<ele>248.35</ele>
			<time>2020-01-17T05:20:31.45Z</time>
		</trkpt>
		<trkpt lat="34.866640" lon="128.493624">
			<ele>248.35</ele>
			<time>2020-01-17T05:20:33.47Z</time>
		</trkpt>
		<trkpt lat="34.866803" lon="128.493697">
			<ele>248.35</ele>
			<time>2020-01-17T05:20:34.62Z</time>
		</trkpt>
		<trkpt lat="34.867007" lon="128.493731">
			<ele>248.35</ele>
			<time>2020-01-17T05:20:36Z</time>
		</trkpt>
		<trkpt lat="34.867174" lon="128.493668">
			<ele>248.35</ele>
			<time>2020-01-17T05:20:37.16Z</time>
		</trkpt>
		<trkpt lat="34.867355" lon="128.493668">
			<ele>248.35</ele>
			<time>2020-01-17T05:20:38.37Z</time>
		</trkpt>
		<trkpt lat="34.867495" lon="128.493628">
			<ele>248.35</ele>
			<time>2020-01-17T05:20:39.32Z</time>
		</trkpt>
		<trkpt lat="34.867629" lon="128.493418">
			<ele>248.35</ele>
			<time>2020-01-17T05:20:40.78Z</time>
		</trkpt>
		<trkpt lat="34.867805" lon="128.493248">
			<ele>248.35</ele>
			<time>2020-01-17T05:20:42.28Z</time>
		</trkpt>
		<trkpt lat="34.868047" lon="128.493168">
			<ele>248.35</ele>
			<time>2020-01-17T05:20:43.95Z</time>
		</trkpt>
		<trkpt lat="34.868284" lon="128.493247">
			<ele>248.35</ele>
			<time>2020-01-17T05:20:45.58Z</time>
		</trkpt>
		<trkpt lat="34.868447" lon="128.493571">
			<ele>190.56</ele>
			<time>2020-01-17T05:20:47.67Z</time>
		</trkpt>
		<trkpt lat="34.868844" lon="128.493795">
			<ele>187.26</ele>
			<time>2020-01-17T05:20:50.58Z</time>
		</trkpt>
		<trkpt lat="34.868994" lon="128.493870">
			<ele>185.68</ele>
			<time>2020-01-17T05:20:51.66Z</time>
		</trkpt>
		<trkpt lat="34.869050" lon="128.493882">
			<ele>185.00</ele>
			<time>2020-01-17T05:20:52.04Z</time>
		</trkpt>
		<trkpt lat="34.869116" lon="128.493896">
			<ele>184.31</ele>
			<time>2020-01-17T05:20:52.49Z</time>
		</trkpt>
		<trkpt lat="34.869279" lon="128.493918">
			<ele>182.44</ele>
			<time>2020-01-17T05:20:53.58Z</time>
		</trkpt>
		<trkpt lat="34.869333" lon="128.493939">
			<ele>181.63</ele>
			<time>2020-01-17T05:20:53.96Z</time>
		</trkpt>
		<trkpt lat="34.869583" lon="128.494161">
			<ele>178.42</ele>
			<time>2020-01-17T05:20:56.02Z</time>
		</trkpt>
		<trkpt lat="34.869626" lon="128.494231">
			<ele>177.85</ele>
			<time>2020-01-17T05:20:56.50Z</time>
		</trkpt>
		<trkpt lat="34.869727" lon="128.494400">
			<ele>176.04</ele>
			<time>2020-01-17T05:20:57.64Z</time>
		</trkpt>
		<trkpt lat="34.869967" lon="128.494608">
			<ele>173.82</ele>
			<time>2020-01-17T05:20:59.61Z</time>
		</trkpt>
		<trkpt lat="34.870002" lon="128.494639">
			<ele>173.82</ele>
			<time>2020-01-17T05:20:59.90Z</time>
		</trkpt>
		<trkpt lat="34.870040" lon="128.494624">
			<ele>173.38</ele>
			<time>2020-01-17T05:21:00.16Z</time>
		</trkpt>
		<trkpt lat="34.870204" lon="128.494676">
			<ele>171.57</ele>
			<time>2020-01-17T05:21:01.29Z</time>
		</trkpt>
		<trkpt lat="34.870448" lon="128.494817">
			<ele>167.00</ele>
			<time>2020-01-17T05:21:03.09Z</time>
		</trkpt>
		<trkpt lat="34.870569" lon="128.494903">
			<ele>164.24</ele>
			<time>2020-01-17T05:21:04.03Z</time>
		</trkpt>
		<trkpt lat="34.870749" lon="128.495095">
			<ele>163.01</ele>
			<time>2020-01-17T05:21:05.62Z</time>
		</trkpt>
		<trkpt lat="34.870732" lon="128.495085">
			<ele>163.08</ele>
			<time>2020-01-17T05:21:05.75Z</time>
		</trkpt>
		<trkpt lat="34.870730" lon="128.495052">
			<ele>162.93</ele>
			<time>2020-01-17T05:21:05.93Z</time>
		</trkpt>
		<trkpt lat="34.870890" lon="128.495149">
			<ele>159.69</ele>
			<time>2020-01-17T05:21:07.12Z</time>
		</trkpt>
		<trkpt lat="34.870900" lon="128.495170">
			<ele>158.52</ele>
			<time>2020-01-17T05:21:07.25Z</time>
		</trkpt>
		<trkpt lat="34.870914" lon="128.495190">
			<ele>156.41</ele>
			<time>2020-01-17T05:21:07.39Z</time>
		</trkpt>
		<trkpt lat="34.870933" lon="128.495247">
			<ele>153.86</ele>
			<time>2020-01-17T05:21:07.73Z</time>
		</trkpt>
		<trkpt lat="34.870993" lon="128.495319">
			<ele>152.74</ele>
			<time>2020-01-17T05:21:08.29Z</time>
		</trkpt>
		<trkpt lat="34.871293" lon="128.495436">
			<ele>149.32</ele>
			<time>2020-01-17T05:21:10.39Z</time>
		</trkpt>
		<trkpt lat="34.871724" lon="128.495435">
			<ele>145.87</ele>
			<time>2020-01-17T05:21:13.27Z</time>
		</trkpt>
		<trkpt lat="34.872095" lon="128.495542">
			<ele>145.87</ele>
			<time>2020-01-17T05:21:15.80Z</time>
		</trkpt>
		<trkpt lat="34.872341" lon="128.495649">
			<ele>145.87</ele>
			<time>2020-01-17T05:21:17.55Z</time>
		</trkpt>
		<trkpt lat="34.872475" lon="128.495615">
			<ele>145.87</ele>
			<time>2020-01-17T05:21:18.46Z</time>
		</trkpt>
		<trkpt lat="34.872596" lon="128.495569">
			<ele>145.87</ele>
			<time>2020-01-17T05:21:19.31Z</time>
		</trkpt>
		<trkpt lat="34.872647" lon="128.495535">
			<ele>145.87</ele>
			<time>2020-01-17T05:21:19.70Z</time>
		</trkpt>
		<trkpt lat="34.872670" lon="128.495529">
			<ele>145.87</ele>
			<time>2020-01-17T05:21:19.85Z</time>
		</trkpt>
		<trkpt lat="34.872791" lon="128.495501">
			<ele>145.87</ele>
			<time>2020-01-17T05:21:20.67Z</time>
		</trkpt>
		<trkpt lat="34.872824" lon="128.495501">
			<ele>145.87</ele>
			<time>2020-01-17T05:21:20.89Z</time>
		</trkpt>
		<trkpt lat="34.872861" lon="128.495484">
			<ele>145.87</ele>
			<time>2020-01-17T05:21:21.15Z</time>
		</trkpt>
		<trkpt lat="34.872884" lon="128.495484">
			<ele>145.87</ele>
			<time>2020-01-17T05:21:21.31Z</time>
		</trkpt>
		<trkpt lat="34.873065" lon="128.495466">
			<ele>145.87</ele>
			<time>2020-01-17T05:21:22.52Z</time>
		</trkpt>
		<trkpt lat="34.873093" lon="128.495466">
			<ele>145.87</ele>
			<time>2020-01-17T05:21:22.71Z</time>
		</trkpt>
		<trkpt lat="34.873135" lon="128.495460">
			<ele>145.87</ele>
			<time>2020-01-17T05:21:22.99Z</time>
		</trkpt>
		<trkpt lat="34.873297" lon="128.495443">
			<ele>145.87</ele>
			<time>2020-01-17T05:21:24.07Z</time>
		</trkpt>
		<trkpt lat="34.873483" lon="128.495278">
			<ele>145.87</ele>
			<time>2020-01-17T05:21:25.60Z</time>
		</trkpt>
		<trkpt lat="34.873483" lon="128.495267">
			<ele>145.87</ele>
			<time>2020-01-17T05:21:25.67Z</time>
		</trkpt>
		<trkpt lat="34.873520" lon="128.495137">
			<ele>145.87</ele>
			<time>2020-01-17T05:21:26.42Z</time>
		</trkpt>
		<trkpt lat="34.873520" lon="128.495125">
			<ele>145.87</ele>
			<time>2020-01-17T05:21:26.48Z</time>
		</trkpt>
		<trkpt lat="34.873534" lon="128.495091">
			<ele>145.87</ele>
			<time>2020-01-17T05:21:26.69Z</time>
		</trkpt>
		<trkpt lat="34.873571" lon="128.494950">
			<ele>145.87</ele>
			<time>2020-01-17T05:21:27.50Z</time>
		</trkpt>
		<trkpt lat="34.873585" lon="128.494910">
			<ele>145.87</ele>
			<time>2020-01-17T05:21:27.74Z</time>
		</trkpt>
		<trkpt lat="34.873608" lon="128.494791">
			<ele>145.87</ele>
			<time>2020-01-17T05:21:28.41Z</time>
		</trkpt>
		<trkpt lat="34.873635" lon="128.494701">
			<ele>145.87</ele>
			<time>2020-01-17T05:21:28.94Z</time>
		</trkpt>
		<trkpt lat="34.873663" lon="128.494604">
			<ele>145.87</ele>
			<time>2020-01-17T05:21:29.49Z</time>
		</trkpt>
		<trkpt lat="34.873672" lon="128.494576">
			<ele>145.87</ele>
			<time>2020-01-17T05:21:29.66Z</time>
		</trkpt>
		<trkpt lat="34.873719" lon="128.494434">
			<ele>145.87</ele>
			<time>2020-01-17T05:21:30.49Z</time>
		</trkpt>
		<trkpt lat="34.873746" lon="128.494417">
			<ele>145.87</ele>
			<time>2020-01-17T05:21:30.70Z</time>
		</trkpt>
		<trkpt lat="34.873835" lon="128.494355">
			<ele>145.87</ele>
			<time>2020-01-17T05:21:31.38Z</time>
		</trkpt>
		<trkpt lat="34.873909" lon="128.494400">
			<ele>145.87</ele>
			<time>2020-01-17T05:21:31.94Z</time>
		</trkpt>
		<trkpt lat="34.873927" lon="128.494417">
			<ele>145.87</ele>
			<time>2020-01-17T05:21:32.09Z</time>
		</trkpt>
		<trkpt lat="34.873937" lon="128.494428">
			<ele>145.87</ele>
			<time>2020-01-17T05:21:32.18Z</time>
		</trkpt>
		<trkpt lat="34.874058" lon="128.494547">
			<ele>145.87</ele>
			<time>2020-01-17T05:21:33.21Z</time>
		</trkpt>
		<trkpt lat="34.874207" lon="128.494728">
			<ele>145.87</ele>
			<time>2020-01-17T05:21:34.61Z</time>
		</trkpt>
		<trkpt lat="34.874290" lon="128.494750">
			<ele>145.87</ele>
			<time>2020-01-17T05:21:35.19Z</time>
		</trkpt>
		<trkpt lat="34.874309" lon="128.494750">
			<ele>145.87</ele>
			<time>2020-01-17T05:21:35.31Z</time>
		</trkpt>
		<trkpt lat="34.874462" lon="128.494710">
			<ele>145.87</ele>
			<time>2020-01-17T05:21:36.35Z</time>
		</trkpt>
		<trkpt lat="34.874495" lon="128.494693">
			<ele>145.87</ele>
			<time>2020-01-17T05:21:36.59Z</time>
		</trkpt>
		<trkpt lat="34.874550" lon="128.494676">
			<ele>145.87</ele>
			<time>2020-01-17T05:21:36.97Z</time>
		</trkpt>
		<trkpt lat="34.874704" lon="128.494642">
			<ele>145.87</ele>
			<time>2020-01-17T05:21:38.01Z</time>
		</trkpt>
		<trkpt lat="34.874736" lon="128.494641">
			<ele>145.87</ele>
			<time>2020-01-17T05:21:38.23Z</time>
		</trkpt>
		<trkpt lat="34.874824" lon="128.494619">
			<ele>145.87</ele>
			<time>2020-01-17T05:21:38.83Z</time>
		</trkpt>
		<trkpt lat="34.874889" lon="128.494567">
			<ele>145.87</ele>
			<time>2020-01-17T05:21:39.34Z</time>
		</trkpt>
		<trkpt lat="34.874908" lon="128.494550">
			<ele>145.87</ele>
			<time>2020-01-17T05:21:39.50Z</time>
		</trkpt>
		<trkpt lat="34.875056" lon="128.494493">
			<ele>145.87</ele>
			<time>2020-01-17T05:21:40.54Z</time>
		</trkpt>
		<trkpt lat="34.875107" lon="128.494471">
			<ele>145.87</ele>
			<time>2020-01-17T05:21:40.90Z</time>
		</trkpt>
		<trkpt lat="34.875339" lon="128.494380">
			<ele>145.87</ele>
			<time>2020-01-17T05:21:42.53Z</time>
		</trkpt>
		<trkpt lat="34.875546" lon="128.494391">
			<ele>107.38</ele>
			<time>2020-01-17T05:21:43.90Z</time>
		</trkpt>
		<trkpt lat="34.875934" lon="128.494331">
			<ele>104.04</ele>
			<time>2020-01-17T05:21:46.51Z</time>
		</trkpt>
		<trkpt lat="34.876007" lon="128.494187">
			<ele>104.04</ele>
			<time>2020-01-17T05:21:47.44Z</time>
		</trkpt>
		<trkpt lat="34.876060" lon="128.493922">
			<ele>104.04</ele>
			<time>2020-01-17T05:21:48.93Z</time>
		</trkpt>
		<trkpt lat="34.876099" lon="128.493689">
			<ele>104.04</ele>
			<time>2020-01-17T05:21:50.23Z</time>
		</trkpt>
		<trkpt lat="34.876211" lon="128.493552">
			<ele>104.04</ele>
			<time>2020-01-17T05:21:51.29Z</time>
		</trkpt>
		<trkpt lat="34.876296" lon="128.493464">
			<ele>104.04</ele>
			<time>2020-01-17T05:21:52.03Z</time>
		</trkpt>
		<trkpt lat="34.876487" lon="128.493391">
			<ele>104.04</ele>
			<time>2020-01-17T05:21:53.37Z</time>
		</trkpt>
		<trkpt lat="34.876770" lon="128.493374">
			<ele>104.04</ele>
			<time>2020-01-17T05:21:55.26Z</time>
		</trkpt>
		<trkpt lat="34.876810" lon="128.493374">
			<ele>104.04</ele>
			<time>2020-01-17T05:21:55.52Z</time>
		</trkpt>
		<trkpt lat="34.876869" lon="128.493374">
			<ele>104.04</ele>
			<time>2020-01-17T05:21:55.91Z</time>
		</trkpt>
		<trkpt lat="34.877073" lon="128.493382">
			<ele>104.04</ele>
			<time>2020-01-17T05:21:57.28Z</time>
		</trkpt>
		<trkpt lat="34.877343" lon="128.493445">
			<ele>104.04</ele>
			<time>2020-01-17T05:21:59.11Z</time>
		</trkpt>
		<trkpt lat="34.877402" lon="128.493445">
			<ele>104.04</ele>
			<time>2020-01-17T05:21:59.50Z</time>
		</trkpt>
		<trkpt lat="34.877633" lon="128.493533">
			<ele>104.04</ele>
			<time>2020-01-17T05:22:01.12Z</time>
		</trkpt>
		<trkpt lat="34.877857" lon="128.493589">
			<ele>104.04</ele>
			<time>2020-01-17T05:22:02.64Z</time>
		</trkpt>
		<trkpt lat="34.878008" lon="128.493588">
			<ele>104.04</ele>
			<time>2020-01-17T05:22:03.65Z</time>
		</trkpt>
		<trkpt lat="34.878074" lon="128.493468">
			<ele>104.04</ele>
			<time>2020-01-17T05:22:04.44Z</time>
		</trkpt>
		<trkpt lat="34.878179" lon="128.493395">
			<ele>104.04</ele>
			<time>2020-01-17T05:22:05.25Z</time>
		</trkpt>
		<trkpt lat="34.878403" lon="128.493274">
			<ele>104.04</ele>
			<time>2020-01-17T05:22:06.88Z</time>
		</trkpt>
		<trkpt lat="34.878429" lon="128.493258">
			<ele>104.04</ele>
			<time>2020-01-17T05:22:07.07Z</time>
		</trkpt>
		<trkpt lat="34.878462" lon="128.493258">
			<ele>104.04</ele>
			<time>2020-01-17T05:22:07.29Z</time>
		</trkpt>
		<trkpt lat="34.878660" lon="128.493242">
			<ele>104.04</ele>
			<time>2020-01-17T05:22:08.61Z</time>
		</trkpt>
		<trkpt lat="34.878877" lon="128.493217">
			<ele>104.04</ele>
			<time>2020-01-17T05:22:10.07Z</time>
		</trkpt>
		<trkpt lat="34.878910" lon="128.493217">
			<ele>104.04</ele>
			<time>2020-01-17T05:22:10.29Z</time>
		</trkpt>
		<trkpt lat="34.879048" lon="128.493193">
			<ele>104.04</ele>
			<time>2020-01-17T05:22:11.22Z</time>
		</trkpt>
		<trkpt lat="34.879101" lon="128.493152">
			<ele>104.04</ele>
			<time>2020-01-17T05:22:11.63Z</time>
		</trkpt>
		<trkpt lat="34.879226" lon="128.493112">
			<ele>104.04</ele>
			<time>2020-01-17T05:22:12.50Z</time>
		</trkpt>
		<trkpt lat="34.879614" lon="128.492951">
			<ele>104.04</ele>
			<time>2020-01-17T05:22:15.23Z</time>
		</trkpt>
		<trkpt lat="34.879765" lon="128.492918">
			<ele>104.04</ele>
			<time>2020-01-17T05:22:16.25Z</time>
		</trkpt>
		<trkpt lat="34.880168" lon="128.492748">
			<ele>104.04</ele>
			<time>2020-01-17T05:22:19.10Z</time>
		</trkpt>
		<trkpt lat="34.880399" lon="128.492675">
			<ele>104.04</ele>
			<time>2020-01-17T05:22:20.68Z</time>
		</trkpt>
		<trkpt lat="34.880622" lon="128.492474">
			<ele>104.04</ele>
			<time>2020-01-17T05:22:22.54Z</time>
		</trkpt>
		<trkpt lat="34.880780" lon="128.492377">
			<ele>104.04</ele>
			<time>2020-01-17T05:22:23.71Z</time>
		</trkpt>
		<trkpt lat="34.880971" lon="128.492320">
			<ele>104.04</ele>
			<time>2020-01-17T05:22:25.02Z</time>
		</trkpt>
		<trkpt lat="34.881162" lon="128.492143">
			<ele>104.04</ele>
			<time>2020-01-17T05:22:26.62Z</time>
		</trkpt>
		<trkpt lat="34.881175" lon="128.492111">
			<ele>104.04</ele>
			<time>2020-01-17T05:22:26.82Z</time>
		</trkpt>
		<trkpt lat="34.881234" lon="128.492031">
			<ele>104.04</ele>
			<time>2020-01-17T05:22:27.41Z</time>
		</trkpt>
		<trkpt lat="34.881477" lon="128.491918">
			<ele>104.04</ele>
			<time>2020-01-17T05:22:29.15Z</time>
		</trkpt>
		<trkpt lat="34.881800" lon="128.491901">
			<ele>104.04</ele>
			<time>2020-01-17T05:22:31.30Z</time>
		</trkpt>
		<trkpt lat="34.882214" lon="128.491756">
			<ele>104.04</ele>
			<time>2020-01-17T05:22:34.17Z</time>
		</trkpt>
		<trkpt lat="34.882458" lon="128.491731">
			<ele>104.04</ele>
			<time>2020-01-17T05:22:35.80Z</time>
		</trkpt>
		<trkpt lat="34.882662" lon="128.491698">
			<ele>104.04</ele>
			<time>2020-01-17T05:22:37.18Z</time>
		</trkpt>
		<trkpt lat="34.882695" lon="128.491698">
			<ele>104.04</ele>
			<time>2020-01-17T05:22:37.40Z</time>
		</trkpt>
		<trkpt lat="34.882919" lon="128.491698">
			<ele>104.04</ele>
			<time>2020-01-17T05:22:38.89Z</time>
		</trkpt>
		<trkpt lat="34.882972" lon="128.491698">
			<ele>104.04</ele>
			<time>2020-01-17T05:22:39.24Z</time>
		</trkpt>
		<trkpt lat="34.883005" lon="128.491682">
			<ele>104.04</ele>
			<time>2020-01-17T05:22:39.48Z</time>
		</trkpt>
		<trkpt lat="34.883103" lon="128.491625">
			<ele>104.04</ele>
			<time>2020-01-17T05:22:40.20Z</time>
		</trkpt>
		<trkpt lat="34.883136" lon="128.491593">
			<ele>104.04</ele>
			<time>2020-01-17T05:22:40.48Z</time>
		</trkpt>
		<trkpt lat="34.883149" lon="128.491553">
			<ele>104.04</ele>
			<time>2020-01-17T05:22:40.72Z</time>
		</trkpt>
		<trkpt lat="34.883261" lon="128.491448">
			<ele>104.04</ele>
			<time>2020-01-17T05:22:41.66Z</time>
		</trkpt>
		<trkpt lat="34.883307" lon="128.491400">
			<ele>104.04</ele>
			<time>2020-01-17T05:22:42.06Z</time>
		</trkpt>
		<trkpt lat="34.883428" lon="128.491331">
			<ele>104.04</ele>
			<time>2020-01-17T05:22:42.96Z</time>
		</trkpt>
		<trkpt lat="34.883558" lon="128.491178">
			<ele>104.04</ele>
			<time>2020-01-17T05:22:44.16Z</time>
		</trkpt>
		<trkpt lat="34.883699" lon="128.491178">
			<ele>104.04</ele>
			<time>2020-01-17T05:22:45.10Z</time>
		</trkpt>
		<trkpt lat="34.883975" lon="128.491171">
			<ele>104.04</ele>
			<time>2020-01-17T05:22:46.94Z</time>
		</trkpt>
		<trkpt lat="34.884209" lon="128.491139">
			<ele>104.04</ele>
			<time>2020-01-17T05:22:48.51Z</time>
		</trkpt>
		<trkpt lat="34.884505" lon="128.491093">
			<ele>104.04</ele>
			<time>2020-01-17T05:22:50.50Z</time>
		</trkpt>
		<trkpt lat="34.884859" lon="128.490991">
			<ele>104.04</ele>
			<time>2020-01-17T05:22:52.92Z</time>
		</trkpt>
		<trkpt lat="34.885202" lon="128.490870">
			<ele>104.04</ele>
			<time>2020-01-17T05:22:55.30Z</time>
		</trkpt>
		<trkpt lat="34.885441" lon="128.490806">
			<ele>104.04</ele>
			<time>2020-01-17T05:22:56.94Z</time>
		</trkpt>
		<trkpt lat="34.885779" lon="128.490646">
			<ele>104.04</ele>
			<time>2020-01-17T05:22:59.35Z</time>
		</trkpt>
		<trkpt lat="34.886050" lon="128.490525">
			<ele>104.04</ele>
			<time>2020-01-17T05:23:01.27Z</time>
		</trkpt>
		<trkpt lat="34.886242" lon="128.490354">
			<ele>104.04</ele>
			<time>2020-01-17T05:23:02.86Z</time>
		</trkpt>
		<trkpt lat="34.886445" lon="128.490169">
			<ele>104.04</ele>
			<time>2020-01-17T05:23:04.55Z</time>
		</trkpt>
		<trkpt lat="34.886481" lon="128.490125">
			<ele>104.04</ele>
			<time>2020-01-17T05:23:04.89Z</time>
		</trkpt>
		<trkpt lat="34.886585" lon="128.490036">
			<ele>104.04</ele>
			<time>2020-01-17T05:23:05.74Z</time>
		</trkpt>
		<trkpt lat="34.886606" lon="128.489991">
			<ele>104.04</ele>
			<time>2020-01-17T05:23:06.02Z</time>
		</trkpt>
		<trkpt lat="34.886621" lon="128.489966">
			<ele>104.04</ele>
			<time>2020-01-17T05:23:06.19Z</time>
		</trkpt>
		<trkpt lat="34.886658" lon="128.489934">
			<ele>104.04</ele>
			<time>2020-01-17T05:23:06.49Z</time>
		</trkpt>
		<trkpt lat="34.886710" lon="128.489883">
			<ele>104.04</ele>
			<time>2020-01-17T05:23:06.93Z</time>
		</trkpt>
		<trkpt lat="34.886730" lon="128.489870">
			<ele>104.04</ele>
			<time>2020-01-17T05:23:07.09Z</time>
		</trkpt>
		<trkpt lat="34.886756" lon="128.489851">
			<ele>104.04</ele>
			<time>2020-01-17T05:23:07.29Z</time>
		</trkpt>
		<trkpt lat="34.886881" lon="128.489813">
			<ele>104.04</ele>
			<time>2020-01-17T05:23:08.15Z</time>
		</trkpt>
		<trkpt lat="34.887048" lon="128.489863">
			<ele>104.04</ele>
			<time>2020-01-17T05:23:09.29Z</time>
		</trkpt>
		<trkpt lat="34.887417" lon="128.489786">
			<ele>104.04</ele>
			<time>2020-01-17T05:23:11.79Z</time>
		</trkpt>
		<trkpt lat="34.887452" lon="128.489689">
			<ele>104.04</ele>
			<time>2020-01-17T05:23:12.37Z</time>
		</trkpt>
		<trkpt lat="34.887394" lon="128.489257">
			<ele>104.04</ele>
			<time>2020-01-17T05:23:14.76Z</time>
		</trkpt>
		<trkpt lat="34.887394" lon="128.489023">
			<ele>104.04</ele>
			<time>2020-01-17T05:23:16.05Z</time>
		</trkpt>
		<trkpt lat="34.887404" lon="128.488763">
			<ele>104.04</ele>
			<time>2020-01-17T05:23:17.47Z</time>
		</trkpt>
		<trkpt lat="34.887440" lon="128.488553">
			<ele>104.04</ele>
			<time>2020-01-17T05:23:18.64Z</time>
		</trkpt>
		<trkpt lat="34.887538" lon="128.488350">
			<ele>104.04</ele>
			<time>2020-01-17T05:23:19.93Z</time>
		</trkpt>
		<trkpt lat="34.887538" lon="128.488325">
			<ele>104.04</ele>
			<time>2020-01-17T05:23:20.07Z</time>
		</trkpt>
		<trkpt lat="34.887616" lon="128.488140">
			<ele>104.04</ele>
			<time>2020-01-17T05:23:21.20Z</time>
		</trkpt>
		<trkpt lat="34.887699" lon="128.488020">
			<ele>104.04</ele>
			<time>2020-01-17T05:23:22.07Z</time>
		</trkpt>
		<trkpt lat="34.887772" lon="128.487791">
			<ele>104.04</ele>
			<time>2020-01-17T05:23:23.40Z</time>
		</trkpt>
		<trkpt lat="34.887781" lon="128.487499">
			<ele>104.04</ele>
			<time>2020-01-17T05:23:25Z</time>
		</trkpt>
		<trkpt lat="34.887791" lon="128.486770">
			<ele>104.04</ele>
			<time>2020-01-17T05:23:28.99Z</time>
		</trkpt>
		<trkpt lat="34.887759" lon="128.486497">
			<ele>104.04</ele>
			<time>2020-01-17T05:23:30.50Z</time>
		</trkpt>
		<trkpt lat="34.887674" lon="128.485382">
			<ele>104.04</ele>
			<time>2020-01-17T05:23:36.62Z</time>
		</trkpt>
		<trkpt lat="34.887689" lon="128.485033">
			<ele>104.04</ele>
			<time>2020-01-17T05:23:38.53Z</time>
		</trkpt>
		<trkpt lat="34.887741" lon="128.484887">
			<ele>104.04</ele>
			<time>2020-01-17T05:23:39.40Z</time>
		</trkpt>
		<trkpt lat="34.887631" lon="128.484703">
			<ele>104.04</ele>
			<time>2020-01-17T05:23:40.65Z</time>
		</trkpt>
		<trkpt lat="34.887485" lon="128.484418">
			<ele>104.04</ele>
			<time>2020-01-17T05:23:42.48Z</time>
		</trkpt>
		<trkpt lat="34.887402" lon="128.484184">
			<ele>104.04</ele>
			<time>2020-01-17T05:23:43.88Z</time>
		</trkpt>
		<trkpt lat="34.887208" lon="128.483308">
			<ele>104.04</ele>
			<time>2020-01-17T05:23:48.84Z</time>
		</trkpt>
		<trkpt lat="34.886946" lon="128.482434">
			<ele>104.04</ele>
			<time>2020-01-17T05:23:53.93Z</time>
		</trkpt>
		<trkpt lat="34.886721" lon="128.481673">
			<ele>104.04</ele>
			<time>2020-01-17T05:23:58.35Z</time>
		</trkpt>
		<trkpt lat="34.886528" lon="128.481204">
			<ele>104.04</ele>
			<time>2020-01-17T05:24:01.22Z</time>
		</trkpt>
		<trkpt lat="34.886449" lon="128.480703">
			<ele>104.04</ele>
			<time>2020-01-17T05:24:04.01Z</time>
		</trkpt>
		<trkpt lat="34.886457" lon="128.480465">
			<ele>104.04</ele>
			<time>2020-01-17T05:24:05.31Z</time>
		</trkpt>
		<trkpt lat="34.886140" lon="128.480333">
			<ele>104.04</ele>
			<time>2020-01-17T05:24:07.55Z</time>
		</trkpt>
		<trkpt lat="34.885604" lon="128.480214">
			<ele>104.04</ele>
			<time>2020-01-17T05:24:11.18Z</time>
		</trkpt>
		<trkpt lat="34.885125" lon="128.480113">
			<ele>104.04</ele>
			<time>2020-01-17T05:24:14.42Z</time>
		</trkpt>
		<trkpt lat="34.884740" lon="128.479968">
			<ele>104.04</ele>
			<time>2020-01-17T05:24:17.11Z</time>
		</trkpt>
		<trkpt lat="34.884484" lon="128.479680">
			<ele>104.04</ele>
			<time>2020-01-17T05:24:19.43Z</time>
		</trkpt>
		<trkpt lat="34.884255" lon="128.479427">
			<ele>104.04</ele>
			<time>2020-01-17T05:24:21.50Z</time>
		</trkpt>
		<trkpt lat="34.884111" lon="128.479238">
			<ele>104.04</ele>
			<time>2020-01-17T05:24:22.90Z</time>
		</trkpt>
		<trkpt lat="34.883768" lon="128.478828">
			<ele>104.04</ele>
			<time>2020-01-17T05:24:26.10Z</time>
		</trkpt>
		<trkpt lat="34.883598" lon="128.478639">
			<ele>104.04</ele>
			<time>2020-01-17T05:24:27.64Z</time>
		</trkpt>
		<trkpt lat="34.883520" lon="128.478438">
			<ele>104.04</ele>
			<time>2020-01-17T05:24:28.86Z</time>
		</trkpt>
		<trkpt lat="34.883352" lon="128.478355">
			<ele>104.04</ele>
			<time>2020-01-17T05:24:30.06Z</time>
		</trkpt>
		<trkpt lat="34.883268" lon="128.478370">
			<ele>104.04</ele>
			<time>2020-01-17T05:24:30.63Z</time>
		</trkpt>
		<trkpt lat="34.883286" lon="128.478623">
			<ele>104.04</ele>
			<time>2020-01-17T05:24:32.02Z</time>
		</trkpt>
		<trkpt lat="34.883272" lon="128.478942">
			<ele>104.04</ele>
			<time>2020-01-17T05:24:33.76Z</time>
		</trkpt>
		<trkpt lat="34.883307" lon="128.478847">
			<ele>104.04</ele>
			<time>2020-01-17T05:24:34.33Z</time>
		</trkpt>
		<trkpt lat="34.883334" lon="128.478765">
			<ele>104.04</ele>
			<time>2020-01-17T05:24:34.82Z</time>
		</trkpt>
		<trkpt lat="34.883354" lon="128.478678">
			<ele>104.04</ele>
			<time>2020-01-17T05:24:35.31Z</time>
		</trkpt>
		<trkpt lat="34.883377" lon="128.478376">
			<ele>104.04</ele>
			<time>2020-01-17T05:24:36.97Z</time>
		</trkpt>
		<trkpt lat="34.883399" lon="128.478267">
			<ele>104.04</ele>
			<time>2020-01-17T05:24:37.58Z</time>
		</trkpt>
		<trkpt lat="34.883414" lon="128.478150">
			<ele>104.04</ele>
			<time>2020-01-17T05:24:38.23Z</time>
		</trkpt>
		<trkpt lat="34.883429" lon="128.478041">
			<ele>104.04</ele>
			<time>2020-01-17T05:24:38.84Z</time>
		</trkpt>
		<trkpt lat="34.883443" lon="128.477910">
			<ele>104.04</ele>
			<time>2020-01-17T05:24:39.56Z</time>
		</trkpt>
		<trkpt lat="34.883519" lon="128.477442">
			<ele>104.04</ele>
			<time>2020-01-17T05:24:42.17Z</time>
		</trkpt>
		<trkpt lat="34.883546" lon="128.477244">
			<ele>104.04</ele>
			<time>2020-01-17T05:24:43.26Z</time>
		</trkpt>
		<trkpt lat="34.883585" lon="128.476970">
			<ele>104.04</ele>
			<time>2020-01-17T05:24:44.78Z</time>
		</trkpt>
		<trkpt lat="34.883654" lon="128.476483">
			<ele>104.04</ele>
			<time>2020-01-17T05:24:47.49Z</time>
		</trkpt>
		<trkpt lat="34.883679" lon="128.476303">
			<ele>104.04</ele>
			<time>2020-01-17T05:24:48.49Z</time>
		</trkpt>
		<trkpt lat="34.883705" lon="128.476129">
			<ele>104.04</ele>
			<time>2020-01-17T05:24:49.45Z</time>
		</trkpt>
		<trkpt lat="34.883751" lon="128.475777">
			<ele>104.04</ele>
			<time>2020-01-17T05:24:51.40Z</time>
		</trkpt>
		<trkpt lat="34.883788" lon="128.475513">
			<ele>104.04</ele>
			<time>2020-01-17T05:24:52.87Z</time>
		</trkpt>
		<trkpt lat="34.883886" lon="128.474845">
			<ele>104.04</ele>
			<time>2020-01-17T05:24:56.58Z</time>
		</trkpt>
		<trkpt lat="34.883972" lon="128.474222">
			<ele>104.04</ele>
			<time>2020-01-17T05:25:00.03Z</time>
		</trkpt>
		<trkpt lat="34.884104" lon="128.473279">
			<ele>104.04</ele>
			<time>2020-01-17T05:25:05.26Z</time>
		</trkpt>
		<trkpt lat="34.884152" lon="128.472945">
			<ele>104.04</ele>
			<time>2020-01-17T05:25:07.12Z</time>
		</trkpt>
		<trkpt lat="34.884310" lon="128.471840">
			<ele>104.04</ele>
			<time>2020-01-17T05:25:13.25Z</time>
		</trkpt>
		<trkpt lat="34.884399" lon="128.471172">
			<ele>104.04</ele>
			<time>2020-01-17T05:25:16.95Z</time>
		</trkpt>
		<trkpt lat="34.884475" lon="128.470611">
			<ele>104.04</ele>
			<time>2020-01-17T05:25:20.06Z</time>
		</trkpt>
		<trkpt lat="34.884510" lon="128.470442">
			<ele>104.04</ele>
			<time>2020-01-17T05:25:21.02Z</time>
		</trkpt>
		<trkpt lat="34.884523" lon="128.470304">
			<ele>104.04</ele>
			<time>2020-01-17T05:25:21.78Z</time>
		</trkpt>
		<trkpt lat="34.884587" lon="128.469764">
			<ele>104.04</ele>
			<time>2020-01-17T05:25:24.76Z</time>
		</trkpt>
		<trkpt lat="34.884680" lon="128.469226">
			<ele>104.04</ele>
			<time>2020-01-17T05:25:27.77Z</time>
		</trkpt>
		<trkpt lat="34.884702" lon="128.469051">
			<ele>104.04</ele>
			<time>2020-01-17T05:25:28.74Z</time>
		</trkpt>
		<trkpt lat="34.884721" lon="128.468722">
			<ele>104.04</ele>
			<time>2020-01-17T05:25:30.54Z</time>
		</trkpt>
		<extensions>
			<gte:name>#144</gte:name>
			<gte:color>#ffb0ff</gte:color>
		</extensions>
	</trkseg>
</trk>
</gpx>