<?xml version="1.0" encoding="UTF-8"?>
<gpx version="1.1" creator="GPS Track Editor" xmlns="http://www.topografix.com/GPX/1/1" xmlns:xsi="http://www.w3.org/2001/XMLSchema-instance" xmlns:gte="http://www.gpstrackeditor.com/xmlschemas/General/1" xmlns:gpxtpx="http://www.garmin.com/xmlschemas/TrackPointExtension/v1" xmlns:gpxx="http://www.garmin.com/xmlschemas/GpxExtensions/v3" targetNamespace="http://www.topografix.com/GPX/1/1" elementFormDefault="qualified" xsi:schemaLocation="http://www.topografix.com/GPX/1/1 http://www.topografix.com/GPX/1/1/gpx.xsd">
<metadata>
	<name>GPS_2020-01-19_194858</name>
</metadata>
<trk>
	<name>058-여수시 화양면 서촌리 서촌마을~여수시 소라면 관기리 창무신성교회 버스정류장</name>
	<trkseg>
		<trkpt lat="34.688385" lon="127.580223">
			<ele>0.00</ele>
			<time>2020-01-19T19:48:58.47Z</time>
		</trkpt>
		<trkpt lat="34.688596" lon="127.580419">
			<ele>0.00</ele>
			<time>2020-01-19T19:49:00.24Z</time>
		</trkpt>
		<trkpt lat="34.688850" lon="127.580572">
			<ele>0.00</ele>
			<time>2020-01-19T19:49:02.13Z</time>
		</trkpt>
		<trkpt lat="34.689230" lon="127.580630">
			<ele>0.00</ele>
			<time>2020-01-19T19:49:04.68Z</time>
		</trkpt>
		<trkpt lat="34.689329" lon="127.580672">
			<ele>0.00</ele>
			<time>2020-01-19T19:49:05.38Z</time>
		</trkpt>
		<trkpt lat="34.689328" lon="127.581625">
			<ele>0.00</ele>
			<time>2020-01-19T19:49:10.61Z</time>
		</trkpt>
		<trkpt lat="34.689298" lon="127.582722">
			<ele>0.00</ele>
			<time>2020-01-19T19:49:16.62Z</time>
		</trkpt>
		<trkpt lat="34.689794" lon="127.582753">
			<ele>0.00</ele>
			<time>2020-01-19T19:49:19.93Z</time>
		</trkpt>
		<trkpt lat="34.689928" lon="127.582564">
			<ele>0.00</ele>
			<time>2020-01-19T19:49:21.30Z</time>
		</trkpt>
		<trkpt lat="34.690041" lon="127.582608">
			<ele>0.00</ele>
			<time>2020-01-19T19:49:22.09Z</time>
		</trkpt>
		<trkpt lat="34.690280" lon="127.582502">
			<ele>0.00</ele>
			<time>2020-01-19T19:49:23.79Z</time>
		</trkpt>
		<trkpt lat="34.690533" lon="127.582485">
			<ele>0.00</ele>
			<time>2020-01-19T19:49:25.47Z</time>
		</trkpt>
		<trkpt lat="34.690792" lon="127.582452">
			<ele>0.00</ele>
			<time>2020-01-19T19:49:27.21Z</time>
		</trkpt>
		<trkpt lat="34.690964" lon="127.582797">
			<ele>0.00</ele>
			<time>2020-01-19T19:49:29.42Z</time>
		</trkpt>
		<trkpt lat="34.691068" lon="127.583131">
			<ele>0.00</ele>
			<time>2020-01-19T19:49:31.38Z</time>
		</trkpt>
		<trkpt lat="34.691039" lon="127.583651">
			<ele>0.00</ele>
			<time>2020-01-19T19:49:34.23Z</time>
		</trkpt>
		<trkpt lat="34.690998" lon="127.584090">
			<ele>0.00</ele>
			<time>2020-01-19T19:49:36.65Z</time>
		</trkpt>
		<trkpt lat="34.690994" lon="127.584373">
			<ele>0.00</ele>
			<time>2020-01-19T19:49:38.21Z</time>
		</trkpt>
		<trkpt lat="34.691257" lon="127.584089">
			<ele>0.00</ele>
			<time>2020-01-19T19:49:40.55Z</time>
		</trkpt>
		<trkpt lat="34.691500" lon="127.583846">
			<ele>0.00</ele>
			<time>2020-01-19T19:49:42.65Z</time>
		</trkpt>
		<trkpt lat="34.691688" lon="127.583659">
			<ele>0.00</ele>
			<time>2020-01-19T19:49:44.26Z</time>
		</trkpt>
		<trkpt lat="34.691919" lon="127.583482">
			<ele>0.00</ele>
			<time>2020-01-19T19:49:46.09Z</time>
		</trkpt>
		<trkpt lat="34.692205" lon="127.583343">
			<ele>0.00</ele>
			<time>2020-01-19T19:49:48.14Z</time>
		</trkpt>
		<trkpt lat="34.692342" lon="127.583076">
			<ele>0.00</ele>
			<time>2020-01-19T19:49:49.86Z</time>
		</trkpt>
		<trkpt lat="34.692418" lon="127.582785">
			<ele>0.00</ele>
			<time>2020-01-19T19:49:51.54Z</time>
		</trkpt>
		<trkpt lat="34.692449" lon="127.582648">
			<ele>0.00</ele>
			<time>2020-01-19T19:49:52.32Z</time>
		</trkpt>
		<trkpt lat="34.692681" lon="127.582395">
			<ele>0.00</ele>
			<time>2020-01-19T19:49:54.40Z</time>
		</trkpt>
		<trkpt lat="34.692563" lon="127.582217">
			<ele>0.00</ele>
			<time>2020-01-19T19:49:55.65Z</time>
		</trkpt>
		<trkpt lat="34.692764" lon="127.582009">
			<ele>0.00</ele>
			<time>2020-01-19T19:49:57.41Z</time>
		</trkpt>
		<trkpt lat="34.693109" lon="127.581760">
			<ele>0.00</ele>
			<time>2020-01-19T19:50:00.08Z</time>
		</trkpt>
		<trkpt lat="34.693281" lon="127.581585">
			<ele>0.00</ele>
			<time>2020-01-19T19:50:01.58Z</time>
		</trkpt>
		<trkpt lat="34.693609" lon="127.581559">
			<ele>0.00</ele>
			<time>2020-01-19T19:50:03.77Z</time>
		</trkpt>
		<trkpt lat="34.693849" lon="127.581534">
			<ele>0.00</ele>
			<time>2020-01-19T19:50:05.37Z</time>
		</trkpt>
		<trkpt lat="34.694154" lon="127.581318">
			<ele>0.00</ele>
			<time>2020-01-19T19:50:07.73Z</time>
		</trkpt>
		<trkpt lat="34.694390" lon="127.581093">
			<ele>0.00</ele>
			<time>2020-01-19T19:50:09.72Z</time>
		</trkpt>
		<trkpt lat="34.694585" lon="127.580922">
			<ele>0.00</ele>
			<time>2020-01-19T19:50:11.33Z</time>
		</trkpt>
		<trkpt lat="34.694825" lon="127.580795">
			<ele>0.00</ele>
			<time>2020-01-19T19:50:13.07Z</time>
		</trkpt>
		<trkpt lat="34.695135" lon="127.580765">
			<ele>0.00</ele>
			<time>2020-01-19T19:50:15.15Z</time>
		</trkpt>
		<trkpt lat="34.695466" lon="127.580767">
			<ele>0.00</ele>
			<time>2020-01-19T19:50:17.35Z</time>
		</trkpt>
		<trkpt lat="34.695813" lon="127.580703">
			<ele>0.00</ele>
			<time>2020-01-19T19:50:19.69Z</time>
		</trkpt>
		<trkpt lat="34.696072" lon="127.580647">
			<ele>0.00</ele>
			<time>2020-01-19T19:50:21.45Z</time>
		</trkpt>
		<trkpt lat="34.696327" lon="127.580565">
			<ele>0.00</ele>
			<time>2020-01-19T19:50:23.20Z</time>
		</trkpt>
		<trkpt lat="34.696539" lon="127.580494">
			<ele>0.00</ele>
			<time>2020-01-19T19:50:24.67Z</time>
		</trkpt>
		<trkpt lat="34.696729" lon="127.580346">
			<ele>0.00</ele>
			<time>2020-01-19T19:50:26.17Z</time>
		</trkpt>
		<trkpt lat="34.696901" lon="127.580225">
			<ele>0.00</ele>
			<time>2020-01-19T19:50:27.50Z</time>
		</trkpt>
		<trkpt lat="34.697262" lon="127.579819">
			<ele>0.00</ele>
			<time>2020-01-19T19:50:30.78Z</time>
		</trkpt>
		<trkpt lat="34.697583" lon="127.579438">
			<ele>0.00</ele>
			<time>2020-01-19T19:50:33.77Z</time>
		</trkpt>
		<trkpt lat="34.697913" lon="127.579047">
			<ele>0.00</ele>
			<time>2020-01-19T19:50:36.84Z</time>
		</trkpt>
		<trkpt lat="34.698103" lon="127.578818">
			<ele>0.00</ele>
			<time>2020-01-19T19:50:38.62Z</time>
		</trkpt>
		<trkpt lat="34.698407" lon="127.578397">
			<ele>0.00</ele>
			<time>2020-01-19T19:50:41.69Z</time>
		</trkpt>
		<trkpt lat="34.698665" lon="127.578033">
			<ele>0.00</ele>
			<time>2020-01-19T19:50:44.33Z</time>
		</trkpt>
		<trkpt lat="34.699030" lon="127.577854">
			<ele>0.00</ele>
			<time>2020-01-19T19:50:46.95Z</time>
		</trkpt>
		<trkpt lat="34.699298" lon="127.577701">
			<ele>0.00</ele>
			<time>2020-01-19T19:50:48.93Z</time>
		</trkpt>
		<trkpt lat="34.699616" lon="127.577392">
			<ele>0.00</ele>
			<time>2020-01-19T19:50:51.64Z</time>
		</trkpt>
		<trkpt lat="34.699853" lon="127.577221">
			<ele>0.00</ele>
			<time>2020-01-19T19:50:53.47Z</time>
		</trkpt>
		<trkpt lat="34.700089" lon="127.577124">
			<ele>0.00</ele>
			<time>2020-01-19T19:50:55.14Z</time>
		</trkpt>
		<trkpt lat="34.700327" lon="127.577211">
			<ele>0.00</ele>
			<time>2020-01-19T19:50:56.79Z</time>
		</trkpt>
		<trkpt lat="34.700466" lon="127.577544">
			<ele>0.00</ele>
			<time>2020-01-19T19:50:58.84Z</time>
		</trkpt>
		<trkpt lat="34.700616" lon="127.577735">
			<ele>0.00</ele>
			<time>2020-01-19T19:51:00.28Z</time>
		</trkpt>
		<trkpt lat="34.700881" lon="127.577578">
			<ele>0.00</ele>
			<time>2020-01-19T19:51:02.25Z</time>
		</trkpt>
		<trkpt lat="34.701172" lon="127.577331">
			<ele>0.00</ele>
			<time>2020-01-19T19:51:04.61Z</time>
		</trkpt>
		<trkpt lat="34.701445" lon="127.577218">
			<ele>0.00</ele>
			<time>2020-01-19T19:51:06.54Z</time>
		</trkpt>
		<trkpt lat="34.701679" lon="127.577049">
			<ele>0.00</ele>
			<time>2020-01-19T19:51:08.35Z</time>
		</trkpt>
		<trkpt lat="34.701834" lon="127.577056">
			<ele>0.00</ele>
			<time>2020-01-19T19:51:09.38Z</time>
		</trkpt>
		<trkpt lat="34.701960" lon="127.577420">
			<ele>0.00</ele>
			<time>2020-01-19T19:51:11.54Z</time>
		</trkpt>
		<trkpt lat="34.702139" lon="127.577791">
			<ele>0.00</ele>
			<time>2020-01-19T19:51:13.90Z</time>
		</trkpt>
		<trkpt lat="34.702387" lon="127.578081">
			<ele>0.00</ele>
			<time>2020-01-19T19:51:16.20Z</time>
		</trkpt>
		<trkpt lat="34.702497" lon="127.577944">
			<ele>0.00</ele>
			<time>2020-01-19T19:51:17.25Z</time>
		</trkpt>
		<trkpt lat="34.702456" lon="127.577726">
			<ele>0.00</ele>
			<time>2020-01-19T19:51:18.48Z</time>
		</trkpt>
		<trkpt lat="34.702352" lon="127.577474">
			<ele>0.00</ele>
			<time>2020-01-19T19:51:20.02Z</time>
		</trkpt>
		<trkpt lat="34.702272" lon="127.577174">
			<ele>0.00</ele>
			<time>2020-01-19T19:51:21.75Z</time>
		</trkpt>
		<trkpt lat="34.702203" lon="127.576916">
			<ele>0.00</ele>
			<time>2020-01-19T19:51:23.24Z</time>
		</trkpt>
		<trkpt lat="34.702189" lon="127.576713">
			<ele>0.00</ele>
			<time>2020-01-19T19:51:24.35Z</time>
		</trkpt>
		<trkpt lat="34.702169" lon="127.576447">
			<ele>0.00</ele>
			<time>2020-01-19T19:51:25.82Z</time>
		</trkpt>
		<trkpt lat="34.702135" lon="127.576057">
			<ele>0.00</ele>
			<time>2020-01-19T19:51:27.97Z</time>
		</trkpt>
		<trkpt lat="34.702181" lon="127.575851">
			<ele>0.00</ele>
			<time>2020-01-19T19:51:29.14Z</time>
		</trkpt>
		<trkpt lat="34.702241" lon="127.575482">
			<ele>0.00</ele>
			<time>2020-01-19T19:51:31.20Z</time>
		</trkpt>
		<trkpt lat="34.702275" lon="127.575307">
			<ele>0.00</ele>
			<time>2020-01-19T19:51:32.18Z</time>
		</trkpt>
		<trkpt lat="34.702261" lon="127.575103">
			<ele>0.00</ele>
			<time>2020-01-19T19:51:33.31Z</time>
		</trkpt>
		<trkpt lat="34.702387" lon="127.574835">
			<ele>0.00</ele>
			<time>2020-01-19T19:51:35Z</time>
		</trkpt>
		<trkpt lat="34.702432" lon="127.574635">
			<ele>0.00</ele>
			<time>2020-01-19T19:51:36.14Z</time>
		</trkpt>
		<trkpt lat="34.702521" lon="127.574347">
			<ele>0.00</ele>
			<time>2020-01-19T19:51:37.82Z</time>
		</trkpt>
		<trkpt lat="34.702539" lon="127.574192">
			<ele>0.00</ele>
			<time>2020-01-19T19:51:38.68Z</time>
		</trkpt>
		<trkpt lat="34.702579" lon="127.573823">
			<ele>0.00</ele>
			<time>2020-01-19T19:51:40.72Z</time>
		</trkpt>
		<trkpt lat="34.702621" lon="127.573503">
			<ele>0.00</ele>
			<time>2020-01-19T19:51:42.50Z</time>
		</trkpt>
		<trkpt lat="34.702704" lon="127.573220">
			<ele>0.00</ele>
			<time>2020-01-19T19:51:44.14Z</time>
		</trkpt>
		<trkpt lat="34.702913" lon="127.572962">
			<ele>0.00</ele>
			<time>2020-01-19T19:51:46.13Z</time>
		</trkpt>
		<trkpt lat="34.703149" lon="127.572807">
			<ele>0.00</ele>
			<time>2020-01-19T19:51:47.92Z</time>
		</trkpt>
		<trkpt lat="34.703327" lon="127.572725">
			<ele>0.00</ele>
			<time>2020-01-19T19:51:49.19Z</time>
		</trkpt>
		<trkpt lat="34.703556" lon="127.572532">
			<ele>0.00</ele>
			<time>2020-01-19T19:51:51.04Z</time>
		</trkpt>
		<trkpt lat="34.703747" lon="127.572487">
			<ele>0.00</ele>
			<time>2020-01-19T19:51:52.34Z</time>
		</trkpt>
		<trkpt lat="34.703822" lon="127.572368">
			<ele>0.00</ele>
			<time>2020-01-19T19:51:53.17Z</time>
		</trkpt>
		<trkpt lat="34.703963" lon="127.572315">
			<ele>0.00</ele>
			<time>2020-01-19T19:51:54.15Z</time>
		</trkpt>
		<trkpt lat="34.704173" lon="127.572321">
			<ele>0.00</ele>
			<time>2020-01-19T19:51:55.55Z</time>
		</trkpt>
		<trkpt lat="34.704342" lon="127.572305">
			<ele>0.00</ele>
			<time>2020-01-19T19:51:56.68Z</time>
		</trkpt>
		<trkpt lat="34.704404" lon="127.572008">
			<ele>0.00</ele>
			<time>2020-01-19T19:51:58.37Z</time>
		</trkpt>
		<trkpt lat="34.704476" lon="127.571600">
			<ele>0.00</ele>
			<time>2020-01-19T19:52:00.65Z</time>
		</trkpt>
		<trkpt lat="34.704518" lon="127.571403">
			<ele>0.00</ele>
			<time>2020-01-19T19:52:01.77Z</time>
		</trkpt>
		<trkpt lat="34.704648" lon="127.571407">
			<ele>0.00</ele>
			<time>2020-01-19T19:52:02.63Z</time>
		</trkpt>
		<trkpt lat="34.704920" lon="127.571515">
			<ele>0.00</ele>
			<time>2020-01-19T19:52:04.54Z</time>
		</trkpt>
		<trkpt lat="34.705433" lon="127.571648">
			<ele>0.00</ele>
			<time>2020-01-19T19:52:08.04Z</time>
		</trkpt>
		<trkpt lat="34.706046" lon="127.571886">
			<ele>0.00</ele>
			<time>2020-01-19T19:52:12.32Z</time>
		</trkpt>
		<trkpt lat="34.706662" lon="127.572150">
			<ele>0.00</ele>
			<time>2020-01-19T19:52:16.68Z</time>
		</trkpt>
		<trkpt lat="34.707096" lon="127.572314">
			<ele>0.00</ele>
			<time>2020-01-19T19:52:19.71Z</time>
		</trkpt>
		<trkpt lat="34.707442" lon="127.572412">
			<ele>0.00</ele>
			<time>2020-01-19T19:52:22.08Z</time>
		</trkpt>
		<trkpt lat="34.707621" lon="127.571758">
			<ele>0.00</ele>
			<time>2020-01-19T19:52:25.86Z</time>
		</trkpt>
		<trkpt lat="34.707832" lon="127.571173">
			<ele>0.00</ele>
			<time>2020-01-19T19:52:29.36Z</time>
		</trkpt>
		<trkpt lat="34.708003" lon="127.570699">
			<ele>0.00</ele>
			<time>2020-01-19T19:52:32.20Z</time>
		</trkpt>
		<trkpt lat="34.708144" lon="127.570238">
			<ele>0.00</ele>
			<time>2020-01-19T19:52:34.89Z</time>
		</trkpt>
		<trkpt lat="34.708255" lon="127.569901">
			<ele>0.00</ele>
			<time>2020-01-19T19:52:36.88Z</time>
		</trkpt>
		<trkpt lat="34.708398" lon="127.569526">
			<ele>0.00</ele>
			<time>2020-01-19T19:52:39.15Z</time>
		</trkpt>
		<trkpt lat="34.708510" lon="127.569051">
			<ele>0.00</ele>
			<time>2020-01-19T19:52:41.85Z</time>
		</trkpt>
		<trkpt lat="34.708734" lon="127.568987">
			<ele>0.00</ele>
			<time>2020-01-19T19:52:43.39Z</time>
		</trkpt>
		<trkpt lat="34.708959" lon="127.569122">
			<ele>0.00</ele>
			<time>2020-01-19T19:52:45.06Z</time>
		</trkpt>
		<trkpt lat="34.709489" lon="127.568942">
			<ele>0.00</ele>
			<time>2020-01-19T19:52:48.73Z</time>
		</trkpt>
		<trkpt lat="34.709998" lon="127.569164">
			<ele>0.00</ele>
			<time>2020-01-19T19:52:52.33Z</time>
		</trkpt>
		<trkpt lat="34.710407" lon="127.569373">
			<ele>0.00</ele>
			<time>2020-01-19T19:52:55.29Z</time>
		</trkpt>
		<trkpt lat="34.710577" lon="127.568898">
			<ele>0.00</ele>
			<time>2020-01-19T19:52:58.13Z</time>
		</trkpt>
		<trkpt lat="34.710738" lon="127.568598">
			<ele>0.00</ele>
			<time>2020-01-19T19:53:00.09Z</time>
		</trkpt>
		<trkpt lat="34.710919" lon="127.568374">
			<ele>0.00</ele>
			<time>2020-01-19T19:53:01.81Z</time>
		</trkpt>
		<trkpt lat="34.710897" lon="127.568138">
			<ele>0.00</ele>
			<time>2020-01-19T19:53:03.11Z</time>
		</trkpt>
		<trkpt lat="34.711047" lon="127.567940">
			<ele>0.00</ele>
			<time>2020-01-19T19:53:04.59Z</time>
		</trkpt>
		<trkpt lat="34.711125" lon="127.567631">
			<ele>0.00</ele>
			<time>2020-01-19T19:53:06.36Z</time>
		</trkpt>
		<trkpt lat="34.710999" lon="127.567277">
			<ele>0.00</ele>
			<time>2020-01-19T19:53:08.48Z</time>
		</trkpt>
		<trkpt lat="34.711034" lon="127.567084">
			<ele>0.00</ele>
			<time>2020-01-19T19:53:09.56Z</time>
		</trkpt>
		<trkpt lat="34.711159" lon="127.566816">
			<ele>0.00</ele>
			<time>2020-01-19T19:53:11.25Z</time>
		</trkpt>
		<trkpt lat="34.711347" lon="127.566587">
			<ele>0.00</ele>
			<time>2020-01-19T19:53:13.02Z</time>
		</trkpt>
		<trkpt lat="34.711377" lon="127.566368">
			<ele>0.00</ele>
			<time>2020-01-19T19:53:14.24Z</time>
		</trkpt>
		<trkpt lat="34.711465" lon="127.566126">
			<ele>0.00</ele>
			<time>2020-01-19T19:53:15.69Z</time>
		</trkpt>
		<trkpt lat="34.711532" lon="127.565897">
			<ele>0.00</ele>
			<time>2020-01-19T19:53:17.02Z</time>
		</trkpt>
		<trkpt lat="34.711626" lon="127.565733">
			<ele>0.00</ele>
			<time>2020-01-19T19:53:18.12Z</time>
		</trkpt>
		<trkpt lat="34.711741" lon="127.565532">
			<ele>0.00</ele>
			<time>2020-01-19T19:53:19.46Z</time>
		</trkpt>
		<trkpt lat="34.711928" lon="127.565349">
			<ele>0.00</ele>
			<time>2020-01-19T19:53:21.06Z</time>
		</trkpt>
		<trkpt lat="34.712096" lon="127.565296">
			<ele>0.00</ele>
			<time>2020-01-19T19:53:22.21Z</time>
		</trkpt>
		<trkpt lat="34.712238" lon="127.565468">
			<ele>0.00</ele>
			<time>2020-01-19T19:53:23.55Z</time>
		</trkpt>
		<trkpt lat="34.712440" lon="127.565474">
			<ele>0.00</ele>
			<time>2020-01-19T19:53:24.90Z</time>
		</trkpt>
		<trkpt lat="34.712693" lon="127.565426">
			<ele>0.00</ele>
			<time>2020-01-19T19:53:26.60Z</time>
		</trkpt>
		<trkpt lat="34.712922" lon="127.565600">
			<ele>0.00</ele>
			<time>2020-01-19T19:53:28.40Z</time>
		</trkpt>
		<trkpt lat="34.713078" lon="127.565783">
			<ele>0.00</ele>
			<time>2020-01-19T19:53:29.85Z</time>
		</trkpt>
		<trkpt lat="34.713172" lon="127.565965">
			<ele>0.00</ele>
			<time>2020-01-19T19:53:31.02Z</time>
		</trkpt>
		<trkpt lat="34.713256" lon="127.566095">
			<ele>0.00</ele>
			<time>2020-01-19T19:53:31.93Z</time>
		</trkpt>
		<trkpt lat="34.713382" lon="127.566167">
			<ele>0.00</ele>
			<time>2020-01-19T19:53:32.86Z</time>
		</trkpt>
		<trkpt lat="34.713535" lon="127.566161">
			<ele>0.00</ele>
			<time>2020-01-19T19:53:33.88Z</time>
		</trkpt>
		<trkpt lat="34.713687" lon="127.566199">
			<ele>0.00</ele>
			<time>2020-01-19T19:53:34.91Z</time>
		</trkpt>
		<trkpt lat="34.713829" lon="127.566282">
			<ele>0.00</ele>
			<time>2020-01-19T19:53:35.96Z</time>
		</trkpt>
		<trkpt lat="34.713966" lon="127.566377">
			<ele>0.00</ele>
			<time>2020-01-19T19:53:37.01Z</time>
		</trkpt>
		<trkpt lat="34.714027" lon="127.566451">
			<ele>0.00</ele>
			<time>2020-01-19T19:53:37.59Z</time>
		</trkpt>
		<trkpt lat="34.714089" lon="127.566481">
			<ele>0.00</ele>
			<time>2020-01-19T19:53:38.03Z</time>
		</trkpt>
		<trkpt lat="34.714151" lon="127.566440">
			<ele>0.00</ele>
			<time>2020-01-19T19:53:38.51Z</time>
		</trkpt>
		<trkpt lat="34.714118" lon="127.566332">
			<ele>0.00</ele>
			<time>2020-01-19T19:53:39.14Z</time>
		</trkpt>
		<trkpt lat="34.714074" lon="127.566175">
			<ele>0.00</ele>
			<time>2020-01-19T19:53:40.05Z</time>
		</trkpt>
		<trkpt lat="34.714076" lon="127.565975">
			<ele>0.00</ele>
			<time>2020-01-19T19:53:41.15Z</time>
		</trkpt>
		<trkpt lat="34.714078" lon="127.565789">
			<ele>0.00</ele>
			<time>2020-01-19T19:53:42.16Z</time>
		</trkpt>
		<trkpt lat="34.714093" lon="127.565507">
			<ele>0.00</ele>
			<time>2020-01-19T19:53:43.71Z</time>
		</trkpt>
		<trkpt lat="34.714085" lon="127.565391">
			<ele>0.00</ele>
			<time>2020-01-19T19:53:44.35Z</time>
		</trkpt>
		<trkpt lat="34.714127" lon="127.565239">
			<ele>0.00</ele>
			<time>2020-01-19T19:53:45.23Z</time>
		</trkpt>
		<trkpt lat="34.714155" lon="127.565132">
			<ele>0.00</ele>
			<time>2020-01-19T19:53:45.85Z</time>
		</trkpt>
		<trkpt lat="34.714229" lon="127.565150">
			<ele>0.00</ele>
			<time>2020-01-19T19:53:46.35Z</time>
		</trkpt>
		<trkpt lat="34.714315" lon="127.565164">
			<ele>0.00</ele>
			<time>2020-01-19T19:53:46.93Z</time>
		</trkpt>
		<trkpt lat="34.714358" lon="127.565129">
			<ele>0.00</ele>
			<time>2020-01-19T19:53:47.28Z</time>
		</trkpt>
		<trkpt lat="34.714378" lon="127.564938">
			<ele>0.00</ele>
			<time>2020-01-19T19:53:48.33Z</time>
		</trkpt>
		<trkpt lat="34.714440" lon="127.564778">
			<ele>0.00</ele>
			<time>2020-01-19T19:53:49.30Z</time>
		</trkpt>
		<trkpt lat="34.714567" lon="127.564729">
			<ele>0.00</ele>
			<time>2020-01-19T19:53:50.19Z</time>
		</trkpt>
		<trkpt lat="34.714690" lon="127.564762">
			<ele>0.00</ele>
			<time>2020-01-19T19:53:51.03Z</time>
		</trkpt>
		<trkpt lat="34.714779" lon="127.564783">
			<ele>0.00</ele>
			<time>2020-01-19T19:53:51.63Z</time>
		</trkpt>
		<trkpt lat="34.714836" lon="127.564620">
			<ele>0.00</ele>
			<time>2020-01-19T19:53:52.60Z</time>
		</trkpt>
		<trkpt lat="34.715022" lon="127.564621">
			<ele>0.00</ele>
			<time>2020-01-19T19:53:53.84Z</time>
		</trkpt>
		<trkpt lat="34.715208" lon="127.564614">
			<ele>0.00</ele>
			<time>2020-01-19T19:53:55.08Z</time>
		</trkpt>
		<trkpt lat="34.715363" lon="127.564571">
			<ele>0.00</ele>
			<time>2020-01-19T19:53:56.15Z</time>
		</trkpt>
		<trkpt lat="34.715411" lon="127.564542">
			<ele>0.00</ele>
			<time>2020-01-19T19:53:56.50Z</time>
		</trkpt>
		<trkpt lat="34.715426" lon="127.564419">
			<ele>0.00</ele>
			<time>2020-01-19T19:53:57.18Z</time>
		</trkpt>
		<trkpt lat="34.715466" lon="127.564242">
			<ele>0.00</ele>
			<time>2020-01-19T19:53:58.19Z</time>
		</trkpt>
		<trkpt lat="34.715518" lon="127.564123">
			<ele>0.00</ele>
			<time>2020-01-19T19:53:58.93Z</time>
		</trkpt>
		<trkpt lat="34.715568" lon="127.564031">
			<ele>0.00</ele>
			<time>2020-01-19T19:53:59.53Z</time>
		</trkpt>
		<trkpt lat="34.715642" lon="127.563918">
			<ele>0.00</ele>
			<time>2020-01-19T19:54:00.32Z</time>
		</trkpt>
		<trkpt lat="34.715674" lon="127.563747">
			<ele>0.00</ele>
			<time>2020-01-19T19:54:01.28Z</time>
		</trkpt>
		<trkpt lat="34.715670" lon="127.563635">
			<ele>0.00</ele>
			<time>2020-01-19T19:54:01.90Z</time>
		</trkpt>
		<trkpt lat="34.715635" lon="127.563510">
			<ele>0.00</ele>
			<time>2020-01-19T19:54:02.62Z</time>
		</trkpt>
		<trkpt lat="34.715578" lon="127.563382">
			<ele>0.00</ele>
			<time>2020-01-19T19:54:03.42Z</time>
		</trkpt>
		<trkpt lat="34.715469" lon="127.563240">
			<ele>0.00</ele>
			<time>2020-01-19T19:54:04.49Z</time>
		</trkpt>
		<trkpt lat="34.715401" lon="127.563137">
			<ele>0.00</ele>
			<time>2020-01-19T19:54:05.21Z</time>
		</trkpt>
		<trkpt lat="34.715359" lon="127.563008">
			<ele>0.00</ele>
			<time>2020-01-19T19:54:05.97Z</time>
		</trkpt>
		<trkpt lat="34.715365" lon="127.562919">
			<ele>0.00</ele>
			<time>2020-01-19T19:54:06.46Z</time>
		</trkpt>
		<trkpt lat="34.715385" lon="127.562719">
			<ele>0.00</ele>
			<time>2020-01-19T19:54:07.56Z</time>
		</trkpt>
		<trkpt lat="34.715439" lon="127.562425">
			<ele>0.00</ele>
			<time>2020-01-19T19:54:09.21Z</time>
		</trkpt>
		<trkpt lat="34.715426" lon="127.562196">
			<ele>0.00</ele>
			<time>2020-01-19T19:54:10.47Z</time>
		</trkpt>
		<trkpt lat="34.715425" lon="127.562022">
			<ele>0.00</ele>
			<time>2020-01-19T19:54:11.42Z</time>
		</trkpt>
		<trkpt lat="34.715443" lon="127.561886">
			<ele>0.00</ele>
			<time>2020-01-19T19:54:12.18Z</time>
		</trkpt>
		<trkpt lat="34.715461" lon="127.561724">
			<ele>0.00</ele>
			<time>2020-01-19T19:54:13.08Z</time>
		</trkpt>
		<trkpt lat="34.715460" lon="127.561495">
			<ele>0.00</ele>
			<time>2020-01-19T19:54:14.33Z</time>
		</trkpt>
		<trkpt lat="34.715478" lon="127.561353">
			<ele>0.00</ele>
			<time>2020-01-19T19:54:15.12Z</time>
		</trkpt>
		<trkpt lat="34.715530" lon="127.561187">
			<ele>0.00</ele>
			<time>2020-01-19T19:54:16.09Z</time>
		</trkpt>
		<trkpt lat="34.715604" lon="127.561102">
			<ele>0.00</ele>
			<time>2020-01-19T19:54:16.77Z</time>
		</trkpt>
		<trkpt lat="34.715734" lon="127.561081">
			<ele>0.00</ele>
			<time>2020-01-19T19:54:17.65Z</time>
		</trkpt>
		<trkpt lat="34.715894" lon="127.561067">
			<ele>0.00</ele>
			<time>2020-01-19T19:54:18.72Z</time>
		</trkpt>
		<trkpt lat="34.716041" lon="127.561099">
			<ele>0.00</ele>
			<time>2020-01-19T19:54:19.71Z</time>
		</trkpt>
		<trkpt lat="34.716165" lon="127.561106">
			<ele>0.00</ele>
			<time>2020-01-19T19:54:20.54Z</time>
		</trkpt>
		<trkpt lat="34.716327" lon="127.561126">
			<ele>0.00</ele>
			<time>2020-01-19T19:54:21.62Z</time>
		</trkpt>
		<trkpt lat="34.716438" lon="127.561179">
			<ele>0.00</ele>
			<time>2020-01-19T19:54:22.42Z</time>
		</trkpt>
		<trkpt lat="34.716533" lon="127.561213">
			<ele>0.00</ele>
			<time>2020-01-19T19:54:23.08Z</time>
		</trkpt>
		<trkpt lat="34.716596" lon="127.561207">
			<ele>0.00</ele>
			<time>2020-01-19T19:54:23.50Z</time>
		</trkpt>
		<trkpt lat="34.716653" lon="127.561067">
			<ele>0.00</ele>
			<time>2020-01-19T19:54:24.35Z</time>
		</trkpt>
		<trkpt lat="34.716723" lon="127.560854">
			<ele>0.00</ele>
			<time>2020-01-19T19:54:25.61Z</time>
		</trkpt>
		<trkpt lat="34.716784" lon="127.560666">
			<ele>0.00</ele>
			<time>2020-01-19T19:54:26.72Z</time>
		</trkpt>
		<trkpt lat="34.716840" lon="127.560495">
			<ele>0.00</ele>
			<time>2020-01-19T19:54:27.73Z</time>
		</trkpt>
		<trkpt lat="34.716914" lon="127.560356">
			<ele>0.00</ele>
			<time>2020-01-19T19:54:28.64Z</time>
		</trkpt>
		<trkpt lat="34.717024" lon="127.560215">
			<ele>0.00</ele>
			<time>2020-01-19T19:54:29.70Z</time>
		</trkpt>
		<trkpt lat="34.717110" lon="127.560095">
			<ele>0.00</ele>
			<time>2020-01-19T19:54:30.57Z</time>
		</trkpt>
		<trkpt lat="34.717200" lon="127.560007">
			<ele>0.00</ele>
			<time>2020-01-19T19:54:31.35Z</time>
		</trkpt>
		<trkpt lat="34.717305" lon="127.559985">
			<ele>0.00</ele>
			<time>2020-01-19T19:54:32.06Z</time>
		</trkpt>
		<trkpt lat="34.717406" lon="127.559978">
			<ele>0.00</ele>
			<time>2020-01-19T19:54:32.73Z</time>
		</trkpt>
		<trkpt lat="34.717455" lon="127.560082">
			<ele>0.00</ele>
			<time>2020-01-19T19:54:33.39Z</time>
		</trkpt>
		<trkpt lat="34.717652" lon="127.560158">
			<ele>0.00</ele>
			<time>2020-01-19T19:54:34.76Z</time>
		</trkpt>
		<trkpt lat="34.717833" lon="127.560216">
			<ele>0.00</ele>
			<time>2020-01-19T19:54:36.02Z</time>
		</trkpt>
		<trkpt lat="34.717951" lon="127.560272">
			<ele>0.00</ele>
			<time>2020-01-19T19:54:36.86Z</time>
		</trkpt>
		<trkpt lat="34.718071" lon="127.560356">
			<ele>0.00</ele>
			<time>2020-01-19T19:54:37.78Z</time>
		</trkpt>
		<trkpt lat="34.718170" lon="127.560440">
			<ele>0.00</ele>
			<time>2020-01-19T19:54:38.58Z</time>
		</trkpt>
		<trkpt lat="34.718279" lon="127.560438">
			<ele>0.00</ele>
			<time>2020-01-19T19:54:39.31Z</time>
		</trkpt>
		<trkpt lat="34.718385" lon="127.560517">
			<ele>0.00</ele>
			<time>2020-01-19T19:54:40.14Z</time>
		</trkpt>
		<trkpt lat="34.718451" lon="127.560558">
			<ele>0.00</ele>
			<time>2020-01-19T19:54:40.64Z</time>
		</trkpt>
		<trkpt lat="34.718571" lon="127.560536">
			<ele>0.00</ele>
			<time>2020-01-19T19:54:41.45Z</time>
		</trkpt>
		<trkpt lat="34.718658" lon="127.560521">
			<ele>0.00</ele>
			<time>2020-01-19T19:54:42.03Z</time>
		</trkpt>
		<trkpt lat="34.718773" lon="127.560585">
			<ele>0.00</ele>
			<time>2020-01-19T19:54:42.88Z</time>
		</trkpt>
		<trkpt lat="34.718910" lon="127.560697">
			<ele>0.00</ele>
			<time>2020-01-19T19:54:43.98Z</time>
		</trkpt>
		<trkpt lat="34.719071" lon="127.560875">
			<ele>0.00</ele>
			<time>2020-01-19T19:54:45.43Z</time>
		</trkpt>
		<trkpt lat="34.719246" lon="127.561027">
			<ele>0.00</ele>
			<time>2020-01-19T19:54:46.86Z</time>
		</trkpt>
		<trkpt lat="34.719248" lon="127.561027">
			<ele>0.00</ele>
			<time>2020-01-19T19:54:46.92Z</time>
		</trkpt>
		<trkpt lat="34.719402" lon="127.561242">
			<ele>0.00</ele>
			<time>2020-01-19T19:54:48.48Z</time>
		</trkpt>
		<trkpt lat="34.719491" lon="127.561417">
			<ele>0.00</ele>
			<time>2020-01-19T19:54:49.61Z</time>
		</trkpt>
		<trkpt lat="34.719557" lon="127.561560">
			<ele>0.00</ele>
			<time>2020-01-19T19:54:50.51Z</time>
		</trkpt>
		<trkpt lat="34.719595" lon="127.561734">
			<ele>0.00</ele>
			<time>2020-01-19T19:54:51.49Z</time>
		</trkpt>
		<trkpt lat="34.719678" lon="127.561843">
			<ele>0.00</ele>
			<time>2020-01-19T19:54:52.31Z</time>
		</trkpt>
		<trkpt lat="34.719801" lon="127.561888">
			<ele>0.00</ele>
			<time>2020-01-19T19:54:53.17Z</time>
		</trkpt>
		<trkpt lat="34.719915" lon="127.561936">
			<ele>0.00</ele>
			<time>2020-01-19T19:54:53.97Z</time>
		</trkpt>
		<trkpt lat="34.720017" lon="127.561969">
			<ele>0.00</ele>
			<time>2020-01-19T19:54:54.67Z</time>
		</trkpt>
		<trkpt lat="34.720173" lon="127.562162">
			<ele>0.00</ele>
			<time>2020-01-19T19:54:56.16Z</time>
		</trkpt>
		<trkpt lat="34.720292" lon="127.562362">
			<ele>0.00</ele>
			<time>2020-01-19T19:54:57.51Z</time>
		</trkpt>
		<trkpt lat="34.720449" lon="127.562536">
			<ele>0.00</ele>
			<time>2020-01-19T19:54:58.93Z</time>
		</trkpt>
		<trkpt lat="34.720608" lon="127.562721">
			<ele>0.00</ele>
			<time>2020-01-19T19:55:00.39Z</time>
		</trkpt>
		<trkpt lat="34.720754" lon="127.562856">
			<ele>0.00</ele>
			<time>2020-01-19T19:55:01.62Z</time>
		</trkpt>
		<trkpt lat="34.720907" lon="127.563043">
			<ele>0.00</ele>
			<time>2020-01-19T19:55:03.06Z</time>
		</trkpt>
		<trkpt lat="34.721008" lon="127.563134">
			<ele>0.00</ele>
			<time>2020-01-19T19:55:03.90Z</time>
		</trkpt>
		<trkpt lat="34.721130" lon="127.563170">
			<ele>0.00</ele>
			<time>2020-01-19T19:55:04.74Z</time>
		</trkpt>
		<trkpt lat="34.721228" lon="127.563153">
			<ele>0.00</ele>
			<time>2020-01-19T19:55:05.39Z</time>
		</trkpt>
		<trkpt lat="34.721334" lon="127.563035">
			<ele>0.00</ele>
			<time>2020-01-19T19:55:06.36Z</time>
		</trkpt>
		<trkpt lat="34.721399" lon="127.563012">
			<ele>0.00</ele>
			<time>2020-01-19T19:55:06.80Z</time>
		</trkpt>
		<trkpt lat="34.721523" lon="127.563108">
			<ele>0.00</ele>
			<time>2020-01-19T19:55:07.78Z</time>
		</trkpt>
		<trkpt lat="34.721644" lon="127.563326">
			<ele>0.00</ele>
			<time>2020-01-19T19:55:09.22Z</time>
		</trkpt>
		<trkpt lat="34.721737" lon="127.563475">
			<ele>0.00</ele>
			<time>2020-01-19T19:55:10.25Z</time>
		</trkpt>
		<trkpt lat="34.721811" lon="127.563602">
			<ele>0.00</ele>
			<time>2020-01-19T19:55:11.11Z</time>
		</trkpt>
		<trkpt lat="34.721985" lon="127.563828">
			<ele>0.00</ele>
			<time>2020-01-19T19:55:12.80Z</time>
		</trkpt>
		<trkpt lat="34.722098" lon="127.563976">
			<ele>0.00</ele>
			<time>2020-01-19T19:55:13.90Z</time>
		</trkpt>
		<trkpt lat="34.722245" lon="127.564205">
			<ele>0.00</ele>
			<time>2020-01-19T19:55:15.50Z</time>
		</trkpt>
		<trkpt lat="34.722337" lon="127.564320">
			<ele>0.00</ele>
			<time>2020-01-19T19:55:16.38Z</time>
		</trkpt>
		<trkpt lat="34.722512" lon="127.564477">
			<ele>0.00</ele>
			<time>2020-01-19T19:55:17.83Z</time>
		</trkpt>
		<trkpt lat="34.722657" lon="127.564590">
			<ele>0.00</ele>
			<time>2020-01-19T19:55:18.97Z</time>
		</trkpt>
		<trkpt lat="34.722814" lon="127.564693">
			<ele>0.00</ele>
			<time>2020-01-19T19:55:20.17Z</time>
		</trkpt>
		<trkpt lat="34.723009" lon="127.564766">
			<ele>0.00</ele>
			<time>2020-01-19T19:55:21.53Z</time>
		</trkpt>
		<trkpt lat="34.723178" lon="127.564824">
			<ele>0.00</ele>
			<time>2020-01-19T19:55:22.70Z</time>
		</trkpt>
		<trkpt lat="34.723312" lon="127.564835">
			<ele>0.00</ele>
			<time>2020-01-19T19:55:23.59Z</time>
		</trkpt>
		<trkpt lat="34.723490" lon="127.564846">
			<ele>0.00</ele>
			<time>2020-01-19T19:55:24.78Z</time>
		</trkpt>
		<trkpt lat="34.723694" lon="127.564882">
			<ele>0.00</ele>
			<time>2020-01-19T19:55:26.15Z</time>
		</trkpt>
		<trkpt lat="34.723832" lon="127.564929">
			<ele>0.00</ele>
			<time>2020-01-19T19:55:27.11Z</time>
		</trkpt>
		<trkpt lat="34.723992" lon="127.565017">
			<ele>0.00</ele>
			<time>2020-01-19T19:55:28.28Z</time>
		</trkpt>
		<trkpt lat="34.724132" lon="127.565105">
			<ele>0.00</ele>
			<time>2020-01-19T19:55:29.33Z</time>
		</trkpt>
		<trkpt lat="34.724250" lon="127.565183">
			<ele>0.00</ele>
			<time>2020-01-19T19:55:30.22Z</time>
		</trkpt>
		<trkpt lat="34.724336" lon="127.565269">
			<ele>0.00</ele>
			<time>2020-01-19T19:55:30.96Z</time>
		</trkpt>
		<trkpt lat="34.724422" lon="127.565363">
			<ele>0.00</ele>
			<time>2020-01-19T19:55:31.74Z</time>
		</trkpt>
		<trkpt lat="34.724430" lon="127.565292">
			<ele>0.00</ele>
			<time>2020-01-19T19:55:32.13Z</time>
		</trkpt>
		<trkpt lat="34.724391" lon="127.565133">
			<ele>0.00</ele>
			<time>2020-01-19T19:55:33.04Z</time>
		</trkpt>
		<trkpt lat="34.724332" lon="127.564922">
			<ele>0.00</ele>
			<time>2020-01-19T19:55:34.26Z</time>
		</trkpt>
		<trkpt lat="34.724291" lon="127.564728">
			<ele>0.00</ele>
			<time>2020-01-19T19:55:35.36Z</time>
		</trkpt>
		<trkpt lat="34.724254" lon="127.564570">
			<ele>0.00</ele>
			<time>2020-01-19T19:55:36.26Z</time>
		</trkpt>
		<trkpt lat="34.724220" lon="127.564445">
			<ele>0.00</ele>
			<time>2020-01-19T19:55:36.98Z</time>
		</trkpt>
		<trkpt lat="34.724233" lon="127.564350">
			<ele>0.00</ele>
			<time>2020-01-19T19:55:37.51Z</time>
		</trkpt>
		<trkpt lat="34.724278" lon="127.564275">
			<ele>0.00</ele>
			<time>2020-01-19T19:55:38.02Z</time>
		</trkpt>
		<trkpt lat="34.724400" lon="127.564218">
			<ele>0.00</ele>
			<time>2020-01-19T19:55:38.89Z</time>
		</trkpt>
		<trkpt lat="34.724554" lon="127.564273">
			<ele>0.00</ele>
			<time>2020-01-19T19:55:39.96Z</time>
		</trkpt>
		<trkpt lat="34.724723" lon="127.564319">
			<ele>0.00</ele>
			<time>2020-01-19T19:55:41.11Z</time>
		</trkpt>
		<trkpt lat="34.724923" lon="127.564356">
			<ele>0.00</ele>
			<time>2020-01-19T19:55:42.46Z</time>
		</trkpt>
		<trkpt lat="34.725148" lon="127.564380">
			<ele>0.00</ele>
			<time>2020-01-19T19:55:43.96Z</time>
		</trkpt>
		<trkpt lat="34.725365" lon="127.564398">
			<ele>0.00</ele>
			<time>2020-01-19T19:55:45.42Z</time>
		</trkpt>
		<trkpt lat="34.725601" lon="127.564423">
			<ele>0.00</ele>
			<time>2020-01-19T19:55:47Z</time>
		</trkpt>
		<trkpt lat="34.725909" lon="127.564396">
			<ele>0.00</ele>
			<time>2020-01-19T19:55:49.06Z</time>
		</trkpt>
		<trkpt lat="34.726126" lon="127.564414">
			<ele>0.00</ele>
			<time>2020-01-19T19:55:50.51Z</time>
		</trkpt>
		<trkpt lat="34.726355" lon="127.564432">
			<ele>0.00</ele>
			<time>2020-01-19T19:55:52.03Z</time>
		</trkpt>
		<trkpt lat="34.726582" lon="127.564357">
			<ele>0.00</ele>
			<time>2020-01-19T19:55:53.60Z</time>
		</trkpt>
		<trkpt lat="34.726787" lon="127.564308">
			<ele>0.00</ele>
			<time>2020-01-19T19:55:55Z</time>
		</trkpt>
		<trkpt lat="34.726995" lon="127.564224">
			<ele>0.00</ele>
			<time>2020-01-19T19:55:56.46Z</time>
		</trkpt>
		<trkpt lat="34.727204" lon="127.564176">
			<ele>0.00</ele>
			<time>2020-01-19T19:55:57.88Z</time>
		</trkpt>
		<trkpt lat="34.727409" lon="127.564084">
			<ele>0.00</ele>
			<time>2020-01-19T19:55:59.33Z</time>
		</trkpt>
		<trkpt lat="34.727551" lon="127.563978">
			<ele>0.00</ele>
			<time>2020-01-19T19:56:00.44Z</time>
		</trkpt>
		<trkpt lat="34.727679" lon="127.563909">
			<ele>0.00</ele>
			<time>2020-01-19T19:56:01.37Z</time>
		</trkpt>
		<trkpt lat="34.727848" lon="127.563766">
			<ele>0.00</ele>
			<time>2020-01-19T19:56:02.75Z</time>
		</trkpt>
		<trkpt lat="34.727950" lon="127.563669">
			<ele>0.00</ele>
			<time>2020-01-19T19:56:03.61Z</time>
		</trkpt>
		<trkpt lat="34.728050" lon="127.563570">
			<ele>0.00</ele>
			<time>2020-01-19T19:56:04.47Z</time>
		</trkpt>
		<trkpt lat="34.728161" lon="127.563451">
			<ele>0.00</ele>
			<time>2020-01-19T19:56:05.46Z</time>
		</trkpt>
		<trkpt lat="34.728188" lon="127.563403">
			<ele>0.00</ele>
			<time>2020-01-19T19:56:05.78Z</time>
		</trkpt>
		<trkpt lat="34.728246" lon="127.563345">
			<ele>0.00</ele>
			<time>2020-01-19T19:56:06.28Z</time>
		</trkpt>
		<trkpt lat="34.728314" lon="127.563311">
			<ele>0.00</ele>
			<time>2020-01-19T19:56:06.77Z</time>
		</trkpt>
		<trkpt lat="34.728387" lon="127.563372">
			<ele>0.00</ele>
			<time>2020-01-19T19:56:07.36Z</time>
		</trkpt>
		<trkpt lat="34.728448" lon="127.563472">
			<ele>0.00</ele>
			<time>2020-01-19T19:56:08.05Z</time>
		</trkpt>
		<trkpt lat="34.728499" lon="127.563579">
			<ele>0.00</ele>
			<time>2020-01-19T19:56:08.72Z</time>
		</trkpt>
		<trkpt lat="34.728484" lon="127.563709">
			<ele>0.00</ele>
			<time>2020-01-19T19:56:09.44Z</time>
		</trkpt>
		<trkpt lat="34.728484" lon="127.563718">
			<ele>0.00</ele>
			<time>2020-01-19T19:56:09.50Z</time>
		</trkpt>
		<trkpt lat="34.728465" lon="127.563825">
			<ele>0.00</ele>
			<time>2020-01-19T19:56:10.10Z</time>
		</trkpt>
		<trkpt lat="34.728471" lon="127.563915">
			<ele>0.00</ele>
			<time>2020-01-19T19:56:10.60Z</time>
		</trkpt>
		<trkpt lat="34.728563" lon="127.563913">
			<ele>0.00</ele>
			<time>2020-01-19T19:56:11.21Z</time>
		</trkpt>
		<trkpt lat="34.728642" lon="127.563946">
			<ele>0.00</ele>
			<time>2020-01-19T19:56:11.77Z</time>
		</trkpt>
		<trkpt lat="34.728648" lon="127.564068">
			<ele>0.00</ele>
			<time>2020-01-19T19:56:12.44Z</time>
		</trkpt>
		<trkpt lat="34.728676" lon="127.564180">
			<ele>0.00</ele>
			<time>2020-01-19T19:56:13.08Z</time>
		</trkpt>
		<trkpt lat="34.728706" lon="127.564260">
			<ele>0.00</ele>
			<time>2020-01-19T19:56:13.56Z</time>
		</trkpt>
		<trkpt lat="34.728725" lon="127.564327">
			<ele>0.00</ele>
			<time>2020-01-19T19:56:13.95Z</time>
		</trkpt>
		<trkpt lat="34.728729" lon="127.564397">
			<ele>0.00</ele>
			<time>2020-01-19T19:56:14.33Z</time>
		</trkpt>
		<trkpt lat="34.728664" lon="127.564439">
			<ele>0.00</ele>
			<time>2020-01-19T19:56:14.83Z</time>
		</trkpt>
		<trkpt lat="34.728551" lon="127.564480">
			<ele>0.00</ele>
			<time>2020-01-19T19:56:15.61Z</time>
		</trkpt>
		<trkpt lat="34.728471" lon="127.564561">
			<ele>0.00</ele>
			<time>2020-01-19T19:56:16.30Z</time>
		</trkpt>
		<trkpt lat="34.728480" lon="127.564734">
			<ele>0.00</ele>
			<time>2020-01-19T19:56:17.25Z</time>
		</trkpt>
		<trkpt lat="34.728498" lon="127.564880">
			<ele>0.00</ele>
			<time>2020-01-19T19:56:18.06Z</time>
		</trkpt>
		<trkpt lat="34.728535" lon="127.564937">
			<ele>0.00</ele>
			<time>2020-01-19T19:56:18.46Z</time>
		</trkpt>
		<trkpt lat="34.728487" lon="127.565099">
			<ele>0.00</ele>
			<time>2020-01-19T19:56:19.40Z</time>
		</trkpt>
		<trkpt lat="34.728453" lon="127.565254">
			<ele>0.00</ele>
			<time>2020-01-19T19:56:20.28Z</time>
		</trkpt>
		<trkpt lat="34.728384" lon="127.565409">
			<ele>0.00</ele>
			<time>2020-01-19T19:56:21.24Z</time>
		</trkpt>
		<trkpt lat="34.728382" lon="127.565512">
			<ele>0.00</ele>
			<time>2020-01-19T19:56:21.81Z</time>
		</trkpt>
		<trkpt lat="34.728397" lon="127.565631">
			<ele>0.00</ele>
			<time>2020-01-19T19:56:22.47Z</time>
		</trkpt>
		<trkpt lat="34.728412" lon="127.565784">
			<ele>0.00</ele>
			<time>2020-01-19T19:56:23.32Z</time>
		</trkpt>
		<trkpt lat="34.728356" lon="127.565891">
			<ele>0.00</ele>
			<time>2020-01-19T19:56:24.01Z</time>
		</trkpt>
		<trkpt lat="34.728251" lon="127.566028">
			<ele>0.00</ele>
			<time>2020-01-19T19:56:25.04Z</time>
		</trkpt>
		<trkpt lat="34.728159" lon="127.566156">
			<ele>0.00</ele>
			<time>2020-01-19T19:56:25.97Z</time>
		</trkpt>
		<trkpt lat="34.728069" lon="127.566360">
			<ele>0.00</ele>
			<time>2020-01-19T19:56:27.23Z</time>
		</trkpt>
		<trkpt lat="34.728024" lon="127.566549">
			<ele>0.00</ele>
			<time>2020-01-19T19:56:28.31Z</time>
		</trkpt>
		<trkpt lat="34.727979" lon="127.566732">
			<ele>0.00</ele>
			<time>2020-01-19T19:56:29.36Z</time>
		</trkpt>
		<trkpt lat="34.727887" lon="127.566960">
			<ele>0.00</ele>
			<time>2020-01-19T19:56:30.75Z</time>
		</trkpt>
		<trkpt lat="34.727863" lon="127.567249">
			<ele>0.00</ele>
			<time>2020-01-19T19:56:32.34Z</time>
		</trkpt>
		<trkpt lat="34.727889" lon="127.567432">
			<ele>0.00</ele>
			<time>2020-01-19T19:56:33.36Z</time>
		</trkpt>
		<trkpt lat="34.727965" lon="127.567749">
			<ele>0.00</ele>
			<time>2020-01-19T19:56:35.17Z</time>
		</trkpt>
		<trkpt lat="34.727984" lon="127.568052">
			<ele>0.00</ele>
			<time>2020-01-19T19:56:36.83Z</time>
		</trkpt>
		<trkpt lat="34.727995" lon="127.568276">
			<ele>0.00</ele>
			<time>2020-01-19T19:56:38.06Z</time>
		</trkpt>
		<trkpt lat="34.728017" lon="127.568486">
			<ele>0.00</ele>
			<time>2020-01-19T19:56:39.22Z</time>
		</trkpt>
		<trkpt lat="34.728026" lon="127.568751">
			<ele>0.00</ele>
			<time>2020-01-19T19:56:40.67Z</time>
		</trkpt>
		<trkpt lat="34.728098" lon="127.569040">
			<ele>0.00</ele>
			<time>2020-01-19T19:56:42.33Z</time>
		</trkpt>
		<trkpt lat="34.728170" lon="127.569298">
			<ele>0.00</ele>
			<time>2020-01-19T19:56:43.82Z</time>
		</trkpt>
		<trkpt lat="34.728280" lon="127.569713">
			<ele>0.00</ele>
			<time>2020-01-19T19:56:46.21Z</time>
		</trkpt>
		<trkpt lat="34.728350" lon="127.569953">
			<ele>0.00</ele>
			<time>2020-01-19T19:56:47.60Z</time>
		</trkpt>
		<trkpt lat="34.728406" lon="127.570063">
			<ele>0.00</ele>
			<time>2020-01-19T19:56:48.32Z</time>
		</trkpt>
		<trkpt lat="34.728295" lon="127.570166">
			<ele>0.00</ele>
			<time>2020-01-19T19:56:49.25Z</time>
		</trkpt>
		<trkpt lat="34.728213" lon="127.570319">
			<ele>0.00</ele>
			<time>2020-01-19T19:56:50.25Z</time>
		</trkpt>
		<trkpt lat="34.728159" lon="127.570439">
			<ele>0.00</ele>
			<time>2020-01-19T19:56:51Z</time>
		</trkpt>
		<trkpt lat="34.728261" lon="127.570642">
			<ele>0.00</ele>
			<time>2020-01-19T19:56:52.30Z</time>
		</trkpt>
		<trkpt lat="34.728279" lon="127.570771">
			<ele>0.00</ele>
			<time>2020-01-19T19:56:53.02Z</time>
		</trkpt>
		<trkpt lat="34.728163" lon="127.570824">
			<ele>0.00</ele>
			<time>2020-01-19T19:56:53.85Z</time>
		</trkpt>
		<trkpt lat="34.728106" lon="127.570921">
			<ele>0.00</ele>
			<time>2020-01-19T19:56:54.50Z</time>
		</trkpt>
		<trkpt lat="34.728103" lon="127.571123">
			<ele>0.00</ele>
			<time>2020-01-19T19:56:55.60Z</time>
		</trkpt>
		<trkpt lat="34.728154" lon="127.571321">
			<ele>0.00</ele>
			<time>2020-01-19T19:56:56.74Z</time>
		</trkpt>
		<trkpt lat="34.728212" lon="127.571419">
			<ele>0.00</ele>
			<time>2020-01-19T19:56:57.40Z</time>
		</trkpt>
		<trkpt lat="34.728301" lon="127.571459">
			<ele>0.00</ele>
			<time>2020-01-19T19:56:58.03Z</time>
		</trkpt>
		<trkpt lat="34.728357" lon="127.571525">
			<ele>0.00</ele>
			<time>2020-01-19T19:56:58.55Z</time>
		</trkpt>
		<trkpt lat="34.728414" lon="127.571609">
			<ele>0.00</ele>
			<time>2020-01-19T19:56:59.15Z</time>
		</trkpt>
		<trkpt lat="34.728480" lon="127.571744">
			<ele>0.00</ele>
			<time>2020-01-19T19:57:00.01Z</time>
		</trkpt>
		<trkpt lat="34.728539" lon="127.571841">
			<ele>0.00</ele>
			<time>2020-01-19T19:57:00.67Z</time>
		</trkpt>
		<trkpt lat="34.728567" lon="127.571892">
			<ele>0.00</ele>
			<time>2020-01-19T19:57:01.01Z</time>
		</trkpt>
		<trkpt lat="34.728563" lon="127.572021">
			<ele>0.00</ele>
			<time>2020-01-19T19:57:01.72Z</time>
		</trkpt>
		<trkpt lat="34.728555" lon="127.572160">
			<ele>0.00</ele>
			<time>2020-01-19T19:57:02.48Z</time>
		</trkpt>
		<trkpt lat="34.728502" lon="127.572344">
			<ele>0.00</ele>
			<time>2020-01-19T19:57:03.54Z</time>
		</trkpt>
		<trkpt lat="34.728472" lon="127.572556">
			<ele>0.00</ele>
			<time>2020-01-19T19:57:04.72Z</time>
		</trkpt>
		<trkpt lat="34.728412" lon="127.572695">
			<ele>0.00</ele>
			<time>2020-01-19T19:57:05.58Z</time>
		</trkpt>
		<trkpt lat="34.728362" lon="127.572918">
			<ele>0.00</ele>
			<time>2020-01-19T19:57:06.85Z</time>
		</trkpt>
		<trkpt lat="34.728302" lon="127.573077">
			<ele>0.00</ele>
			<time>2020-01-19T19:57:07.81Z</time>
		</trkpt>
		<trkpt lat="34.728245" lon="127.573183">
			<ele>0.00</ele>
			<time>2020-01-19T19:57:08.51Z</time>
		</trkpt>
		<trkpt lat="34.728177" lon="127.573276">
			<ele>0.00</ele>
			<time>2020-01-19T19:57:09.19Z</time>
		</trkpt>
		<trkpt lat="34.728088" lon="127.573271">
			<ele>0.00</ele>
			<time>2020-01-19T19:57:09.78Z</time>
		</trkpt>
		<trkpt lat="34.728032" lon="127.573214">
			<ele>0.00</ele>
			<time>2020-01-19T19:57:10.27Z</time>
		</trkpt>
		<trkpt lat="34.728028" lon="127.573108">
			<ele>0.00</ele>
			<time>2020-01-19T19:57:10.85Z</time>
		</trkpt>
		<trkpt lat="34.728047" lon="127.572973">
			<ele>0.00</ele>
			<time>2020-01-19T19:57:11.60Z</time>
		</trkpt>
		<trkpt lat="34.728054" lon="127.572812">
			<ele>0.00</ele>
			<time>2020-01-19T19:57:12.48Z</time>
		</trkpt>
		<trkpt lat="34.728050" lon="127.572672">
			<ele>0.00</ele>
			<time>2020-01-19T19:57:13.25Z</time>
		</trkpt>
		<trkpt lat="34.728025" lon="127.572568">
			<ele>0.00</ele>
			<time>2020-01-19T19:57:13.84Z</time>
		</trkpt>
		<trkpt lat="34.727986" lon="127.572579">
			<ele>0.00</ele>
			<time>2020-01-19T19:57:14.11Z</time>
		</trkpt>
		<trkpt lat="34.727944" lon="127.572641">
			<ele>0.00</ele>
			<time>2020-01-19T19:57:14.55Z</time>
		</trkpt>
		<trkpt lat="34.727920" lon="127.572803">
			<ele>0.00</ele>
			<time>2020-01-19T19:57:15.45Z</time>
		</trkpt>
		<trkpt lat="34.727865" lon="127.572945">
			<ele>0.00</ele>
			<time>2020-01-19T19:57:16.31Z</time>
		</trkpt>
		<trkpt lat="34.727717" lon="127.573095">
			<ele>0.00</ele>
			<time>2020-01-19T19:57:17.59Z</time>
		</trkpt>
		<trkpt lat="34.727602" lon="127.573196">
			<ele>0.00</ele>
			<time>2020-01-19T19:57:18.54Z</time>
		</trkpt>
		<trkpt lat="34.727502" lon="127.573257">
			<ele>0.00</ele>
			<time>2020-01-19T19:57:19.29Z</time>
		</trkpt>
		<trkpt lat="34.727435" lon="127.573376">
			<ele>0.00</ele>
			<time>2020-01-19T19:57:20.08Z</time>
		</trkpt>
		<trkpt lat="34.727335" lon="127.573506">
			<ele>0.00</ele>
			<time>2020-01-19T19:57:21.05Z</time>
		</trkpt>
		<trkpt lat="34.727242" lon="127.573609">
			<ele>0.00</ele>
			<time>2020-01-19T19:57:21.89Z</time>
		</trkpt>
		<trkpt lat="34.727218" lon="127.573733">
			<ele>0.00</ele>
			<time>2020-01-19T19:57:22.59Z</time>
		</trkpt>
		<trkpt lat="34.727301" lon="127.573849">
			<ele>0.00</ele>
			<time>2020-01-19T19:57:23.43Z</time>
		</trkpt>
		<trkpt lat="34.727365" lon="127.573907">
			<ele>0.00</ele>
			<time>2020-01-19T19:57:23.96Z</time>
		</trkpt>
		<trkpt lat="34.727418" lon="127.573944">
			<ele>0.00</ele>
			<time>2020-01-19T19:57:24.37Z</time>
		</trkpt>
		<trkpt lat="34.727485" lon="127.574022">
			<ele>0.00</ele>
			<time>2020-01-19T19:57:24.99Z</time>
		</trkpt>
		<trkpt lat="34.727505" lon="127.574120">
			<ele>0.00</ele>
			<time>2020-01-19T19:57:25.54Z</time>
		</trkpt>
		<trkpt lat="34.727506" lon="127.574161">
			<ele>0.00</ele>
			<time>2020-01-19T19:57:25.77Z</time>
		</trkpt>
		<trkpt lat="34.727430" lon="127.574191">
			<ele>0.00</ele>
			<time>2020-01-19T19:57:26.30Z</time>
		</trkpt>
		<trkpt lat="34.727370" lon="127.574184">
			<ele>0.00</ele>
			<time>2020-01-19T19:57:26.70Z</time>
		</trkpt>
		<trkpt lat="34.727279" lon="127.574119">
			<ele>0.00</ele>
			<time>2020-01-19T19:57:27.40Z</time>
		</trkpt>
		<trkpt lat="34.727164" lon="127.574045">
			<ele>0.00</ele>
			<time>2020-01-19T19:57:28.27Z</time>
		</trkpt>
		<trkpt lat="34.727100" lon="127.573997">
			<ele>0.00</ele>
			<time>2020-01-19T19:57:28.77Z</time>
		</trkpt>
		<trkpt lat="34.726983" lon="127.573947">
			<ele>0.00</ele>
			<time>2020-01-19T19:57:29.59Z</time>
		</trkpt>
		<trkpt lat="34.726877" lon="127.573958">
			<ele>0.00</ele>
			<time>2020-01-19T19:57:30.30Z</time>
		</trkpt>
		<trkpt lat="34.726710" lon="127.574072">
			<ele>0.00</ele>
			<time>2020-01-19T19:57:31.58Z</time>
		</trkpt>
		<trkpt lat="34.726562" lon="127.574173">
			<ele>0.00</ele>
			<time>2020-01-19T19:57:32.71Z</time>
		</trkpt>
		<trkpt lat="34.726431" lon="127.574263">
			<ele>0.00</ele>
			<time>2020-01-19T19:57:33.71Z</time>
		</trkpt>
		<trkpt lat="34.726297" lon="127.574342">
			<ele>0.00</ele>
			<time>2020-01-19T19:57:34.71Z</time>
		</trkpt>
		<trkpt lat="34.726134" lon="127.574434">
			<ele>0.00</ele>
			<time>2020-01-19T19:57:35.90Z</time>
		</trkpt>
		<trkpt lat="34.726031" lon="127.574481">
			<ele>0.00</ele>
			<time>2020-01-19T19:57:36.64Z</time>
		</trkpt>
		<trkpt lat="34.725949" lon="127.574506">
			<ele>0.00</ele>
			<time>2020-01-19T19:57:37.20Z</time>
		</trkpt>
		<trkpt lat="34.725875" lon="127.574504">
			<ele>0.00</ele>
			<time>2020-01-19T19:57:37.70Z</time>
		</trkpt>
		<trkpt lat="34.725798" lon="127.574493">
			<ele>0.00</ele>
			<time>2020-01-19T19:57:38.21Z</time>
		</trkpt>
		<trkpt lat="34.725780" lon="127.574559">
			<ele>0.00</ele>
			<time>2020-01-19T19:57:38.60Z</time>
		</trkpt>
		<trkpt lat="34.725848" lon="127.574616">
			<ele>0.00</ele>
			<time>2020-01-19T19:57:39.15Z</time>
		</trkpt>
		<trkpt lat="34.725971" lon="127.574660">
			<ele>0.00</ele>
			<time>2020-01-19T19:57:40Z</time>
		</trkpt>
		<trkpt lat="34.726062" lon="127.574671">
			<ele>0.00</ele>
			<time>2020-01-19T19:57:40.61Z</time>
		</trkpt>
		<trkpt lat="34.726127" lon="127.574665">
			<ele>0.00</ele>
			<time>2020-01-19T19:57:41.05Z</time>
		</trkpt>
		<trkpt lat="34.726170" lon="127.574701">
			<ele>0.00</ele>
			<time>2020-01-19T19:57:41.39Z</time>
		</trkpt>
		<trkpt lat="34.726159" lon="127.574779">
			<ele>0.00</ele>
			<time>2020-01-19T19:57:41.83Z</time>
		</trkpt>
		<trkpt lat="34.726063" lon="127.574868">
			<ele>0.00</ele>
			<time>2020-01-19T19:57:42.63Z</time>
		</trkpt>
		<trkpt lat="34.725996" lon="127.574925">
			<ele>0.00</ele>
			<time>2020-01-19T19:57:43.17Z</time>
		</trkpt>
		<trkpt lat="34.725939" lon="127.574982">
			<ele>0.00</ele>
			<time>2020-01-19T19:57:43.67Z</time>
		</trkpt>
		<trkpt lat="34.725857" lon="127.575013">
			<ele>0.00</ele>
			<time>2020-01-19T19:57:44.24Z</time>
		</trkpt>
		<trkpt lat="34.725778" lon="127.575026">
			<ele>0.00</ele>
			<time>2020-01-19T19:57:44.77Z</time>
		</trkpt>
		<trkpt lat="34.725696" lon="127.574956">
			<ele>0.00</ele>
			<time>2020-01-19T19:57:45.43Z</time>
		</trkpt>
		<trkpt lat="34.725602" lon="127.574853">
			<ele>0.00</ele>
			<time>2020-01-19T19:57:46.28Z</time>
		</trkpt>
		<trkpt lat="34.725510" lon="127.574839">
			<ele>0.00</ele>
			<time>2020-01-19T19:57:46.90Z</time>
		</trkpt>
		<trkpt lat="34.725437" lon="127.574900">
			<ele>0.00</ele>
			<time>2020-01-19T19:57:47.49Z</time>
		</trkpt>
		<trkpt lat="34.725356" lon="127.575047">
			<ele>0.00</ele>
			<time>2020-01-19T19:57:48.46Z</time>
		</trkpt>
		<trkpt lat="34.725311" lon="127.575123">
			<ele>0.00</ele>
			<time>2020-01-19T19:57:48.97Z</time>
		</trkpt>
		<trkpt lat="34.725219" lon="127.575210">
			<ele>0.00</ele>
			<time>2020-01-19T19:57:49.75Z</time>
		</trkpt>
		<trkpt lat="34.725097" lon="127.575258">
			<ele>0.00</ele>
			<time>2020-01-19T19:57:50.60Z</time>
		</trkpt>
		<trkpt lat="34.724944" lon="127.575335">
			<ele>0.00</ele>
			<time>2020-01-19T19:57:51.71Z</time>
		</trkpt>
		<trkpt lat="34.724816" lon="127.575399">
			<ele>0.00</ele>
			<time>2020-01-19T19:57:52.63Z</time>
		</trkpt>
		<trkpt lat="34.724675" lon="127.575468">
			<ele>0.00</ele>
			<time>2020-01-19T19:57:53.64Z</time>
		</trkpt>
		<trkpt lat="34.724575" lon="127.575534">
			<ele>0.00</ele>
			<time>2020-01-19T19:57:54.40Z</time>
		</trkpt>
		<trkpt lat="34.724478" lon="127.575609">
			<ele>0.00</ele>
			<time>2020-01-19T19:57:55.17Z</time>
		</trkpt>
		<trkpt lat="34.724365" lon="127.575665">
			<ele>0.00</ele>
			<time>2020-01-19T19:57:55.98Z</time>
		</trkpt>
		<trkpt lat="34.724265" lon="127.575736">
			<ele>0.00</ele>
			<time>2020-01-19T19:57:56.76Z</time>
		</trkpt>
		<trkpt lat="34.724166" lon="127.575840">
			<ele>0.00</ele>
			<time>2020-01-19T19:57:57.63Z</time>
		</trkpt>
		<trkpt lat="34.724056" lon="127.575954">
			<ele>0.00</ele>
			<time>2020-01-19T19:57:58.59Z</time>
		</trkpt>
		<trkpt lat="34.723955" lon="127.576077">
			<ele>0.00</ele>
			<time>2020-01-19T19:57:59.54Z</time>
		</trkpt>
		<trkpt lat="34.723819" lon="127.576188">
			<ele>0.00</ele>
			<time>2020-01-19T19:58:00.63Z</time>
		</trkpt>
		<trkpt lat="34.723684" lon="127.576311">
			<ele>0.00</ele>
			<time>2020-01-19T19:58:01.76Z</time>
		</trkpt>
		<trkpt lat="34.723529" lon="127.576411">
			<ele>0.00</ele>
			<time>2020-01-19T19:58:02.92Z</time>
		</trkpt>
		<trkpt lat="34.723403" lon="127.576526">
			<ele>0.00</ele>
			<time>2020-01-19T19:58:03.98Z</time>
		</trkpt>
		<trkpt lat="34.723310" lon="127.576642">
			<ele>0.00</ele>
			<time>2020-01-19T19:58:04.87Z</time>
		</trkpt>
		<trkpt lat="34.723198" lon="127.576752">
			<ele>0.00</ele>
			<time>2020-01-19T19:58:05.83Z</time>
		</trkpt>
		<trkpt lat="34.723115" lon="127.576836">
			<ele>0.00</ele>
			<time>2020-01-19T19:58:06.54Z</time>
		</trkpt>
		<trkpt lat="34.723004" lon="127.576976">
			<ele>0.00</ele>
			<time>2020-01-19T19:58:07.61Z</time>
		</trkpt>
		<trkpt lat="34.722927" lon="127.577127">
			<ele>0.00</ele>
			<time>2020-01-19T19:58:08.58Z</time>
		</trkpt>
		<trkpt lat="34.722834" lon="127.577318">
			<ele>0.00</ele>
			<time>2020-01-19T19:58:09.80Z</time>
		</trkpt>
		<trkpt lat="34.722788" lon="127.577475">
			<ele>0.00</ele>
			<time>2020-01-19T19:58:10.71Z</time>
		</trkpt>
		<trkpt lat="34.722758" lon="127.577576">
			<ele>0.00</ele>
			<time>2020-01-19T19:58:11.30Z</time>
		</trkpt>
		<trkpt lat="34.722674" lon="127.577694">
			<ele>0.00</ele>
			<time>2020-01-19T19:58:12.16Z</time>
		</trkpt>
		<trkpt lat="34.722596" lon="127.577829">
			<ele>0.00</ele>
			<time>2020-01-19T19:58:13.06Z</time>
		</trkpt>
		<trkpt lat="34.722529" lon="127.577941">
			<ele>0.00</ele>
			<time>2020-01-19T19:58:13.82Z</time>
		</trkpt>
		<trkpt lat="34.722429" lon="127.578056">
			<ele>0.00</ele>
			<time>2020-01-19T19:58:14.74Z</time>
		</trkpt>
		<trkpt lat="34.722297" lon="127.578107">
			<ele>0.00</ele>
			<time>2020-01-19T19:58:15.66Z</time>
		</trkpt>
		<trkpt lat="34.722120" lon="127.578149">
			<ele>0.00</ele>
			<time>2020-01-19T19:58:16.86Z</time>
		</trkpt>
		<trkpt lat="34.721947" lon="127.578143">
			<ele>0.00</ele>
			<time>2020-01-19T19:58:18.02Z</time>
		</trkpt>
		<trkpt lat="34.721829" lon="127.578222">
			<ele>0.00</ele>
			<time>2020-01-19T19:58:18.92Z</time>
		</trkpt>
		<trkpt lat="34.721714" lon="127.578416">
			<ele>0.00</ele>
			<time>2020-01-19T19:58:20.23Z</time>
		</trkpt>
		<trkpt lat="34.721619" lon="127.578579">
			<ele>0.00</ele>
			<time>2020-01-19T19:58:21.32Z</time>
		</trkpt>
		<trkpt lat="34.721523" lon="127.578756">
			<ele>0.00</ele>
			<time>2020-01-19T19:58:22.48Z</time>
		</trkpt>
		<trkpt lat="34.721453" lon="127.578921">
			<ele>0.00</ele>
			<time>2020-01-19T19:58:23.51Z</time>
		</trkpt>
		<trkpt lat="34.721339" lon="127.579153">
			<ele>0.00</ele>
			<time>2020-01-19T19:58:24.99Z</time>
		</trkpt>
		<trkpt lat="34.721241" lon="127.579314">
			<ele>0.00</ele>
			<time>2020-01-19T19:58:26.09Z</time>
		</trkpt>
		<trkpt lat="34.721168" lon="127.579477">
			<ele>0.00</ele>
			<time>2020-01-19T19:58:27.10Z</time>
		</trkpt>
		<trkpt lat="34.721281" lon="127.579648">
			<ele>0.00</ele>
			<time>2020-01-19T19:58:28.30Z</time>
		</trkpt>
		<trkpt lat="34.721493" lon="127.579851">
			<ele>0.00</ele>
			<time>2020-01-19T19:58:30.10Z</time>
		</trkpt>
		<trkpt lat="34.721662" lon="127.580020">
			<ele>0.00</ele>
			<time>2020-01-19T19:58:31.56Z</time>
		</trkpt>
		<trkpt lat="34.721900" lon="127.580280">
			<ele>0.00</ele>
			<time>2020-01-19T19:58:33.69Z</time>
		</trkpt>
		<trkpt lat="34.722124" lon="127.580541">
			<ele>0.00</ele>
			<time>2020-01-19T19:58:35.76Z</time>
		</trkpt>
		<trkpt lat="34.722363" lon="127.580778">
			<ele>0.00</ele>
			<time>2020-01-19T19:58:37.82Z</time>
		</trkpt>
		<trkpt lat="34.722521" lon="127.580893">
			<ele>0.00</ele>
			<time>2020-01-19T19:58:39.05Z</time>
		</trkpt>
		<trkpt lat="34.722731" lon="127.581128">
			<ele>0.00</ele>
			<time>2020-01-19T19:58:40.95Z</time>
		</trkpt>
		<trkpt lat="34.722905" lon="127.581358">
			<ele>0.00</ele>
			<time>2020-01-19T19:58:42.66Z</time>
		</trkpt>
		<trkpt lat="34.723143" lon="127.581559">
			<ele>0.00</ele>
			<time>2020-01-19T19:58:44.59Z</time>
		</trkpt>
		<trkpt lat="34.723285" lon="127.581640">
			<ele>0.00</ele>
			<time>2020-01-19T19:58:45.64Z</time>
		</trkpt>
		<trkpt lat="34.723466" lon="127.581611">
			<ele>0.00</ele>
			<time>2020-01-19T19:58:46.85Z</time>
		</trkpt>
		<trkpt lat="34.723654" lon="127.581663">
			<ele>0.00</ele>
			<time>2020-01-19T19:58:48.14Z</time>
		</trkpt>
		<trkpt lat="34.723870" lon="127.581779">
			<ele>0.00</ele>
			<time>2020-01-19T19:58:49.71Z</time>
		</trkpt>
		<trkpt lat="34.724050" lon="127.581870">
			<ele>0.00</ele>
			<time>2020-01-19T19:58:51.01Z</time>
		</trkpt>
		<trkpt lat="34.724285" lon="127.581895">
			<ele>0.00</ele>
			<time>2020-01-19T19:58:52.59Z</time>
		</trkpt>
		<trkpt lat="34.724497" lon="127.581882">
			<ele>0.00</ele>
			<time>2020-01-19T19:58:54Z</time>
		</trkpt>
		<trkpt lat="34.724744" lon="127.581777">
			<ele>0.00</ele>
			<time>2020-01-19T19:58:55.75Z</time>
		</trkpt>
		<trkpt lat="34.724858" lon="127.581727">
			<ele>0.00</ele>
			<time>2020-01-19T19:58:56.55Z</time>
		</trkpt>
		<trkpt lat="34.725017" lon="127.581589">
			<ele>0.00</ele>
			<time>2020-01-19T19:58:57.85Z</time>
		</trkpt>
		<trkpt lat="34.725303" lon="127.581523">
			<ele>0.00</ele>
			<time>2020-01-19T19:58:59.80Z</time>
		</trkpt>
		<trkpt lat="34.725487" lon="127.581533">
			<ele>0.00</ele>
			<time>2020-01-19T19:59:01.02Z</time>
		</trkpt>
		<trkpt lat="34.725693" lon="127.581534">
			<ele>0.00</ele>
			<time>2020-01-19T19:59:02.40Z</time>
		</trkpt>
		<trkpt lat="34.725743" lon="127.581515">
			<ele>0.00</ele>
			<time>2020-01-19T19:59:02.75Z</time>
		</trkpt>
		<trkpt lat="34.725782" lon="127.581566">
			<ele>0.00</ele>
			<time>2020-01-19T19:59:03.13Z</time>
		</trkpt>
		<trkpt lat="34.725737" lon="127.581680">
			<ele>0.00</ele>
			<time>2020-01-19T19:59:03.82Z</time>
		</trkpt>
		<trkpt lat="34.725798" lon="127.581877">
			<ele>0.00</ele>
			<time>2020-01-19T19:59:04.97Z</time>
		</trkpt>
		<trkpt lat="34.725894" lon="127.581951">
			<ele>0.00</ele>
			<time>2020-01-19T19:59:05.72Z</time>
		</trkpt>
		<trkpt lat="34.726016" lon="127.582007">
			<ele>0.00</ele>
			<time>2020-01-19T19:59:06.59Z</time>
		</trkpt>
		<trkpt lat="34.726135" lon="127.582161">
			<ele>0.00</ele>
			<time>2020-01-19T19:59:07.75Z</time>
		</trkpt>
		<trkpt lat="34.726154" lon="127.582374">
			<ele>0.00</ele>
			<time>2020-01-19T19:59:08.93Z</time>
		</trkpt>
		<trkpt lat="34.726107" lon="127.582665">
			<ele>0.00</ele>
			<time>2020-01-19T19:59:10.55Z</time>
		</trkpt>
		<trkpt lat="34.726098" lon="127.582867">
			<ele>0.00</ele>
			<time>2020-01-19T19:59:11.66Z</time>
		</trkpt>
		<trkpt lat="34.726186" lon="127.583008">
			<ele>0.00</ele>
			<time>2020-01-19T19:59:12.63Z</time>
		</trkpt>
		<trkpt lat="34.726260" lon="127.583231">
			<ele>0.00</ele>
			<time>2020-01-19T19:59:13.95Z</time>
		</trkpt>
		<trkpt lat="34.726316" lon="127.583399">
			<ele>0.00</ele>
			<time>2020-01-19T19:59:14.94Z</time>
		</trkpt>
		<trkpt lat="34.726376" lon="127.583600">
			<ele>0.00</ele>
			<time>2020-01-19T19:59:16.11Z</time>
		</trkpt>
		<trkpt lat="34.726381" lon="127.583767">
			<ele>0.00</ele>
			<time>2020-01-19T19:59:17.03Z</time>
		</trkpt>
		<trkpt lat="34.726378" lon="127.583891">
			<ele>0.00</ele>
			<time>2020-01-19T19:59:17.71Z</time>
		</trkpt>
		<trkpt lat="34.726400" lon="127.584083">
			<ele>0.00</ele>
			<time>2020-01-19T19:59:18.77Z</time>
		</trkpt>
		<trkpt lat="34.726442" lon="127.584222">
			<ele>0.00</ele>
			<time>2020-01-19T19:59:19.58Z</time>
		</trkpt>
		<trkpt lat="34.726508" lon="127.584470">
			<ele>0.00</ele>
			<time>2020-01-19T19:59:21.01Z</time>
		</trkpt>
		<trkpt lat="34.726548" lon="127.584664">
			<ele>0.00</ele>
			<time>2020-01-19T19:59:22.10Z</time>
		</trkpt>
		<trkpt lat="34.726643" lon="127.584838">
			<ele>0.00</ele>
			<time>2020-01-19T19:59:23.25Z</time>
		</trkpt>
		<trkpt lat="34.726700" lon="127.585101">
			<ele>0.00</ele>
			<time>2020-01-19T19:59:24.74Z</time>
		</trkpt>
		<trkpt lat="34.726736" lon="127.585306">
			<ele>0.00</ele>
			<time>2020-01-19T19:59:25.89Z</time>
		</trkpt>
		<trkpt lat="34.726799" lon="127.585469">
			<ele>0.00</ele>
			<time>2020-01-19T19:59:26.88Z</time>
		</trkpt>
		<trkpt lat="34.726925" lon="127.585682">
			<ele>0.00</ele>
			<time>2020-01-19T19:59:28.31Z</time>
		</trkpt>
		<trkpt lat="34.726996" lon="127.585891">
			<ele>0.00</ele>
			<time>2020-01-19T19:59:29.55Z</time>
		</trkpt>
		<trkpt lat="34.727078" lon="127.586127">
			<ele>0.00</ele>
			<time>2020-01-19T19:59:30.96Z</time>
		</trkpt>
		<trkpt lat="34.727116" lon="127.586319">
			<ele>0.00</ele>
			<time>2020-01-19T19:59:32.04Z</time>
		</trkpt>
		<trkpt lat="34.727233" lon="127.586542">
			<ele>0.00</ele>
			<time>2020-01-19T19:59:33.49Z</time>
		</trkpt>
		<trkpt lat="34.727374" lon="127.586694">
			<ele>0.00</ele>
			<time>2020-01-19T19:59:34.74Z</time>
		</trkpt>
		<trkpt lat="34.727504" lon="127.586825">
			<ele>0.00</ele>
			<time>2020-01-19T19:59:35.87Z</time>
		</trkpt>
		<trkpt lat="34.727627" lon="127.586970">
			<ele>0.00</ele>
			<time>2020-01-19T19:59:37.01Z</time>
		</trkpt>
		<trkpt lat="34.727663" lon="127.587120">
			<ele>0.00</ele>
			<time>2020-01-19T19:59:37.87Z</time>
		</trkpt>
		<trkpt lat="34.727668" lon="127.587245">
			<ele>0.00</ele>
			<time>2020-01-19T19:59:38.56Z</time>
		</trkpt>
		<trkpt lat="34.727703" lon="127.587366">
			<ele>0.00</ele>
			<time>2020-01-19T19:59:39.26Z</time>
		</trkpt>
		<trkpt lat="34.727851" lon="127.587467">
			<ele>0.00</ele>
			<time>2020-01-19T19:59:40.39Z</time>
		</trkpt>
		<trkpt lat="34.727918" lon="127.587527">
			<ele>0.00</ele>
			<time>2020-01-19T19:59:40.94Z</time>
		</trkpt>
		<trkpt lat="34.727943" lon="127.587634">
			<ele>0.00</ele>
			<time>2020-01-19T19:59:41.55Z</time>
		</trkpt>
		<trkpt lat="34.728056" lon="127.587672">
			<ele>0.00</ele>
			<time>2020-01-19T19:59:42.33Z</time>
		</trkpt>
		<trkpt lat="34.728196" lon="127.587717">
			<ele>0.00</ele>
			<time>2020-01-19T19:59:43.30Z</time>
		</trkpt>
		<trkpt lat="34.728340" lon="127.587699">
			<ele>0.00</ele>
			<time>2020-01-19T19:59:44.26Z</time>
		</trkpt>
		<trkpt lat="34.728487" lon="127.587655">
			<ele>0.00</ele>
			<time>2020-01-19T19:59:45.27Z</time>
		</trkpt>
		<trkpt lat="34.728601" lon="127.587640">
			<ele>0.00</ele>
			<time>2020-01-19T19:59:46.04Z</time>
		</trkpt>
		<trkpt lat="34.728737" lon="127.587568">
			<ele>0.00</ele>
			<time>2020-01-19T19:59:47.03Z</time>
		</trkpt>
		<trkpt lat="34.728791" lon="127.587500">
			<ele>0.00</ele>
			<time>2020-01-19T19:59:47.55Z</time>
		</trkpt>
		<trkpt lat="34.728808" lon="127.587397">
			<ele>0.00</ele>
			<time>2020-01-19T19:59:48.13Z</time>
		</trkpt>
		<trkpt lat="34.728933" lon="127.587309">
			<ele>0.00</ele>
			<time>2020-01-19T19:59:49.08Z</time>
		</trkpt>
		<trkpt lat="34.729003" lon="127.587220">
			<ele>0.00</ele>
			<time>2020-01-19T19:59:49.76Z</time>
		</trkpt>
		<trkpt lat="34.729101" lon="127.587120">
			<ele>0.00</ele>
			<time>2020-01-19T19:59:50.61Z</time>
		</trkpt>
		<trkpt lat="34.729276" lon="127.587033">
			<ele>0.00</ele>
			<time>2020-01-19T19:59:51.87Z</time>
		</trkpt>
		<trkpt lat="34.729421" lon="127.587001">
			<ele>0.00</ele>
			<time>2020-01-19T19:59:52.85Z</time>
		</trkpt>
		<trkpt lat="34.729499" lon="127.587020">
			<ele>0.00</ele>
			<time>2020-01-19T19:59:53.38Z</time>
		</trkpt>
		<trkpt lat="34.729640" lon="127.586981">
			<ele>0.00</ele>
			<time>2020-01-19T19:59:54.35Z</time>
		</trkpt>
		<trkpt lat="34.729738" lon="127.586938">
			<ele>0.00</ele>
			<time>2020-01-19T19:59:55.05Z</time>
		</trkpt>
		<trkpt lat="34.729867" lon="127.586898">
			<ele>0.00</ele>
			<time>2020-01-19T19:59:55.93Z</time>
		</trkpt>
		<trkpt lat="34.730003" lon="127.586945">
			<ele>0.00</ele>
			<time>2020-01-19T19:59:56.88Z</time>
		</trkpt>
		<trkpt lat="34.730087" lon="127.586991">
			<ele>0.00</ele>
			<time>2020-01-19T19:59:57.49Z</time>
		</trkpt>
		<trkpt lat="34.730214" lon="127.586931">
			<ele>0.00</ele>
			<time>2020-01-19T19:59:58.40Z</time>
		</trkpt>
		<trkpt lat="34.730291" lon="127.586811">
			<ele>0.00</ele>
			<time>2020-01-19T19:59:59.23Z</time>
		</trkpt>
		<trkpt lat="34.730403" lon="127.586813">
			<ele>0.00</ele>
			<time>2020-01-19T19:59:59.99Z</time>
		</trkpt>
		<trkpt lat="34.730530" lon="127.586895">
			<ele>0.00</ele>
			<time>2020-01-19T20:00:00.94Z</time>
		</trkpt>
		<trkpt lat="34.730620" lon="127.586942">
			<ele>0.00</ele>
			<time>2020-01-19T20:00:01.60Z</time>
		</trkpt>
		<trkpt lat="34.730692" lon="127.586992">
			<ele>0.00</ele>
			<time>2020-01-19T20:00:02.15Z</time>
		</trkpt>
		<trkpt lat="34.730750" lon="127.587101">
			<ele>0.00</ele>
			<time>2020-01-19T20:00:02.86Z</time>
		</trkpt>
		<trkpt lat="34.730752" lon="127.587168">
			<ele>0.00</ele>
			<time>2020-01-19T20:00:03.23Z</time>
		</trkpt>
		<trkpt lat="34.730692" lon="127.587282">
			<ele>0.00</ele>
			<time>2020-01-19T20:00:03.97Z</time>
		</trkpt>
		<trkpt lat="34.730605" lon="127.587346">
			<ele>0.00</ele>
			<time>2020-01-19T20:00:04.64Z</time>
		</trkpt>
		<trkpt lat="34.730551" lon="127.587397">
			<ele>0.00</ele>
			<time>2020-01-19T20:00:05.10Z</time>
		</trkpt>
		<trkpt lat="34.730672" lon="127.587431">
			<ele>0.00</ele>
			<time>2020-01-19T20:00:05.93Z</time>
		</trkpt>
		<trkpt lat="34.730810" lon="127.587495">
			<ele>0.00</ele>
			<time>2020-01-19T20:00:06.91Z</time>
		</trkpt>
		<trkpt lat="34.730929" lon="127.587577">
			<ele>0.00</ele>
			<time>2020-01-19T20:00:07.83Z</time>
		</trkpt>
		<trkpt lat="34.731032" lon="127.587621">
			<ele>0.00</ele>
			<time>2020-01-19T20:00:08.55Z</time>
		</trkpt>
		<trkpt lat="34.731199" lon="127.587687">
			<ele>0.00</ele>
			<time>2020-01-19T20:00:09.72Z</time>
		</trkpt>
		<trkpt lat="34.731395" lon="127.587720">
			<ele>0.00</ele>
			<time>2020-01-19T20:00:11.04Z</time>
		</trkpt>
		<trkpt lat="34.731549" lon="127.587791">
			<ele>0.00</ele>
			<time>2020-01-19T20:00:12.14Z</time>
		</trkpt>
		<trkpt lat="34.731694" lon="127.587900">
			<ele>0.00</ele>
			<time>2020-01-19T20:00:13.27Z</time>
		</trkpt>
		<trkpt lat="34.731833" lon="127.588011">
			<ele>0.00</ele>
			<time>2020-01-19T20:00:14.38Z</time>
		</trkpt>
		<trkpt lat="34.732005" lon="127.588100">
			<ele>0.00</ele>
			<time>2020-01-19T20:00:15.63Z</time>
		</trkpt>
		<trkpt lat="34.732211" lon="127.588158">
			<ele>0.00</ele>
			<time>2020-01-19T20:00:17.04Z</time>
		</trkpt>
		<trkpt lat="34.732456" lon="127.588170">
			<ele>0.00</ele>
			<time>2020-01-19T20:00:18.67Z</time>
		</trkpt>
		<trkpt lat="34.732634" lon="127.588163">
			<ele>0.00</ele>
			<time>2020-01-19T20:00:19.87Z</time>
		</trkpt>
		<trkpt lat="34.732730" lon="127.588161">
			<ele>0.00</ele>
			<time>2020-01-19T20:00:20.50Z</time>
		</trkpt>
		<trkpt lat="34.732822" lon="127.587965">
			<ele>0.00</ele>
			<time>2020-01-19T20:00:21.74Z</time>
		</trkpt>
		<trkpt lat="34.732791" lon="127.587740">
			<ele>0.00</ele>
			<time>2020-01-19T20:00:22.99Z</time>
		</trkpt>
		<trkpt lat="34.732761" lon="127.587567">
			<ele>0.00</ele>
			<time>2020-01-19T20:00:23.96Z</time>
		</trkpt>
		<trkpt lat="34.732738" lon="127.587295">
			<ele>0.00</ele>
			<time>2020-01-19T20:00:25.46Z</time>
		</trkpt>
		<trkpt lat="34.732773" lon="127.587171">
			<ele>0.00</ele>
			<time>2020-01-19T20:00:26.17Z</time>
		</trkpt>
		<trkpt lat="34.732918" lon="127.587002">
			<ele>0.00</ele>
			<time>2020-01-19T20:00:27.51Z</time>
		</trkpt>
		<trkpt lat="34.733067" lon="127.586879">
			<ele>0.00</ele>
			<time>2020-01-19T20:00:28.71Z</time>
		</trkpt>
		<trkpt lat="34.733278" lon="127.586815">
			<ele>0.00</ele>
			<time>2020-01-19T20:00:30.16Z</time>
		</trkpt>
		<trkpt lat="34.733453" lon="127.586813">
			<ele>0.00</ele>
			<time>2020-01-19T20:00:31.33Z</time>
		</trkpt>
		<trkpt lat="34.733540" lon="127.586816">
			<ele>0.00</ele>
			<time>2020-01-19T20:00:31.91Z</time>
		</trkpt>
		<trkpt lat="34.733506" lon="127.586966">
			<ele>0.00</ele>
			<time>2020-01-19T20:00:32.76Z</time>
		</trkpt>
		<trkpt lat="34.733487" lon="127.587172">
			<ele>0.00</ele>
			<time>2020-01-19T20:00:33.90Z</time>
		</trkpt>
		<trkpt lat="34.733456" lon="127.587402">
			<ele>0.00</ele>
			<time>2020-01-19T20:00:35.17Z</time>
		</trkpt>
		<trkpt lat="34.733413" lon="127.587538">
			<ele>0.00</ele>
			<time>2020-01-19T20:00:35.97Z</time>
		</trkpt>
		<trkpt lat="34.733417" lon="127.587770">
			<ele>0.00</ele>
			<time>2020-01-19T20:00:37.25Z</time>
		</trkpt>
		<trkpt lat="34.733410" lon="127.587975">
			<ele>0.00</ele>
			<time>2020-01-19T20:00:38.37Z</time>
		</trkpt>
		<trkpt lat="34.733377" lon="127.588205">
			<ele>0.00</ele>
			<time>2020-01-19T20:00:39.65Z</time>
		</trkpt>
		<trkpt lat="34.733307" lon="127.588423">
			<ele>0.00</ele>
			<time>2020-01-19T20:00:40.93Z</time>
		</trkpt>
		<trkpt lat="34.733184" lon="127.588627">
			<ele>0.00</ele>
			<time>2020-01-19T20:00:42.32Z</time>
		</trkpt>
		<trkpt lat="34.733057" lon="127.588812">
			<ele>0.00</ele>
			<time>2020-01-19T20:00:43.64Z</time>
		</trkpt>
		<trkpt lat="34.733059" lon="127.588993">
			<ele>0.00</ele>
			<time>2020-01-19T20:00:44.63Z</time>
		</trkpt>
		<trkpt lat="34.733075" lon="127.589252">
			<ele>0.00</ele>
			<time>2020-01-19T20:00:46.05Z</time>
		</trkpt>
		<trkpt lat="34.733166" lon="127.589366">
			<ele>0.00</ele>
			<time>2020-01-19T20:00:46.92Z</time>
		</trkpt>
		<trkpt lat="34.733257" lon="127.589519">
			<ele>0.00</ele>
			<time>2020-01-19T20:00:47.96Z</time>
		</trkpt>
		<trkpt lat="34.733267" lon="127.589706">
			<ele>0.00</ele>
			<time>2020-01-19T20:00:48.98Z</time>
		</trkpt>
		<trkpt lat="34.733209" lon="127.589881">
			<ele>0.00</ele>
			<time>2020-01-19T20:00:50.02Z</time>
		</trkpt>
		<trkpt lat="34.733238" lon="127.590060">
			<ele>0.00</ele>
			<time>2020-01-19T20:00:51.01Z</time>
		</trkpt>
		<trkpt lat="34.733287" lon="127.590228">
			<ele>0.00</ele>
			<time>2020-01-19T20:00:51.99Z</time>
		</trkpt>
		<trkpt lat="34.733354" lon="127.590373">
			<ele>0.00</ele>
			<time>2020-01-19T20:00:52.90Z</time>
		</trkpt>
		<trkpt lat="34.733426" lon="127.590568">
			<ele>0.00</ele>
			<time>2020-01-19T20:00:54.07Z</time>
		</trkpt>
		<trkpt lat="34.733557" lon="127.590698">
			<ele>0.00</ele>
			<time>2020-01-19T20:00:55.20Z</time>
		</trkpt>
		<trkpt lat="34.733738" lon="127.590736">
			<ele>0.00</ele>
			<time>2020-01-19T20:00:56.43Z</time>
		</trkpt>
		<trkpt lat="34.733957" lon="127.590783">
			<ele>0.00</ele>
			<time>2020-01-19T20:00:57.91Z</time>
		</trkpt>
		<trkpt lat="34.734156" lon="127.590884">
			<ele>0.00</ele>
			<time>2020-01-19T20:00:59.34Z</time>
		</trkpt>
		<trkpt lat="34.734297" lon="127.590995">
			<ele>0.00</ele>
			<time>2020-01-19T20:01:00.46Z</time>
		</trkpt>
		<trkpt lat="34.734394" lon="127.591129">
			<ele>0.00</ele>
			<time>2020-01-19T20:01:01.44Z</time>
		</trkpt>
		<trkpt lat="34.734394" lon="127.591310">
			<ele>0.00</ele>
			<time>2020-01-19T20:01:02.43Z</time>
		</trkpt>
		<trkpt lat="34.734334" lon="127.591452">
			<ele>0.00</ele>
			<time>2020-01-19T20:01:03.31Z</time>
		</trkpt>
		<trkpt lat="34.734239" lon="127.591679">
			<ele>0.00</ele>
			<time>2020-01-19T20:01:04.70Z</time>
		</trkpt>
		<trkpt lat="34.734215" lon="127.591918">
			<ele>0.00</ele>
			<time>2020-01-19T20:01:06.02Z</time>
		</trkpt>
		<trkpt lat="34.734371" lon="127.592159">
			<ele>0.00</ele>
			<time>2020-01-19T20:01:07.70Z</time>
		</trkpt>
		<trkpt lat="34.734526" lon="127.592329">
			<ele>0.00</ele>
			<time>2020-01-19T20:01:09.09Z</time>
		</trkpt>
		<trkpt lat="34.734736" lon="127.592519">
			<ele>0.00</ele>
			<time>2020-01-19T20:01:10.84Z</time>
		</trkpt>
		<trkpt lat="34.734878" lon="127.592686">
			<ele>0.00</ele>
			<time>2020-01-19T20:01:12.15Z</time>
		</trkpt>
		<trkpt lat="34.734933" lon="127.592834">
			<ele>0.00</ele>
			<time>2020-01-19T20:01:13.04Z</time>
		</trkpt>
		<trkpt lat="34.734942" lon="127.593045">
			<ele>0.00</ele>
			<time>2020-01-19T20:01:14.20Z</time>
		</trkpt>
		<trkpt lat="34.734929" lon="127.593207">
			<ele>0.00</ele>
			<time>2020-01-19T20:01:15.09Z</time>
		</trkpt>
		<trkpt lat="34.734914" lon="127.593413">
			<ele>0.00</ele>
			<time>2020-01-19T20:01:16.23Z</time>
		</trkpt>
		<trkpt lat="34.734859" lon="127.593606">
			<ele>0.00</ele>
			<time>2020-01-19T20:01:17.34Z</time>
		</trkpt>
		<trkpt lat="34.734776" lon="127.593761">
			<ele>0.00</ele>
			<time>2020-01-19T20:01:18.36Z</time>
		</trkpt>
		<trkpt lat="34.734737" lon="127.593994">
			<ele>0.00</ele>
			<time>2020-01-19T20:01:19.66Z</time>
		</trkpt>
		<trkpt lat="34.734735" lon="127.594222">
			<ele>0.00</ele>
			<time>2020-01-19T20:01:20.91Z</time>
		</trkpt>
		<trkpt lat="34.734777" lon="127.594429">
			<ele>0.00</ele>
			<time>2020-01-19T20:01:22.08Z</time>
		</trkpt>
		<trkpt lat="34.734851" lon="127.594667">
			<ele>0.00</ele>
			<time>2020-01-19T20:01:23.47Z</time>
		</trkpt>
		<trkpt lat="34.734946" lon="127.594901">
			<ele>0.00</ele>
			<time>2020-01-19T20:01:24.91Z</time>
		</trkpt>
		<trkpt lat="34.735084" lon="127.595139">
			<ele>0.00</ele>
			<time>2020-01-19T20:01:26.50Z</time>
		</trkpt>
		<trkpt lat="34.735174" lon="127.595333">
			<ele>0.00</ele>
			<time>2020-01-19T20:01:27.72Z</time>
		</trkpt>
		<trkpt lat="34.735206" lon="127.595507">
			<ele>0.00</ele>
			<time>2020-01-19T20:01:28.70Z</time>
		</trkpt>
		<trkpt lat="34.735161" lon="127.595583">
			<ele>0.00</ele>
			<time>2020-01-19T20:01:29.21Z</time>
		</trkpt>
		<trkpt lat="34.735037" lon="127.595605">
			<ele>0.00</ele>
			<time>2020-01-19T20:01:30.05Z</time>
		</trkpt>
		<trkpt lat="34.734855" lon="127.595662">
			<ele>0.00</ele>
			<time>2020-01-19T20:01:31.30Z</time>
		</trkpt>
		<trkpt lat="34.734689" lon="127.595732">
			<ele>0.00</ele>
			<time>2020-01-19T20:01:32.47Z</time>
		</trkpt>
		<trkpt lat="34.734562" lon="127.595829">
			<ele>0.00</ele>
			<time>2020-01-19T20:01:33.47Z</time>
		</trkpt>
		<trkpt lat="34.734516" lon="127.595968">
			<ele>0.00</ele>
			<time>2020-01-19T20:01:34.30Z</time>
		</trkpt>
		<trkpt lat="34.734511" lon="127.596153">
			<ele>0.00</ele>
			<time>2020-01-19T20:01:35.31Z</time>
		</trkpt>
		<trkpt lat="34.734551" lon="127.596279">
			<ele>0.00</ele>
			<time>2020-01-19T20:01:36.05Z</time>
		</trkpt>
		<trkpt lat="34.734579" lon="127.596451">
			<ele>0.00</ele>
			<time>2020-01-19T20:01:37.01Z</time>
		</trkpt>
		<trkpt lat="34.734570" lon="127.596574">
			<ele>0.00</ele>
			<time>2020-01-19T20:01:37.69Z</time>
		</trkpt>
		<trkpt lat="34.734465" lon="127.596642">
			<ele>0.00</ele>
			<time>2020-01-19T20:01:38.48Z</time>
		</trkpt>
		<trkpt lat="34.734299" lon="127.596726">
			<ele>0.00</ele>
			<time>2020-01-19T20:01:39.68Z</time>
		</trkpt>
		<trkpt lat="34.734240" lon="127.596826">
			<ele>0.00</ele>
			<time>2020-01-19T20:01:40.36Z</time>
		</trkpt>
		<trkpt lat="34.734188" lon="127.597005">
			<ele>0.00</ele>
			<time>2020-01-19T20:01:41.39Z</time>
		</trkpt>
		<trkpt lat="34.734093" lon="127.597104">
			<ele>0.00</ele>
			<time>2020-01-19T20:01:42.22Z</time>
		</trkpt>
		<trkpt lat="34.733970" lon="127.597123">
			<ele>0.00</ele>
			<time>2020-01-19T20:01:43.06Z</time>
		</trkpt>
		<trkpt lat="34.733841" lon="127.596984">
			<ele>0.00</ele>
			<time>2020-01-19T20:01:44.20Z</time>
		</trkpt>
		<trkpt lat="34.733829" lon="127.596984">
			<ele>0.00</ele>
			<time>2020-01-19T20:01:44.28Z</time>
		</trkpt>
		<trkpt lat="34.733735" lon="127.596874">
			<ele>0.00</ele>
			<time>2020-01-19T20:01:45.15Z</time>
		</trkpt>
		<trkpt lat="34.733620" lon="127.596806">
			<ele>0.00</ele>
			<time>2020-01-19T20:01:46Z</time>
		</trkpt>
		<trkpt lat="34.733490" lon="127.596757">
			<ele>0.00</ele>
			<time>2020-01-19T20:01:46.91Z</time>
		</trkpt>
		<trkpt lat="34.733362" lon="127.596764">
			<ele>0.00</ele>
			<time>2020-01-19T20:01:47.77Z</time>
		</trkpt>
		<trkpt lat="34.733303" lon="127.596838">
			<ele>0.00</ele>
			<time>2020-01-19T20:01:48.33Z</time>
		</trkpt>
		<trkpt lat="34.733330" lon="127.596986">
			<ele>0.00</ele>
			<time>2020-01-19T20:01:49.17Z</time>
		</trkpt>
		<trkpt lat="34.733343" lon="127.597140">
			<ele>0.00</ele>
			<time>2020-01-19T20:01:50.01Z</time>
		</trkpt>
		<trkpt lat="34.733328" lon="127.597433">
			<ele>0.00</ele>
			<time>2020-01-19T20:01:51.62Z</time>
		</trkpt>
		<trkpt lat="34.733400" lon="127.597586">
			<ele>0.00</ele>
			<time>2020-01-19T20:01:52.59Z</time>
		</trkpt>
		<trkpt lat="34.733481" lon="127.597701">
			<ele>0.00</ele>
			<time>2020-01-19T20:01:53.42Z</time>
		</trkpt>
		<trkpt lat="34.733581" lon="127.597834">
			<ele>0.00</ele>
			<time>2020-01-19T20:01:54.41Z</time>
		</trkpt>
		<trkpt lat="34.733670" lon="127.597940">
			<ele>0.00</ele>
			<time>2020-01-19T20:01:55.23Z</time>
		</trkpt>
		<trkpt lat="34.733766" lon="127.598067">
			<ele>0.00</ele>
			<time>2020-01-19T20:01:56.18Z</time>
		</trkpt>
		<trkpt lat="34.733838" lon="127.598183">
			<ele>0.00</ele>
			<time>2020-01-19T20:01:56.98Z</time>
		</trkpt>
		<trkpt lat="34.733858" lon="127.598327">
			<ele>0.00</ele>
			<time>2020-01-19T20:01:57.78Z</time>
		</trkpt>
		<trkpt lat="34.733769" lon="127.598517">
			<ele>0.00</ele>
			<time>2020-01-19T20:01:58.98Z</time>
		</trkpt>
		<trkpt lat="34.733687" lon="127.598655">
			<ele>0.00</ele>
			<time>2020-01-19T20:01:59.91Z</time>
		</trkpt>
		<trkpt lat="34.733680" lon="127.598802">
			<ele>0.00</ele>
			<time>2020-01-19T20:02:00.72Z</time>
		</trkpt>
		<trkpt lat="34.733723" lon="127.598899">
			<ele>0.00</ele>
			<time>2020-01-19T20:02:01.32Z</time>
		</trkpt>
		<trkpt lat="34.733784" lon="127.598998">
			<ele>0.00</ele>
			<time>2020-01-19T20:02:02Z</time>
		</trkpt>
		<trkpt lat="34.733855" lon="127.599174">
			<ele>0.00</ele>
			<time>2020-01-19T20:02:03.07Z</time>
		</trkpt>
		<trkpt lat="34.733871" lon="127.599320">
			<ele>0.00</ele>
			<time>2020-01-19T20:02:03.88Z</time>
		</trkpt>
		<trkpt lat="34.733909" lon="127.599535">
			<ele>0.00</ele>
			<time>2020-01-19T20:02:05.08Z</time>
		</trkpt>
		<trkpt lat="34.733910" lon="127.599781">
			<ele>0.00</ele>
			<time>2020-01-19T20:02:06.43Z</time>
		</trkpt>
		<trkpt lat="34.733854" lon="127.599958">
			<ele>0.00</ele>
			<time>2020-01-19T20:02:07.47Z</time>
		</trkpt>
		<trkpt lat="34.733735" lon="127.600151">
			<ele>0.00</ele>
			<time>2020-01-19T20:02:08.79Z</time>
		</trkpt>
		<trkpt lat="34.733573" lon="127.600270">
			<ele>0.00</ele>
			<time>2020-01-19T20:02:10.05Z</time>
		</trkpt>
		<trkpt lat="34.733389" lon="127.600328">
			<ele>0.00</ele>
			<time>2020-01-19T20:02:11.32Z</time>
		</trkpt>
		<trkpt lat="34.733226" lon="127.600420">
			<ele>0.00</ele>
			<time>2020-01-19T20:02:12.52Z</time>
		</trkpt>
		<trkpt lat="34.733068" lon="127.600500">
			<ele>0.00</ele>
			<time>2020-01-19T20:02:13.66Z</time>
		</trkpt>
		<trkpt lat="34.732895" lon="127.600600">
			<ele>0.00</ele>
			<time>2020-01-19T20:02:14.93Z</time>
		</trkpt>
		<trkpt lat="34.732776" lon="127.600733">
			<ele>0.00</ele>
			<time>2020-01-19T20:02:16.01Z</time>
		</trkpt>
		<trkpt lat="34.732759" lon="127.600966">
			<ele>0.00</ele>
			<time>2020-01-19T20:02:17.29Z</time>
		</trkpt>
		<trkpt lat="34.732739" lon="127.601179">
			<ele>0.00</ele>
			<time>2020-01-19T20:02:18.46Z</time>
		</trkpt>
		<trkpt lat="34.732638" lon="127.601375">
			<ele>0.00</ele>
			<time>2020-01-19T20:02:19.73Z</time>
		</trkpt>
		<trkpt lat="34.732570" lon="127.601534">
			<ele>0.00</ele>
			<time>2020-01-19T20:02:20.71Z</time>
		</trkpt>
		<trkpt lat="34.732512" lon="127.601775">
			<ele>0.00</ele>
			<time>2020-01-19T20:02:22.09Z</time>
		</trkpt>
		<trkpt lat="34.732526" lon="127.602023">
			<ele>0.00</ele>
			<time>2020-01-19T20:02:23.45Z</time>
		</trkpt>
		<trkpt lat="34.732478" lon="127.602127">
			<ele>0.00</ele>
			<time>2020-01-19T20:02:24.10Z</time>
		</trkpt>
		<trkpt lat="34.732395" lon="127.602276">
			<ele>0.00</ele>
			<time>2020-01-19T20:02:25.09Z</time>
		</trkpt>
		<trkpt lat="34.732326" lon="127.602417">
			<ele>0.00</ele>
			<time>2020-01-19T20:02:25.99Z</time>
		</trkpt>
		<trkpt lat="34.732324" lon="127.602417">
			<ele>0.00</ele>
			<time>2020-01-19T20:02:26.05Z</time>
		</trkpt>
		<trkpt lat="34.732225" lon="127.602549">
			<ele>0.00</ele>
			<time>2020-01-19T20:02:27.02Z</time>
		</trkpt>
		<trkpt lat="34.732209" lon="127.602648">
			<ele>0.00</ele>
			<time>2020-01-19T20:02:27.58Z</time>
		</trkpt>
		<trkpt lat="34.732240" lon="127.602764">
			<ele>0.00</ele>
			<time>2020-01-19T20:02:28.25Z</time>
		</trkpt>
		<trkpt lat="34.732354" lon="127.602867">
			<ele>0.00</ele>
			<time>2020-01-19T20:02:29.20Z</time>
		</trkpt>
		<trkpt lat="34.732431" lon="127.602951">
			<ele>0.00</ele>
			<time>2020-01-19T20:02:29.89Z</time>
		</trkpt>
		<trkpt lat="34.732475" lon="127.603117">
			<ele>0.00</ele>
			<time>2020-01-19T20:02:30.84Z</time>
		</trkpt>
		<trkpt lat="34.732431" lon="127.603255">
			<ele>0.00</ele>
			<time>2020-01-19T20:02:31.66Z</time>
		</trkpt>
		<trkpt lat="34.732338" lon="127.603396">
			<ele>0.00</ele>
			<time>2020-01-19T20:02:32.64Z</time>
		</trkpt>
		<trkpt lat="34.732230" lon="127.603450">
			<ele>0.00</ele>
			<time>2020-01-19T20:02:33.43Z</time>
		</trkpt>
		<trkpt lat="34.732134" lon="127.603663">
			<ele>0.00</ele>
			<time>2020-01-19T20:02:34.75Z</time>
		</trkpt>
		<trkpt lat="34.732170" lon="127.603812">
			<ele>0.00</ele>
			<time>2020-01-19T20:02:35.61Z</time>
		</trkpt>
		<trkpt lat="34.732278" lon="127.603865">
			<ele>0.00</ele>
			<time>2020-01-19T20:02:36.38Z</time>
		</trkpt>
		<trkpt lat="34.732400" lon="127.603958">
			<ele>0.00</ele>
			<time>2020-01-19T20:02:37.34Z</time>
		</trkpt>
		<trkpt lat="34.732588" lon="127.604100">
			<ele>0.00</ele>
			<time>2020-01-19T20:02:38.82Z</time>
		</trkpt>
		<trkpt lat="34.732691" lon="127.604289">
			<ele>0.00</ele>
			<time>2020-01-19T20:02:40.06Z</time>
		</trkpt>
		<trkpt lat="34.732790" lon="127.604461">
			<ele>0.00</ele>
			<time>2020-01-19T20:02:41.21Z</time>
		</trkpt>
		<trkpt lat="34.732862" lon="127.604550">
			<ele>0.00</ele>
			<time>2020-01-19T20:02:41.90Z</time>
		</trkpt>
		<trkpt lat="34.732943" lon="127.604728">
			<ele>0.00</ele>
			<time>2020-01-19T20:02:43.01Z</time>
		</trkpt>
		<trkpt lat="34.733081" lon="127.604833">
			<ele>0.00</ele>
			<time>2020-01-19T20:02:44.09Z</time>
		</trkpt>
		<trkpt lat="34.733131" lon="127.604972">
			<ele>0.00</ele>
			<time>2020-01-19T20:02:44.92Z</time>
		</trkpt>
		<trkpt lat="34.733154" lon="127.605202">
			<ele>0.00</ele>
			<time>2020-01-19T20:02:46.20Z</time>
		</trkpt>
		<trkpt lat="34.733235" lon="127.605395">
			<ele>0.00</ele>
			<time>2020-01-19T20:02:47.38Z</time>
		</trkpt>
		<trkpt lat="34.733409" lon="127.605421">
			<ele>0.00</ele>
			<time>2020-01-19T20:02:48.55Z</time>
		</trkpt>
		<trkpt lat="34.733414" lon="127.605421">
			<ele>0.00</ele>
			<time>2020-01-19T20:02:48.61Z</time>
		</trkpt>
		<trkpt lat="34.733546" lon="127.605415">
			<ele>0.00</ele>
			<time>2020-01-19T20:02:49.48Z</time>
		</trkpt>
		<trkpt lat="34.733704" lon="127.605439">
			<ele>0.00</ele>
			<time>2020-01-19T20:02:50.55Z</time>
		</trkpt>
		<trkpt lat="34.733926" lon="127.605561">
			<ele>0.00</ele>
			<time>2020-01-19T20:02:52.17Z</time>
		</trkpt>
		<trkpt lat="34.734116" lon="127.605745">
			<ele>0.00</ele>
			<time>2020-01-19T20:02:53.79Z</time>
		</trkpt>
		<trkpt lat="34.734204" lon="127.606025">
			<ele>0.00</ele>
			<time>2020-01-19T20:02:55.43Z</time>
		</trkpt>
		<trkpt lat="34.734249" lon="127.606243">
			<ele>0.00</ele>
			<time>2020-01-19T20:02:56.67Z</time>
		</trkpt>
		<trkpt lat="34.734311" lon="127.606424">
			<ele>0.00</ele>
			<time>2020-01-19T20:02:57.74Z</time>
		</trkpt>
		<trkpt lat="34.734380" lon="127.606648">
			<ele>0.00</ele>
			<time>2020-01-19T20:02:59.05Z</time>
		</trkpt>
		<trkpt lat="34.734452" lon="127.606849">
			<ele>0.00</ele>
			<time>2020-01-19T20:03:00.25Z</time>
		</trkpt>
		<trkpt lat="34.734468" lon="127.606972">
			<ele>0.00</ele>
			<time>2020-01-19T20:03:00.93Z</time>
		</trkpt>
		<trkpt lat="34.734435" lon="127.607154">
			<ele>0.00</ele>
			<time>2020-01-19T20:03:01.95Z</time>
		</trkpt>
		<trkpt lat="34.734296" lon="127.607214">
			<ele>0.00</ele>
			<time>2020-01-19T20:03:02.94Z</time>
		</trkpt>
		<trkpt lat="34.734115" lon="127.607191">
			<ele>0.00</ele>
			<time>2020-01-19T20:03:04.15Z</time>
		</trkpt>
		<trkpt lat="34.733927" lon="127.607199">
			<ele>0.00</ele>
			<time>2020-01-19T20:03:05.41Z</time>
		</trkpt>
		<trkpt lat="34.733800" lon="127.607217">
			<ele>0.00</ele>
			<time>2020-01-19T20:03:06.26Z</time>
		</trkpt>
		<trkpt lat="34.733643" lon="127.607304">
			<ele>0.00</ele>
			<time>2020-01-19T20:03:07.41Z</time>
		</trkpt>
		<trkpt lat="34.733530" lon="127.607547">
			<ele>0.00</ele>
			<time>2020-01-19T20:03:08.94Z</time>
		</trkpt>
		<trkpt lat="34.733522" lon="127.607557">
			<ele>0.00</ele>
			<time>2020-01-19T20:03:09.01Z</time>
		</trkpt>
		<trkpt lat="34.733514" lon="127.607570">
			<ele>0.00</ele>
			<time>2020-01-19T20:03:09.10Z</time>
		</trkpt>
		<trkpt lat="34.733455" lon="127.607717">
			<ele>0.00</ele>
			<time>2020-01-19T20:03:10Z</time>
		</trkpt>
		<trkpt lat="34.733376" lon="127.607857">
			<ele>0.00</ele>
			<time>2020-01-19T20:03:10.93Z</time>
		</trkpt>
		<trkpt lat="34.733369" lon="127.607872">
			<ele>0.00</ele>
			<time>2020-01-19T20:03:11.03Z</time>
		</trkpt>
		<trkpt lat="34.733346" lon="127.608024">
			<ele>0.00</ele>
			<time>2020-01-19T20:03:11.87Z</time>
		</trkpt>
		<trkpt lat="34.733345" lon="127.608136">
			<ele>0.00</ele>
			<time>2020-01-19T20:03:12.49Z</time>
		</trkpt>
		<trkpt lat="34.733477" lon="127.608201">
			<ele>0.00</ele>
			<time>2020-01-19T20:03:13.43Z</time>
		</trkpt>
		<trkpt lat="34.733640" lon="127.608279">
			<ele>0.00</ele>
			<time>2020-01-19T20:03:14.60Z</time>
		</trkpt>
		<trkpt lat="34.733830" lon="127.608352">
			<ele>0.00</ele>
			<time>2020-01-19T20:03:15.93Z</time>
		</trkpt>
		<trkpt lat="34.733848" lon="127.608353">
			<ele>0.00</ele>
			<time>2020-01-19T20:03:16.05Z</time>
		</trkpt>
		<trkpt lat="34.734016" lon="127.608449">
			<ele>0.00</ele>
			<time>2020-01-19T20:03:17.28Z</time>
		</trkpt>
		<trkpt lat="34.734180" lon="127.608583">
			<ele>0.00</ele>
			<time>2020-01-19T20:03:18.60Z</time>
		</trkpt>
		<trkpt lat="34.734241" lon="127.608781">
			<ele>0.00</ele>
			<time>2020-01-19T20:03:19.76Z</time>
		</trkpt>
		<trkpt lat="34.734308" lon="127.608987">
			<ele>0.00</ele>
			<time>2020-01-19T20:03:20.98Z</time>
		</trkpt>
		<trkpt lat="34.734355" lon="127.609188">
			<ele>0.00</ele>
			<time>2020-01-19T20:03:22.12Z</time>
		</trkpt>
		<trkpt lat="34.734432" lon="127.609462">
			<ele>0.00</ele>
			<time>2020-01-19T20:03:23.71Z</time>
		</trkpt>
		<trkpt lat="34.734440" lon="127.609607">
			<ele>0.00</ele>
			<time>2020-01-19T20:03:24.50Z</time>
		</trkpt>
		<trkpt lat="34.734357" lon="127.609751">
			<ele>0.00</ele>
			<time>2020-01-19T20:03:25.47Z</time>
		</trkpt>
		<trkpt lat="34.734270" lon="127.609923">
			<ele>0.00</ele>
			<time>2020-01-19T20:03:26.57Z</time>
		</trkpt>
		<trkpt lat="34.734213" lon="127.610080">
			<ele>0.00</ele>
			<time>2020-01-19T20:03:27.51Z</time>
		</trkpt>
		<trkpt lat="34.734218" lon="127.610284">
			<ele>0.00</ele>
			<time>2020-01-19T20:03:28.63Z</time>
		</trkpt>
		<trkpt lat="34.734251" lon="127.610545">
			<ele>0.00</ele>
			<time>2020-01-19T20:03:30.07Z</time>
		</trkpt>
		<trkpt lat="34.734259" lon="127.610810">
			<ele>0.00</ele>
			<time>2020-01-19T20:03:31.53Z</time>
		</trkpt>
		<trkpt lat="34.734259" lon="127.611049">
			<ele>0.00</ele>
			<time>2020-01-19T20:03:32.84Z</time>
		</trkpt>
		<trkpt lat="34.734208" lon="127.611280">
			<ele>0.00</ele>
			<time>2020-01-19T20:03:34.15Z</time>
		</trkpt>
		<trkpt lat="34.734099" lon="127.611586">
			<ele>0.00</ele>
			<time>2020-01-19T20:03:35.97Z</time>
		</trkpt>
		<trkpt lat="34.734037" lon="127.611856">
			<ele>0.00</ele>
			<time>2020-01-19T20:03:37.51Z</time>
		</trkpt>
		<trkpt lat="34.733975" lon="127.612190">
			<ele>0.00</ele>
			<time>2020-01-19T20:03:39.39Z</time>
		</trkpt>
		<trkpt lat="34.733883" lon="127.612350">
			<ele>0.00</ele>
			<time>2020-01-19T20:03:40.46Z</time>
		</trkpt>
		<trkpt lat="34.733822" lon="127.612626">
			<ele>0.00</ele>
			<time>2020-01-19T20:03:42.02Z</time>
		</trkpt>
		<trkpt lat="34.733742" lon="127.612922">
			<ele>0.00</ele>
			<time>2020-01-19T20:03:43.73Z</time>
		</trkpt>
		<trkpt lat="34.733651" lon="127.613162">
			<ele>0.00</ele>
			<time>2020-01-19T20:03:45.18Z</time>
		</trkpt>
		<trkpt lat="34.733580" lon="127.613435">
			<ele>0.00</ele>
			<time>2020-01-19T20:03:46.75Z</time>
		</trkpt>
		<trkpt lat="34.733580" lon="127.613638">
			<ele>0.00</ele>
			<time>2020-01-19T20:03:47.86Z</time>
		</trkpt>
		<trkpt lat="34.733482" lon="127.613836">
			<ele>0.00</ele>
			<time>2020-01-19T20:03:49.13Z</time>
		</trkpt>
		<trkpt lat="34.733433" lon="127.614082">
			<ele>0.00</ele>
			<time>2020-01-19T20:03:50.52Z</time>
		</trkpt>
		<trkpt lat="34.733374" lon="127.614374">
			<ele>0.00</ele>
			<time>2020-01-19T20:03:52.16Z</time>
		</trkpt>
		<trkpt lat="34.733381" lon="127.614506">
			<ele>0.00</ele>
			<time>2020-01-19T20:03:52.89Z</time>
		</trkpt>
		<trkpt lat="34.733527" lon="127.614728">
			<ele>0.00</ele>
			<time>2020-01-19T20:03:54.45Z</time>
		</trkpt>
		<trkpt lat="34.733698" lon="127.614872">
			<ele>0.00</ele>
			<time>2020-01-19T20:03:55.83Z</time>
		</trkpt>
		<trkpt lat="34.733841" lon="127.615139">
			<ele>0.00</ele>
			<time>2020-01-19T20:03:57.57Z</time>
		</trkpt>
		<trkpt lat="34.733957" lon="127.615359">
			<ele>0.00</ele>
			<time>2020-01-19T20:03:59.01Z</time>
		</trkpt>
		<trkpt lat="34.734023" lon="127.615584">
			<ele>0.00</ele>
			<time>2020-01-19T20:04:00.32Z</time>
		</trkpt>
		<trkpt lat="34.734158" lon="127.615903">
			<ele>0.00</ele>
			<time>2020-01-19T20:04:02.28Z</time>
		</trkpt>
		<trkpt lat="34.734171" lon="127.616034">
			<ele>0.00</ele>
			<time>2020-01-19T20:04:03.01Z</time>
		</trkpt>
		<trkpt lat="34.734155" lon="127.616311">
			<ele>0.00</ele>
			<time>2020-01-19T20:04:04.53Z</time>
		</trkpt>
		<trkpt lat="34.734228" lon="127.616548">
			<ele>0.00</ele>
			<time>2020-01-19T20:04:05.91Z</time>
		</trkpt>
		<trkpt lat="34.734398" lon="127.616617">
			<ele>0.00</ele>
			<time>2020-01-19T20:04:07.11Z</time>
		</trkpt>
		<trkpt lat="34.734688" lon="127.616743">
			<ele>0.00</ele>
			<time>2020-01-19T20:04:09.16Z</time>
		</trkpt>
		<trkpt lat="34.734816" lon="127.616856">
			<ele>0.00</ele>
			<time>2020-01-19T20:04:10.22Z</time>
		</trkpt>
		<trkpt lat="34.734969" lon="127.616894">
			<ele>0.00</ele>
			<time>2020-01-19T20:04:11.26Z</time>
		</trkpt>
		<trkpt lat="34.734956" lon="127.617309">
			<ele>0.00</ele>
			<time>2020-01-19T20:04:13.54Z</time>
		</trkpt>
		<trkpt lat="34.735099" lon="127.617516">
			<ele>0.00</ele>
			<time>2020-01-19T20:04:15.01Z</time>
		</trkpt>
		<trkpt lat="34.735266" lon="127.617629">
			<ele>0.00</ele>
			<time>2020-01-19T20:04:16.29Z</time>
		</trkpt>
		<trkpt lat="34.735360" lon="127.617898">
			<ele>0.00</ele>
			<time>2020-01-19T20:04:17.89Z</time>
		</trkpt>
		<trkpt lat="34.735469" lon="127.618157">
			<ele>0.00</ele>
			<time>2020-01-19T20:04:19.48Z</time>
		</trkpt>
		<trkpt lat="34.735679" lon="127.618520">
			<ele>0.00</ele>
			<time>2020-01-19T20:04:21.92Z</time>
		</trkpt>
		<trkpt lat="34.735733" lon="127.618612">
			<ele>0.00</ele>
			<time>2020-01-19T20:04:22.53Z</time>
		</trkpt>
		<trkpt lat="34.735761" lon="127.618775">
			<ele>0.00</ele>
			<time>2020-01-19T20:04:23.45Z</time>
		</trkpt>
		<trkpt lat="34.735836" lon="127.618967">
			<ele>0.00</ele>
			<time>2020-01-19T20:04:24.61Z</time>
		</trkpt>
		<trkpt lat="34.735860" lon="127.619142">
			<ele>0.00</ele>
			<time>2020-01-19T20:04:25.59Z</time>
		</trkpt>
		<trkpt lat="34.735900" lon="127.619340">
			<ele>0.00</ele>
			<time>2020-01-19T20:04:26.70Z</time>
		</trkpt>
		<trkpt lat="34.735922" lon="127.619573">
			<ele>0.00</ele>
			<time>2020-01-19T20:04:27.99Z</time>
		</trkpt>
		<trkpt lat="34.735948" lon="127.619774">
			<ele>0.00</ele>
			<time>2020-01-19T20:04:29.10Z</time>
		</trkpt>
		<trkpt lat="34.735991" lon="127.619962">
			<ele>0.00</ele>
			<time>2020-01-19T20:04:30.17Z</time>
		</trkpt>
		<trkpt lat="34.736032" lon="127.620125">
			<ele>0.00</ele>
			<time>2020-01-19T20:04:31.10Z</time>
		</trkpt>
		<trkpt lat="34.736073" lon="127.620288">
			<ele>0.00</ele>
			<time>2020-01-19T20:04:32.04Z</time>
		</trkpt>
		<trkpt lat="34.736085" lon="127.620494">
			<ele>0.00</ele>
			<time>2020-01-19T20:04:33.17Z</time>
		</trkpt>
		<trkpt lat="34.736163" lon="127.620693">
			<ele>0.00</ele>
			<time>2020-01-19T20:04:34.38Z</time>
		</trkpt>
		<trkpt lat="34.736210" lon="127.620854">
			<ele>0.00</ele>
			<time>2020-01-19T20:04:35.31Z</time>
		</trkpt>
		<trkpt lat="34.736296" lon="127.621015">
			<ele>0.00</ele>
			<time>2020-01-19T20:04:36.36Z</time>
		</trkpt>
		<extensions>
			<gte:name>#429</gte:name>
			<gte:color>#ffeeaa</gte:color>
		</extensions>
	</trkseg>
</trk>
</gpx>