<?xml version="1.0" encoding="utf-8" standalone="yes"?>
<gpx version="1.1" creator="GPS Visualizer https://www.gpsvisualizer.com/" xmlns="http://www.topografix.com/GPX/1/1" xmlns:xsi="http://www.w3.org/2001/XMLSchema-instance" xsi:schemaLocation="http://www.topografix.com/GPX/1/1 http://www.topografix.com/GPX/1/1/gpx.xsd">
<trk>
  <name>남파랑길 38코스 (남해바래길 5코스 말발굽길) 20200906</name>
  <trkseg>
    <trkpt lat="34.8595752" lon="128.0575715"></trkpt>
    <trkpt lat="34.8595362" lon="128.0575683"></trkpt>
    <trkpt lat="34.8595124" lon="128.0575426"></trkpt>
    <trkpt lat="34.85949" lon="128.0575183"></trkpt>
    <trkpt lat="34.8594627" lon="128.0574948"></trkpt>
    <trkpt lat="34.8593391" lon="128.057402"></trkpt>
    <trkpt lat="34.859166" lon="128.0572706"></trkpt>
    <trkpt lat="34.8589834" lon="128.0571529"></trkpt>
    <trkpt lat="34.8587647" lon="128.0570616"></trkpt>
    <trkpt lat="34.8587133" lon="128.0570504"></trkpt>
    <trkpt lat="34.8586105" lon="128.0570316"></trkpt>
    <trkpt lat="34.8585188" lon="128.0570332"></trkpt>
    <trkpt lat="34.8584523" lon="128.0570486"></trkpt>
    <trkpt lat="34.858397" lon="128.0570657"></trkpt>
    <trkpt lat="34.8583025" lon="128.057107"></trkpt>
    <trkpt lat="34.8582156" lon="128.0571643"></trkpt>
    <trkpt lat="34.8581622" lon="128.0572886"></trkpt>
    <trkpt lat="34.8581086" lon="128.0573945"></trkpt>
    <trkpt lat="34.8580058" lon="128.0574395"></trkpt>
    <trkpt lat="34.8579322" lon="128.057432"></trkpt>
    <trkpt lat="34.8578857" lon="128.0573911"></trkpt>
    <trkpt lat="34.8578379" lon="128.0573186"></trkpt>
    <trkpt lat="34.8577876" lon="128.0571247"></trkpt>
    <trkpt lat="34.8577516" lon="128.0569452"></trkpt>
    <trkpt lat="34.85773" lon="128.0567851"></trkpt>
    <trkpt lat="34.8577309" lon="128.056568"></trkpt>
    <trkpt lat="34.8577194" lon="128.0563987"></trkpt>
    <trkpt lat="34.8576962" lon="128.05628"></trkpt>
    <trkpt lat="34.8575912" lon="128.0560202"></trkpt>
    <trkpt lat="34.857496" lon="128.0558215"></trkpt>
    <trkpt lat="34.8573748" lon="128.0555861"></trkpt>
    <trkpt lat="34.8572961" lon="128.0555093"></trkpt>
    <trkpt lat="34.8572081" lon="128.0554515"></trkpt>
    <trkpt lat="34.8570367" lon="128.0554418"></trkpt>
    <trkpt lat="34.8568478" lon="128.0554469"></trkpt>
    <trkpt lat="34.8565632" lon="128.0554923"></trkpt>
    <trkpt lat="34.8563398" lon="128.0555432"></trkpt>
    <trkpt lat="34.8560931" lon="128.0556181"></trkpt>
    <trkpt lat="34.8559029" lon="128.0556758"></trkpt>
    <trkpt lat="34.855704" lon="128.055718"></trkpt>
    <trkpt lat="34.8555508" lon="128.0557567"></trkpt>
    <trkpt lat="34.855445" lon="128.0557621"></trkpt>
    <trkpt lat="34.8552909" lon="128.0556861"></trkpt>
    <trkpt lat="34.8551937" lon="128.0555927"></trkpt>
    <trkpt lat="34.8550916" lon="128.0554733"></trkpt>
    <trkpt lat="34.854976" lon="128.0552522"></trkpt>
    <trkpt lat="34.8548674" lon="128.0550371"></trkpt>
    <trkpt lat="34.854792" lon="128.0549368"></trkpt>
    <trkpt lat="34.8547109" lon="128.0548565"></trkpt>
    <trkpt lat="34.8545898" lon="128.0547492"></trkpt>
    <trkpt lat="34.854454" lon="128.0545962"></trkpt>
    <trkpt lat="34.8543478" lon="128.0544063"></trkpt>
    <trkpt lat="34.854198" lon="128.0541629"></trkpt>
    <trkpt lat="34.8540675" lon="128.053964"></trkpt>
    <trkpt lat="34.8539189" lon="128.0537925"></trkpt>
    <trkpt lat="34.8538422" lon="128.0536918"></trkpt>
    <trkpt lat="34.8537696" lon="128.0535821"></trkpt>
    <trkpt lat="34.8536364" lon="128.0534157"></trkpt>
    <trkpt lat="34.8534716" lon="128.0532859"></trkpt>
    <trkpt lat="34.8533633" lon="128.053209"></trkpt>
    <trkpt lat="34.8532086" lon="128.0531543"></trkpt>
    <trkpt lat="34.8531202" lon="128.0531366"></trkpt>
    <trkpt lat="34.8529909" lon="128.0531344"></trkpt>
    <trkpt lat="34.852787" lon="128.0531725"></trkpt>
    <trkpt lat="34.8525984" lon="128.0532346"></trkpt>
    <trkpt lat="34.8524195" lon="128.0534292"></trkpt>
    <trkpt lat="34.8522627" lon="128.0536034"></trkpt>
    <trkpt lat="34.852094" lon="128.0537935"></trkpt>
    <trkpt lat="34.8519298" lon="128.0540194"></trkpt>
    <trkpt lat="34.8518082" lon="128.0542673"></trkpt>
    <trkpt lat="34.8517604" lon="128.054481"></trkpt>
    <trkpt lat="34.8517459" lon="128.0547699"></trkpt>
    <trkpt lat="34.8518096" lon="128.0550499"></trkpt>
    <trkpt lat="34.8519248" lon="128.0553296"></trkpt>
    <trkpt lat="34.8520979" lon="128.0556017"></trkpt>
    <trkpt lat="34.8522094" lon="128.0557961"></trkpt>
    <trkpt lat="34.8523181" lon="128.055997"></trkpt>
    <trkpt lat="34.8524522" lon="128.0562539"></trkpt>
    <trkpt lat="34.852556" lon="128.0564638"></trkpt>
    <trkpt lat="34.8526453" lon="128.0567301"></trkpt>
    <trkpt lat="34.8526934" lon="128.0569887"></trkpt>
    <trkpt lat="34.8527" lon="128.0571463"></trkpt>
    <trkpt lat="34.8526356" lon="128.0573418"></trkpt>
    <trkpt lat="34.8524968" lon="128.0574715"></trkpt>
    <trkpt lat="34.8523359" lon="128.0575739"></trkpt>
    <trkpt lat="34.8521408" lon="128.0577031"></trkpt>
    <trkpt lat="34.8519004" lon="128.0578622"></trkpt>
    <trkpt lat="34.8516132" lon="128.0580075"></trkpt>
    <trkpt lat="34.8514216" lon="128.0580295"></trkpt>
    <trkpt lat="34.8512075" lon="128.0580154"></trkpt>
    <trkpt lat="34.8510344" lon="128.0579824"></trkpt>
    <trkpt lat="34.850912" lon="128.0578946"></trkpt>
    <trkpt lat="34.850829" lon="128.0577647"></trkpt>
    <trkpt lat="34.8507534" lon="128.0576153"></trkpt>
    <trkpt lat="34.8506434" lon="128.0573491"></trkpt>
    <trkpt lat="34.8505316" lon="128.0571756"></trkpt>
    <trkpt lat="34.8504494" lon="128.057059"></trkpt>
    <trkpt lat="34.8503462" lon="128.0569026"></trkpt>
    <trkpt lat="34.8502447" lon="128.056783"></trkpt>
    <trkpt lat="34.8501518" lon="128.0566842"></trkpt>
    <trkpt lat="34.85001" lon="128.0566509"></trkpt>
    <trkpt lat="34.8498582" lon="128.0566845"></trkpt>
    <trkpt lat="34.8497516" lon="128.0567695"></trkpt>
    <trkpt lat="34.8496982" lon="128.0568662"></trkpt>
    <trkpt lat="34.8496717" lon="128.0569648"></trkpt>
    <trkpt lat="34.8496741" lon="128.0572481"></trkpt>
    <trkpt lat="34.8497269" lon="128.0575791"></trkpt>
    <trkpt lat="34.8497632" lon="128.0578527"></trkpt>
    <trkpt lat="34.8497768" lon="128.0580527"></trkpt>
    <trkpt lat="34.8497868" lon="128.0582769"></trkpt>
    <trkpt lat="34.8498243" lon="128.0585344"></trkpt>
    <trkpt lat="34.8499132" lon="128.0587768"></trkpt>
    <trkpt lat="34.8499385" lon="128.0590656"></trkpt>
    <trkpt lat="34.8499094" lon="128.0593037"></trkpt>
    <trkpt lat="34.8498115" lon="128.0594353"></trkpt>
    <trkpt lat="34.8496956" lon="128.0596069"></trkpt>
    <trkpt lat="34.8496062" lon="128.0597496"></trkpt>
    <trkpt lat="34.849536" lon="128.0599133"></trkpt>
    <trkpt lat="34.8494687" lon="128.0600421"></trkpt>
    <trkpt lat="34.8493811" lon="128.0601823"></trkpt>
    <trkpt lat="34.8492949" lon="128.0602387"></trkpt>
    <trkpt lat="34.8491957" lon="128.0602572"></trkpt>
    <trkpt lat="34.8490766" lon="128.0602279"></trkpt>
    <trkpt lat="34.8489016" lon="128.0601528"></trkpt>
    <trkpt lat="34.8486945" lon="128.0600832"></trkpt>
    <trkpt lat="34.8484633" lon="128.0600041"></trkpt>
    <trkpt lat="34.848221" lon="128.0599187"></trkpt>
    <trkpt lat="34.8481042" lon="128.0598903"></trkpt>
    <trkpt lat="34.8479869" lon="128.0598924"></trkpt>
    <trkpt lat="34.847838" lon="128.0598661"></trkpt>
    <trkpt lat="34.8476355" lon="128.059832"></trkpt>
    <trkpt lat="34.8474292" lon="128.0597976"></trkpt>
    <trkpt lat="34.8472689" lon="128.0597767"></trkpt>
    <trkpt lat="34.8471212" lon="128.0597677"></trkpt>
    <trkpt lat="34.8469463" lon="128.0597998"></trkpt>
    <trkpt lat="34.8466379" lon="128.0598734"></trkpt>
    <trkpt lat="34.8463586" lon="128.0599411"></trkpt>
    <trkpt lat="34.846061" lon="128.0600257"></trkpt>
    <trkpt lat="34.8457258" lon="128.0601023"></trkpt>
    <trkpt lat="34.8455937" lon="128.0601293"></trkpt>
    <trkpt lat="34.8454703" lon="128.0601852"></trkpt>
    <trkpt lat="34.8452801" lon="128.0602918"></trkpt>
    <trkpt lat="34.8450364" lon="128.0604577"></trkpt>
    <trkpt lat="34.8448572" lon="128.0605839"></trkpt>
    <trkpt lat="34.8446752" lon="128.0607511"></trkpt>
    <trkpt lat="34.8444846" lon="128.0609768"></trkpt>
    <trkpt lat="34.844366446" lon="128.061063649"></trkpt>
    <trkpt lat="34.844213167" lon="128.060843389"></trkpt>
    <trkpt lat="34.844176938" lon="128.060796247"></trkpt>
    <trkpt lat="34.844113444" lon="128.060855249"></trkpt>
    <trkpt lat="34.844092967" lon="128.060891552"></trkpt>
    <trkpt lat="34.843972965" lon="128.060788657"></trkpt>
    <trkpt lat="34.843795289" lon="128.060606657"></trkpt>
    <trkpt lat="34.843660705" lon="128.060506891"></trkpt>
    <trkpt lat="34.843572842" lon="128.060465557"></trkpt>
    <trkpt lat="34.843420581" lon="128.060449334"></trkpt>
    <trkpt lat="34.843305521" lon="128.060447206"></trkpt>
    <trkpt lat="34.843146349" lon="128.060358493"></trkpt>
    <trkpt lat="34.84307261" lon="128.060255405"></trkpt>
    <trkpt lat="34.843045504" lon="128.060157844"></trkpt>
    <trkpt lat="34.843117773" lon="128.060002719"></trkpt>
    <trkpt lat="34.843204123" lon="128.059903708"></trkpt>
    <trkpt lat="34.843292783" lon="128.059857328"></trkpt>
    <trkpt lat="34.843372432" lon="128.059790982"></trkpt>
    <trkpt lat="34.843517187" lon="128.059714334"></trkpt>
    <trkpt lat="34.843628199" lon="128.059596618"></trkpt>
    <trkpt lat="34.843727269" lon="128.059455244"></trkpt>
    <trkpt lat="34.843805365" lon="128.05932204"></trkpt>
    <trkpt lat="34.843873545" lon="128.059242767"></trkpt>
    <trkpt lat="34.843891303" lon="128.059191189"></trkpt>
    <trkpt lat="34.843819369" lon="128.059201793"></trkpt>
    <trkpt lat="34.843699838" lon="128.059241839"></trkpt>
    <trkpt lat="34.843494871" lon="128.059166157"></trkpt>
    <trkpt lat="34.843349956" lon="128.059059344"></trkpt>
    <trkpt lat="34.843144059" lon="128.058937779"></trkpt>
    <trkpt lat="34.843006489" lon="128.058831196"></trkpt>
    <trkpt lat="34.842833915" lon="128.058643475"></trkpt>
    <trkpt lat="34.842707796" lon="128.058433269"></trkpt>
    <trkpt lat="34.8426213" lon="128.058393591"></trkpt>
    <trkpt lat="34.842523879" lon="128.058385217"></trkpt>
    <trkpt lat="34.842384916" lon="128.058397758"></trkpt>
    <trkpt lat="34.84224251" lon="128.058376529"></trkpt>
    <trkpt lat="34.842036371" lon="128.058264468"></trkpt>
    <trkpt lat="34.841883616" lon="128.05818927"></trkpt>
    <trkpt lat="34.841710176" lon="128.058063766"></trkpt>
    <trkpt lat="34.841604035" lon="128.057938689"></trkpt>
    <trkpt lat="34.841508977" lon="128.057824365"></trkpt>
    <trkpt lat="34.841463639" lon="128.057784343"></trkpt>
    <trkpt lat="34.84138031" lon="128.057782204"></trkpt>
    <trkpt lat="34.841284646" lon="128.057731679"></trkpt>
    <trkpt lat="34.841226922" lon="128.057624705"></trkpt>
    <trkpt lat="34.841116231" lon="128.057427435"></trkpt>
    <trkpt lat="34.841053109" lon="128.057364609"></trkpt>
    <trkpt lat="34.8410342" lon="128.0573559"></trkpt>
    <trkpt lat="34.8409599" lon="128.0572997"></trkpt>
    <trkpt lat="34.8408743" lon="128.0572559"></trkpt>
    <trkpt lat="34.840729" lon="128.057237"></trkpt>
    <trkpt lat="34.8405969" lon="128.0573289"></trkpt>
    <trkpt lat="34.8404183" lon="128.0575612"></trkpt>
    <trkpt lat="34.84033" lon="128.0576045"></trkpt>
    <trkpt lat="34.8402313" lon="128.0576063"></trkpt>
    <trkpt lat="34.8401459" lon="128.057583"></trkpt>
    <trkpt lat="34.8400891" lon="128.057546"></trkpt>
    <trkpt lat="34.8400492" lon="128.0574541"></trkpt>
    <trkpt lat="34.840021404" lon="128.057312951"></trkpt>
    <trkpt lat="34.840137799" lon="128.057136738"></trkpt>
    <trkpt lat="34.840246056" lon="128.056955169"></trkpt>
    <trkpt lat="34.840401182" lon="128.05679373"></trkpt>
    <trkpt lat="34.8406064" lon="128.0565709"></trkpt>
    <trkpt lat="34.8407784" lon="128.0564271"></trkpt>
    <trkpt lat="34.8409752" lon="128.0562815"></trkpt>
    <trkpt lat="34.8411335" lon="128.0561633"></trkpt>
    <trkpt lat="34.841299" lon="128.0560296"></trkpt>
    <trkpt lat="34.841368237" lon="128.05588747"></trkpt>
    <trkpt lat="34.841374" lon="128.055538"></trkpt>
    <trkpt lat="34.8414382" lon="128.0552337"></trkpt>
    <trkpt lat="34.8415198" lon="128.0550411"></trkpt>
    <trkpt lat="34.841685786" lon="128.054846913"></trkpt>
    <trkpt lat="34.841835287" lon="128.05457313"></trkpt>
    <trkpt lat="34.841894093" lon="128.054368147"></trkpt>
    <trkpt lat="34.841887394" lon="128.054205359"></trkpt>
    <trkpt lat="34.841802" lon="128.0540508"></trkpt>
    <trkpt lat="34.8417671" lon="128.0539492"></trkpt>
    <trkpt lat="34.8417558" lon="128.0538298"></trkpt>
    <trkpt lat="34.8417822" lon="128.0537117"></trkpt>
    <trkpt lat="34.8418144" lon="128.0535832"></trkpt>
    <trkpt lat="34.8418362" lon="128.0533808"></trkpt>
    <trkpt lat="34.8418151" lon="128.0531126"></trkpt>
    <trkpt lat="34.841816" lon="128.0529117"></trkpt>
    <trkpt lat="34.8417781" lon="128.0527311"></trkpt>
    <trkpt lat="34.8417317" lon="128.0525992"></trkpt>
    <trkpt lat="34.841697" lon="128.0525094"></trkpt>
    <trkpt lat="34.8416965" lon="128.0523713"></trkpt>
    <trkpt lat="34.8417525" lon="128.0522864"></trkpt>
    <trkpt lat="34.8418708" lon="128.0521976"></trkpt>
    <trkpt lat="34.8419707" lon="128.052118"></trkpt>
    <trkpt lat="34.842033561" lon="128.052026445"></trkpt>
    <trkpt lat="34.842068967" lon="128.051872402"></trkpt>
    <trkpt lat="34.842115413" lon="128.051718418"></trkpt>
    <trkpt lat="34.8421854" lon="128.0516319"></trkpt>
    <trkpt lat="34.8422697" lon="128.0514532"></trkpt>
    <trkpt lat="34.8423784" lon="128.051234"></trkpt>
    <trkpt lat="34.8424176" lon="128.0510121"></trkpt>
    <trkpt lat="34.8424268" lon="128.0508002"></trkpt>
    <trkpt lat="34.8423872" lon="128.0506133"></trkpt>
    <trkpt lat="34.84233" lon="128.0504285"></trkpt>
    <trkpt lat="34.8422545" lon="128.0501967"></trkpt>
    <trkpt lat="34.8422283" lon="128.0500464"></trkpt>
    <trkpt lat="34.8422159" lon="128.0499126"></trkpt>
    <trkpt lat="34.8422048" lon="128.0498581"></trkpt>
    <trkpt lat="34.8422083" lon="128.049809"></trkpt>
    <trkpt lat="34.842249209" lon="128.049701699"></trkpt>
    <trkpt lat="34.842379432" lon="128.049561945"></trkpt>
    <trkpt lat="34.842549598" lon="128.049465131"></trkpt>
    <trkpt lat="34.842705266" lon="128.049320454"></trkpt>
    <trkpt lat="34.842773993" lon="128.049245919"></trkpt>
    <trkpt lat="34.842855821" lon="128.049024114"></trkpt>
    <trkpt lat="34.8429183" lon="128.0488527"></trkpt>
    <trkpt lat="34.842977244" lon="128.048493141"></trkpt>
    <trkpt lat="34.843069532" lon="128.04819886"></trkpt>
    <trkpt lat="34.843064733" lon="128.047770566"></trkpt>
    <trkpt lat="34.843022293" lon="128.047464018"></trkpt>
    <trkpt lat="34.84307536" lon="128.047205469"></trkpt>
    <trkpt lat="34.843193949" lon="128.046982103"></trkpt>
    <trkpt lat="34.843452127" lon="128.046597846"></trkpt>
    <trkpt lat="34.843561338" lon="128.046425029"></trkpt>
    <trkpt lat="34.843618662" lon="128.046214511"></trkpt>
    <trkpt lat="34.843796982" lon="128.04598832"></trkpt>
    <trkpt lat="34.843869229" lon="128.045874787"></trkpt>
    <trkpt lat="34.843925652" lon="128.045699224"></trkpt>
    <trkpt lat="34.844052506" lon="128.045438069"></trkpt>
    <trkpt lat="34.84414882" lon="128.045124455"></trkpt>
    <trkpt lat="34.8442946" lon="128.0448596"></trkpt>
    <trkpt lat="34.8444635" lon="128.0445749"></trkpt>
    <trkpt lat="34.8448025" lon="128.0442596"></trkpt>
    <trkpt lat="34.845093823" lon="128.04393066"></trkpt>
    <trkpt lat="34.8454039" lon="128.0436638"></trkpt>
    <trkpt lat="34.8455458" lon="128.04346"></trkpt>
    <trkpt lat="34.8456513" lon="128.0432639"></trkpt>
    <trkpt lat="34.8457386" lon="128.0430815"></trkpt>
    <trkpt lat="34.8458513" lon="128.0428757"></trkpt>
    <trkpt lat="34.8461818" lon="128.0428193"></trkpt>
    <trkpt lat="34.8464078" lon="128.0429007"></trkpt>
    <trkpt lat="34.846575523" lon="128.042853527"></trkpt>
    <trkpt lat="34.846782273" lon="128.042663365"></trkpt>
    <trkpt lat="34.84686127" lon="128.042528369"></trkpt>
    <trkpt lat="34.8469175" lon="128.042365577"></trkpt>
    <trkpt lat="34.8469689" lon="128.0420878"></trkpt>
    <trkpt lat="34.8470054" lon="128.0419621"></trkpt>
    <trkpt lat="34.847218651" lon="128.04182576"></trkpt>
    <trkpt lat="34.847426817" lon="128.041811395"></trkpt>
    <trkpt lat="34.847581182" lon="128.041745228"></trkpt>
    <trkpt lat="34.847675128" lon="128.041700282"></trkpt>
    <trkpt lat="34.8477862" lon="128.0416206"></trkpt>
    <trkpt lat="34.847863618" lon="128.041418477"></trkpt>
    <trkpt lat="34.847855019" lon="128.041347155"></trkpt>
    <trkpt lat="34.847776894" lon="128.041153094"></trkpt>
    <trkpt lat="34.84764747" lon="128.040930582"></trkpt>
    <trkpt lat="34.847588212" lon="128.040766298"></trkpt>
    <trkpt lat="34.847635893" lon="128.040482339"></trkpt>
    <trkpt lat="34.8477799" lon="128.0400704"></trkpt>
    <trkpt lat="34.8478963" lon="128.0396946"></trkpt>
    <trkpt lat="34.8479608" lon="128.039146"></trkpt>
    <trkpt lat="34.848057" lon="128.0387224"></trkpt>
    <trkpt lat="34.8481663" lon="128.0383698"></trkpt>
    <trkpt lat="34.8482487" lon="128.0379595"></trkpt>
    <trkpt lat="34.8483286" lon="128.0375649"></trkpt>
    <trkpt lat="34.8482509" lon="128.0372334"></trkpt>
    <trkpt lat="34.8482042" lon="128.0368772"></trkpt>
    <trkpt lat="34.8482028" lon="128.0363977"></trkpt>
    <trkpt lat="34.8482001" lon="128.0360552"></trkpt>
    <trkpt lat="34.8482182" lon="128.0357357"></trkpt>
    <trkpt lat="34.848268457" lon="128.035392261"></trkpt>
    <trkpt lat="34.848361458" lon="128.035106094"></trkpt>
    <trkpt lat="34.8484433" lon="128.0349329"></trkpt>
    <trkpt lat="34.848517826" lon="128.034684323"></trkpt>
    <trkpt lat="34.848487781" lon="128.03462442"></trkpt>
    <trkpt lat="34.8484065" lon="128.034657"></trkpt>
    <trkpt lat="34.8481977" lon="128.0348325"></trkpt>
    <trkpt lat="34.8480529" lon="128.0350465"></trkpt>
    <trkpt lat="34.8478853" lon="128.0353129"></trkpt>
    <trkpt lat="34.8477567" lon="128.0355762"></trkpt>
    <trkpt lat="34.847639962" lon="128.035821069"></trkpt>
    <trkpt lat="34.84751092" lon="128.035990529"></trkpt>
    <trkpt lat="34.84734478" lon="128.036093123"></trkpt>
    <trkpt lat="34.847165643" lon="128.036213048"></trkpt>
    <trkpt lat="34.8468877" lon="128.0362525"></trkpt>
    <trkpt lat="34.8466577" lon="128.0362781"></trkpt>
    <trkpt lat="34.846436261" lon="128.036213834"></trkpt>
    <trkpt lat="34.84622153" lon="128.036071275"></trkpt>
    <trkpt lat="34.8460177" lon="128.0358997"></trkpt>
    <trkpt lat="34.8458582" lon="128.0357488"></trkpt>
    <trkpt lat="34.8457362" lon="128.035588"></trkpt>
    <trkpt lat="34.8456887" lon="128.0354654"></trkpt>
    <trkpt lat="34.8456647" lon="128.0351899"></trkpt>
    <trkpt lat="34.8456008" lon="128.0350163"></trkpt>
    <trkpt lat="34.8454994" lon="128.0349188"></trkpt>
    <trkpt lat="34.8453905" lon="128.0347595"></trkpt>
    <trkpt lat="34.845292" lon="128.0346204"></trkpt>
    <trkpt lat="34.8451901" lon="128.0343266"></trkpt>
    <trkpt lat="34.8452081" lon="128.034179"></trkpt>
    <trkpt lat="34.8453262" lon="128.0340019"></trkpt>
    <trkpt lat="34.8453643" lon="128.0338374"></trkpt>
    <trkpt lat="34.8453912" lon="128.0336124"></trkpt>
    <trkpt lat="34.8454441" lon="128.0333429"></trkpt>
    <trkpt lat="34.8455169" lon="128.0330713"></trkpt>
    <trkpt lat="34.8456483" lon="128.0328303"></trkpt>
    <trkpt lat="34.8457707" lon="128.0326138"></trkpt>
    <trkpt lat="34.8458775" lon="128.0323324"></trkpt>
    <trkpt lat="34.8459219" lon="128.0321308"></trkpt>
    <trkpt lat="34.8460165" lon="128.0318314"></trkpt>
    <trkpt lat="34.8461201" lon="128.0316237"></trkpt>
    <trkpt lat="34.8461321" lon="128.0314256"></trkpt>
    <trkpt lat="34.8461483" lon="128.0312639"></trkpt>
    <trkpt lat="34.8461487" lon="128.0311099"></trkpt>
    <trkpt lat="34.8460835" lon="128.0309767"></trkpt>
    <trkpt lat="34.8459802" lon="128.0306892"></trkpt>
    <trkpt lat="34.8459236" lon="128.0304896"></trkpt>
    <trkpt lat="34.8458278" lon="128.0303301"></trkpt>
    <trkpt lat="34.8457704" lon="128.0301148"></trkpt>
    <trkpt lat="34.8457313" lon="128.0299208"></trkpt>
    <trkpt lat="34.8456991" lon="128.0297429"></trkpt>
    <trkpt lat="34.8455948" lon="128.0295538"></trkpt>
    <trkpt lat="34.8454634" lon="128.0294176"></trkpt>
    <trkpt lat="34.8452755" lon="128.0292357"></trkpt>
    <trkpt lat="34.8452085" lon="128.0291456"></trkpt>
    <trkpt lat="34.8450776" lon="128.028974"></trkpt>
    <trkpt lat="34.8452257" lon="128.028709"></trkpt>
    <trkpt lat="34.8453587" lon="128.02847"></trkpt>
    <trkpt lat="34.8454952" lon="128.0281992"></trkpt>
    <trkpt lat="34.8456492" lon="128.0279018"></trkpt>
    <trkpt lat="34.8457994" lon="128.0276231"></trkpt>
    <trkpt lat="34.8459345" lon="128.027354"></trkpt>
    <trkpt lat="34.8459965" lon="128.0272149"></trkpt>
    <trkpt lat="34.8460901" lon="128.0270562"></trkpt>
    <trkpt lat="34.8461846" lon="128.0268654"></trkpt>
    <trkpt lat="34.846298" lon="128.0265878"></trkpt>
    <trkpt lat="34.846369" lon="128.0263937"></trkpt>
    <trkpt lat="34.8465962" lon="128.0262272"></trkpt>
    <trkpt lat="34.8467383" lon="128.0260401"></trkpt>
    <trkpt lat="34.8468579" lon="128.0258214"></trkpt>
    <trkpt lat="34.8469553" lon="128.0255878"></trkpt>
    <trkpt lat="34.847032" lon="128.025418"></trkpt>
    <trkpt lat="34.8471252" lon="128.0251103"></trkpt>
    <trkpt lat="34.8472037" lon="128.0248246"></trkpt>
    <trkpt lat="34.8472813" lon="128.0245531"></trkpt>
    <trkpt lat="34.8473397" lon="128.0243146"></trkpt>
    <trkpt lat="34.8473735" lon="128.0241432"></trkpt>
    <trkpt lat="34.8473356" lon="128.0240292"></trkpt>
    <trkpt lat="34.8472059" lon="128.0238857"></trkpt>
    <trkpt lat="34.846936" lon="128.023682"></trkpt>
    <trkpt lat="34.8466974" lon="128.0235096"></trkpt>
    <trkpt lat="34.8464347" lon="128.0233093"></trkpt>
    <trkpt lat="34.8460485" lon="128.023032"></trkpt>
    <trkpt lat="34.8457581" lon="128.0228319"></trkpt>
    <trkpt lat="34.8454572" lon="128.0225904"></trkpt>
    <trkpt lat="34.845245" lon="128.0224401"></trkpt>
    <trkpt lat="34.8450475" lon="128.0222985"></trkpt>
    <trkpt lat="34.8448028" lon="128.0221224"></trkpt>
    <trkpt lat="34.844684242" lon="128.022069247"></trkpt>
    <trkpt lat="34.844589015" lon="128.022102112"></trkpt>
    <trkpt lat="34.844502768" lon="128.02211527"></trkpt>
    <trkpt lat="34.844430894" lon="128.022113099"></trkpt>
    <trkpt lat="34.844346436" lon="128.022080279"></trkpt>
    <trkpt lat="34.844188285" lon="128.021911736"></trkpt>
    <trkpt lat="34.844055031" lon="128.021837332"></trkpt>
    <trkpt lat="34.843959782" lon="128.021745402"></trkpt>
    <trkpt lat="34.843833995" lon="128.021699458"></trkpt>
    <trkpt lat="34.843751333" lon="128.021664448"></trkpt>
    <trkpt lat="34.843661494" lon="128.021681986"></trkpt>
    <trkpt lat="34.843314942" lon="128.02166894"></trkpt>
    <trkpt lat="34.843156817" lon="128.021660223"></trkpt>
    <trkpt lat="34.842995108" lon="128.021697484"></trkpt>
    <trkpt lat="34.842899884" lon="128.021752242"></trkpt>
    <trkpt lat="34.842817237" lon="128.021796051"></trkpt>
    <trkpt lat="34.842570651" lon="128.021894635"></trkpt>
    <trkpt lat="34.8424305" lon="128.021920942"></trkpt>
    <trkpt lat="34.842127602" lon="128.021940723"></trkpt>
    <trkpt lat="34.842010815" lon="128.021986729"></trkpt>
    <trkpt lat="34.841906602" lon="128.022010838"></trkpt>
    <trkpt lat="34.841852699" lon="128.022026177"></trkpt>
    <trkpt lat="34.841715938" lon="128.02209408"></trkpt>
    <trkpt lat="34.84159196" lon="128.022122573"></trkpt>
    <trkpt lat="34.84144283" lon="128.022175154"></trkpt>
    <trkpt lat="34.841335024" lon="128.022201453"></trkpt>
    <trkpt lat="34.841257765" lon="128.02223869"></trkpt>
    <trkpt lat="34.841173321" lon="128.022282498"></trkpt>
    <trkpt lat="34.841090675" lon="128.02234163"></trkpt>
    <trkpt lat="34.841038581" lon="128.022420458"></trkpt>
    <trkpt lat="34.840964929" lon="128.02253432"></trkpt>
    <trkpt lat="34.840905638" lon="128.022567174"></trkpt>
    <trkpt lat="34.840830179" lon="128.022615358"></trkpt>
    <trkpt lat="34.840716378" lon="128.022637279"></trkpt>
    <trkpt lat="34.840603177" lon="128.022637307"></trkpt>
    <trkpt lat="34.840531305" lon="128.022652649"></trkpt>
    <trkpt lat="34.840452239" lon="128.022624208"></trkpt>
    <trkpt lat="34.840344414" lon="128.022541041"></trkpt>
    <trkpt lat="34.840240185" lon="128.02247101"></trkpt>
    <trkpt lat="34.840225805" lon="128.022442553"></trkpt>
    <trkpt lat="34.840267111" lon="128.022313375"></trkpt>
    <trkpt lat="34.840331788" lon="128.022258626"></trkpt>
    <trkpt lat="34.840373106" lon="128.022197316"></trkpt>
    <trkpt lat="34.840718071" lon="128.022022085"></trkpt>
    <trkpt lat="34.8409456" lon="128.0218813"></trkpt>
    <trkpt lat="34.841472083" lon="128.021562826"></trkpt>
    <trkpt lat="34.841920373" lon="128.021348155"></trkpt>
    <trkpt lat="34.842218635" lon="128.021295535"></trkpt>
    <trkpt lat="34.842618652" lon="128.021252099"></trkpt>
    <trkpt lat="34.843042959" lon="128.021249341"></trkpt>
    <trkpt lat="34.843335845" lon="128.021249264"></trkpt>
    <trkpt lat="34.8433484" lon="128.0209133"></trkpt>
    <trkpt lat="34.843346" lon="128.0205919"></trkpt>
    <trkpt lat="34.8433536" lon="128.0202894"></trkpt>
    <trkpt lat="34.8433588" lon="128.0200138"></trkpt>
    <trkpt lat="34.8433623" lon="128.0197318"></trkpt>
    <trkpt lat="34.8433691" lon="128.0195197"></trkpt>
    <trkpt lat="34.8433572" lon="128.0192717"></trkpt>
    <trkpt lat="34.8433598" lon="128.0191889"></trkpt>
    <trkpt lat="34.8434629" lon="128.0191469"></trkpt>
    <trkpt lat="34.8435214" lon="128.0190925"></trkpt>
    <trkpt lat="34.8435591" lon="128.0190129"></trkpt>
    <trkpt lat="34.8435737" lon="128.0188777"></trkpt>
    <trkpt lat="34.8435453" lon="128.0186636"></trkpt>
    <trkpt lat="34.8435022" lon="128.0185344"></trkpt>
    <trkpt lat="34.8434661" lon="128.0184224"></trkpt>
    <trkpt lat="34.8434064" lon="128.0183812"></trkpt>
    <trkpt lat="34.8433427" lon="128.018358"></trkpt>
    <trkpt lat="34.8432406" lon="128.0181948"></trkpt>
    <trkpt lat="34.8431606" lon="128.0179921"></trkpt>
    <trkpt lat="34.843135" lon="128.0178001"></trkpt>
    <trkpt lat="34.8431549" lon="128.0176685"></trkpt>
    <trkpt lat="34.8431963" lon="128.0175636"></trkpt>
    <trkpt lat="34.8432364" lon="128.0174253"></trkpt>
    <trkpt lat="34.8432419" lon="128.0172184"></trkpt>
    <trkpt lat="34.8432777" lon="128.0170299"></trkpt>
    <trkpt lat="34.8433165" lon="128.0168829"></trkpt>
    <trkpt lat="34.843392" lon="128.0167193"></trkpt>
    <trkpt lat="34.843525" lon="128.0165431"></trkpt>
    <trkpt lat="34.8435984" lon="128.01641"></trkpt>
    <trkpt lat="34.8436172" lon="128.0162663"></trkpt>
    <trkpt lat="34.8436258" lon="128.0160988"></trkpt>
    <trkpt lat="34.8436759" lon="128.0160113"></trkpt>
    <trkpt lat="34.8437541" lon="128.0159444"></trkpt>
    <trkpt lat="34.8437987" lon="128.0157569"></trkpt>
    <trkpt lat="34.8438315" lon="128.0155348"></trkpt>
    <trkpt lat="34.8438783" lon="128.0153"></trkpt>
    <trkpt lat="34.8439424" lon="128.0150845"></trkpt>
    <trkpt lat="34.8439731" lon="128.0147975"></trkpt>
    <trkpt lat="34.8439691" lon="128.0145644"></trkpt>
    <trkpt lat="34.843996" lon="128.0144465"></trkpt>
    <trkpt lat="34.844037" lon="128.0143604"></trkpt>
    <trkpt lat="34.8440612" lon="128.0142175"></trkpt>
    <trkpt lat="34.8440627" lon="128.0141144"></trkpt>
    <trkpt lat="34.8440271" lon="128.0140176"></trkpt>
    <trkpt lat="34.8439789" lon="128.0139779"></trkpt>
    <trkpt lat="34.8439066" lon="128.0139648"></trkpt>
    <trkpt lat="34.8437878" lon="128.0139649"></trkpt>
    <trkpt lat="34.8437245" lon="128.0139327"></trkpt>
    <trkpt lat="34.8435936" lon="128.0137938"></trkpt>
    <trkpt lat="34.8435094" lon="128.0137035"></trkpt>
    <trkpt lat="34.8434235" lon="128.0136436"></trkpt>
    <trkpt lat="34.8432446" lon="128.0135399"></trkpt>
    <trkpt lat="34.8430738" lon="128.0134289"></trkpt>
    <trkpt lat="34.8428587" lon="128.0132838"></trkpt>
    <trkpt lat="34.8427074" lon="128.0131778"></trkpt>
    <trkpt lat="34.8425192" lon="128.0130454"></trkpt>
    <trkpt lat="34.8423384" lon="128.0129122"></trkpt>
    <trkpt lat="34.8421725" lon="128.0127583"></trkpt>
    <trkpt lat="34.8420883" lon="128.0126656"></trkpt>
    <trkpt lat="34.8419887" lon="128.0125428"></trkpt>
    <trkpt lat="34.8418012" lon="128.0122722"></trkpt>
    <trkpt lat="34.8416664" lon="128.0120303"></trkpt>
    <trkpt lat="34.8415162" lon="128.011804"></trkpt>
    <trkpt lat="34.8413871" lon="128.0116234"></trkpt>
    <trkpt lat="34.8412264" lon="128.0113824"></trkpt>
    <trkpt lat="34.8411067" lon="128.0111931"></trkpt>
    <trkpt lat="34.8409879" lon="128.011005"></trkpt>
    <trkpt lat="34.8408612" lon="128.0107971"></trkpt>
    <trkpt lat="34.840772" lon="128.0106536"></trkpt>
    <trkpt lat="34.8406665" lon="128.0104975"></trkpt>
    <trkpt lat="34.8405833" lon="128.0103696"></trkpt>
    <trkpt lat="34.8405348" lon="128.0102908"></trkpt>
    <trkpt lat="34.8404791" lon="128.0101888"></trkpt>
    <trkpt lat="34.8404111" lon="128.0100687"></trkpt>
    <trkpt lat="34.8403439" lon="128.0099481"></trkpt>
    <trkpt lat="34.8402876" lon="128.0098298"></trkpt>
    <trkpt lat="34.8402099" lon="128.0096516"></trkpt>
    <trkpt lat="34.8401709" lon="128.009536"></trkpt>
    <trkpt lat="34.8401298" lon="128.0093837"></trkpt>
    <trkpt lat="34.8401081" lon="128.0092177"></trkpt>
    <trkpt lat="34.8400353" lon="128.0088398"></trkpt>
    <trkpt lat="34.8399935" lon="128.0085006"></trkpt>
    <trkpt lat="34.839944" lon="128.0081985"></trkpt>
    <trkpt lat="34.8398893" lon="128.008036"></trkpt>
    <trkpt lat="34.8398137" lon="128.007811"></trkpt>
    <trkpt lat="34.8397264" lon="128.0076439"></trkpt>
    <trkpt lat="34.8395269" lon="128.0074324"></trkpt>
    <trkpt lat="34.8393488" lon="128.0072684"></trkpt>
    <trkpt lat="34.8391665" lon="128.0071563"></trkpt>
    <trkpt lat="34.8389031" lon="128.0069524"></trkpt>
    <trkpt lat="34.8386866" lon="128.0068121"></trkpt>
    <trkpt lat="34.8385067" lon="128.0066709"></trkpt>
    <trkpt lat="34.8383119" lon="128.0064973"></trkpt>
    <trkpt lat="34.8381165" lon="128.0063495"></trkpt>
    <trkpt lat="34.8379695" lon="128.0061758"></trkpt>
    <trkpt lat="34.8378071" lon="128.0059556"></trkpt>
    <trkpt lat="34.8376793" lon="128.0057631"></trkpt>
    <trkpt lat="34.837554" lon="128.0054373"></trkpt>
    <trkpt lat="34.8374457" lon="128.0051662"></trkpt>
    <trkpt lat="34.8373559" lon="128.004928"></trkpt>
    <trkpt lat="34.8373113" lon="128.0047825"></trkpt>
    <trkpt lat="34.8371822" lon="128.00467"></trkpt>
    <trkpt lat="34.8370617" lon="128.0046033"></trkpt>
    <trkpt lat="34.8368592" lon="128.004394"></trkpt>
    <trkpt lat="34.8367151" lon="128.0041747"></trkpt>
    <trkpt lat="34.8365276" lon="128.0038344"></trkpt>
    <trkpt lat="34.8364337" lon="128.0035819"></trkpt>
    <trkpt lat="34.8363542" lon="128.0032414"></trkpt>
    <trkpt lat="34.8362986" lon="128.0027504"></trkpt>
    <trkpt lat="34.8362673" lon="128.0024122"></trkpt>
    <trkpt lat="34.8363323" lon="128.0020759"></trkpt>
    <trkpt lat="34.8363895" lon="128.0016832"></trkpt>
    <trkpt lat="34.8364419" lon="128.0014362"></trkpt>
    <trkpt lat="34.8364782" lon="128.0011856"></trkpt>
    <trkpt lat="34.8365438" lon="128.0008581"></trkpt>
    <trkpt lat="34.8365763" lon="128.0006587"></trkpt>
    <trkpt lat="34.8365308" lon="128.0005856"></trkpt>
    <trkpt lat="34.836382" lon="128.0004867"></trkpt>
    <trkpt lat="34.8360411" lon="128.0004249"></trkpt>
    <trkpt lat="34.8356743" lon="128.00038"></trkpt>
    <trkpt lat="34.8353044" lon="128.0003429"></trkpt>
    <trkpt lat="34.835046" lon="128.0003104"></trkpt>
    <trkpt lat="34.8345716" lon="128.0002639"></trkpt>
    <trkpt lat="34.8339527" lon="128.0002041"></trkpt>
    <trkpt lat="34.8332344" lon="128.0001326"></trkpt>
    <trkpt lat="34.8325443" lon="128.0000645"></trkpt>
    <trkpt lat="34.8324242" lon="128.0000527"></trkpt>
    <trkpt lat="34.8323963" lon="128.0000528"></trkpt>
    <trkpt lat="34.8320211" lon="128.0000417"></trkpt>
    <trkpt lat="34.8316841" lon="128.0000258"></trkpt>
  </trkseg>
</trk>
</gpx>
